{"type":"FeatureCollection","features":[{"type":"Feature","properties":{"cell":1,"feature":35,"phase":"Unclassified","min_bt_K":223.8,"area_km2":16600,"cold_core_km2":0,"speed_kmh":null,"heading_deg":null,"d_min_bt_30":null,"age_min":0,"family":1,"touches_missing":true,"lon":73.5352,"lat":31.9771,"merges_splits_so_far":0},"geometry":{"type":"MultiPolygon","coordinates":[[[[74.0643,32.4585],[73.8942,32.4534],[73.8746,32.4167],[73.3443,32.3812],[73.3239,32.3624],[73.1753,32.3571],[73.155,32.3383],[73.0034,32.3869],[72.9185,32.3836],[72.878,32.346],[72.7931,32.3427],[72.7335,32.2682],[72.6284,32.2459],[72.6093,32.2091],[72.5468,32.1885],[72.4408,32.1841],[72.4017,32.1283],[72.3503,32.0991],[72.3626,32.0725],[72.416,32.0658],[72.4182,32.0298],[72.3769,32.01],[72.4325,31.9672],[72.5071,31.9613],[72.488,31.9244],[72.4468,31.9046],[72.449,31.8686],[72.3677,31.8111],[72.3498,31.7562],[72.4675,31.734],[72.5007,31.7084],[72.4596,31.6886],[72.4406,31.6517],[72.4427,31.6157],[72.497,31.5909],[72.6023,31.5952],[72.6223,31.6141],[72.6655,31.5978],[72.7708,31.602],[72.811,31.6396],[72.833,31.6224],[72.9805,31.6281],[73.0035,31.5929],[73.0456,31.5945],[73.0658,31.6132],[73.2966,31.6397],[73.3168,31.6584],[73.3388,31.6411],[73.3801,31.6606],[73.5065,31.665],[73.5259,31.7017],[73.7157,31.708],[73.736,31.7267],[74.1594,31.7035],[74.1798,31.7221],[74.2431,31.7239],[74.45,31.8379],[74.5978,31.8417],[74.6414,31.8067],[74.7681,31.8099],[74.8091,31.847],[74.8519,31.8299],[74.9135,31.8855],[74.9775,31.8689],[75.0706,31.9342],[75.0592,31.961],[74.9957,31.9596],[74.9305,32.0122],[74.867,32.0107],[74.8126,32.0545],[74.7889,32.1261],[74.6592,32.1951],[74.6444,32.312],[74.58,32.3284],[74.5177,32.2907],[74.4519,32.3431],[74.4095,32.342],[74.3224,32.3937],[74.3018,32.3751],[74.2579,32.41],[74.1729,32.4075],[74.0643,32.4585]]]]}}]}