{"type":"FeatureCollection","features":[{"type":"Feature","properties":{"cell":1,"feature":87,"phase":"Unclassified","min_bt_K":225.0,"area_km2":17336,"cold_core_km2":0,"speed_kmh":63.7,"heading_deg":107,"d_min_bt_30":1.3,"age_min":30,"family":1,"touches_missing":true,"lon":73.8571,"lat":31.8929,"merges_splits_so_far":1},"geometry":{"type":"MultiPolygon","coordinates":[[[[74.3642,32.4129],[73.8762,32.3807],[73.8353,32.3433],[73.7504,32.3406],[73.5992,32.3898],[73.4292,32.3841],[73.3572,32.3365],[73.3599,32.2825],[73.2676,32.2161],[73.1625,32.1942],[73.0613,32.1003],[72.8929,32.0759],[72.8424,32.0288],[72.8454,31.9748],[72.8041,31.9552],[72.8292,31.884],[72.789,31.8463],[72.792,31.7923],[72.7196,31.7623],[72.7106,31.7349],[72.6493,31.6964],[72.6344,31.5875],[72.6675,31.5618],[72.7307,31.5643],[72.7708,31.602],[72.8149,31.5676],[72.857,31.5692],[72.9221,31.5357],[73.1135,31.5067],[73.2379,31.5473],[73.2809,31.5308],[73.3011,31.5496],[73.4274,31.554],[73.4468,31.5908],[73.5942,31.5957],[73.6591,31.5618],[73.7012,31.5631],[73.783,31.6199],[73.826,31.6032],[73.9313,31.6065],[74.0133,31.6631],[74.0773,31.647],[74.0976,31.6656],[74.182,31.668],[74.2227,31.7053],[74.3282,31.7083],[74.3717,31.6734],[74.4139,31.6745],[74.5173,31.7314],[74.6452,31.6986],[74.7085,31.7002],[74.729,31.7187],[74.8983,31.7047],[74.9604,31.7423],[75.0026,31.7432],[75.0671,31.7086],[75.087,31.7451],[75.2348,31.7482],[75.2862,31.7944],[75.3145,31.9122],[75.572,31.7729],[75.5931,31.7733],[75.6649,31.8557],[75.5687,31.8991],[75.5034,31.97],[75.2924,31.9479],[75.1421,32.0169],[75.0856,32.1329],[75.1263,32.188],[75.03,32.2129],[74.9847,32.3021],[74.7081,32.3136],[74.5787,32.3645],[74.5156,32.3448],[74.3642,32.4129]]]]}}]}