{"type":"FeatureCollection","features":[{"type":"Feature","properties":{"cell":1,"feature":153,"phase":"Unclassified","min_bt_K":229.0,"area_km2":13552,"cold_core_km2":0,"speed_kmh":51.5,"heading_deg":109,"d_min_bt_30":4.0,"age_min":60,"family":1,"touches_missing":true,"lon":74.114,"lat":31.8165,"merges_splits_so_far":1},"geometry":{"type":"MultiPolygon","coordinates":[[[[74.1531,32.3709],[74.1319,32.3703],[74.0508,32.2777],[74.0083,32.2764],[73.9643,32.3112],[73.8582,32.3079],[73.8174,32.2706],[73.7537,32.2685],[73.5891,32.1549],[73.5052,32.1341],[73.4748,32.106],[73.4765,32.0699],[73.424,32.0591],[73.3844,32.0036],[73.2592,31.9631],[73.2519,31.8997],[73.1793,31.87],[73.1096,31.7863],[73.1536,31.7518],[73.1555,31.7158],[73.0941,31.6775],[73.096,31.6414],[73.0557,31.6038],[73.1317,31.5615],[73.1739,31.5631],[73.2617,31.4941],[73.5134,31.5208],[73.5361,31.4855],[73.5992,31.4876],[73.664,31.4537],[73.685,31.4544],[73.7045,31.4911],[73.7692,31.4571],[73.8299,31.5131],[73.8518,31.4958],[74.0825,31.5208],[74.1232,31.5581],[74.2699,31.5803],[74.2895,31.617],[74.3527,31.6187],[74.4357,31.657],[74.8784,31.6682],[74.9188,31.7233],[74.9815,31.7427],[75.3433,31.6422],[75.4473,31.6984],[75.5105,31.6996],[75.5321,31.6819],[75.5738,31.7007],[75.8269,31.7051],[75.8906,31.6881],[75.9416,31.7701],[75.9185,31.8599],[75.8862,31.8865],[75.8655,31.8681],[75.8439,31.8858],[75.7594,31.8844],[75.7162,31.9197],[75.6533,31.9006],[75.6317,31.9183],[75.5048,31.916],[75.4217,31.8602],[75.3151,31.8942],[75.2522,31.8749],[75.0826,31.8893],[75.05,31.9157],[75.0483,31.9698],[75.1009,31.9799],[75.1313,32.0257],[75.0992,32.034],[75.0575,32.0151],[74.9911,32.1038],[74.5238,32.1285],[74.48,32.1634],[74.4171,32.1437],[74.3952,32.1612],[74.3317,32.1594],[74.2878,32.1943],[74.2695,32.1216],[74.2564,32.1844],[74.2761,32.221],[74.2535,32.2565],[74.2733,32.2931],[74.1531,32.3709]]]]}}]}