{"type":"FeatureCollection","features":[{"type":"Feature","properties":{"cell":1,"feature":212,"phase":"Unclassified","min_bt_K":233.9,"area_km2":8656,"cold_core_km2":0,"speed_kmh":62.5,"heading_deg":107,"d_min_bt_30":4.9,"age_min":90,"family":1,"touches_missing":false,"lon":74.4294,"lat":31.7335,"merges_splits_so_far":1},"geometry":{"type":"MultiPolygon","coordinates":[[[[74.241,32.3012],[74.1357,32.2802],[74.0758,32.1882],[74.0539,32.2056],[74.0122,32.1863],[73.9902,32.2037],[73.9054,32.2011],[73.896,32.1738],[73.8137,32.1171],[73.8153,32.081],[73.7746,32.0437],[73.8083,31.9996],[73.8914,32.0383],[73.9251,31.9942],[73.9047,31.9756],[73.9095,31.8674],[73.868,31.8481],[73.8704,31.7941],[73.779,31.71],[73.6549,31.6519],[73.5496,31.6484],[73.4569,31.6001],[73.6834,31.4904],[74.0029,31.4102],[74.0224,31.4468],[74.1065,31.4493],[74.1501,31.4145],[74.3393,31.4199],[74.3597,31.4385],[74.4438,31.4408],[74.4533,31.4681],[74.5049,31.4965],[74.6522,31.5003],[74.6949,31.4833],[74.8399,31.559],[75.0294,31.5634],[75.092,31.5828],[75.1228,31.6106],[75.1212,31.6646],[74.9285,31.7505],[74.9593,31.7783],[74.981,31.7608],[75.0648,31.7807],[75.1254,31.8722],[75.2099,31.874],[75.2723,31.9114],[75.2821,31.9386],[75.1421,32.0169],[75.0792,31.9975],[74.9093,32.0117],[74.8229,32.0638],[74.7805,32.0628],[74.7363,32.1158],[74.633,32.0411],[74.5893,32.0761],[74.547,32.075],[74.5271,32.0384],[74.4425,32.0361],[74.3599,31.9798],[74.1688,31.9924],[74.1541,32.0913],[74.1738,32.1279],[74.2476,32.139],[74.2988,32.1856],[74.2966,32.2396],[74.241,32.3012]]]]}}]}