{"type":"FeatureCollection","features":[{"type":"Feature","properties":{"cell":1,"feature":277,"phase":"Unclassified","min_bt_K":243.0,"area_km2":652,"cold_core_km2":0,"speed_kmh":43.3,"heading_deg":122,"d_min_bt_30":9.1,"age_min":120,"family":1,"touches_missing":false,"lon":74.6218,"lat":31.6285,"merges_splits_so_far":1},"geometry":{"type":"MultiPolygon","coordinates":[[[[74.9171,31.7773],[74.7916,31.7383],[74.773,31.6657],[74.7302,31.6827],[74.5193,31.6773],[74.4574,31.6396],[74.3942,31.6379],[74.365,31.5739],[74.3969,31.5658],[74.4194,31.5303],[74.6299,31.5358],[74.6707,31.5729],[74.7755,31.5936],[74.7953,31.6301],[74.8375,31.6311],[74.8995,31.6687],[74.9297,31.7145],[74.9171,31.7773]]]]}}]}