{"type":"FeatureCollection","features":[{"type":"Feature","properties":{"cell":5,"feature":466,"phase":"Unclassified","min_bt_K":231.3,"area_km2":412,"cold_core_km2":0,"speed_kmh":null,"heading_deg":null,"d_min_bt_30":null,"age_min":0,"family":5,"touches_missing":true,"lon":72.9923,"lat":32.6111,"merges_splits_so_far":0},"geometry":{"type":"MultiPolygon","coordinates":[[[[72.9654,32.6922],[72.8173,32.6685],[72.8092,32.6231],[72.9308,32.5465],[72.9734,32.5481],[73.0179,32.5137],[73.0817,32.5161],[73.1528,32.5819],[73.15,32.6359],[73.0536,32.6414],[73.0304,32.6766],[72.9654,32.6922]]]]}}]}