{"type":"FeatureCollection","features":[{"type":"Feature","properties":{"cell":5,"feature":509,"phase":"Developing","min_bt_K":229.6,"area_km2":1488,"cold_core_km2":0,"speed_kmh":48.8,"heading_deg":79,"d_min_bt_30":-1.7,"age_min":30,"family":5,"touches_missing":true,"lon":73.2473,"lat":32.6535,"merges_splits_so_far":0},"geometry":{"type":"MultiPolygon","coordinates":[[[[73.1311,32.7886],[73.0458,32.7855],[73.0264,32.7486],[72.9198,32.7446],[72.869,32.6976],[72.871,32.6615],[72.9248,32.6546],[73.102,32.5349],[73.1455,32.5184],[73.1658,32.5372],[73.2103,32.5027],[73.2297,32.5395],[73.2953,32.5058],[73.3379,32.5073],[73.4203,32.5642],[73.5693,32.5693],[73.6127,32.5527],[73.6544,32.5721],[73.674,32.6088],[73.7481,32.6202],[73.6706,32.6809],[73.6058,32.6968],[73.5641,32.6774],[73.541,32.7127],[73.4983,32.7113],[73.4539,32.7459],[73.4344,32.7091],[73.3899,32.7437],[73.2833,32.7399],[73.2416,32.7204],[73.2174,32.7737],[73.1757,32.7541],[73.1311,32.7886]]]]}},{"type":"Feature","properties":{"cell":9,"feature":508,"phase":"Unclassified","min_bt_K":226.3,"area_km2":916,"cold_core_km2":0,"speed_kmh":null,"heading_deg":null,"d_min_bt_30":null,"age_min":0,"family":9,"touches_missing":true,"lon":72.4332,"lat":32.3474,"merges_splits_so_far":0},"geometry":{"type":"MultiPolygon","coordinates":[[[[72.6158,32.462],[72.5542,32.4234],[72.5096,32.4577],[72.363,32.4154],[72.278,32.4118],[72.2578,32.3929],[72.193,32.4081],[72.164,32.3617],[72.1863,32.3447],[72.1909,32.2727],[72.2244,32.2471],[72.3092,32.2507],[72.3538,32.2165],[72.3962,32.2183],[72.393,32.2723],[72.4789,32.2579],[72.5606,32.3154],[72.5829,32.2982],[72.7516,32.323],[72.7597,32.3685],[72.791,32.3787],[72.8001,32.4061],[72.704,32.4114],[72.6158,32.462]]]]}}]}