{"type":"FeatureCollection","features":[{"type":"Feature","properties":{"cell":5,"feature":545,"phase":"Developing","min_bt_K":218.5,"area_km2":5180,"cold_core_km2":84,"speed_kmh":13.5,"heading_deg":342,"d_min_bt_30":-11.1,"age_min":60,"family":5,"touches_missing":true,"lon":73.2256,"lat":32.7116,"merges_splits_so_far":1},"geometry":{"type":"MultiPolygon","coordinates":[[[[72.8426,32.9763],[72.8232,32.9394],[72.7388,32.9181],[72.7297,32.8906],[72.6069,32.7955],[72.6122,32.7055],[72.592,32.6866],[72.6154,32.6515],[72.7372,32.5751],[72.9714,32.5842],[73.0798,32.5521],[73.1426,32.5725],[73.2074,32.5568],[73.3342,32.5793],[73.411,32.5369],[73.4146,32.4648],[73.4478,32.4389],[73.5328,32.4418],[73.578,32.3891],[73.685,32.3746],[73.7369,32.4033],[73.7744,32.5128],[73.8059,32.5228],[73.8256,32.5595],[73.8485,32.5241],[73.891,32.5255],[73.9107,32.5622],[73.9958,32.5647],[74.0574,32.6207],[74.0795,32.6033],[74.1205,32.6406],[74.1631,32.6418],[74.2042,32.6791],[74.2572,32.6896],[74.2564,32.7076],[74.1799,32.7506],[74.1167,32.7307],[74.0733,32.7475],[74.0504,32.7829],[74.0077,32.7816],[73.9666,32.7443],[73.9026,32.7423],[73.8805,32.7597],[73.7525,32.7557],[73.7295,32.7911],[73.6424,32.8243],[73.5784,32.8222],[73.5339,32.8568],[73.429,32.8172],[73.4022,32.9245],[73.3808,32.9238],[73.3613,32.887],[73.339,32.9043],[73.3186,32.8855],[73.2963,32.9028],[73.2322,32.9005],[73.2089,32.9358],[73.1448,32.9335],[73.1001,32.9679],[72.865,32.9591],[72.8426,32.9763]]]]}},{"type":"Feature","properties":{"cell":9,"feature":544,"phase":"Unclassified","min_bt_K":230.2,"area_km2":1476,"cold_core_km2":0,"speed_kmh":76.0,"heading_deg":91,"d_min_bt_30":3.9,"age_min":30,"family":9,"touches_missing":true,"lon":72.8366,"lat":32.342,"merges_splits_so_far":0},"geometry":{"type":"MultiPolygon","coordinates":[[[[73.4044,32.4554],[73.2769,32.451],[73.2565,32.4322],[73.2131,32.4487],[73.1725,32.4111],[73.1503,32.4284],[72.959,32.4213],[72.9185,32.3836],[72.8952,32.4189],[72.789,32.4147],[72.7667,32.4319],[72.7252,32.4122],[72.6817,32.4285],[72.533,32.4225],[72.4926,32.3848],[72.4289,32.3821],[72.3595,32.298],[72.3962,32.2183],[72.7769,32.2518],[72.7971,32.2707],[72.9042,32.2568],[72.9224,32.3116],[72.9466,32.2584],[73.0103,32.2608],[73.072,32.2992],[73.1366,32.2835],[73.1458,32.3109],[73.2381,32.3774],[73.2815,32.3609],[73.3655,32.3819],[73.4044,32.4554]]]]}},{"type":"Feature","properties":{"cell":10,"feature":539,"phase":"Unclassified","min_bt_K":235.0,"area_km2":3304,"cold_core_km2":0,"speed_kmh":null,"heading_deg":null,"d_min_bt_30":null,"age_min":0,"family":10,"touches_missing":true,"lon":83.4078,"lat":33.8366,"merges_splits_so_far":0},"geometry":{"type":"MultiPolygon","coordinates":[[[[83.9981,34.0061],[83.932,33.991],[83.5211,34.0086],[83.4984,33.9915],[83.0659,34.0085],[82.8971,33.8975],[82.8735,33.8622],[82.9127,33.7886],[82.8891,33.7534],[82.961,33.6876],[83.0883,33.6467],[83.1077,33.6098],[83.1508,33.6082],[83.2207,33.6957],[83.3511,33.7086],[83.4417,33.7772],[83.4849,33.7754],[83.5155,33.7471],[83.4928,33.73],[83.4895,33.6759],[83.4409,33.5877],[83.408,33.58],[83.373,33.5363],[83.4693,33.5234],[83.5145,33.5576],[83.5349,33.5387],[83.5689,33.5644],[83.5711,33.6004],[83.6709,33.6413],[83.7629,33.7276],[83.8276,33.7248],[83.9198,33.811],[83.963,33.8091],[83.9972,33.8347],[83.9981,34.0061]]],[[[83.4631,33.9478],[83.5166,33.9366],[83.5246,33.8911],[83.4235,33.8321],[83.3587,33.8347],[83.328,33.863],[83.3324,33.935],[83.3664,33.9607],[83.4631,33.9478]]]]}}]}