{"type":"FeatureCollection","features":[{"type":"Feature","properties":{"cell":5,"feature":577,"phase":"Decaying","min_bt_K":222.7,"area_km2":9400,"cold_core_km2":0,"speed_kmh":50.9,"heading_deg":91,"d_min_bt_30":4.2,"age_min":90,"family":5,"touches_missing":true,"lon":73.4967,"lat":32.7063,"merges_splits_so_far":1},"geometry":{"type":"MultiPolygon","coordinates":[[[[73.393,33.1047],[73.352,33.0672],[73.2227,33.0806],[73.1818,33.0431],[73.0962,33.04],[73.034,33.0016],[73.0116,33.0188],[72.9077,32.9607],[72.8334,32.9488],[72.8355,32.9128],[72.7857,32.8477],[72.7542,32.8375],[72.7562,32.8015],[72.7146,32.7818],[72.7177,32.7277],[72.6975,32.7089],[72.724,32.6197],[72.7676,32.6034],[72.8031,32.5416],[72.869,32.5081],[73.0188,32.4957],[73.0633,32.4613],[73.1271,32.4636],[73.1725,32.4111],[73.214,32.4307],[73.2334,32.4675],[73.275,32.487],[73.3397,32.4712],[73.4221,32.5282],[73.4655,32.5117],[73.5072,32.5311],[73.6366,32.4993],[73.6612,32.428],[73.6187,32.4266],[73.4947,32.3503],[73.3784,32.3372],[73.3599,32.2825],[73.4576,32.2407],[73.5619,32.2803],[73.8166,32.2886],[73.8778,32.3446],[73.9407,32.3646],[74.1319,32.3703],[74.1524,32.3889],[74.2169,32.3727],[74.2689,32.4013],[74.2667,32.4553],[74.2447,32.4727],[74.2961,32.5193],[74.3386,32.5205],[74.4003,32.5763],[74.4649,32.56],[74.4958,32.5878],[74.4614,32.6501],[74.3549,32.6472],[74.3108,32.6821],[74.1704,32.7232],[74.2527,32.7978],[74.2512,32.8338],[74.2063,32.8867],[74.1525,32.8941],[74.1296,32.9296],[74.0227,32.9264],[73.9816,32.8891],[73.9143,32.9592],[73.8279,32.9746],[73.7613,33.0266],[73.7193,33.0073],[73.6098,33.0578],[73.5678,33.0384],[73.5447,33.0737],[73.393,33.1047]]]]}},{"type":"Feature","properties":{"cell":9,"feature":561,"phase":"Unclassified","min_bt_K":237.2,"area_km2":440,"cold_core_km2":0,"speed_kmh":20.8,"heading_deg":150,"d_min_bt_30":7.0,"age_min":60,"family":9,"touches_missing":true,"lon":72.8911,"lat":32.2604,"merges_splits_so_far":1},"geometry":{"type":"MultiPolygon","coordinates":[[[[72.8568,32.3452],[72.7739,32.3059],[72.6364,32.2914],[72.7153,32.2133],[72.885,32.22],[72.9293,32.1856],[72.9606,32.1958],[72.9688,32.2412],[73.0112,32.2428],[73.0768,32.2091],[73.1081,32.2193],[73.1052,32.2733],[73.071,32.3172],[72.9437,32.3124],[72.9244,32.2756],[72.8568,32.3452]]]]}},{"type":"Feature","properties":{"cell":10,"feature":574,"phase":"Unclassified","min_bt_K":235.2,"area_km2":3812,"cold_core_km2":0,"speed_kmh":35.0,"heading_deg":109,"d_min_bt_30":0.2,"age_min":30,"family":10,"touches_missing":false,"lon":83.5862,"lat":33.784,"merges_splits_so_far":0},"geometry":{"type":"MultiPolygon","coordinates":[[[[83.9981,34.0061],[83.932,33.991],[83.1524,34.0052],[83.0957,33.9623],[83.0709,33.9091],[83.1079,33.7994],[83.0832,33.7461],[83.1744,33.6434],[83.2196,33.6777],[83.2401,33.6589],[83.3693,33.6538],[83.4964,33.6125],[83.5247,33.5481],[83.5202,33.4761],[83.4863,33.4505],[83.4434,33.4522],[83.431,33.4256],[83.5486,33.4118],[83.6266,33.4537],[83.63,33.5077],[83.664,33.5333],[83.7082,33.5495],[83.75,33.5296],[83.8623,33.597],[83.9054,33.5951],[84.0053,33.6357],[83.9981,34.0061]]],[[[83.9589,33.9086],[83.9463,33.8821],[83.8929,33.8935],[83.9271,33.919],[83.9589,33.9086]]]]}}]}