{"type":"FeatureCollection","features":[{"type":"Feature","properties":{"cell":5,"feature":606,"phase":"Decaying","min_bt_K":228.0,"area_km2":10080,"cold_core_km2":0,"speed_kmh":39.1,"heading_deg":76,"d_min_bt_30":5.3,"age_min":120,"family":5,"touches_missing":true,"lon":73.699,"lat":32.7489,"merges_splits_so_far":2},"geometry":{"type":"MultiPolygon","coordinates":[[[[73.7553,33.1528],[73.7356,33.1161],[73.7031,33.124],[73.6911,33.1507],[73.393,33.1047],[73.352,33.0672],[73.2051,33.0078],[73.1448,32.9335],[73.0379,32.9295],[73.0186,32.8927],[72.8833,32.8244],[72.8873,32.7524],[72.8467,32.7147],[72.8295,32.6419],[72.8761,32.5715],[72.9308,32.5465],[72.9541,32.5113],[73.03,32.4871],[73.0976,32.4174],[73.1116,32.3548],[73.1734,32.3931],[73.239,32.3594],[73.2787,32.4149],[73.4912,32.4223],[73.5142,32.387],[73.6425,32.3732],[73.7454,32.4487],[73.7888,32.432],[73.8092,32.4507],[73.8525,32.434],[74.1919,32.4622],[74.2851,32.528],[74.3027,32.6187],[74.3659,32.6385],[74.374,32.7019],[74.4174,32.685],[74.427,32.7123],[74.4792,32.7408],[74.6912,32.7823],[74.6899,32.8183],[74.9034,32.8235],[74.9339,32.8693],[74.9107,32.9229],[74.8343,32.9662],[74.7274,32.9636],[74.7074,32.927],[74.6219,32.9249],[74.5998,32.9424],[74.5578,32.9233],[74.4909,32.9937],[74.3618,33.0083],[74.2962,33.0426],[74.2106,33.0402],[74.1487,32.9843],[74.0006,32.9438],[73.9673,32.9699],[73.9649,33.0239],[73.911,33.0313],[73.8229,33.0827],[73.7553,33.1528]]]]}}]}