{"type":"FeatureCollection","features":[{"type":"Feature","properties":{"cell":5,"feature":641,"phase":"Decaying","min_bt_K":230.0,"area_km2":9628,"cold_core_km2":0,"speed_kmh":37.5,"heading_deg":111,"d_min_bt_30":2.0,"age_min":150,"family":5,"touches_missing":true,"lon":73.8857,"lat":32.6888,"merges_splits_so_far":6},"geometry":{"type":"MultiPolygon","coordinates":[[[[74.0132,33.1427],[73.9275,33.1401],[73.9069,33.1214],[73.7776,33.1354],[73.7142,33.1154],[73.6945,33.0786],[73.6517,33.0773],[73.5696,33.0024],[73.5268,33.001],[73.4654,32.9447],[73.4003,32.9606],[73.3371,32.9403],[73.2768,32.866],[73.2341,32.8645],[73.2035,32.8363],[73.1878,32.7275],[73.1045,32.6884],[73.0861,32.6336],[73.1122,32.5443],[73.1779,32.5106],[73.2121,32.4667],[73.2315,32.5035],[73.2972,32.4697],[73.3397,32.4712],[73.4301,32.3661],[73.4726,32.3675],[73.6459,32.3011],[73.6884,32.3025],[73.7292,32.3399],[73.8149,32.3246],[73.855,32.38],[73.8983,32.3633],[73.9391,32.4006],[73.9832,32.3659],[74.0462,32.3858],[74.0682,32.3684],[74.1319,32.3703],[74.2403,32.3193],[74.3026,32.3571],[74.515,32.3628],[74.5561,32.4],[74.6199,32.4016],[74.6398,32.4382],[74.7132,32.4671],[74.7107,32.5392],[74.7313,32.5577],[74.6881,32.5747],[74.7294,32.6118],[74.7481,32.6844],[74.6305,32.6905],[74.5859,32.7435],[74.5102,32.7686],[74.4929,32.9396],[74.3433,32.9356],[74.277,32.9879],[74.1907,33.0035],[74.1242,33.0557],[74.0608,33.0358],[74.0275,33.0619],[74.0132,33.1427]]]]}},{"type":"Feature","properties":{"cell":18,"feature":640,"phase":"Unclassified","min_bt_K":233.9,"area_km2":600,"cold_core_km2":0,"speed_kmh":null,"heading_deg":null,"d_min_bt_30":null,"age_min":0,"family":18,"touches_missing":true,"lon":82.9558,"lat":33.8494,"merges_splits_so_far":0},"geometry":{"type":"MultiPolygon","coordinates":[[[[83.0216,33.9921],[82.8918,33.9969],[82.8456,33.9445],[82.7808,33.9468],[82.7675,33.9022],[82.7881,33.8834],[82.7636,33.8301],[82.8171,33.8192],[82.8582,33.7816],[82.9445,33.7784],[82.9651,33.7596],[83.1602,33.7703],[83.1429,33.8431],[83.0802,33.8816],[83.0154,33.8841],[83.0061,33.9115],[82.9639,33.9311],[83.0216,33.9921]]]]}}]}