{"type":"FeatureCollection","features":[{"type":"Feature","properties":{"cell":5,"feature":686,"phase":"Decaying","min_bt_K":232.0,"area_km2":4368,"cold_core_km2":0,"speed_kmh":99.1,"heading_deg":102,"d_min_bt_30":2.0,"age_min":180,"family":5,"touches_missing":true,"lon":74.4015,"lat":32.5935,"merges_splits_so_far":9},"geometry":{"type":"MultiPolygon","coordinates":[[[[74.3448,32.8995],[74.302,32.8984],[74.2615,32.8431],[74.1769,32.8227],[74.1049,32.7574],[74.0866,32.6847],[73.9627,32.5908],[73.9714,32.3926],[73.9187,32.382],[73.8888,32.3359],[73.9423,32.3286],[73.9871,32.2758],[74.0508,32.2777],[74.1546,32.3349],[74.2183,32.3367],[74.2389,32.3553],[74.3026,32.3571],[74.3252,32.3216],[74.454,32.289],[74.5986,32.4011],[74.6624,32.4027],[74.7036,32.4398],[74.7255,32.4223],[74.8099,32.4424],[74.8299,32.4789],[74.9034,32.5077],[74.8809,32.5433],[74.985,32.6178],[74.8967,32.706],[74.8845,32.7509],[74.7546,32.8019],[74.7119,32.8008],[74.6893,32.8364],[74.4544,32.8303],[74.4103,32.8652],[74.3676,32.8641],[74.3448,32.8995]]]]}},{"type":"Feature","properties":{"cell":18,"feature":689,"phase":"Developing","min_bt_K":232.2,"area_km2":2052,"cold_core_km2":0,"speed_kmh":17.0,"heading_deg":77,"d_min_bt_30":-1.7,"age_min":30,"family":18,"touches_missing":true,"lon":83.0457,"lat":33.866,"merges_splits_so_far":1},"geometry":{"type":"MultiPolygon","coordinates":[[[[83.4551,33.9932],[83.2173,34.0027],[83.1595,33.9418],[83.0812,33.8996],[82.8868,33.9069],[82.8446,33.9265],[82.7837,34.0008],[82.5674,34.0084],[82.5449,33.9911],[82.4584,33.994],[82.4462,33.9674],[82.5289,33.8924],[82.5055,33.8571],[82.5571,33.8102],[82.6209,33.79],[82.665,33.8065],[82.8808,33.7988],[82.9641,33.7416],[83.115,33.7359],[83.156,33.6982],[83.1776,33.6974],[83.2239,33.7498],[83.4362,33.6872],[83.5371,33.7462],[83.4337,33.8226],[83.4371,33.8766],[83.4166,33.8955],[83.462,33.9298],[83.4551,33.9932]]]]}},{"type":"Feature","properties":{"cell":28,"feature":688,"phase":"Unclassified","min_bt_K":228.0,"area_km2":5592,"cold_core_km2":0,"speed_kmh":null,"heading_deg":null,"d_min_bt_30":null,"age_min":0,"family":5,"touches_missing":true,"lon":73.5892,"lat":32.9697,"merges_splits_so_far":2},"geometry":{"type":"MultiPolygon","coordinates":[[[[73.4696,33.2878],[73.4267,33.2863],[73.3856,33.2488],[73.3632,33.2661],[73.1059,33.2569],[73.0649,33.2193],[73.0221,33.2177],[73.0026,33.1809],[72.9802,33.1981],[72.9598,33.1793],[72.8312,33.1743],[72.8017,33.1281],[72.9444,33.0704],[72.9872,33.072],[73.0432,33.029],[73.0685,32.9577],[73.1254,32.8967],[73.2127,32.8637],[73.2981,32.8668],[73.5375,32.7848],[73.5623,32.7134],[73.6049,32.7148],[73.6715,32.6629],[73.7141,32.6642],[73.7584,32.6296],[73.8444,32.6142],[73.8776,32.5882],[73.88,32.5341],[73.9446,32.5181],[73.958,32.4553],[73.9627,32.5908],[74.0866,32.6847],[74.1049,32.7574],[74.1769,32.8227],[74.2615,32.8431],[74.2917,32.8891],[74.3544,32.9269],[74.3743,32.9635],[74.3522,32.9809],[74.3729,32.9996],[74.3176,33.0431],[74.2106,33.0402],[74.0592,33.0719],[74.0299,33.0078],[73.9768,32.9972],[73.8748,32.8858],[73.7893,32.8832],[73.7449,32.9179],[73.7244,32.8992],[73.7108,32.9619],[73.7826,33.0273],[73.8674,33.048],[73.9086,33.0854],[73.9308,33.068],[74.0156,33.0886],[74.0465,33.1166],[73.9902,33.1781],[73.8624,33.1561],[73.8179,33.1908],[73.6465,33.1854],[73.6224,33.2387],[73.5804,33.2193],[73.4696,33.2878]]]]}}]}