{"type":"FeatureCollection","features":[{"type":"Feature","properties":{"cell":5,"feature":727,"phase":"Decaying","min_bt_K":233.2,"area_km2":4700,"cold_core_km2":0,"speed_kmh":21.7,"heading_deg":50,"d_min_bt_30":1.1,"age_min":210,"family":5,"touches_missing":true,"lon":74.4904,"lat":32.6559,"merges_splits_so_far":9},"geometry":{"type":"MultiPolygon","coordinates":[[[[74.3633,32.9722],[74.1311,32.8935],[74.1231,32.8301],[74.0432,32.7015],[74.0738,32.4859],[74.1736,32.3895],[74.3627,32.449],[74.4478,32.4512],[74.5129,32.4169],[74.5973,32.4371],[74.6521,32.3934],[74.6753,32.3398],[74.7074,32.3316],[74.7596,32.36],[74.7686,32.4053],[74.9605,32.3918],[75.0018,32.4288],[75.1293,32.4316],[75.2231,32.4967],[75.2215,32.5508],[75.1128,32.6207],[75.1116,32.6567],[74.9716,32.6987],[74.8827,32.8049],[74.7119,32.8008],[74.6706,32.7637],[74.5612,32.8331],[74.4502,32.9385],[74.4074,32.9373],[74.3633,32.9722]]]]}},{"type":"Feature","properties":{"cell":18,"feature":725,"phase":"Developing","min_bt_K":237.0,"area_km2":2148,"cold_core_km2":0,"speed_kmh":63.8,"heading_deg":106,"d_min_bt_30":4.8,"age_min":60,"family":18,"touches_missing":true,"lon":83.3759,"lat":33.7843,"merges_splits_so_far":1},"geometry":{"type":"MultiPolygon","coordinates":[[[[83.5211,34.0086],[83.4506,33.9212],[83.3415,33.9076],[83.2745,33.8741],[83.2098,33.8767],[83.186,33.8415],[83.1213,33.844],[83.1018,33.8808],[83.0586,33.8824],[82.9547,33.9585],[82.8293,33.8458],[82.8602,33.8176],[82.9034,33.816],[82.9836,33.7048],[83.0914,33.7007],[83.114,33.7179],[83.1991,33.6966],[83.2217,33.7137],[83.2606,33.64],[83.519,33.6296],[83.5417,33.6467],[83.5836,33.6269],[83.7367,33.6566],[83.8401,33.7514],[83.7892,33.7987],[83.746,33.8006],[83.7221,33.7655],[83.6801,33.7853],[83.6507,33.8317],[83.6836,33.8393],[83.7189,33.8829],[83.5826,33.9519],[83.5211,34.0086]]]]}},{"type":"Feature","properties":{"cell":28,"feature":728,"phase":"Developing","min_bt_K":225.2,"area_km2":6404,"cold_core_km2":0,"speed_kmh":36.3,"heading_deg":86,"d_min_bt_30":-2.8,"age_min":30,"family":5,"touches_missing":true,"lon":73.7831,"lat":32.9817,"merges_splits_so_far":4},"geometry":{"type":"MultiPolygon","coordinates":[[[[73.8027,33.5152],[73.7494,33.5045],[73.7236,33.3683],[73.6377,33.3655],[73.5965,33.3281],[73.4678,33.3238],[73.4369,33.2957],[73.4593,33.2784],[73.4499,33.251],[73.367,33.194],[73.3017,33.2098],[73.271,33.1816],[73.2971,33.0923],[73.2562,33.0548],[73.259,33.0007],[73.2814,32.9835],[73.2414,32.9279],[73.2981,32.8668],[73.3603,32.905],[73.4281,32.8352],[73.5348,32.8388],[73.5793,32.8042],[73.6433,32.8063],[73.7099,32.7543],[73.8514,32.6957],[73.7319,32.5114],[73.754,32.4941],[73.7352,32.4394],[73.7794,32.4047],[73.7921,32.36],[73.8754,32.3987],[73.9415,32.3466],[74.1327,32.3523],[74.1759,32.3355],[74.1846,32.3808],[74.1619,32.4163],[74.0738,32.4859],[74.0432,32.7015],[74.1231,32.8301],[74.1391,32.9569],[74.1811,32.9762],[74.1788,33.0302],[74.2209,33.0495],[74.2186,33.1035],[74.2703,33.1501],[74.2925,33.1327],[74.3774,33.1531],[74.4285,33.2176],[74.3316,33.224],[74.2658,33.2582],[74.18,33.2558],[74.1387,33.2185],[74.0529,33.216],[74.0307,33.2334],[74.01,33.2148],[73.9536,33.2762],[73.9949,33.3136],[73.928,33.3657],[73.9231,33.4738],[73.8027,33.5152]]]]}},{"type":"Feature","properties":{"cell":30,"feature":724,"phase":"Unclassified","min_bt_K":233.6,"area_km2":468,"cold_core_km2":0,"speed_kmh":null,"heading_deg":null,"d_min_bt_30":null,"age_min":0,"family":5,"touches_missing":true,"lon":74.8919,"lat":33.7132,"merges_splits_so_far":0},"geometry":{"type":"MultiPolygon","coordinates":[[[[74.8264,33.796],[74.7094,33.7481],[74.6892,33.7115],[74.7017,33.6667],[74.767,33.6502],[74.8088,33.6873],[74.9406,33.6182],[75.0046,33.6377],[75.0483,33.6206],[75.1216,33.6854],[75.121,33.7034],[75.0441,33.7469],[74.8924,33.7615],[74.8264,33.796]]]]}},{"type":"Feature","properties":{"cell":32,"feature":730,"phase":"Unclassified","min_bt_K":226.1,"area_km2":416,"cold_core_km2":0,"speed_kmh":null,"heading_deg":null,"d_min_bt_30":null,"age_min":0,"family":5,"touches_missing":true,"lon":73.5478,"lat":33.5312,"merges_splits_so_far":0},"geometry":{"type":"MultiPolygon","coordinates":[[[[73.5823,33.6164],[73.4746,33.6128],[73.4455,33.5486],[73.3819,33.5284],[73.3838,33.4924],[73.4389,33.4672],[73.5025,33.4874],[73.5688,33.4535],[73.6978,33.4577],[73.7202,33.4404],[73.7511,33.4684],[73.7485,33.5225],[73.671,33.5651],[73.6504,33.5464],[73.5823,33.6164]]]]}}]}