{"type":"FeatureCollection","features":[{"type":"Feature","properties":{"cell":18,"feature":784,"phase":"Developing","min_bt_K":240.1,"area_km2":1176,"cold_core_km2":0,"speed_kmh":52.3,"heading_deg":118,"d_min_bt_30":3.1,"age_min":90,"family":18,"touches_missing":false,"lon":83.6248,"lat":33.6728,"merges_splits_so_far":1},"geometry":{"type":"MultiPolygon","coordinates":[[[[83.7268,33.8375],[83.6404,33.8412],[83.6177,33.8241],[83.553,33.8268],[83.5076,33.7925],[83.3225,33.7729],[83.3715,33.6898],[83.4566,33.6683],[83.5077,33.6211],[83.4784,33.4959],[83.5508,33.4478],[83.6062,33.4726],[83.6549,33.5608],[83.7535,33.5836],[83.9024,33.7125],[83.8299,33.7608],[83.7868,33.7627],[83.7268,33.8375]]]]}},{"type":"Feature","properties":{"cell":28,"feature":790,"phase":"Developing","min_bt_K":225.1,"area_km2":10700,"cold_core_km2":0,"speed_kmh":56.2,"heading_deg":96,"d_min_bt_30":-0.1,"age_min":60,"family":5,"touches_missing":true,"lon":74.0819,"lat":32.9559,"merges_splits_so_far":6},"geometry":{"type":"MultiPolygon","coordinates":[[[[74.1723,33.436],[74.0569,33.3695],[74.0831,33.262],[74.0299,33.2514],[74.01,33.2148],[73.987,33.2502],[73.9012,33.2476],[73.8789,33.2649],[73.8591,33.2282],[73.709,33.2235],[73.6054,33.1479],[73.5857,33.1112],[73.5215,33.109],[73.5019,33.0723],[73.3948,33.0686],[73.3539,33.0311],[73.3316,33.0484],[73.3111,33.0296],[73.246,33.0454],[73.2265,33.0086],[73.1623,33.0063],[73.0715,32.9037],[73.1933,32.8269],[73.2359,32.8285],[73.2592,32.7932],[73.3213,32.8315],[73.3863,32.8157],[73.4263,32.8712],[73.4708,32.8367],[73.5562,32.8395],[73.6237,32.7696],[73.8805,32.7597],[73.8924,32.733],[73.969,32.6902],[74.033,32.6922],[74.111,32.6133],[74.1764,32.5791],[74.1566,32.5424],[74.2037,32.4355],[74.2366,32.4094],[74.3854,32.4135],[74.4464,32.4873],[74.4889,32.4884],[74.55,32.5622],[74.5933,32.5453],[74.6945,32.6922],[74.7274,32.6659],[74.6861,32.6288],[74.6475,32.5196],[74.6707,32.466],[74.7248,32.4403],[74.8317,32.4248],[74.9156,32.4629],[74.9593,32.4278],[75.0012,32.4468],[75.0231,32.4293],[75.0863,32.4487],[75.1926,32.451],[75.2356,32.4338],[75.2978,32.4892],[75.4576,32.4834],[75.4571,32.5014],[75.4032,32.5274],[75.3393,32.5262],[75.3175,32.5438],[75.2968,32.5253],[75.2329,32.524],[75.0598,32.6105],[74.8772,32.6514],[74.8528,32.7411],[74.893,32.8142],[74.8277,32.8487],[74.9016,32.8775],[74.9107,32.9229],[74.8783,32.9311],[74.8557,32.9667],[74.8019,32.9744],[74.8,33.0285],[74.7345,33.063],[74.8144,33.2273],[74.7579,33.3072],[74.6734,33.269],[74.609,33.2674],[74.4138,33.3164],[74.3716,33.2972],[74.3065,33.3135],[74.2939,33.3583],[74.1723,33.436]]],[[[74.3197,32.7274],[74.3211,32.6914],[74.2895,32.6815],[74.2983,32.7269],[74.3197,32.7274]]],[[[74.4042,32.7478],[74.3946,32.7205],[74.341,32.728],[74.3719,32.7559],[74.4042,32.7478]]],[[[74.5288,32.8413],[74.5412,32.7965],[74.4572,32.7582],[74.4249,32.7664],[74.4964,32.8495],[74.5288,32.8413]]]]}},{"type":"Feature","properties":{"cell":30,"feature":793,"phase":"Developing","min_bt_K":229.2,"area_km2":1316,"cold_core_km2":0,"speed_kmh":24.0,"heading_deg":85,"d_min_bt_30":-4.4,"age_min":30,"family":5,"touches_missing":true,"lon":75.0206,"lat":33.7233,"merges_splits_so_far":0},"geometry":{"type":"MultiPolygon","coordinates":[[[[75.0614,33.8736],[74.8886,33.8697],[74.8467,33.8326],[74.8035,33.8316],[74.763,33.7584],[74.6552,33.7558],[74.6329,33.7732],[74.6231,33.7459],[74.6774,33.7383],[74.8753,33.6348],[75.0052,33.6197],[75.071,33.5851],[75.0919,33.6036],[75.1996,33.6059],[75.3089,33.554],[75.3945,33.5737],[75.426,33.6014],[75.3372,33.6899],[75.3361,33.7259],[75.2819,33.7339],[75.2703,33.7607],[75.2155,33.7866],[75.1297,33.7668],[75.0614,33.8736]]]]}},{"type":"Feature","properties":{"cell":32,"feature":792,"phase":"Developing","min_bt_K":221.1,"area_km2":2056,"cold_core_km2":0,"speed_kmh":43.9,"heading_deg":86,"d_min_bt_30":-4.9,"age_min":30,"family":5,"touches_missing":true,"lon":73.7838,"lat":33.5435,"merges_splits_so_far":0},"geometry":{"type":"MultiPolygon","coordinates":[[[[73.4916,33.7036],[73.4494,33.6841],[73.4297,33.6473],[73.366,33.6271],[73.3351,33.599],[73.337,33.5629],[73.4147,33.5205],[73.4577,33.522],[73.5043,33.4513],[73.5473,33.4528],[73.6583,33.3843],[73.7657,33.3877],[73.788,33.3704],[73.8723,33.4091],[73.8946,33.3917],[74.0235,33.3956],[74.0672,33.3789],[74.1405,33.4261],[74.1358,33.5342],[74.1996,33.5541],[74.1645,33.6163],[74.143,33.6157],[74.1231,33.579],[74.0106,33.684],[73.9451,33.7],[73.7511,33.694],[73.7097,33.6566],[73.6873,33.6739],[73.6011,33.6711],[73.5805,33.6524],[73.4916,33.7036]]]]}},{"type":"Feature","properties":{"cell":36,"feature":780,"phase":"Unclassified","min_bt_K":233.9,"area_km2":372,"cold_core_km2":0,"speed_kmh":null,"heading_deg":null,"d_min_bt_30":null,"age_min":0,"family":5,"touches_missing":true,"lon":75.784,"lat":33.3039,"merges_splits_so_far":0},"geometry":{"type":"MultiPolygon","coordinates":[[[[75.8733,33.3657],[75.5836,33.3517],[75.606,33.316],[75.7261,33.2369],[75.8767,33.2214],[75.9511,33.2496],[75.9503,33.2857],[75.8733,33.3657]]]]}},{"type":"Feature","properties":{"cell":39,"feature":787,"phase":"Unclassified","min_bt_K":239.2,"area_km2":328,"cold_core_km2":0,"speed_kmh":null,"heading_deg":null,"d_min_bt_30":null,"age_min":0,"family":39,"touches_missing":true,"lon":81.6924,"lat":33.6551,"merges_splits_so_far":0},"geometry":{"type":"MultiPolygon","coordinates":[[[[81.5814,33.7316],[81.397,33.7093],[81.4506,33.6989],[81.4923,33.6618],[81.6,33.6589],[81.7055,33.6019],[81.7485,33.6007],[81.7901,33.5634],[81.8658,33.5703],[81.8674,33.6063],[81.8043,33.6442],[81.7962,33.7076],[81.6446,33.6938],[81.5814,33.7316]]]]}}]}