{"type":"FeatureCollection","features":[{"type":"Feature","properties":{"cell":18,"feature":837,"phase":"Developing","min_bt_K":243.0,"area_km2":188,"cold_core_km2":0,"speed_kmh":29.4,"heading_deg":110,"d_min_bt_30":2.9,"age_min":120,"family":18,"touches_missing":false,"lon":83.7736,"lat":33.6265,"merges_splits_so_far":1},"geometry":{"type":"MultiPolygon","coordinates":[[[[83.8252,33.6888],[83.7605,33.6916],[83.6811,33.6318],[83.6788,33.5958],[83.7308,33.5666],[83.8384,33.5619],[83.8557,33.6604],[83.8252,33.6888]]]]}},{"type":"Feature","properties":{"cell":28,"feature":841,"phase":"Developing","min_bt_K":229.3,"area_km2":9388,"cold_core_km2":0,"speed_kmh":23.9,"heading_deg":83,"d_min_bt_30":4.3,"age_min":90,"family":5,"touches_missing":true,"lon":74.2088,"lat":32.9683,"merges_splits_so_far":6},"geometry":{"type":"MultiPolygon","coordinates":[[[[74.3287,33.2961],[74.308,33.2775],[74.1356,33.2906],[74.0736,33.2347],[74.01,33.2148],[73.9878,33.2321],[73.8847,33.1388],[73.8624,33.1561],[73.7767,33.1535],[73.757,33.1167],[73.7142,33.1154],[73.6696,33.15],[73.5839,33.1472],[73.5429,33.1098],[73.393,33.1047],[73.2795,33.0195],[73.2025,32.8543],[73.2796,32.812],[73.3,32.8307],[73.3649,32.815],[73.4281,32.8352],[73.5597,32.7675],[73.709,32.7723],[73.7738,32.7564],[73.7858,32.7297],[73.8403,32.7043],[74.1167,32.7307],[74.1601,32.7139],[74.3152,32.5739],[74.4422,32.5954],[74.5466,32.6523],[74.6319,32.6545],[74.7229,32.7921],[74.7546,32.8019],[74.7766,32.7844],[74.8174,32.8395],[74.9028,32.8415],[74.915,32.7967],[74.7785,32.7303],[74.7475,32.7025],[74.7488,32.6664],[74.6855,32.6468],[74.6868,32.6108],[74.9107,32.6071],[75.0442,32.7635],[75.0523,32.8449],[75.1377,32.8467],[75.2006,32.8842],[75.2647,32.8855],[75.296,32.9132],[75.2735,32.9488],[75.1424,33.0363],[75.0863,33.1163],[75.0006,33.1144],[74.9676,33.1407],[74.9327,33.2211],[74.9119,33.2026],[74.7397,33.2165],[74.6526,33.2504],[74.5025,33.2466],[74.3287,33.2961]]]]}},{"type":"Feature","properties":{"cell":32,"feature":843,"phase":"Developing","min_bt_K":223.4,"area_km2":10508,"cold_core_km2":0,"speed_kmh":138.3,"heading_deg":88,"d_min_bt_30":2.2,"age_min":60,"family":5,"touches_missing":true,"lon":74.528,"lat":33.5606,"merges_splits_so_far":2},"geometry":{"type":"MultiPolygon","coordinates":[[[[74.2361,33.9612],[74.1504,33.9407],[74.0688,33.8301],[74.0464,33.8474],[73.9816,33.8455],[73.9401,33.8082],[73.7891,33.8035],[73.7692,33.7668],[73.6829,33.764],[73.5993,33.7072],[73.5684,33.6791],[73.5746,33.553],[73.6203,33.5003],[73.6006,33.4636],[73.7674,33.3517],[73.8112,33.335],[73.9185,33.3383],[73.9846,33.3042],[74.0521,33.2341],[74.1356,33.2906],[74.1999,33.2925],[74.2406,33.3478],[74.3265,33.3501],[74.4095,33.4246],[74.5807,33.4471],[74.6355,33.4214],[74.6368,33.3854],[74.7579,33.3072],[74.8015,33.2902],[74.8437,33.3092],[74.9315,33.2571],[74.9958,33.2586],[74.9964,33.2406],[74.9437,33.2123],[74.9449,33.1763],[75.0006,33.1144],[75.1077,33.1167],[75.2131,33.1731],[75.4055,33.195],[75.4578,33.2411],[75.4568,33.2772],[75.5202,33.3145],[75.5177,33.4046],[75.4732,33.4579],[75.4721,33.494],[75.4611,33.5028],[75.4407,33.4663],[75.3431,33.4915],[75.4171,33.5381],[75.4796,33.6114],[75.5652,33.6311],[75.6069,33.6859],[75.6605,33.6959],[75.66,33.7139],[75.5502,33.7841],[75.5708,33.8206],[75.5377,33.8471],[75.4513,33.8455],[75.4307,33.809],[75.3876,33.8081],[75.3649,33.8438],[75.2575,33.8236],[75.17,33.8579],[75.1578,33.9027],[75.1028,33.9286],[75.0614,33.8736],[75.0176,33.8906],[74.765,33.7043],[74.7205,33.7393],[74.5897,33.7722],[74.4344,33.8764],[74.3048,33.8729],[74.2928,33.8996],[74.2489,33.9164],[74.2361,33.9612]]],[[[74.9276,33.6811],[74.9184,33.6358],[74.8642,33.6435],[74.9276,33.6811]]]]}},{"type":"Feature","properties":{"cell":36,"feature":844,"phase":"Developing","min_bt_K":230.2,"area_km2":2284,"cold_core_km2":0,"speed_kmh":24.2,"heading_deg":82,"d_min_bt_30":-3.7,"age_min":30,"family":5,"touches_missing":true,"lon":75.913,"lat":33.3186,"merges_splits_so_far":0},"geometry":{"type":"MultiPolygon","coordinates":[[[[75.8026,33.6171],[75.7596,33.6164],[75.6533,33.5605],[75.6007,33.5144],[75.6017,33.4783],[75.6452,33.4611],[75.5177,33.4046],[75.5202,33.3145],[75.597,33.2527],[75.6842,33.2001],[75.8128,33.2023],[75.8347,33.1846],[76.0494,33.1699],[76.0713,33.1522],[76.1137,33.1708],[76.307,33.1554],[76.3488,33.21],[76.3808,33.2194],[76.3577,33.3093],[76.2377,33.407],[76.1733,33.4062],[76.1514,33.4239],[76.0443,33.4044],[75.9681,33.4483],[75.9344,33.511],[75.8914,33.5103],[75.8492,33.4735],[75.7206,33.4534],[75.7202,33.4714],[75.7522,33.481],[75.7508,33.5351],[75.7829,33.5446],[75.8141,33.5902],[75.8026,33.6171]]]]}},{"type":"Feature","properties":{"cell":39,"feature":836,"phase":"Developing","min_bt_K":235.3,"area_km2":1312,"cold_core_km2":0,"speed_kmh":14.5,"heading_deg":135,"d_min_bt_30":-3.9,"age_min":30,"family":39,"touches_missing":true,"lon":81.7477,"lat":33.6091,"merges_splits_so_far":1},"geometry":{"type":"MultiPolygon","coordinates":[[[[81.1984,33.8857],[81.1225,33.8784],[81.1304,33.797],[81.0872,33.798],[81.0428,33.763],[80.9886,33.7552],[81.0625,33.7084],[81.1298,33.779],[81.2592,33.7759],[81.2997,33.7027],[81.3219,33.7202],[81.363,33.6651],[81.4894,33.5897],[81.5548,33.606],[81.5964,33.5688],[81.7255,33.5653],[81.7885,33.5274],[81.8746,33.5249],[81.916,33.4876],[81.959,33.4864],[81.9789,33.4497],[82.0649,33.4471],[82.0856,33.4284],[82.1302,33.4631],[82.1947,33.4611],[82.2575,33.4231],[82.2902,33.431],[82.291,33.449],[82.1352,33.5713],[82.0914,33.5546],[82.05,33.5919],[81.8993,33.5964],[81.8147,33.6349],[81.7924,33.6175],[81.7085,33.674],[81.6015,33.695],[81.5397,33.7688],[81.5167,33.7333],[81.4082,33.7181],[81.3678,33.7913],[81.1984,33.8857]]]]}},{"type":"Feature","properties":{"cell":41,"feature":834,"phase":"Unclassified","min_bt_K":239.3,"area_km2":948,"cold_core_km2":0,"speed_kmh":null,"heading_deg":null,"d_min_bt_30":null,"age_min":0,"family":41,"touches_missing":true,"lon":81.2525,"lat":32.9719,"merges_splits_so_far":0},"geometry":{"type":"MultiPolygon","coordinates":[[[[81.1285,33.1294],[80.9566,33.1153],[80.8917,33.0987],[80.8802,33.0719],[80.9114,33.0441],[80.997,33.0422],[81.0282,33.0145],[81.027,32.9784],[81.0801,32.9682],[81.1217,32.9311],[81.2285,32.9286],[81.2486,32.892],[81.292,32.909],[81.3334,32.8719],[81.3761,32.8708],[81.3728,32.7807],[81.4581,32.7785],[81.578,32.8385],[81.5904,32.8833],[81.4857,32.9402],[81.4216,32.9418],[81.3995,32.9243],[81.3394,33.0341],[81.2758,33.0537],[81.2538,33.0362],[81.1921,33.1099],[81.1285,33.1294]]]]}},{"type":"Feature","properties":{"cell":43,"feature":845,"phase":"Unclassified","min_bt_K":229.0,"area_km2":2020,"cold_core_km2":0,"speed_kmh":null,"heading_deg":null,"d_min_bt_30":null,"age_min":0,"family":5,"touches_missing":true,"lon":72.2656,"lat":33.8688,"merges_splits_so_far":0},"geometry":{"type":"MultiPolygon","coordinates":[[[[72.0452,34.0081],[71.9918,33.9966],[72.0085,33.5912],[72.1533,33.6879],[72.4323,33.7178],[72.4947,33.7565],[72.5174,33.7394],[72.5572,33.7952],[72.6424,33.8167],[72.6504,33.8621],[72.6925,33.8818],[72.7519,33.9744],[72.7941,33.9941],[72.5016,33.9915],[72.4789,34.0086],[72.068,33.991],[72.0452,34.0081]]]]}}]}