{"type":"FeatureCollection","features":[{"type":"Feature","properties":{"cell":28,"feature":902,"phase":"Developing","min_bt_K":230.2,"area_km2":5372,"cold_core_km2":0,"speed_kmh":28.5,"heading_deg":262,"d_min_bt_30":0.9,"age_min":120,"family":5,"touches_missing":true,"lon":74.058,"lat":32.9495,"merges_splits_so_far":7},"geometry":{"type":"MultiPolygon","coordinates":[[[[74.5253,33.2111],[74.5046,33.1925],[74.2045,33.1843],[74.1823,33.2018],[74.1402,33.1825],[74.0331,33.1794],[74.0108,33.1967],[73.9902,33.1781],[73.9465,33.1948],[73.883,33.1748],[73.8608,33.1922],[73.841,33.1555],[73.8196,33.1548],[73.7965,33.1902],[73.7108,33.1874],[73.4858,32.9635],[73.4235,32.9253],[73.391,32.9332],[73.3742,32.8424],[73.4512,32.7999],[73.5366,32.8028],[73.581,32.7682],[73.8403,32.7043],[73.8608,32.723],[73.9674,32.7263],[74.033,32.6922],[74.1395,32.6953],[74.1616,32.6779],[74.3108,32.6821],[74.3328,32.6647],[74.46,32.6861],[74.493,32.6599],[74.4958,32.5878],[74.5919,32.5813],[74.5902,32.9151],[74.6108,32.9336],[74.6088,32.9877],[74.5412,33.0762],[74.5253,33.2111]]]]}},{"type":"Feature","properties":{"cell":32,"feature":905,"phase":"Developing","min_bt_K":219.0,"area_km2":19876,"cold_core_km2":120,"speed_kmh":90.4,"heading_deg":92,"d_min_bt_30":-4.4,"age_min":90,"family":5,"touches_missing":true,"lon":75.0148,"lat":33.5478,"merges_splits_so_far":4},"geometry":{"type":"MultiPolygon","coordinates":[[[[74.2346,33.9972],[74.1048,33.9935],[74.0952,33.9662],[74.032,33.9282],[74.0232,33.8828],[73.9368,33.8803],[73.8754,33.8062],[73.8106,33.8042],[73.7796,33.7761],[73.7813,33.7401],[73.7175,33.72],[73.6985,33.6653],[73.7011,33.6112],[73.7459,33.5766],[73.7261,33.5398],[73.7812,33.5145],[73.8156,33.4705],[73.8164,33.4525],[73.7537,33.4144],[73.8525,33.3724],[73.921,33.2843],[74.0712,33.2888],[74.0934,33.2714],[74.1141,33.29],[74.3931,33.2978],[74.4152,33.2804],[74.5011,33.2827],[74.5253,33.2111],[74.7605,33.2351],[74.8236,33.2727],[74.8456,33.2551],[74.8879,33.2742],[74.9106,33.2386],[75.0387,33.2596],[75.1042,33.2249],[75.1488,33.1717],[75.2346,33.1735],[75.3872,33.0864],[75.4295,33.1053],[75.4942,33.0885],[75.5142,33.143],[75.5784,33.1441],[75.6413,33.1994],[75.7485,33.2012],[75.8351,33.1666],[75.9208,33.1679],[76.0288,33.1335],[76.3076,33.1193],[76.3511,33.0837],[76.4154,33.0845],[76.4802,33.0492],[76.5444,33.0499],[76.6078,33.1047],[76.6721,33.1054],[76.7456,33.2053],[76.6808,33.2408],[76.6588,33.2766],[76.6797,33.3129],[76.5712,33.384],[76.5701,33.4561],[76.4183,33.5266],[76.4498,33.5721],[76.579,33.5735],[76.6002,33.5918],[76.6651,33.5744],[76.6754,33.6015],[76.6209,33.6461],[76.4051,33.6617],[76.3839,33.6434],[76.2334,33.6235],[76.2002,33.6682],[76.1673,33.6948],[76.1242,33.6942],[76.014,33.8009],[75.7973,33.8336],[75.6432,33.9392],[75.4914,33.9545],[75.4471,33.9897],[75.3822,33.9885],[75.36,34.0061],[75.1221,34.0012],[75.1011,33.9827],[75.0788,34.0003],[75.0362,33.9813],[74.9707,33.9979],[74.9497,33.9793],[74.7983,33.9758],[74.7564,33.9387],[74.6253,33.9716],[74.5842,33.9164],[74.4545,33.913],[74.3651,33.9828],[74.257,33.9798],[74.2346,33.9972]]],[[[75.966,33.5385],[76.0529,33.5037],[76.0212,33.4762],[75.9782,33.4755],[75.9234,33.5198],[75.9336,33.547],[75.966,33.5385]]],[[[75.3323,33.8522],[75.3228,33.8069],[75.2891,33.8513],[75.3323,33.8522]]]]}},{"type":"Feature","properties":{"cell":39,"feature":894,"phase":"Developing","min_bt_K":234.0,"area_km2":1816,"cold_core_km2":0,"speed_kmh":42.9,"heading_deg":113,"d_min_bt_30":-1.3,"age_min":60,"family":39,"touches_missing":true,"lon":81.9601,"lat":33.5327,"merges_splits_so_far":1},"geometry":{"type":"MultiPolygon","coordinates":[[[[81.2403,33.8486],[81.1853,33.8228],[81.1834,33.7687],[81.1507,33.7605],[81.0946,33.6986],[81.1044,33.6713],[81.1906,33.6693],[81.2037,33.7321],[81.3017,33.7568],[81.3226,33.7383],[81.3873,33.7366],[81.4075,33.7],[81.4506,33.6989],[81.4693,33.6263],[81.5347,33.6426],[81.577,33.6234],[81.6179,33.5682],[81.6609,33.567],[81.7655,33.4919],[81.83,33.4901],[81.8507,33.4715],[81.959,33.4864],[82.0616,33.375],[82.0831,33.3744],[82.1062,33.4097],[82.1492,33.4084],[82.2326,33.3517],[82.2755,33.3503],[82.3382,33.3122],[82.4026,33.3101],[82.4155,33.3548],[82.4817,33.3887],[82.4845,33.4427],[82.4124,33.5083],[82.2188,33.5145],[82.1559,33.5526],[82.069,33.5372],[81.9431,33.6131],[81.7716,33.6361],[81.7628,33.6815],[81.6892,33.7287],[81.6252,33.7485],[81.4728,33.7164],[81.4527,33.753],[81.324,33.7743],[81.3149,33.8197],[81.2403,33.8486]]]]}},{"type":"Feature","properties":{"cell":41,"feature":889,"phase":"Unclassified","min_bt_K":239.0,"area_km2":648,"cold_core_km2":0,"speed_kmh":56.0,"heading_deg":112,"d_min_bt_30":-0.2,"age_min":30,"family":41,"touches_missing":true,"lon":81.5303,"lat":32.8776,"merges_splits_so_far":0},"geometry":{"type":"MultiPolygon","coordinates":[[[[81.5947,32.9914],[81.5305,32.9931],[81.3995,32.9243],[81.2926,32.927],[81.2797,32.8642],[81.3114,32.8544],[81.3548,32.8714],[81.4155,32.7796],[81.5022,32.8134],[81.6303,32.81],[81.6185,32.7833],[81.67,32.7367],[81.7348,32.753],[81.7686,32.7972],[81.7495,32.8518],[81.6766,32.899],[81.6339,32.9001],[81.6257,32.9635],[81.5947,32.9914]]]]}},{"type":"Feature","properties":{"cell":43,"feature":904,"phase":"Developing","min_bt_K":226.0,"area_km2":3084,"cold_core_km2":0,"speed_kmh":8.3,"heading_deg":142,"d_min_bt_30":-3.0,"age_min":30,"family":5,"touches_missing":false,"lon":72.293,"lat":33.8391,"merges_splits_so_far":0},"geometry":{"type":"MultiPolygon","coordinates":[[[[72.0452,34.0081],[71.9918,33.9966],[72.0102,33.7267],[71.9898,33.7077],[72.017,33.4653],[72.0779,33.5221],[72.1209,33.524],[72.3291,33.6413],[72.5865,33.67],[72.7719,33.8218],[72.9311,33.873],[72.8848,33.9254],[72.8827,33.9614],[72.8044,34.0036],[72.068,33.991],[72.0452,34.0081]]]]}}]}