{"type":"FeatureCollection","features":[{"type":"Feature","properties":{"cell":32,"feature":975,"phase":"Developing","min_bt_K":222.0,"area_km2":26784,"cold_core_km2":0,"speed_kmh":16.0,"heading_deg":130,"d_min_bt_30":3.0,"age_min":120,"family":5,"touches_missing":true,"lon":75.0803,"lat":33.5011,"merges_splits_so_far":6},"geometry":{"type":"MultiPolygon","coordinates":[[[[73.4326,34.0084],[73.3677,34.0062],[73.3376,33.96],[73.2747,33.9217],[73.2767,33.8857],[73.4607,33.883],[73.5021,33.9205],[73.6975,33.9089],[73.7096,33.8822],[73.6897,33.8455],[73.7675,33.8028],[73.9609,33.8268],[73.9945,33.8008],[73.977,33.71],[73.9355,33.6727],[73.938,33.6186],[73.8958,33.5993],[73.9405,33.5646],[73.9421,33.5285],[73.8198,33.3804],[73.8636,33.3637],[73.8661,33.3096],[73.9218,33.2662],[73.9862,33.2682],[73.9981,33.2415],[74.0751,33.1986],[74.1164,33.2359],[74.172,33.1924],[74.1353,33.047],[73.9863,33.0246],[73.9887,32.9705],[74.0979,32.9196],[74.1152,32.7668],[74.2645,32.771],[74.3086,32.7362],[74.5212,32.7599],[74.6512,32.7091],[74.6932,32.7282],[74.7365,32.7112],[74.7779,32.7483],[74.9686,32.7889],[75.0199,32.8532],[75.0828,32.8907],[75.1239,32.9457],[75.1227,32.9817],[75.0794,32.9988],[75.0556,33.0705],[74.9027,33.1572],[74.8463,33.2371],[74.8151,33.2093],[74.7968,33.1187],[74.765,33.1089],[74.7449,33.0723],[74.7021,33.0712],[74.5924,33.1407],[74.441,33.1728],[74.4078,33.199],[74.4174,33.2263],[74.6104,33.2313],[74.6727,33.287],[74.7156,33.2881],[74.7598,33.2531],[74.8236,33.2727],[74.9958,33.2586],[75.0405,33.2055],[75.1483,33.1898],[75.2362,33.1195],[75.3867,33.1044],[75.407,33.1409],[75.4708,33.1602],[75.5361,33.1253],[75.6432,33.1273],[75.6874,33.0739],[75.7521,33.057],[75.8163,33.058],[75.9649,33.1145],[76.0292,33.1155],[76.051,33.0977],[76.1141,33.1528],[76.1573,33.1353],[76.1998,33.154],[76.2325,33.1273],[76.2332,33.0913],[76.3525,33.0116],[76.5019,33.0314],[76.5236,33.0136],[76.6306,33.0147],[76.6953,32.9793],[76.7376,33.0158],[76.8655,33.053],[76.897,33.0984],[76.8966,33.1345],[76.8531,33.1882],[76.8734,33.2786],[76.8302,33.2963],[76.851,33.3506],[76.7752,33.395],[76.7113,33.3583],[76.603,33.4114],[76.5265,33.4917],[76.558,33.5372],[76.471,33.5903],[76.4498,33.5721],[76.3411,33.6249],[76.2313,33.7317],[76.0795,33.7657],[76.0682,33.7926],[76.0246,33.81],[76.0446,33.8825],[76.087,33.9192],[76.0315,33.9815],[75.9667,33.9806],[75.9035,33.9074],[75.8603,33.9067],[75.7513,33.941],[75.7283,33.9948],[75.5336,33.9914],[75.5115,34.009],[75.4682,34.0082],[75.4044,33.9709],[75.36,34.0061],[75.1654,34.0021],[75.1443,33.9836],[75.0362,33.9813],[75.0139,33.9988],[74.9929,33.9803],[74.9707,33.9979],[74.6679,33.9907],[74.6455,34.0082],[74.0399,33.9916],[74.0175,34.009],[73.4551,33.9911],[73.4326,34.0084]]],[[[74.8908,33.4998],[74.9351,33.4647],[74.894,33.4096],[74.9376,33.3926],[74.9603,33.357],[74.9505,33.3298],[74.8835,33.4004],[74.8418,33.3633],[74.808,33.4076],[74.8178,33.4349],[74.8406,33.3994],[74.8725,33.4091],[74.9136,33.4642],[74.87,33.4813],[74.8693,33.4993],[74.8908,33.4998]]]]}},{"type":"Feature","properties":{"cell":39,"feature":958,"phase":"Developing","min_bt_K":235.5,"area_km2":1984,"cold_core_km2":0,"speed_kmh":72.0,"heading_deg":111,"d_min_bt_30":1.5,"age_min":90,"family":39,"touches_missing":true,"lon":82.3221,"lat":33.4173,"merges_splits_so_far":2},"geometry":{"type":"MultiPolygon","coordinates":[[[[81.9647,33.6125],[81.8355,33.6163],[81.8131,33.5989],[81.7493,33.6187],[81.7151,33.5746],[81.7678,33.546],[81.8085,33.4907],[81.8515,33.4895],[81.8715,33.4528],[82.0219,33.4484],[82.0529,33.4204],[82.0298,33.385],[82.06,33.339],[82.1269,33.3911],[82.1888,33.335],[82.3382,33.3122],[82.4634,33.2359],[82.592,33.2315],[82.6815,33.3006],[82.7021,33.2818],[82.7674,33.2976],[82.8132,33.3501],[82.9103,33.3555],[82.7751,33.4417],[82.7106,33.4439],[82.691,33.4807],[82.6695,33.4815],[82.6237,33.4289],[82.5592,33.4311],[82.5386,33.4499],[82.4527,33.4528],[82.3272,33.5291],[82.0914,33.5546],[81.9647,33.6125]]]]}},{"type":"Feature","properties":{"cell":41,"feature":954,"phase":"Unclassified","min_bt_K":240.0,"area_km2":504,"cold_core_km2":0,"speed_kmh":44.4,"heading_deg":122,"d_min_bt_30":1.0,"age_min":60,"family":41,"touches_missing":true,"lon":81.7302,"lat":32.7704,"merges_splits_so_far":0},"geometry":{"type":"MultiPolygon","coordinates":[[[[81.7827,32.878],[81.7186,32.8798],[81.7068,32.853],[81.487,32.6965],[81.7105,32.6815],[81.7333,32.7169],[81.8186,32.7145],[81.9386,32.7742],[81.8967,32.7935],[81.8982,32.8295],[81.8673,32.8575],[81.8033,32.8593],[81.7827,32.878]]]]}},{"type":"Feature","properties":{"cell":43,"feature":978,"phase":"Developing","min_bt_K":230.0,"area_km2":3768,"cold_core_km2":0,"speed_kmh":29.7,"heading_deg":93,"d_min_bt_30":4.0,"age_min":60,"family":5,"touches_missing":true,"lon":72.4531,"lat":33.8317,"merges_splits_so_far":0},"geometry":{"type":"MultiPolygon","coordinates":[[[[72.0452,34.0081],[71.9918,33.9966],[72.0102,33.7267],[72.0569,33.6746],[72.1239,33.6415],[72.1377,33.597],[72.1796,33.6168],[72.2124,33.6092],[72.2206,33.4832],[72.2784,33.4225],[72.302,33.5589],[72.4572,33.6647],[72.5003,33.6665],[72.5627,33.7052],[72.7136,33.7112],[72.8808,33.8079],[72.9024,33.8088],[72.926,33.7736],[72.9887,33.812],[73.1614,33.8184],[73.2767,33.8857],[73.2738,33.9397],[73.2192,33.9468],[73.1947,34.0001],[72.5016,33.9915],[72.4789,34.0086],[72.068,33.991],[72.0452,34.0081]]]]}},{"type":"Feature","properties":{"cell":53,"feature":941,"phase":"Unclassified","min_bt_K":232.3,"area_km2":1952,"cold_core_km2":0,"speed_kmh":null,"heading_deg":null,"d_min_bt_30":null,"age_min":0,"family":53,"touches_missing":true,"lon":72.2407,"lat":28.0603,"merges_splits_so_far":0},"geometry":{"type":"MultiPolygon","coordinates":[[[[72.1254,28.2721],[71.9934,28.2571],[72.0081,27.8155],[72.0863,27.8732],[72.2284,27.8795],[72.2671,27.9173],[72.2884,27.9002],[72.3077,27.9191],[72.3899,27.9045],[72.4093,27.9234],[72.7838,27.9659],[72.7511,28.0097],[72.6892,28.0253],[72.4859,28.0169],[72.4637,28.0521],[72.423,28.0504],[72.3911,28.0761],[72.4308,28.0958],[72.4154,28.1945],[72.3747,28.1927],[72.3311,28.245],[72.2496,28.2415],[72.2312,28.2046],[72.2089,28.2397],[72.1477,28.237],[72.1254,28.2721]]]]}},{"type":"Feature","properties":{"cell":55,"feature":946,"phase":"Unclassified","min_bt_K":238.0,"area_km2":440,"cold_core_km2":0,"speed_kmh":null,"heading_deg":null,"d_min_bt_30":null,"age_min":0,"family":55,"touches_missing":true,"lon":72.6301,"lat":30.8734,"merges_splits_so_far":0},"geometry":{"type":"MultiPolygon","coordinates":[[[[72.5541,30.9616],[72.4436,30.8759],[72.4358,30.8304],[72.584,30.8005],[72.6656,30.8399],[72.8328,30.8465],[72.9564,30.8873],[72.9863,30.9155],[72.829,30.9185],[72.8071,30.9357],[72.6846,30.8767],[72.5541,30.9616]]]]}},{"type":"Feature","properties":{"cell":57,"feature":950,"phase":"Unclassified","min_bt_K":240.8,"area_km2":280,"cold_core_km2":0,"speed_kmh":null,"heading_deg":null,"d_min_bt_30":null,"age_min":0,"family":57,"touches_missing":true,"lon":83.4919,"lat":32.1997,"merges_splits_so_far":0},"geometry":{"type":"MultiPolygon","coordinates":[[[[83.5423,32.257],[83.4787,32.2596],[83.4532,32.1885],[83.326,32.1936],[83.3069,32.2305],[83.2433,32.233],[83.2231,32.2518],[83.1898,32.2261],[83.2635,32.2142],[83.3028,32.1585],[83.4087,32.1542],[83.4289,32.1353],[83.4712,32.1336],[83.5369,32.167],[83.6217,32.1634],[83.6551,32.1891],[83.6473,32.2345],[83.5624,32.2381],[83.5423,32.257]]]]}},{"type":"Feature","properties":{"cell":59,"feature":962,"phase":"Unclassified","min_bt_K":237.3,"area_km2":800,"cold_core_km2":0,"speed_kmh":null,"heading_deg":null,"d_min_bt_30":null,"age_min":0,"family":39,"touches_missing":true,"lon":81.384,"lat":33.689,"merges_splits_so_far":1},"geometry":{"type":"MultiPolygon","coordinates":[[[[81.1088,33.7975],[81.086,33.762],[80.9874,33.7191],[81.0822,33.6538],[81.1469,33.6523],[81.1678,33.6338],[81.2559,33.6858],[81.3414,33.6656],[81.3609,33.611],[81.5332,33.6066],[81.5451,33.6333],[81.5777,33.6415],[81.6305,33.613],[81.6171,33.5502],[81.6817,33.5484],[81.7382,33.61],[81.7397,33.6461],[81.6862,33.6566],[81.6765,33.6839],[81.6342,33.7031],[81.6357,33.7392],[81.5613,33.7682],[81.5397,33.7688],[81.4944,33.7158],[81.4736,33.7344],[81.3435,33.7197],[81.2586,33.7579],[81.1723,33.76],[81.1088,33.7975]]]]}},{"type":"Feature","properties":{"cell":61,"feature":964,"phase":"Unclassified","min_bt_K":240.7,"area_km2":144,"cold_core_km2":0,"speed_kmh":null,"heading_deg":null,"d_min_bt_30":null,"age_min":0,"family":61,"touches_missing":false,"lon":77.8046,"lat":33.6833,"merges_splits_so_far":0},"geometry":{"type":"MultiPolygon","coordinates":[[[[77.7842,33.7974],[77.7519,33.7702],[77.752,33.7342],[77.6874,33.6799],[77.8707,33.6351],[77.903,33.6802],[77.7735,33.7522],[77.795,33.7703],[77.7842,33.7974]]]]}},{"type":"Feature","properties":{"cell":63,"feature":967,"phase":"Unclassified","min_bt_K":235.8,"area_km2":864,"cold_core_km2":0,"speed_kmh":null,"heading_deg":null,"d_min_bt_30":null,"age_min":0,"family":39,"touches_missing":true,"lon":82.0401,"lat":33.7985,"merges_splits_so_far":0},"geometry":{"type":"MultiPolygon","coordinates":[[[[81.9168,33.9929],[81.7222,33.9984],[81.7095,33.9537],[81.7288,33.899],[81.8225,33.8152],[81.8864,33.7953],[81.9479,33.7213],[82.0118,33.7013],[82.142,33.7154],[82.2679,33.6393],[82.3868,33.6445],[82.367,33.6812],[82.3248,33.7006],[82.3274,33.7547],[82.2739,33.7654],[82.1902,33.8222],[82.1462,33.8055],[82.1039,33.8249],[82.0383,33.8088],[81.932,33.8481],[81.9016,33.8941],[81.9248,33.9295],[81.9168,33.9929]]]]}},{"type":"Feature","properties":{"cell":64,"feature":968,"phase":"Unclassified","min_bt_K":219.4,"area_km2":2928,"cold_core_km2":32,"speed_kmh":null,"heading_deg":null,"d_min_bt_30":null,"age_min":0,"family":64,"touches_missing":true,"lon":72.2397,"lat":30.4073,"merges_splits_so_far":0},"geometry":{"type":"MultiPolygon","coordinates":[[[[72.1915,30.7117],[72.0662,30.7061],[71.996,30.6578],[72.0103,30.4239],[71.9906,30.4049],[72.0179,30.1264],[72.0812,30.1112],[72.1195,30.1671],[72.1413,30.15],[72.2244,30.1536],[72.2638,30.1914],[72.3063,30.1752],[72.3448,30.231],[72.3666,30.2139],[72.4061,30.2517],[72.4892,30.2552],[72.5901,30.3135],[72.696,30.2817],[72.8306,30.296],[72.8088,30.3132],[72.7913,30.4479],[72.7298,30.4274],[72.7071,30.4626],[72.6693,30.3889],[72.6545,30.4695],[72.6218,30.4952],[72.6129,30.4678],[72.5822,30.4575],[72.5683,30.5201],[72.5177,30.491],[72.4928,30.5621],[72.4621,30.5518],[72.4552,30.4883],[72.4095,30.5586],[72.3688,30.5388],[72.3141,30.5816],[72.3339,30.6005],[72.3209,30.6451],[72.3,30.6442],[72.2813,30.6073],[72.2495,30.6149],[72.2682,30.6518],[72.2145,30.6766],[72.1915,30.7117]]],[[[72.7654,30.3476],[72.7574,30.3021],[72.7049,30.3091],[72.7337,30.3553],[72.7654,30.3476]]]]}},{"type":"Feature","properties":{"cell":68,"feature":972,"phase":"Unclassified","min_bt_K":225.7,"area_km2":3024,"cold_core_km2":0,"speed_kmh":null,"heading_deg":null,"d_min_bt_30":null,"age_min":0,"family":5,"touches_missing":true,"lon":73.5286,"lat":32.8478,"merges_splits_so_far":1},"geometry":{"type":"MultiPolygon","coordinates":[[[[73.4386,33.0521],[73.3334,33.0124],[73.2674,33.0461],[73.2246,33.0446],[73.1317,32.9781],[73.1336,32.9421],[73.1996,32.9084],[73.2016,32.8724],[73.12,32.7972],[73.1248,32.7072],[73.2018,32.6648],[73.2472,32.6123],[73.288,32.6499],[73.3732,32.6528],[73.4389,32.619],[73.5454,32.6226],[73.6484,32.6982],[73.7559,32.6836],[73.7968,32.721],[73.8411,32.6863],[74.1033,32.7935],[74.0979,32.9196],[74.0647,32.9457],[74.022,32.9444],[73.976,33.0152],[73.7638,32.9726],[73.7227,32.9352],[73.6577,32.9511],[73.6159,32.9317],[73.5919,32.9851],[73.5286,32.9649],[73.4386,33.0521]]],[[[73.4614,32.8093],[73.4837,32.792],[73.453,32.7639],[73.3992,32.771],[73.4076,32.8164],[73.4614,32.8093]]]]}},{"type":"Feature","properties":{"cell":71,"feature":976,"phase":"Unclassified","min_bt_K":230.2,"area_km2":724,"cold_core_km2":0,"speed_kmh":null,"heading_deg":null,"d_min_bt_30":null,"age_min":0,"family":71,"touches_missing":true,"lon":72.7463,"lat":33.0936,"merges_splits_so_far":0},"geometry":{"type":"MultiPolygon","coordinates":[[[[72.7852,33.2267],[72.7445,33.189],[72.6159,33.1839],[72.4816,33.0972],[72.5153,33.0715],[72.5581,33.0733],[72.6491,32.9867],[72.7336,33.0081],[72.8426,32.9763],[72.8833,33.0139],[72.9688,33.0172],[72.977,33.0626],[72.7852,33.2267]]]]}},{"type":"Feature","properties":{"cell":72,"feature":977,"phase":"Unclassified","min_bt_K":228.3,"area_km2":1464,"cold_core_km2":0,"speed_kmh":null,"heading_deg":null,"d_min_bt_30":null,"age_min":0,"family":5,"touches_missing":true,"lon":72.1228,"lat":33.4377,"merges_splits_so_far":0},"geometry":{"type":"MultiPolygon","coordinates":[[[[72.0216,33.7182],[71.9898,33.7077],[72.0088,33.2663],[72.2053,33.2209],[72.2673,33.2596],[72.3554,33.2273],[72.4367,33.3029],[72.544,33.3073],[72.6116,33.2559],[72.6432,33.2662],[72.6378,33.3562],[72.7012,33.3768],[72.6877,33.4214],[72.5803,33.4171],[72.4763,33.3587],[72.4548,33.3578],[72.4311,33.3929],[72.2999,33.4235],[72.2581,33.4036],[72.1776,33.4814],[72.1706,33.5894],[72.1263,33.6055],[72.1239,33.6415],[72.0683,33.6661],[72.0216,33.7182]]]]}}]}