{"type":"FeatureCollection","features":[{"type":"Feature","properties":{"cell":32,"feature":1034,"phase":"Developing","min_bt_K":220.0,"area_km2":32344,"cold_core_km2":16,"speed_kmh":54.3,"heading_deg":105,"d_min_bt_30":-2.1,"age_min":150,"family":5,"touches_missing":true,"lon":75.3623,"lat":33.4379,"merges_splits_so_far":7},"geometry":{"type":"MultiPolygon","coordinates":[[[[74.0175,34.009],[73.5633,33.9947],[73.5106,33.9659],[73.611,33.9061],[73.6758,33.9082],[73.7208,33.8735],[73.7856,33.8756],[73.8521,33.8416],[73.8953,33.8429],[73.9625,33.7908],[74.0281,33.7747],[74.0736,33.7219],[74.1583,33.7605],[74.3093,33.7647],[74.3428,33.7386],[74.3123,33.6926],[74.2692,33.6914],[74.238,33.6635],[74.2076,33.6175],[74.1542,33.607],[74.1557,33.5709],[74.0099,33.4584],[74.0115,33.4223],[73.9805,33.3943],[73.9272,33.3837],[73.9941,33.3316],[73.975,33.2769],[74.0537,33.198],[74.1164,33.2359],[74.3257,33.1065],[74.35,33.035],[74.4612,32.9298],[74.4619,32.9117],[74.3993,32.874],[74.422,32.8385],[74.3808,32.8013],[74.4565,32.7763],[74.5013,32.7233],[74.5439,32.7244],[74.5879,32.6895],[74.7779,32.7483],[74.8431,32.7138],[74.8638,32.7323],[75.163,32.721],[75.1936,32.7667],[75.2357,32.7857],[75.2099,32.9295],[75.188,32.947],[75.2296,32.984],[75.1204,33.0539],[75.1621,33.0908],[75.1291,33.1172],[75.1083,33.0987],[75.0753,33.125],[75.0851,33.1523],[75.1285,33.1352],[75.2357,33.1375],[75.324,33.0491],[75.3882,33.0503],[75.4295,33.1053],[75.5142,33.143],[75.6218,33.1269],[75.6655,33.0916],[75.8159,33.0761],[75.8272,33.0492],[75.7853,33.0124],[75.7862,32.9763],[75.8512,32.9413],[75.8533,32.8511],[75.9078,32.8069],[76.0149,32.7905],[76.0568,32.8272],[76.1216,32.792],[76.207,32.7932],[76.401,32.6874],[76.4649,32.6882],[76.4865,32.6704],[76.5075,32.6887],[76.5715,32.6894],[76.6352,32.7081],[76.6771,32.7626],[76.8266,32.746],[76.89,32.8007],[76.9542,32.7831],[77.0496,32.847],[76.9955,32.9097],[76.8887,32.9089],[76.8464,32.8724],[76.7823,32.8719],[76.7391,32.9076],[76.6963,32.9071],[76.7272,32.9886],[76.7806,32.9981],[76.9308,32.9634],[76.9941,33.036],[77.09,33.0818],[77.068,33.1358],[77.1105,33.1721],[77.0887,33.2081],[77.1527,33.2446],[77.1518,33.3348],[77.2053,33.3622],[77.3558,33.3449],[77.4305,33.4084],[77.4196,33.4354],[77.1833,33.4162],[77.0968,33.4697],[76.8595,33.522],[76.816,33.5578],[76.7515,33.5572],[76.7411,33.53],[76.7089,33.5207],[76.6754,33.6015],[76.5654,33.7447],[76.5649,33.7808],[76.532,33.8075],[76.4676,33.7888],[76.4457,33.8066],[76.3162,33.805],[76.2291,33.84],[76.1962,33.8666],[76.1947,33.9387],[76.1609,34.0014],[76.0964,33.9825],[76.0099,33.9812],[75.9879,33.9989],[75.9238,33.9619],[75.7509,33.9591],[75.7288,33.9768],[75.6423,33.9753],[75.5115,34.009],[74.6895,33.9912],[74.6672,34.0087],[74.0399,33.9916],[74.0175,34.009]]],[[[74.9744,33.5739],[75.0193,33.5208],[75.0217,33.4486],[75.0438,33.4311],[75.048,33.3049],[75.0161,33.2951],[74.9958,33.2586],[75.0014,33.4121],[75.0223,33.4306],[74.9787,33.4477],[74.9756,33.5378],[74.9535,33.5554],[74.9529,33.5734],[74.9744,33.5739]]]]}},{"type":"Feature","properties":{"cell":39,"feature":1020,"phase":"Developing","min_bt_K":239.0,"area_km2":1616,"cold_core_km2":0,"speed_kmh":41.8,"heading_deg":106,"d_min_bt_30":3.5,"age_min":120,"family":39,"touches_missing":true,"lon":82.5378,"lat":33.3651,"merges_splits_so_far":2},"geometry":{"type":"MultiPolygon","coordinates":[[[[82.6265,33.483],[82.5405,33.4859],[82.4527,33.4528],[82.2394,33.4958],[82.224,33.397],[82.1269,33.3911],[82.0703,33.3296],[82.0679,33.2756],[82.0996,33.2656],[82.1227,33.301],[82.2086,33.2983],[82.2498,33.2609],[82.3794,33.2747],[82.4634,33.2359],[82.5081,33.2705],[82.5733,33.2863],[82.6368,33.2661],[82.8122,33.332],[82.8747,33.2937],[82.9819,33.2897],[83.125,33.3475],[82.904,33.437],[82.8171,33.4221],[82.7966,33.4409],[82.6891,33.4447],[82.6265,33.483]]]]}},{"type":"Feature","properties":{"cell":53,"feature":1031,"phase":"Developing","min_bt_K":228.8,"area_km2":2992,"cold_core_km2":0,"speed_kmh":13.0,"heading_deg":324,"d_min_bt_30":-3.4,"age_min":30,"family":53,"touches_missing":true,"lon":72.2016,"lat":28.1075,"merges_splits_so_far":1},"geometry":{"type":"MultiPolygon","coordinates":[[[[72.3418,28.426],[72.1581,28.418],[72.1193,28.3802],[72.0969,28.4153],[72.0357,28.4125],[72.0077,28.3661],[71.9903,28.3112],[72.0025,27.734],[72.076,27.6922],[72.1165,27.694],[72.1551,27.7318],[72.297,27.7381],[72.3859,27.787],[72.3628,27.8402],[72.3,27.8736],[72.2942,27.9817],[72.3746,28.0032],[72.3707,28.0752],[72.4299,28.1138],[72.4261,28.1859],[72.5163,28.2168],[72.5427,28.2991],[72.5214,28.3163],[72.506,28.4149],[72.3632,28.4089],[72.3418,28.426]]],[[[72.3835,28.2202],[72.3378,28.1189],[72.3243,28.1816],[72.3835,28.2202]]],[[[72.3136,28.3797],[72.3583,28.3094],[72.4,28.2931],[72.4223,28.2579],[72.4135,28.2305],[72.3486,28.2999],[72.3088,28.2802],[72.2777,28.2878],[72.3165,28.3256],[72.2942,28.3608],[72.2932,28.3788],[72.3136,28.3797]]]]}},{"type":"Feature","properties":{"cell":55,"feature":1005,"phase":"Unclassified","min_bt_K":236.4,"area_km2":208,"cold_core_km2":0,"speed_kmh":41.3,"heading_deg":87,"d_min_bt_30":-1.6,"age_min":30,"family":55,"touches_missing":true,"lon":72.8458,"lat":30.8841,"merges_splits_so_far":0},"geometry":{"type":"MultiPolygon","coordinates":[[[[72.9317,30.9586],[72.7762,30.9255],[72.773,30.79],[72.8148,30.7916],[72.8537,30.8473],[72.8965,30.8309],[72.9264,30.8591],[72.9654,30.9147],[72.9317,30.9586]]]]}},{"type":"Feature","properties":{"cell":57,"feature":1011,"phase":"Developing","min_bt_K":240.1,"area_km2":324,"cold_core_km2":0,"speed_kmh":37.2,"heading_deg":267,"d_min_bt_30":-0.7,"age_min":30,"family":57,"touches_missing":true,"lon":83.2949,"lat":32.1913,"merges_splits_so_far":0},"geometry":{"type":"MultiPolygon","coordinates":[[[[83.2039,32.2887],[83.1676,32.2089],[83.1242,32.1925],[83.1535,32.1463],[83.2604,32.1601],[83.2997,32.1045],[83.3632,32.1019],[83.3865,32.1371],[83.44,32.1439],[83.3594,32.2194],[83.3514,32.2648],[83.3291,32.2476],[83.2039,32.2887]]]]}},{"type":"Feature","properties":{"cell":59,"feature":1022,"phase":"Developing","min_bt_K":236.4,"area_km2":1312,"cold_core_km2":0,"speed_kmh":21.4,"heading_deg":128,"d_min_bt_30":-0.9,"age_min":30,"family":39,"touches_missing":true,"lon":81.4751,"lat":33.6302,"merges_splits_so_far":1},"geometry":{"type":"MultiPolygon","coordinates":[[[[81.0441,33.799],[80.9578,33.801],[80.9134,33.7658],[80.8924,33.7843],[80.8271,33.7677],[80.8155,33.7409],[80.911,33.6937],[80.9326,33.6932],[80.9553,33.7288],[80.9985,33.7279],[81.0816,33.6358],[81.188,33.5972],[81.2761,33.6492],[81.4679,33.5902],[81.5763,33.6054],[81.6068,33.5595],[81.6802,33.5124],[81.7447,33.5106],[81.7655,33.4919],[81.7878,33.5094],[81.8738,33.5069],[81.9471,33.4596],[81.9558,33.4143],[82.0195,33.3943],[82.0633,33.4111],[82.0976,33.4551],[82.0467,33.5198],[81.9399,33.5411],[81.8777,33.597],[81.7708,33.6181],[81.7293,33.6554],[81.5785,33.6595],[81.5383,33.7327],[81.5145,33.6792],[81.4068,33.682],[81.3859,33.7006],[81.2781,33.7033],[81.269,33.7486],[81.2161,33.777],[81.1938,33.7594],[81.0644,33.7625],[81.0441,33.799]]]]}},{"type":"Feature","properties":{"cell":61,"feature":1023,"phase":"Developing","min_bt_K":240.4,"area_km2":156,"cold_core_km2":0,"speed_kmh":14.3,"heading_deg":319,"d_min_bt_30":-0.3,"age_min":30,"family":61,"touches_missing":false,"lon":77.754,"lat":33.7317,"merges_splits_so_far":0},"geometry":{"type":"MultiPolygon","coordinates":[[[[77.741,33.7973],[77.6548,33.761],[77.6442,33.7159],[77.806,33.6711],[77.8491,33.6892],[77.8598,33.7163],[77.741,33.7973]]]]}},{"type":"Feature","properties":{"cell":63,"feature":1025,"phase":"Developing","min_bt_K":235.0,"area_km2":1072,"cold_core_km2":0,"speed_kmh":56.2,"heading_deg":105,"d_min_bt_30":-0.8,"age_min":30,"family":39,"touches_missing":true,"lon":82.3332,"lat":33.7325,"merges_splits_so_far":1},"geometry":{"type":"MultiPolygon","coordinates":[[[[82.1339,34.0044],[81.9713,34.0003],[81.968,33.9282],[82.0,33.9182],[82.02,33.8816],[82.0882,33.9517],[82.1833,33.9036],[82.1583,33.8322],[82.1143,33.8155],[82.0893,33.7441],[82.1204,33.7161],[82.3136,33.692],[82.329,33.5651],[82.372,33.5637],[82.4168,33.5983],[82.4581,33.5609],[82.5648,33.5392],[82.6443,33.6177],[82.5712,33.6654],[82.486,33.6863],[82.4456,33.7418],[82.3387,33.7633],[82.3076,33.7914],[82.3318,33.8448],[82.2904,33.8822],[82.2922,33.9182],[82.1339,34.0044]]]]}},{"type":"Feature","properties":{"cell":64,"feature":1038,"phase":"Developing","min_bt_K":218.1,"area_km2":6260,"cold_core_km2":196,"speed_kmh":52.9,"heading_deg":102,"d_min_bt_30":-1.3,"age_min":30,"family":64,"touches_missing":true,"lon":72.5085,"lat":30.357,"merges_splits_so_far":0},"geometry":{"type":"MultiPolygon","coordinates":[[[[72.0058,30.6673],[72.0026,30.0355],[72.2503,30.0645],[72.2897,30.1023],[72.8904,30.1449],[72.9094,30.1818],[72.9716,30.1841],[72.9915,30.2029],[73.0132,30.1857],[73.0547,30.1873],[73.0944,30.2248],[73.1576,30.2091],[73.2364,30.3022],[73.3403,30.3059],[73.3619,30.2886],[73.5382,30.3037],[73.4617,30.3823],[73.4084,30.4075],[73.4284,30.4263],[73.3959,30.4522],[73.366,30.4241],[73.3677,30.3881],[73.4101,30.3715],[73.4027,30.3081],[73.3469,30.3873],[73.3435,30.4594],[73.2702,30.4658],[73.225,30.5364],[73.1833,30.5349],[73.1851,30.4989],[73.1208,30.5326],[73.0601,30.4942],[73.0185,30.4927],[72.9995,30.4559],[72.9442,30.5169],[72.9016,30.5334],[72.9405,30.589],[72.8633,30.6672],[72.8007,30.6648],[72.7618,30.6091],[72.6159,30.6033],[72.597,30.5664],[72.5345,30.5638],[72.5147,30.545],[72.4512,30.5604],[72.3272,30.5371],[72.3162,30.5456],[72.3569,30.5654],[72.323,30.6091],[72.1562,30.6018],[72.0498,30.6332],[72.0058,30.6673]]]]}},{"type":"Feature","properties":{"cell":68,"feature":1033,"phase":"Developing","min_bt_K":220.5,"area_km2":7928,"cold_core_km2":12,"speed_kmh":41.5,"heading_deg":231,"d_min_bt_30":-5.2,"age_min":30,"family":5,"touches_missing":true,"lon":73.3567,"lat":32.7299,"merges_splits_so_far":4},"geometry":{"type":"MultiPolygon","coordinates":[[[[73.6482,33.1493],[73.5839,33.1472],[73.5429,33.1098],[73.3502,33.1032],[73.3297,33.0844],[73.2636,33.1182],[73.1882,33.1245],[73.1716,33.0337],[73.2405,32.9459],[73.273,32.9381],[73.352,32.8596],[73.3343,32.7868],[73.3028,32.7767],[73.2833,32.7399],[73.1757,32.7541],[73.0933,32.697],[73.071,32.7142],[72.8792,32.707],[72.8132,32.7405],[72.7716,32.7208],[72.7482,32.756],[72.6202,32.7509],[72.601,32.714],[72.4518,32.7079],[72.3901,32.6692],[72.2611,32.6818],[72.2601,32.5283],[72.391,32.4798],[72.3965,32.3898],[72.43,32.3641],[72.5106,32.4396],[72.5744,32.4423],[72.6211,32.372],[72.79,32.3967],[72.8517,32.4352],[72.9802,32.4221],[73.0846,32.4621],[73.1455,32.5184],[73.1779,32.5106],[73.1798,32.4746],[73.2131,32.4487],[73.2223,32.4761],[73.2537,32.4862],[73.2981,32.4517],[73.4062,32.4194],[73.4478,32.4389],[73.4912,32.4223],[73.5975,32.4259],[73.6383,32.4633],[73.6817,32.4467],[73.7728,32.5488],[73.7268,32.6195],[73.778,32.6663],[73.9059,32.6703],[73.9714,32.6362],[74.0116,32.6915],[74.0543,32.6928],[74.0954,32.7301],[74.1586,32.75],[74.2241,32.7157],[74.2446,32.7344],[74.33,32.7367],[74.3609,32.7647],[74.3491,32.7914],[74.2954,32.7989],[74.3366,32.8362],[74.302,32.8984],[74.2586,32.9152],[74.2166,32.896],[74.1937,32.9314],[74.1502,32.9482],[74.1296,32.9296],[74.0853,32.9644],[74.0441,32.9271],[73.999,32.9798],[73.9356,32.9599],[73.8904,33.0126],[73.8263,33.0106],[73.8032,33.046],[73.7604,33.0447],[73.7467,33.1074],[73.6714,33.114],[73.6482,33.1493]]]]}},{"type":"Feature","properties":{"cell":71,"feature":1036,"phase":"Unclassified","min_bt_K":232.2,"area_km2":656,"cold_core_km2":0,"speed_kmh":29.0,"heading_deg":89,"d_min_bt_30":2.0,"age_min":30,"family":71,"touches_missing":true,"lon":72.9015,"lat":33.0965,"merges_splits_so_far":0},"geometry":{"type":"MultiPolygon","coordinates":[[[[73.0241,33.1817],[72.8955,33.1768],[72.7905,33.1367],[72.768,33.1538],[72.7037,33.1513],[72.6314,33.1033],[72.6336,33.0673],[72.6897,33.0244],[72.7101,33.0433],[72.7743,33.0458],[72.7967,33.0286],[72.9026,33.0508],[72.9474,33.0164],[72.9902,33.018],[73.0524,33.0564],[73.1604,33.0423],[73.1882,33.1245],[73.0241,33.1817]]]]}},{"type":"Feature","properties":{"cell":72,"feature":1037,"phase":"Unclassified","min_bt_K":229.1,"area_km2":4660,"cold_core_km2":0,"speed_kmh":28.2,"heading_deg":68,"d_min_bt_30":0.8,"age_min":30,"family":5,"touches_missing":true,"lon":72.2637,"lat":33.485,"merges_splits_so_far":1},"geometry":{"type":"MultiPolygon","coordinates":[[[[72.4845,33.9186],[72.4016,33.861],[72.3152,33.8573],[72.2925,33.8744],[72.2289,33.8536],[71.9898,33.7077],[72.0035,33.1849],[72.122,33.1811],[72.254,33.1327],[72.2687,33.0702],[72.325,33.0275],[72.3903,33.0122],[72.4545,33.0148],[72.4849,33.0432],[72.4602,33.0963],[72.3701,33.1647],[72.4016,33.1751],[72.4208,33.212],[72.4953,33.2241],[72.5134,33.279],[72.4468,33.3123],[72.4446,33.3483],[72.5181,33.3784],[72.5363,33.4333],[72.6593,33.3571],[72.6411,33.3022],[72.6738,33.2945],[72.7199,33.2422],[72.7821,33.2807],[72.825,33.2824],[72.8556,33.3106],[72.8321,33.3458],[72.8842,33.3749],[72.9088,33.3217],[73.0375,33.3266],[73.0672,33.3728],[73.0131,33.3798],[72.9568,33.4228],[72.9548,33.4588],[72.9005,33.4658],[72.8319,33.5353],[72.7663,33.5508],[72.7469,33.514],[72.6834,33.4934],[72.5591,33.5877],[72.5989,33.6434],[72.5967,33.6795],[72.5514,33.7137],[72.5696,33.7686],[72.5231,33.8209],[72.5629,33.8766],[72.4845,33.9186]]],[[[72.8227,33.5079],[72.83,33.3819],[72.7983,33.3716],[72.7789,33.3347],[72.7828,33.4522],[72.8012,33.5071],[72.8227,33.5079]]],[[[72.4164,33.7984],[72.4618,33.7642],[72.4652,33.7102],[72.5105,33.6759],[72.4844,33.5756],[72.4663,33.6922],[72.4221,33.7084],[72.4186,33.7624],[72.3959,33.7795],[72.3948,33.7975],[72.4164,33.7984]]]]}},{"type":"Feature","properties":{"cell":73,"feature":1012,"phase":"Unclassified","min_bt_K":240.8,"area_km2":268,"cold_core_km2":0,"speed_kmh":null,"heading_deg":null,"d_min_bt_30":null,"age_min":0,"family":57,"touches_missing":true,"lon":83.6013,"lat":32.1364,"merges_splits_so_far":0},"geometry":{"type":"MultiPolygon","coordinates":[[[[83.6685,32.2336],[83.6473,32.2345],[83.6239,32.1994],[83.5815,32.2012],[83.5359,32.149],[83.4712,32.1336],[83.4591,32.107],[83.5739,32.0752],[83.6184,32.1094],[83.6597,32.0896],[83.6831,32.1247],[83.7667,32.1031],[83.8013,32.1467],[83.7277,32.1589],[83.6685,32.2336]]]]}},{"type":"Feature","properties":{"cell":74,"feature":1013,"phase":"Unclassified","min_bt_K":236.6,"area_km2":616,"cold_core_km2":0,"speed_kmh":null,"heading_deg":null,"d_min_bt_30":null,"age_min":0,"family":5,"touches_missing":true,"lon":76.8695,"lat":32.5114,"merges_splits_so_far":0},"geometry":{"type":"MultiPolygon","coordinates":[[[[76.9563,32.6027],[76.8285,32.6017],[76.8074,32.5835],[76.7433,32.6009],[76.6694,32.5551],[76.6699,32.519],[76.767,32.4207],[76.8733,32.4217],[76.8943,32.4399],[77.0646,32.4231],[77.107,32.4415],[77.1173,32.4686],[77.0957,32.5045],[76.9997,32.5309],[76.9563,32.6027]]]]}},{"type":"Feature","properties":{"cell":78,"feature":1017,"phase":"Unclassified","min_bt_K":236.2,"area_km2":448,"cold_core_km2":0,"speed_kmh":null,"heading_deg":null,"d_min_bt_30":null,"age_min":0,"family":78,"touches_missing":true,"lon":80.9,"lat":32.8289,"merges_splits_so_far":0},"geometry":{"type":"MultiPolygon","coordinates":[[[[80.9934,32.9341],[80.8854,32.9004],[80.8438,32.9373],[80.8213,32.9017],[80.6816,32.8776],[80.7347,32.8675],[80.766,32.8397],[80.7649,32.8037],[80.8179,32.7936],[80.8595,32.7566],[80.9246,32.7913],[81.0076,32.7172],[81.0929,32.7153],[81.1051,32.7601],[80.9795,32.8352],[80.9812,32.8892],[81.0246,32.9063],[80.9934,32.9341]]]]}},{"type":"Feature","properties":{"cell":82,"feature":1029,"phase":"Unclassified","min_bt_K":232.0,"area_km2":3092,"cold_core_km2":0,"speed_kmh":null,"heading_deg":null,"d_min_bt_30":null,"age_min":0,"family":53,"touches_missing":true,"lon":73.4611,"lat":27.5346,"merges_splits_so_far":0},"geometry":{"type":"MultiPolygon","coordinates":[[[[73.1448,27.8623],[73.0238,27.8398],[73.0052,27.803],[72.8834,27.7983],[72.8552,27.752],[72.9502,27.6745],[72.9908,27.676],[73.033,27.6415],[73.0937,27.6438],[73.229,27.5675],[73.1723,27.4752],[73.2062,27.3952],[73.2871,27.3981],[73.3081,27.3808],[73.3275,27.3995],[73.5911,27.3906],[73.6629,27.3659],[73.7173,27.2684],[73.8176,27.2897],[73.8566,27.327],[73.9068,27.3376],[73.9047,27.3917],[73.9445,27.411],[73.9822,27.4844],[73.9091,27.5453],[73.8686,27.544],[73.8574,27.5708],[73.8267,27.5788],[73.7876,27.5415],[73.7374,27.5308],[73.7416,27.4226],[73.7116,27.4126],[73.6969,27.5295],[73.7269,27.5395],[73.7359,27.5669],[73.6242,27.5722],[73.5815,27.625],[73.5507,27.633],[73.5808,27.643],[73.6228,27.6083],[73.6191,27.6984],[73.4975,27.6943],[73.4787,27.6576],[73.4584,27.6569],[73.4367,27.6922],[73.3556,27.6894],[73.3166,27.6519],[73.2656,27.6591],[73.2745,27.6865],[73.3353,27.6887],[73.354,27.7255],[73.4351,27.7283],[73.4569,27.6929],[73.4772,27.6936],[73.496,27.7304],[73.5973,27.7338],[73.6267,27.7619],[73.6147,27.8066],[73.5944,27.8059],[73.5756,27.7692],[73.5538,27.8046],[73.4305,27.8365],[73.3809,27.8076],[73.3825,27.7716],[73.3532,27.7435],[73.3119,27.7601],[73.2932,27.7233],[73.2526,27.7218],[73.2105,27.7564],[73.1707,27.7369],[73.118,27.7801],[73.148,27.7902],[73.1699,27.7549],[73.1902,27.7557],[73.2089,27.7925],[73.2308,27.7572],[73.2811,27.768],[73.269,27.8127],[73.1667,27.827],[73.1448,27.8623]]]]}},{"type":"Feature","properties":{"cell":83,"feature":1030,"phase":"Unclassified","min_bt_K":227.9,"area_km2":3836,"cold_core_km2":0,"speed_kmh":null,"heading_deg":null,"d_min_bt_30":null,"age_min":0,"family":53,"touches_missing":true,"lon":72.6697,"lat":28.0514,"merges_splits_so_far":1},"geometry":{"type":"MultiPolygon","coordinates":[[[[72.6284,28.42],[72.5876,28.4183],[72.5691,28.3814],[72.5167,28.4063],[72.5214,28.3163],[72.5427,28.2991],[72.526,28.2262],[72.4261,28.1859],[72.4299,28.1138],[72.3707,28.0752],[72.3746,28.0032],[72.2942,27.9817],[72.3,27.8736],[72.3628,27.8402],[72.3859,27.787],[72.4583,27.763],[72.6003,27.7689],[72.6999,27.8091],[72.7211,27.7919],[72.8023,27.7951],[72.8411,27.8327],[72.902,27.8351],[73.0204,27.9118],[73.1423,27.9164],[73.1707,27.9626],[73.2301,28.0008],[73.2293,28.0189],[73.1878,28.0354],[73.2179,28.0455],[73.2268,28.0729],[73.1959,28.0808],[73.1764,28.0621],[73.1341,28.0966],[73.0934,28.0951],[73.0714,28.1304],[73.0307,28.1289],[73.0061,28.2182],[72.9865,28.1994],[72.9255,28.1971],[72.8387,28.302],[72.6284,28.42]]]]}}]}