{"type":"FeatureCollection","features":[{"type":"Feature","properties":{"cell":32,"feature":1101,"phase":"Developing","min_bt_K":221.0,"area_km2":45576,"cold_core_km2":0,"speed_kmh":45.4,"heading_deg":204,"d_min_bt_30":1.0,"age_min":180,"family":5,"touches_missing":true,"lon":75.2629,"lat":33.2507,"merges_splits_so_far":8},"geometry":{"type":"MultiPolygon","coordinates":[[[[74.0175,34.009],[73.9093,34.0057],[73.8574,33.959],[73.8919,33.915],[73.9792,33.8996],[73.9912,33.8729],[73.8089,33.8402],[73.8003,33.7948],[73.8787,33.7341],[73.9426,33.7541],[73.9866,33.7374],[74.1159,33.7412],[74.1575,33.7785],[74.2007,33.7797],[74.3004,33.7194],[74.3012,33.7013],[74.2588,33.6821],[74.2611,33.628],[74.2195,33.5908],[74.2434,33.5373],[74.2249,33.4646],[74.142,33.3901],[74.1276,33.2272],[74.2947,33.0786],[74.3604,33.0443],[74.4032,33.0455],[74.437,33.0013],[74.5026,32.9669],[74.5047,32.9129],[74.4302,32.9019],[74.3433,32.9356],[74.3205,32.9711],[74.1907,33.0035],[74.1788,33.0302],[74.1242,33.0557],[74.0814,33.0545],[74.014,33.1247],[73.8855,33.1208],[73.8649,33.1021],[73.8427,33.1194],[73.5001,33.1083],[73.4777,33.1256],[73.4069,33.042],[73.365,33.0225],[73.4208,32.9793],[73.4627,32.9988],[73.5175,32.9736],[73.5406,32.9383],[73.5201,32.9195],[73.5886,32.8316],[73.3686,32.7429],[73.3065,32.7047],[73.287,32.6679],[73.2648,32.6851],[73.2565,32.6397],[73.1334,32.5451],[73.1353,32.509],[73.1687,32.4832],[73.2547,32.4682],[73.4956,32.3322],[73.7088,32.3212],[73.7529,32.2866],[73.8378,32.2892],[73.8786,32.3266],[74.006,32.3305],[74.0265,32.3491],[74.0909,32.333],[74.3033,32.3391],[74.3128,32.3664],[74.4574,32.4786],[74.456,32.5146],[74.3467,32.5838],[74.3666,32.6205],[74.4188,32.6489],[74.6312,32.6725],[74.6938,32.7102],[74.7591,32.6757],[74.8644,32.7143],[74.9077,32.6973],[74.9521,32.6442],[75.0373,32.6461],[75.0592,32.6285],[75.1444,32.6304],[75.1854,32.6854],[75.2504,32.6506],[75.28,32.7324],[75.2351,32.8037],[75.2663,32.8314],[75.3726,32.8516],[75.3814,32.9149],[75.4445,32.9522],[75.4545,32.9794],[75.5395,32.9991],[75.5495,33.0263],[75.5271,33.062],[75.6013,33.0904],[75.7102,33.0202],[75.8818,33.005],[75.9363,32.9607],[75.9375,32.9066],[75.896,32.8518],[75.9939,32.7721],[76.1003,32.7917],[76.1115,32.7648],[76.165,32.7566],[76.2087,32.703],[76.2944,32.6861],[76.3377,32.6506],[76.4229,32.6516],[76.5942,32.5994],[76.6789,32.6364],[76.7004,32.6185],[76.7215,32.6368],[76.8067,32.6376],[76.8276,32.6738],[77.0407,32.6755],[77.1043,32.7121],[77.147,32.7123],[77.1786,32.7576],[77.2211,32.7759],[77.1456,32.8567],[77.1029,32.8564],[77.0706,32.8832],[77.1121,33.0098],[77.1439,33.0371],[77.3153,33.02],[77.3895,33.1196],[77.4961,33.2102],[77.4959,33.2463],[77.5816,33.2647],[77.5814,33.3007],[77.5168,33.3546],[77.5381,33.3728],[77.4841,33.4357],[77.4195,33.4535],[77.3551,33.4351],[77.301,33.48],[77.4075,33.6429],[77.4719,33.6792],[77.4609,33.7062],[77.3963,33.706],[77.3535,33.6516],[77.289,33.6333],[77.1377,33.6865],[77.0723,33.7582],[76.8997,33.7569],[76.8345,33.7925],[76.7697,33.7919],[76.7484,33.7736],[76.4463,33.7705],[76.4451,33.8426],[76.2503,33.8583],[76.1078,33.9556],[76.1177,34.0008],[74.6895,33.9912],[74.6672,34.0087],[74.0399,33.9916],[74.0175,34.009]]],[[[75.5047,33.0977],[75.4524,33.0516],[75.4201,33.06],[75.4723,33.1061],[75.5047,33.0977]]],[[[75.192,33.5065],[75.2604,33.3816],[75.3044,33.3464],[75.3055,33.3103],[75.2213,33.2545],[75.223,33.2004],[75.2565,33.156],[75.2241,33.1643],[75.2126,33.1911],[75.1923,33.1546],[75.1598,33.163],[75.2016,33.1999],[75.1999,33.254],[75.2626,33.3094],[75.2609,33.3635],[75.2383,33.3992],[75.1948,33.4163],[75.1931,33.4704],[75.171,33.488],[75.1705,33.506],[75.192,33.5065]]]]}},{"type":"Feature","properties":{"cell":39,"feature":1105,"phase":"Developing","min_bt_K":234.3,"area_km2":1828,"cold_core_km2":0,"speed_kmh":43.9,"heading_deg":50,"d_min_bt_30":-4.7,"age_min":150,"family":39,"touches_missing":true,"lon":82.7202,"lat":33.491,"merges_splits_so_far":2},"geometry":{"type":"MultiPolygon","coordinates":[[[[82.8788,33.7628],[82.8563,33.7456],[82.7916,33.7479],[82.7465,33.7134],[82.7034,33.7149],[82.5788,33.6019],[82.6069,33.5198],[82.6723,33.5355],[82.735,33.4972],[82.8855,33.4918],[82.8845,33.4738],[82.7526,33.4244],[82.6667,33.4274],[82.6536,33.3828],[82.5313,33.3058],[82.382,33.3288],[82.352,33.3749],[82.2996,33.4037],[82.2635,33.3236],[82.1957,33.2536],[82.2489,33.2429],[82.3141,33.2588],[82.3391,33.3302],[82.3459,33.2488],[82.3964,33.184],[82.4821,33.1811],[82.6088,33.1407],[82.6433,33.1846],[82.6871,33.2011],[82.689,33.2372],[82.634,33.212],[82.5277,33.2337],[82.5743,33.3043],[82.8113,33.314],[82.8737,33.2757],[82.9176,33.2921],[83.0882,33.2677],[83.1342,33.3201],[82.9839,33.3258],[82.9615,33.3085],[82.9308,33.3367],[82.9337,33.3908],[83.0114,33.433],[83.0237,33.4596],[82.9827,33.4972],[82.9868,33.5693],[82.9027,33.6085],[82.9097,33.7346],[82.8788,33.7628]]]]}},{"type":"Feature","properties":{"cell":63,"feature":1094,"phase":"Developing","min_bt_K":234.3,"area_km2":1224,"cold_core_km2":0,"speed_kmh":45.4,"heading_deg":267,"d_min_bt_30":-0.7,"age_min":60,"family":39,"touches_missing":true,"lon":82.0885,"lat":33.7205,"merges_splits_so_far":2},"geometry":{"type":"MultiPolygon","coordinates":[[[[81.7168,33.8723],[81.5865,33.8578],[81.5746,33.831],[81.6476,33.7659],[81.6907,33.7647],[81.7947,33.6716],[81.817,33.689],[81.8817,33.6871],[81.9878,33.6479],[82.2041,33.6593],[82.2455,33.6219],[82.3101,33.6199],[82.4581,33.5609],[82.5394,33.6755],[82.3567,33.6906],[82.1479,33.8416],[82.1047,33.8429],[82.0591,33.7901],[81.9504,33.7754],[81.8664,33.8319],[81.8017,33.8338],[81.7168,33.8723]]]]}},{"type":"Feature","properties":{"cell":64,"feature":1107,"phase":"Developing","min_bt_K":218.2,"area_km2":8216,"cold_core_km2":316,"speed_kmh":18.8,"heading_deg":306,"d_min_bt_30":0.1,"age_min":60,"family":64,"touches_missing":true,"lon":72.4294,"lat":30.4072,"merges_splits_so_far":0},"geometry":{"type":"MultiPolygon","coordinates":[[[[72.0926,30.9599],[72.02,30.9477],[72.0541,30.9041],[72.0013,30.9107],[72.0103,30.4239],[71.9906,30.4049],[72.0103,30.0809],[71.9906,30.062],[72.0069,29.9635],[72.1934,29.9718],[72.213,29.9907],[72.3581,29.997],[72.3778,30.0159],[72.4203,29.9996],[72.7094,30.0295],[72.8093,30.1057],[73.0583,30.1152],[73.2018,30.1566],[73.2857,30.1416],[73.3047,30.1783],[73.367,30.1805],[73.3969,30.2086],[73.3927,30.2987],[73.4309,30.3722],[73.4184,30.4169],[73.3993,30.3802],[73.3551,30.4327],[73.0638,30.4222],[73.024,30.3846],[73.0122,30.4112],[72.9805,30.4191],[72.9615,30.3823],[72.9389,30.4175],[72.8765,30.4151],[72.823,30.4401],[72.8429,30.4589],[72.8211,30.4761],[72.8727,30.4871],[72.9623,30.5718],[72.9504,30.5984],[72.9087,30.5968],[72.8652,30.6312],[72.7926,30.6193],[72.8183,30.5301],[72.7686,30.4831],[72.6933,30.5252],[72.6894,30.5972],[72.6576,30.6049],[72.6545,30.4695],[72.6238,30.4592],[72.607,30.5758],[72.6467,30.6135],[72.6238,30.6487],[72.5911,30.6744],[72.5533,30.6007],[72.5264,30.7079],[72.4023,30.6846],[72.4111,30.7121],[72.3563,30.7549],[72.2958,30.7162],[72.2838,30.7427],[72.241,30.7589],[72.2796,30.8147],[72.2565,30.8498],[72.2137,30.866],[72.2104,30.92],[72.1158,30.9249],[72.0926,30.9599]]]]}},{"type":"Feature","properties":{"cell":71,"feature":1104,"phase":"Developing","min_bt_K":231.6,"area_km2":1016,"cold_core_km2":0,"speed_kmh":25.5,"heading_deg":106,"d_min_bt_30":-0.5,"age_min":60,"family":71,"touches_missing":true,"lon":73.0331,"lat":33.0653,"merges_splits_so_far":1},"geometry":{"type":"MultiPolygon","coordinates":[[[[73.1068,33.2389],[73.0006,33.2169],[72.9608,33.1613],[72.8312,33.1743],[72.7589,33.1264],[72.8262,33.0749],[72.8293,33.0209],[72.8741,32.9865],[72.868,32.9051],[72.8894,32.9059],[72.9291,32.9615],[72.9922,32.982],[73.1458,32.9155],[73.2637,32.9107],[73.2395,32.9639],[73.1958,32.9804],[73.1939,33.0164],[73.2534,33.1088],[73.0976,33.2115],[73.1068,33.2389]]]]}},{"type":"Feature","properties":{"cell":72,"feature":1100,"phase":"Developing","min_bt_K":225.0,"area_km2":8992,"cold_core_km2":0,"speed_kmh":129.8,"heading_deg":185,"d_min_bt_30":-4.1,"age_min":60,"family":5,"touches_missing":true,"lon":72.2064,"lat":32.9018,"merges_splits_so_far":3},"geometry":{"type":"MultiPolygon","coordinates":[[[[72.0452,34.0081],[71.9918,33.9966],[72.009,33.7447],[72.0419,33.7371],[72.0826,33.775],[72.0964,33.7305],[72.0659,33.7021],[71.9911,33.6897],[72.0105,33.4018],[71.9903,33.3828],[72.0095,33.0949],[71.9893,33.0759],[72.0096,32.77],[71.9894,32.751],[72.0027,32.0568],[72.2144,32.0662],[72.2757,32.1049],[72.318,32.1067],[72.3794,32.1454],[72.3984,32.1823],[72.462,32.185],[72.5234,32.2236],[72.6507,32.2288],[72.6698,32.2656],[72.7133,32.2493],[72.7425,32.2956],[72.7182,32.3488],[72.6302,32.3994],[72.6281,32.4354],[72.7089,32.5108],[72.7058,32.5649],[72.7261,32.5837],[72.6489,32.6257],[72.6063,32.624],[72.5446,32.5854],[72.5009,32.6017],[72.3732,32.5963],[72.3542,32.7309],[72.3206,32.7565],[72.3351,32.5225],[72.278,32.5833],[72.2891,32.7462],[72.2453,32.7623],[72.2431,32.7983],[72.2846,32.8182],[72.2823,32.8542],[72.352,32.9384],[72.3937,32.9582],[72.5016,32.9446],[72.5523,32.9918],[72.5389,33.0364],[72.5299,33.0089],[72.5085,33.0081],[72.5052,33.0621],[72.4602,33.0963],[72.458,33.1323],[72.4895,33.1426],[72.4986,33.1701],[72.4051,33.2925],[72.3915,33.5086],[72.3462,33.5428],[72.3756,33.5891],[72.3904,33.5266],[72.4356,33.4924],[72.439,33.4383],[72.4186,33.4195],[72.4333,33.3569],[72.5239,33.4599],[72.4911,33.4676],[72.4334,33.5284],[72.5989,33.6434],[72.616,33.7163],[72.581,33.76],[72.43,33.7538],[72.3391,33.8222],[72.2948,33.8384],[72.2744,33.8195],[72.2277,33.8716],[72.1869,33.8338],[72.1287,33.8944],[72.1479,33.9313],[72.1011,33.9835],[72.0452,34.0081]]]]}},{"type":"Feature","properties":{"cell":73,"feature":1072,"phase":"Developing","min_bt_K":239.1,"area_km2":1008,"cold_core_km2":0,"speed_kmh":60.1,"heading_deg":291,"d_min_bt_30":-1.7,"age_min":30,"family":57,"touches_missing":true,"lon":83.3046,"lat":32.235,"merges_splits_so_far":1},"geometry":{"type":"MultiPolygon","coordinates":[[[[83.1655,32.3624],[83.011,32.26],[82.9362,32.2538],[82.9868,32.2068],[83.0495,32.1864],[83.115,32.22],[83.1353,32.2011],[83.2211,32.2158],[83.2816,32.1593],[83.3664,32.1559],[83.3796,32.2005],[83.3594,32.2194],[83.3928,32.2451],[83.4988,32.2407],[83.5491,32.1935],[83.547,32.1575],[83.4299,32.1533],[83.3966,32.1276],[83.4014,32.0282],[83.5115,32.0958],[83.5962,32.0923],[83.6163,32.0734],[83.6931,32.1153],[83.6908,32.2507],[83.6685,32.2336],[83.5837,32.2372],[83.5456,32.311],[83.4819,32.3136],[83.4596,32.2965],[83.397,32.3171],[83.2474,32.305],[83.1655,32.3624]]]]}},{"type":"Feature","properties":{"cell":74,"feature":1074,"phase":"Unclassified","min_bt_K":240.4,"area_km2":456,"cold_core_km2":0,"speed_kmh":27.1,"heading_deg":116,"d_min_bt_30":3.8,"age_min":30,"family":5,"touches_missing":true,"lon":76.9992,"lat":32.4576,"merges_splits_so_far":0},"geometry":{"type":"MultiPolygon","coordinates":[[[[76.829,32.5656],[76.7864,32.5652],[76.7763,32.52],[76.8296,32.5115],[76.8514,32.4756],[76.8939,32.476],[77.0014,32.3686],[77.1078,32.3513],[77.1816,32.4149],[77.1813,32.451],[77.0853,32.4774],[77.0208,32.5491],[76.8505,32.5478],[76.829,32.5656]]]]}},{"type":"Feature","properties":{"cell":78,"feature":1082,"phase":"Unclassified","min_bt_K":237.2,"area_km2":800,"cold_core_km2":0,"speed_kmh":23.9,"heading_deg":99,"d_min_bt_30":0.9,"age_min":30,"family":78,"touches_missing":true,"lon":81.0261,"lat":32.8126,"merges_splits_so_far":1},"geometry":{"type":"MultiPolygon","coordinates":[[[[80.8877,32.9725],[80.8657,32.9549],[80.7802,32.9567],[80.7254,32.9128],[80.7243,32.8767],[80.7556,32.849],[80.7775,32.8666],[80.8393,32.7931],[80.9033,32.7917],[80.9252,32.8093],[80.9673,32.7903],[80.9875,32.7538],[81.0302,32.7528],[81.1557,32.6777],[81.2945,32.6834],[81.2771,32.7921],[81.2454,32.8019],[81.2253,32.8385],[81.1613,32.84],[81.1192,32.859],[81.0991,32.8956],[81.0875,32.8688],[81.0551,32.8605],[81.035,32.897],[80.9073,32.9179],[80.8877,32.9725]]]]}},{"type":"Feature","properties":{"cell":82,"feature":1106,"phase":"Developing","min_bt_K":210.0,"area_km2":6356,"cold_core_km2":192,"speed_kmh":74.0,"heading_deg":128,"d_min_bt_30":-22.0,"age_min":30,"family":53,"touches_missing":true,"lon":73.7546,"lat":27.3277,"merges_splits_so_far":1},"geometry":{"type":"MultiPolygon","coordinates":[[[[74.1423,27.8231],[74.0814,27.8213],[74.0526,27.7753],[73.9539,27.7001],[73.9762,27.6467],[73.9462,27.6367],[73.9077,27.5814],[73.8553,27.6249],[73.8435,27.6696],[73.7848,27.6136],[73.724,27.6116],[73.7045,27.5929],[73.6235,27.5903],[73.6025,27.6076],[73.574,27.5615],[73.6383,27.4734],[73.5596,27.4166],[73.5611,27.3806],[73.5311,27.3705],[73.5124,27.3338],[73.3912,27.3296],[73.3695,27.3649],[73.3493,27.3642],[73.3419,27.3008],[73.3119,27.2907],[73.2886,27.3621],[73.1674,27.3577],[73.1286,27.3201],[73.0664,27.3539],[73.0583,27.3085],[73.0793,27.2912],[73.1052,27.1658],[73.1366,27.1398],[73.1762,27.1594],[73.1979,27.124],[73.322,27.0563],[73.4824,27.08],[73.5444,27.046],[73.846,27.0739],[73.8655,27.0926],[73.8863,27.0752],[73.9871,27.0783],[74.0859,27.1354],[74.2858,27.1954],[74.3341,27.2599],[74.4523,27.3534],[74.4476,27.4978],[74.3655,27.5316],[74.3851,27.5502],[74.3827,27.6224],[74.1959,27.7435],[74.1423,27.8231]]],[[[74.2073,27.4188],[74.208,27.4008],[74.249,27.3839],[74.2098,27.3467],[74.2111,27.3106],[74.142,27.2635],[74.1413,27.2815],[74.1713,27.2914],[74.1694,27.3455],[74.2092,27.3647],[74.1669,27.4177],[74.2073,27.4188]]]]}},{"type":"Feature","properties":{"cell":83,"feature":1097,"phase":"Developing","min_bt_K":225.7,"area_km2":12308,"cold_core_km2":0,"speed_kmh":5.3,"heading_deg":307,"d_min_bt_30":-2.2,"age_min":30,"family":53,"touches_missing":true,"lon":72.6482,"lat":28.0655,"merges_splits_so_far":2},"geometry":{"type":"MultiPolygon","coordinates":[[[[72.7863,28.5346],[72.7561,28.5244],[72.7473,28.4969],[72.5635,28.4895],[72.5264,28.4158],[72.3632,28.4089],[72.3437,28.39],[72.1805,28.3829],[72.1581,28.418],[72.0765,28.4143],[72.0112,28.4836],[72.0015,28.4741],[72.0097,27.969],[71.9904,27.9501],[72.0065,27.662],[72.0172,27.6534],[72.074,27.7282],[72.1145,27.73],[72.1889,27.6701],[72.1706,27.6332],[72.2121,27.617],[72.2362,27.5458],[72.2882,27.521],[72.3103,27.4859],[72.4106,27.5082],[72.4648,27.6369],[72.6278,27.6256],[72.6665,27.6633],[73.1724,27.7009],[73.2113,27.7384],[73.2721,27.7406],[73.3143,27.706],[73.3961,27.6908],[73.4028,27.7723],[73.3591,27.843],[73.3568,27.8971],[73.4846,28.0008],[73.5674,27.9675],[73.5953,28.0316],[73.694,28.1071],[73.6609,28.1692],[73.6013,28.1311],[73.5372,28.2012],[73.4965,28.1998],[73.4209,28.2964],[73.39,28.3044],[73.3256,28.3743],[73.2644,28.3721],[73.2007,28.424],[73.1599,28.4225],[73.1379,28.4578],[73.0562,28.4547],[73.0341,28.49],[72.9932,28.4885],[72.9711,28.5237],[72.8077,28.5174],[72.7863,28.5346]]],[[[72.3105,27.6755],[72.2815,27.6471],[72.2507,27.6548],[72.2594,27.6823],[72.3105,27.6755]]],[[[73.2285,28.0369],[73.1927,27.9273],[73.1626,27.9171],[73.1504,27.9618],[73.1902,27.9813],[73.1878,28.0354],[73.2285,28.0369]]],[[[72.4649,28.2236],[72.4659,28.2056],[72.4261,28.1859],[72.4289,28.1319],[72.4706,28.1156],[72.4937,28.0624],[72.5353,28.0461],[72.4878,27.9809],[72.4762,28.0075],[72.4947,28.0444],[72.3873,28.1481],[72.3951,28.1936],[72.4154,28.1945],[72.4339,28.2314],[72.4649,28.2236]]],[[[73.1609,28.1788],[73.2032,28.1443],[73.1764,28.0621],[73.1617,28.1608],[73.1202,28.1773],[73.1609,28.1788]]],[[[72.8697,28.2942],[72.8307,28.2566],[72.8343,28.1845],[72.7652,28.1366],[72.7643,28.1546],[72.7944,28.1649],[72.79,28.2549],[72.8298,28.2746],[72.8387,28.302],[72.8697,28.2942]]]]}},{"type":"Feature","properties":{"cell":87,"feature":1070,"phase":"Unclassified","min_bt_K":234.6,"area_km2":1364,"cold_core_km2":0,"speed_kmh":null,"heading_deg":null,"d_min_bt_30":null,"age_min":0,"family":87,"touches_missing":true,"lon":77.3346,"lat":32.1938,"merges_splits_so_far":0},"geometry":{"type":"MultiPolygon","coordinates":[[[[77.4689,32.3532],[77.299,32.3524],[77.2674,32.3252],[77.2889,32.2892],[77.2466,32.271],[77.2469,32.2349],[77.2153,32.2076],[77.1304,32.2071],[77.1096,32.1709],[77.046,32.1704],[77.0251,32.1342],[76.9616,32.1337],[76.9515,32.0886],[77.0261,32.044],[77.1104,32.0807],[77.1318,32.0628],[77.4281,32.0824],[77.4708,32.0285],[77.5343,32.0287],[77.5556,32.0108],[77.6401,32.0291],[77.6294,32.0741],[77.5976,32.0831],[77.5656,32.1281],[77.5655,32.1461],[77.6289,32.1824],[77.6287,32.2365],[77.5757,32.2454],[77.5543,32.2814],[77.5118,32.2812],[77.4689,32.3532]]]]}},{"type":"Feature","properties":{"cell":90,"feature":1077,"phase":"Unclassified","min_bt_K":238.0,"area_km2":1068,"cold_core_km2":0,"speed_kmh":null,"heading_deg":null,"d_min_bt_30":null,"age_min":0,"family":90,"touches_missing":true,"lon":82.1955,"lat":32.4099,"merges_splits_so_far":0},"geometry":{"type":"MultiPolygon","coordinates":[[[[81.7267,32.5547],[81.6944,32.5466],[81.7223,32.4466],[81.7443,32.464],[81.7853,32.4268],[81.8704,32.4243],[81.9531,32.3678],[81.9955,32.3665],[82.0294,32.4106],[82.0616,32.4186],[82.1655,32.3613],[82.2079,32.36],[82.27,32.3219],[82.3549,32.3192],[82.4169,32.281],[82.4805,32.2789],[82.5681,32.3301],[82.6521,32.3091],[82.7278,32.3335],[82.7204,32.3969],[82.6336,32.3639],[82.6132,32.3826],[82.5495,32.3848],[82.5265,32.3495],[82.4858,32.387],[82.3388,32.428],[82.2988,32.4834],[82.1712,32.4874],[82.109,32.5255],[82.0664,32.5268],[82.0436,32.4914],[82.0239,32.5281],[81.9585,32.4939],[81.9159,32.4952],[81.9034,32.4504],[81.8711,32.4424],[81.8514,32.479],[81.7986,32.4896],[81.7898,32.5349],[81.7267,32.5547]]]]}},{"type":"Feature","properties":{"cell":94,"feature":1085,"phase":"Unclassified","min_bt_K":237.3,"area_km2":720,"cold_core_km2":0,"speed_kmh":null,"heading_deg":null,"d_min_bt_30":null,"age_min":0,"family":78,"touches_missing":true,"lon":80.4685,"lat":33.0541,"merges_splits_so_far":0},"geometry":{"type":"MultiPolygon","coordinates":[[[[80.4021,33.2167],[80.3806,33.217],[80.3582,33.1814],[80.2944,33.2005],[80.2296,33.1836],[80.2182,33.1567],[80.2388,33.1203],[80.1741,33.1033],[80.2269,33.0754],[80.2475,33.0389],[80.3331,33.0375],[80.3773,33.0908],[80.4291,33.0267],[80.461,33.0171],[80.5023,32.9622],[80.5241,32.9799],[80.5654,32.9249],[80.629,32.9057],[80.715,32.922],[80.7276,32.9849],[80.6546,33.0495],[80.5366,33.0428],[80.5376,33.0788],[80.6462,33.1309],[80.5287,33.1422],[80.4415,33.0896],[80.4749,33.1341],[80.4325,33.153],[80.4335,33.189],[80.4021,33.2167]]]]}},{"type":"Feature","properties":{"cell":95,"feature":1088,"phase":"Unclassified","min_bt_K":241.5,"area_km2":148,"cold_core_km2":0,"speed_kmh":null,"heading_deg":null,"d_min_bt_30":null,"age_min":0,"family":95,"touches_missing":false,"lon":79.236,"lat":33.2001,"merges_splits_so_far":0},"geometry":{"type":"MultiPolygon","coordinates":[[[[79.3303,33.2677],[79.2657,33.2503],[79.2435,33.1964],[79.1794,33.215],[79.1041,33.1886],[79.1783,33.1248],[79.2002,33.1607],[79.2859,33.1599],[79.3621,33.2403],[79.3303,33.2677]]]]}},{"type":"Feature","properties":{"cell":96,"feature":1090,"phase":"Unclassified","min_bt_K":241.4,"area_km2":444,"cold_core_km2":0,"speed_kmh":null,"heading_deg":null,"d_min_bt_30":null,"age_min":0,"family":96,"touches_missing":true,"lon":78.7997,"lat":33.4268,"merges_splits_so_far":0},"geometry":{"type":"MultiPolygon","coordinates":[[[[78.753,33.5067],[78.6669,33.5072],[78.5912,33.4444],[78.5694,33.3904],[78.8808,33.3797],[78.9449,33.3432],[79.0416,33.3515],[78.9886,33.415],[78.9028,33.4337],[78.8604,33.4881],[78.7743,33.4886],[78.753,33.5067]]]]}},{"type":"Feature","properties":{"cell":97,"feature":1096,"phase":"Unclassified","min_bt_K":229.3,"area_km2":1952,"cold_core_km2":0,"speed_kmh":null,"heading_deg":null,"d_min_bt_30":null,"age_min":0,"family":53,"touches_missing":true,"lon":73.6877,"lat":27.7808,"merges_splits_so_far":0},"geometry":{"type":"MultiPolygon","coordinates":[[[[73.5049,28.0015],[73.4447,27.9814],[73.3568,27.8971],[73.3591,27.843],[73.4028,27.7723],[73.4059,27.7002],[73.4787,27.6576],[73.5395,27.6597],[73.5785,27.6971],[73.6101,27.6711],[73.6235,27.5903],[73.7848,27.6136],[73.8533,27.679],[73.8603,27.7604],[73.8917,27.7343],[73.8756,27.6255],[73.9266,27.6181],[73.9762,27.6467],[73.9539,27.7001],[74.0526,27.7753],[74.0814,27.8213],[74.1724,27.833],[74.1404,27.8772],[74.0794,27.8754],[74.0703,27.8481],[74.0402,27.8382],[74.029,27.8649],[73.9779,27.8724],[73.9563,27.9078],[73.6922,27.8994],[73.6306,27.9155],[73.6117,27.8787],[73.6005,27.9054],[73.5591,27.9221],[73.5787,27.9408],[73.5049,28.0015]]]]}},{"type":"Feature","properties":{"cell":99,"feature":1099,"phase":"Unclassified","min_bt_K":229.6,"area_km2":476,"cold_core_km2":0,"speed_kmh":null,"heading_deg":null,"d_min_bt_30":null,"age_min":0,"family":99,"touches_missing":true,"lon":74.4341,"lat":31.7246,"merges_splits_so_far":0},"geometry":{"type":"MultiPolygon","coordinates":[[[[74.5569,31.8046],[74.3035,31.7978],[74.294,31.7705],[74.2525,31.7512],[74.3296,31.6722],[74.3717,31.6734],[74.4153,31.6385],[74.4568,31.6576],[74.5417,31.6418],[74.6554,31.7079],[74.5569,31.8046]]]]}}]}