{"type":"FeatureCollection","features":[{"type":"Feature","properties":{"cell":32,"feature":1167,"phase":"Developing","min_bt_K":218.6,"area_km2":40828,"cold_core_km2":72,"speed_kmh":88.5,"heading_deg":80,"d_min_bt_30":-2.4,"age_min":210,"family":5,"touches_missing":true,"lon":75.7318,"lat":33.3162,"merges_splits_so_far":11},"geometry":{"type":"MultiPolygon","coordinates":[[[[74.6672,34.0087],[74.4509,34.0031],[74.4448,33.8857],[74.2326,33.7896],[74.2342,33.7536],[74.3777,33.6764],[74.4348,33.5967],[74.4044,33.5508],[74.2886,33.4844],[74.3346,33.4135],[74.3139,33.3949],[74.3191,33.2687],[74.3412,33.2513],[74.3235,33.1606],[74.3671,33.1437],[74.3685,33.1077],[74.4349,33.0554],[74.4392,32.9472],[74.4833,32.9123],[74.4523,32.8844],[74.3882,32.8827],[74.3594,32.8007],[74.4138,32.7751],[74.5632,32.779],[74.6712,32.7457],[74.7559,32.7658],[74.8864,32.6968],[75.0155,32.6636],[75.0282,32.6008],[75.0074,32.5823],[75.0403,32.5559],[75.1467,32.5583],[75.1882,32.5952],[75.21,32.5776],[75.2739,32.579],[75.3362,32.6343],[75.3788,32.6352],[75.462,32.709],[75.5265,32.6921],[75.6753,32.7129],[75.7614,32.6782],[75.8655,32.7882],[75.909,32.7528],[75.9943,32.7541],[76.0161,32.7364],[76.037,32.7547],[76.0591,32.719],[76.2301,32.7033],[76.295,32.65],[76.359,32.6509],[76.3809,32.615],[76.4661,32.616],[76.488,32.5802],[76.5306,32.5807],[76.5738,32.5451],[76.6799,32.5642],[76.7015,32.5464],[76.7653,32.547],[76.8084,32.5113],[76.9573,32.5125],[77.0001,32.4948],[77.0432,32.441],[77.1706,32.4599],[77.2447,32.5055],[77.2444,32.5415],[77.2974,32.5689],[77.3184,32.6051],[77.3929,32.6145],[77.3919,32.7588],[77.3599,32.7677],[77.3383,32.8036],[77.2744,32.7853],[77.2314,32.8211],[77.1029,32.8564],[77.0706,32.8832],[77.0699,32.9554],[77.1229,33.0008],[77.2301,32.9654],[77.252,32.9114],[77.3376,32.8938],[77.3691,32.9752],[77.4225,32.9844],[77.4329,33.0296],[77.5075,33.093],[77.5718,33.0752],[77.6574,33.0935],[77.7428,33.1658],[77.7857,33.1659],[77.8391,33.2472],[77.839,33.3013],[77.7316,33.3372],[77.7529,33.4094],[77.7205,33.4364],[77.6775,33.4363],[77.6559,33.4723],[77.5375,33.499],[77.5371,33.5712],[77.6015,33.6075],[77.5259,33.6524],[77.3965,33.6699],[77.2678,33.5971],[77.117,33.5962],[77.0734,33.65],[77.0305,33.6316],[76.9977,33.6765],[77.0406,33.6949],[77.0511,33.722],[76.9648,33.7214],[76.8997,33.7569],[76.835,33.7564],[76.8129,33.7923],[76.7697,33.7919],[76.7271,33.7554],[76.7053,33.7732],[76.6411,33.7365],[76.5979,33.7361],[76.6719,33.8361],[76.4215,33.9506],[76.335,33.9496],[76.2907,34.0031],[74.6895,33.9912],[74.6672,34.0087]]],[[[75.0897,33.3419],[75.1118,33.3243],[75.0915,33.2878],[75.1141,33.2522],[75.117,33.162],[75.161,33.1269],[75.1187,33.1079],[75.1632,33.0548],[75.1539,33.0095],[75.1216,33.0178],[75.1198,33.0719],[75.0765,33.089],[75.0533,33.1426],[74.9884,33.1592],[74.9878,33.1772],[75.0196,33.187],[75.0863,33.1163],[75.1181,33.126],[75.0955,33.1616],[75.0926,33.2517],[75.0491,33.2688],[75.059,33.2961],[75.0909,33.3058],[75.0903,33.3238],[75.0468,33.3409],[75.0897,33.3419]]],[[[76.8305,33.2782],[76.8307,33.2602],[76.8738,33.2425],[76.8745,33.1884],[76.8962,33.1705],[76.8862,33.1073],[76.8747,33.1704],[76.8316,33.188],[76.8309,33.2422],[76.7875,33.2778],[76.8305,33.2782]]],[[[76.0905,33.7569],[76.0803,33.7296],[76.0689,33.7565],[76.0905,33.7569]]],[[[76.2192,33.7947],[76.2412,33.777],[76.2309,33.7498],[76.209,33.7675],[76.1117,33.7752],[76.1219,33.8024],[76.2192,33.7947]]]]}},{"type":"Feature","properties":{"cell":39,"feature":1151,"phase":"Developing","min_bt_K":237.8,"area_km2":688,"cold_core_km2":0,"speed_kmh":92.5,"heading_deg":212,"d_min_bt_30":3.5,"age_min":180,"family":39,"touches_missing":true,"lon":82.4547,"lat":33.1386,"merges_splits_so_far":2},"geometry":{"type":"MultiPolygon","coordinates":[[[[82.745,33.2803],[82.7021,33.2818],[82.634,33.212],[82.3982,33.22],[82.2216,33.1174],[82.1796,33.1368],[82.1256,33.1294],[82.3252,33.0419],[82.4527,33.0197],[82.5084,33.0629],[82.4879,33.0817],[82.4906,33.1357],[82.5455,33.1609],[82.7393,33.1722],[82.7588,33.1354],[82.7914,33.1433],[82.8167,33.2146],[82.7971,33.2514],[82.745,33.2803]]]]}},{"type":"Feature","properties":{"cell":63,"feature":1153,"phase":"Developing","min_bt_K":234.3,"area_km2":1248,"cold_core_km2":0,"speed_kmh":52.9,"heading_deg":111,"d_min_bt_30":-0.1,"age_min":90,"family":39,"touches_missing":true,"lon":82.3543,"lat":33.6336,"merges_splits_so_far":2},"geometry":{"type":"MultiPolygon","coordinates":[[[[82.2109,33.8035],[82.1134,33.7975],[82.0877,33.7081],[81.9766,33.6392],[81.9862,33.6119],[82.0508,33.6099],[82.0922,33.5726],[82.105,33.6173],[82.1378,33.6253],[82.1783,33.5699],[82.2429,33.5679],[82.3487,33.5284],[82.5208,33.5227],[82.605,33.4837],[82.648,33.4822],[82.6714,33.5175],[82.7359,33.5152],[82.7911,33.5403],[82.7613,33.5865],[82.6977,33.6068],[82.5891,33.5926],[82.5694,33.6293],[82.5263,33.6308],[82.5403,33.6935],[82.4887,33.7403],[82.4222,33.7065],[82.336,33.7093],[82.3171,33.764],[82.2739,33.7654],[82.2109,33.8035]]]]}},{"type":"Feature","properties":{"cell":64,"feature":1163,"phase":"Developing","min_bt_K":217.3,"area_km2":13068,"cold_core_km2":92,"speed_kmh":8.8,"heading_deg":75,"d_min_bt_30":-0.9,"age_min":90,"family":64,"touches_missing":true,"lon":72.4738,"lat":30.4175,"merges_splits_so_far":0},"geometry":{"type":"MultiPolygon","coordinates":[[[[72.1059,31.0869],[72.086,31.0679],[72.064,31.085],[71.9912,31.0727],[72.0103,30.0809],[71.9906,30.062],[72.01,29.738],[71.9905,29.7191],[72.0035,29.6746],[72.1512,29.627],[72.3269,29.8152],[72.449,29.8564],[72.4884,29.8942],[72.5505,29.8968],[72.5909,29.9165],[72.6097,29.9533],[72.7735,29.996],[72.8338,30.0345],[73.0808,30.08],[73.1819,30.1378],[73.2848,30.1596],[73.3147,30.1877],[73.313,30.2237],[73.2398,30.2302],[73.1541,30.2812],[73.0511,30.2593],[73.0176,30.3032],[72.986,30.311],[72.9273,30.2366],[72.9156,30.2632],[72.9534,30.3368],[72.9218,30.3447],[72.91,30.3713],[72.9787,30.4551],[73.0411,30.4574],[73.0601,30.4942],[73.1036,30.4598],[73.1443,30.4793],[73.2086,30.4456],[73.3075,30.5574],[73.3917,30.5423],[73.4817,30.6266],[73.4292,30.6338],[73.3858,30.6684],[73.3249,30.6302],[73.2814,30.6647],[73.2406,30.6452],[73.1545,30.6962],[73.1345,30.6775],[73.0891,30.748],[73.0283,30.7096],[73.0147,30.7722],[72.9164,30.8497],[72.8746,30.8481],[72.8348,30.8105],[72.8129,30.8277],[72.7721,30.808],[72.7274,30.8604],[72.6855,30.8587],[72.6517,30.9025],[72.7334,30.9418],[72.7195,31.0044],[72.6567,31.0019],[72.5699,31.0525],[72.55,31.0337],[72.528,31.0508],[72.4652,31.0482],[72.4003,31.0816],[72.3584,31.0798],[72.3395,31.0429],[72.2976,31.0411],[72.2888,31.0136],[72.2579,31.0033],[72.2327,31.0744],[72.1279,31.0698],[72.1059,31.0869]]],[[[72.3493,29.9695],[72.3523,29.9155],[72.2234,29.8107],[72.2519,29.857],[72.2923,29.8768],[72.3285,29.9686],[72.3493,29.9695]]]]}},{"type":"Feature","properties":{"cell":72,"feature":1165,"phase":"Developing","min_bt_K":219.8,"area_km2":15808,"cold_core_km2":28,"speed_kmh":34.4,"heading_deg":133,"d_min_bt_30":-5.2,"age_min":90,"family":5,"touches_missing":true,"lon":72.341,"lat":32.7961,"merges_splits_so_far":5},"geometry":{"type":"MultiPolygon","coordinates":[[[[72.0452,34.0081],[71.9918,33.9966],[72.0105,33.4018],[71.9903,33.3828],[72.0095,33.0949],[71.9893,33.0759],[72.0096,32.77],[71.9894,32.751],[72.0095,32.4451],[71.9894,32.4262],[72.0104,32.1023],[71.9904,32.0833],[72.002,31.9033],[72.1188,31.8995],[72.141,31.8825],[72.2044,31.8853],[72.2634,31.96],[72.387,32.0194],[72.5552,32.0445],[72.6579,32.1028],[72.7003,32.1045],[72.8032,32.1626],[72.991,32.224],[73.0305,32.2796],[73.0749,32.2452],[73.1477,32.2749],[73.1356,32.3015],[73.1154,32.2827],[73.0831,32.2906],[73.1236,32.3282],[73.0561,32.3978],[73.0532,32.4519],[73.0735,32.4707],[73.0503,32.5059],[73.0899,32.5615],[73.0464,32.5779],[73.0415,32.668],[73.0182,32.7032],[72.9188,32.7626],[72.8761,32.761],[72.8893,32.7164],[72.868,32.7156],[72.7969,32.8391],[72.7521,32.8735],[72.7703,32.9283],[72.7234,32.9987],[72.6357,33.0313],[72.6336,33.0673],[72.7364,33.1436],[72.775,33.2173],[72.6995,33.2233],[72.6094,33.2919],[72.5451,33.2893],[72.4559,33.3398],[72.4017,33.3465],[72.5192,33.3604],[72.5497,33.3888],[72.5046,33.423],[72.5453,33.4608],[72.5081,33.5405],[72.5024,33.459],[72.4401,33.4203],[72.4605,33.4392],[72.456,33.5113],[72.4957,33.567],[72.6193,33.6623],[72.616,33.7163],[72.5469,33.7857],[72.6025,33.7609],[72.6263,33.7258],[72.7174,33.8287],[72.6844,33.8364],[72.6493,33.8801],[72.6676,33.935],[72.6347,33.9427],[72.6109,33.9779],[72.5449,33.9932],[72.3947,33.969],[72.3491,34.0032],[72.068,33.991],[72.0452,34.0081]]],[[[72.9642,32.5207],[73.0077,32.5043],[72.956,32.4753],[72.9429,32.5199],[72.9642,32.5207]]],[[[72.4254,33.3114],[72.4265,33.2934],[72.4705,33.2772],[72.5041,33.0801],[72.5716,33.0287],[72.5625,33.0012],[72.4602,33.0963],[72.4276,33.2754],[72.4051,33.2925],[72.4039,33.3105],[72.4254,33.3114]]]]}},{"type":"Feature","properties":{"cell":73,"feature":1142,"phase":"Developing","min_bt_K":239.0,"area_km2":664,"cold_core_km2":0,"speed_kmh":25.0,"heading_deg":115,"d_min_bt_30":-0.1,"age_min":60,"family":57,"touches_missing":true,"lon":83.4248,"lat":32.1873,"merges_splits_so_far":1},"geometry":{"type":"MultiPolygon","coordinates":[[[[83.4405,32.3334],[83.4193,32.3342],[83.3848,32.2905],[83.4251,32.2528],[83.4129,32.2262],[83.3281,32.2296],[83.2665,32.2682],[83.1615,32.2903],[83.1049,32.2294],[83.2211,32.2158],[83.2806,32.1413],[83.3653,32.1379],[83.4268,32.0993],[83.5327,32.095],[83.5739,32.0752],[83.5894,32.1558],[83.5703,32.1927],[83.6239,32.1994],[83.6361,32.226],[83.5646,32.2741],[83.4808,32.2956],[83.4405,32.3334]]]]}},{"type":"Feature","properties":{"cell":78,"feature":1146,"phase":"Developing","min_bt_K":236.1,"area_km2":1104,"cold_core_km2":0,"speed_kmh":15.3,"heading_deg":324,"d_min_bt_30":-1.1,"age_min":60,"family":78,"touches_missing":true,"lon":80.9785,"lat":32.8686,"merges_splits_so_far":1},"geometry":{"type":"MultiPolygon","coordinates":[[[[80.6974,33.0486],[80.665,33.0403],[80.6618,32.9321],[80.7145,32.904],[80.7347,32.8675],[80.7775,32.8666],[80.8185,32.8116],[80.882,32.7922],[80.9252,32.8093],[81.0746,32.8059],[81.0728,32.7518],[81.1155,32.7509],[81.1569,32.7138],[81.2209,32.7123],[81.2622,32.6752],[81.3391,32.7364],[81.3411,32.7905],[81.2473,32.856],[81.1833,32.8575],[81.1522,32.8853],[81.1437,32.9487],[81.0368,32.9511],[80.9952,32.9882],[80.9726,32.9526],[80.9085,32.954],[80.8449,32.9734],[80.7824,33.0289],[80.7182,33.0302],[80.6974,33.0486]]]]}},{"type":"Feature","properties":{"cell":82,"feature":1169,"phase":"Developing","min_bt_K":209.0,"area_km2":10148,"cold_core_km2":872,"speed_kmh":59.2,"heading_deg":99,"d_min_bt_30":-1.1,"age_min":60,"family":53,"touches_missing":true,"lon":74.0501,"lat":27.2867,"merges_splits_so_far":2},"geometry":{"type":"MultiPolygon","coordinates":[[[[74.6057,27.9442],[74.5448,27.9426],[74.5053,27.9055],[74.4647,27.9044],[74.4062,27.8306],[74.3656,27.8295],[74.3692,27.7213],[74.3078,27.7376],[74.2482,27.6998],[74.2077,27.6987],[74.1494,27.6248],[74.1089,27.6236],[73.99,27.5478],[73.9293,27.5459],[73.7695,27.4867],[73.7806,27.46],[73.7611,27.4413],[73.7109,27.4307],[73.6719,27.3933],[73.4892,27.4052],[73.4675,27.4406],[73.4383,27.4125],[73.46,27.3771],[73.4211,27.3396],[73.4226,27.3036],[73.315,27.2185],[73.265,27.2077],[73.2681,27.1356],[73.2487,27.1169],[73.2929,27.0282],[73.4466,26.9704],[73.5473,26.9738],[73.5667,26.9925],[73.6278,26.9765],[73.6876,26.9966],[73.7702,26.9451],[73.9313,26.9502],[73.9728,26.9153],[74.0936,26.919],[74.1131,26.9376],[74.2339,26.9411],[74.2729,26.9783],[74.2937,26.9609],[74.4145,26.9642],[74.5129,27.0391],[74.5532,27.0402],[74.612,27.0959],[74.7123,27.1165],[74.7903,27.2087],[74.8596,27.2555],[74.9176,27.3471],[74.8964,27.3827],[74.9136,27.4915],[74.8923,27.5271],[74.8305,27.5617],[74.7967,27.6782],[74.7769,27.6597],[74.7556,27.6953],[74.5529,27.6901],[74.5135,27.653],[74.4608,27.7147],[74.4996,27.7699],[74.5076,27.8333],[74.5384,27.8251],[74.5401,27.771],[74.5001,27.7519],[74.5123,27.689],[74.5424,27.6989],[74.5517,27.7262],[74.6125,27.7278],[74.6421,27.7556],[74.6782,27.9009],[74.6272,27.9087],[74.6057,27.9442]]],[[[74.6866,27.6304],[74.7386,27.5865],[74.7884,27.6148],[74.7889,27.5968],[74.749,27.5778],[74.7506,27.5236],[74.7112,27.4866],[74.7123,27.4505],[74.7538,27.4154],[74.7451,27.37],[74.7145,27.3783],[74.7129,27.4324],[74.6921,27.45],[74.6904,27.5041],[74.7304,27.5231],[74.7287,27.5773],[74.6461,27.6293],[74.6866,27.6304]]]]}},{"type":"Feature","properties":{"cell":83,"feature":1160,"phase":"Developing","min_bt_K":226.3,"area_km2":16204,"cold_core_km2":0,"speed_kmh":6.2,"heading_deg":49,"d_min_bt_30":0.6,"age_min":60,"family":53,"touches_missing":true,"lon":72.6721,"lat":28.0838,"merges_splits_so_far":2},"geometry":{"type":"MultiPolygon","coordinates":[[[[72.3544,28.571],[72.0684,28.5584],[72.0015,28.4741],[72.0039,27.5264],[72.0454,27.5103],[72.1466,27.5148],[72.189,27.4806],[72.2892,27.503],[72.348,27.5417],[72.4897,27.5477],[72.5265,27.6214],[72.5661,27.6411],[72.648,27.6264],[72.7458,27.7026],[72.8269,27.7058],[72.8489,27.6706],[73.011,27.6768],[73.0305,27.6956],[73.1334,27.6633],[73.1934,27.6836],[73.3758,27.6901],[73.3953,27.7089],[73.538,27.6957],[73.5673,27.7238],[73.5343,28.0296],[73.6254,28.0416],[73.7038,28.1164],[73.7845,28.1371],[73.8322,28.2198],[73.7191,28.2433],[73.6021,28.3568],[73.6301,28.4209],[73.7526,28.4249],[73.7504,28.479],[73.7103,28.4596],[73.6884,28.495],[73.6475,28.4936],[73.6256,28.529],[73.5235,28.5256],[73.5046,28.4888],[73.4826,28.5242],[73.4417,28.5228],[73.3993,28.5574],[73.2971,28.5538],[73.2759,28.5711],[72.8467,28.555],[72.8077,28.5174],[72.7863,28.5346],[72.4799,28.5221],[72.4576,28.5573],[72.3758,28.5538],[72.3544,28.571]]],[[[72.3212,27.8565],[72.3222,27.8385],[72.3637,27.8222],[72.3666,27.7681],[72.3018,27.648],[72.2883,27.7106],[72.3279,27.7304],[72.3232,27.8204],[72.2806,27.8547],[72.3212,27.8565]]],[[[73.2268,28.0729],[73.2594,28.029],[73.1862,28.0715],[73.2268,28.0729]]],[[[73.1837,28.1255],[73.1748,28.0981],[73.1634,28.1248],[73.1837,28.1255]]],[[[73.222,28.1811],[73.2138,28.1356],[73.2016,28.1803],[73.222,28.1811]]],[[[73.2986,28.2921],[73.2391,28.2539],[73.2676,28.3],[73.2986,28.2921]]],[[[73.2326,28.3981],[73.275,28.3635],[73.2464,28.3173],[73.2334,28.38],[73.1918,28.3966],[73.2326,28.3981]]]]}},{"type":"Feature","properties":{"cell":87,"feature":1141,"phase":"Developing","min_bt_K":233.1,"area_km2":2540,"cold_core_km2":0,"speed_kmh":15.3,"heading_deg":112,"d_min_bt_30":-1.5,"age_min":30,"family":87,"touches_missing":true,"lon":77.4095,"lat":32.1676,"merges_splits_so_far":0},"geometry":{"type":"MultiPolygon","coordinates":[[[[77.6175,32.3898],[77.5751,32.3716],[77.5537,32.3896],[77.4475,32.3892],[77.3734,32.3438],[77.4377,32.2539],[77.3213,32.2082],[77.2577,32.2079],[77.1945,32.1534],[77.0463,32.1344],[77.0246,32.1883],[76.8547,32.205],[76.8118,32.2407],[76.7058,32.2397],[76.6958,32.1945],[76.6536,32.1761],[76.7287,32.1137],[76.7711,32.1141],[76.8991,32.043],[77.1106,32.0627],[77.1735,32.1352],[77.2806,31.9915],[77.7249,32.0112],[77.7989,32.0384],[77.8409,32.2369],[77.8089,32.3],[77.7665,32.2819],[77.7239,32.354],[77.6814,32.3358],[77.6175,32.3898]]]]}},{"type":"Feature","properties":{"cell":90,"feature":1143,"phase":"Unclassified","min_bt_K":239.0,"area_km2":1124,"cold_core_km2":0,"speed_kmh":54.2,"heading_deg":104,"d_min_bt_30":1.0,"age_min":30,"family":90,"touches_missing":true,"lon":82.4752,"lat":32.3512,"merges_splits_so_far":1},"geometry":{"type":"MultiPolygon","coordinates":[[[[82.2137,32.4861],[82.1601,32.4788],[82.1544,32.3526],[82.2267,32.3053],[82.27,32.3219],[82.332,32.2838],[82.4381,32.2803],[82.4585,32.2616],[82.5009,32.2602],[82.5663,32.294],[82.7121,32.2348],[82.9555,32.217],[82.9261,32.2632],[82.7813,32.3406],[82.7388,32.3421],[82.6788,32.4164],[82.6363,32.4179],[82.5956,32.4554],[82.5725,32.4201],[82.5309,32.4396],[82.3396,32.446],[82.2963,32.4293],[82.2137,32.4861]]]]}},{"type":"Feature","properties":{"cell":94,"feature":1152,"phase":"Developing","min_bt_K":237.1,"area_km2":864,"cold_core_km2":0,"speed_kmh":7.1,"heading_deg":315,"d_min_bt_30":-0.2,"age_min":30,"family":78,"touches_missing":true,"lon":80.4417,"lat":33.0771,"merges_splits_so_far":0},"geometry":{"type":"MultiPolygon","coordinates":[[[[80.1894,33.2925],[80.1241,33.2574],[80.1031,33.2758],[80.0707,33.2673],[80.0699,33.2312],[80.1338,33.2122],[80.1115,33.1765],[80.1216,33.1492],[80.1644,33.1485],[80.2698,33.0746],[80.2903,33.0382],[80.3331,33.0375],[80.3554,33.0731],[80.3982,33.0724],[80.4082,33.0451],[80.5654,32.9249],[80.629,32.9057],[80.6618,32.9321],[80.6655,33.0583],[80.6347,33.104],[80.5919,33.1049],[80.5501,33.1417],[80.5282,33.1241],[80.4858,33.143],[80.4444,33.1978],[80.4225,33.1802],[80.2296,33.1836],[80.1894,33.2925]]]]}},{"type":"Feature","properties":{"cell":95,"feature":1149,"phase":"Developing","min_bt_K":238.2,"area_km2":572,"cold_core_km2":0,"speed_kmh":8.4,"heading_deg":131,"d_min_bt_30":-3.3,"age_min":30,"family":95,"touches_missing":false,"lon":79.2699,"lat":33.1752,"merges_splits_so_far":0},"geometry":{"type":"MultiPolygon","coordinates":[[[[79.1384,33.3597],[79.1058,33.3329],[79.1047,33.2427],[79.0831,33.2248],[79.1138,33.1073],[79.2428,33.1423],[79.2851,33.1058],[79.3068,33.1236],[79.3711,33.123],[79.3813,33.0958],[79.4345,33.0682],[79.499,33.0855],[79.5412,33.0489],[79.6163,33.0571],[79.5638,33.1208],[79.4993,33.1035],[79.4356,33.1403],[79.3301,33.2497],[79.266,33.2683],[79.2016,33.2689],[79.1799,33.2511],[79.1481,33.2784],[79.1804,33.2872],[79.1915,33.3141],[79.1384,33.3597]]]]}},{"type":"Feature","properties":{"cell":96,"feature":1156,"phase":"Unclassified","min_bt_K":241.2,"area_km2":96,"cold_core_km2":0,"speed_kmh":30.3,"heading_deg":111,"d_min_bt_30":-0.2,"age_min":30,"family":96,"touches_missing":false,"lon":78.9519,"lat":33.3788,"merges_splits_so_far":0},"geometry":{"type":"MultiPolygon","coordinates":[[[[78.9458,33.4334],[78.8702,33.3888],[78.9234,33.3433],[79.0308,33.3425],[79.0416,33.3515],[78.9458,33.4334]]]]}},{"type":"Feature","properties":{"cell":97,"feature":1161,"phase":"Developing","min_bt_K":229.1,"area_km2":2660,"cold_core_km2":0,"speed_kmh":32.6,"heading_deg":49,"d_min_bt_30":-0.1,"age_min":30,"family":53,"touches_missing":true,"lon":73.8119,"lat":27.8782,"merges_splits_so_far":0},"geometry":{"type":"MultiPolygon","coordinates":[[[[73.8828,28.2305],[73.842,28.2292],[73.7845,28.1371],[73.7038,28.1164],[73.6254,28.0416],[73.5343,28.0296],[73.5666,27.7418],[73.6191,27.6984],[73.6995,27.7191],[73.6918,27.6557],[73.7645,27.6129],[73.8239,27.6509],[73.9252,27.6541],[73.9671,27.6193],[74.0174,27.6299],[74.0147,27.702],[73.9728,27.7368],[73.9925,27.7555],[73.9904,27.8096],[74.0388,27.8742],[74.0893,27.8848],[74.0866,27.9569],[74.1443,28.0488],[74.2041,28.0867],[74.1122,28.093],[74.0905,28.1285],[73.9684,28.1248],[73.9572,28.1515],[73.9874,28.1615],[73.9965,28.1888],[73.9046,28.195],[73.8828,28.2305]]]]}},{"type":"Feature","properties":{"cell":99,"feature":1164,"phase":"Developing","min_bt_K":223.2,"area_km2":1944,"cold_core_km2":0,"speed_kmh":55.1,"heading_deg":120,"d_min_bt_30":-6.4,"age_min":30,"family":99,"touches_missing":true,"lon":74.6843,"lat":31.5985,"merges_splits_so_far":0},"geometry":{"type":"MultiPolygon","coordinates":[[[[74.7476,31.7913],[74.7271,31.7728],[74.5371,31.768],[74.4969,31.7128],[74.4445,31.7024],[74.4357,31.657],[74.3935,31.6559],[74.3629,31.628],[74.3664,31.5379],[74.4418,31.4948],[74.4859,31.4419],[74.5476,31.4796],[74.5904,31.4626],[74.7166,31.4658],[74.6866,31.42],[74.7191,31.3937],[74.7395,31.4123],[74.8686,31.3252],[74.9317,31.3266],[74.9521,31.3451],[74.9947,31.3281],[75.0043,31.3554],[74.8218,31.4684],[74.7893,31.4947],[74.7881,31.5307],[74.882,31.56],[74.9036,31.5425],[75.0089,31.5449],[75.0807,31.6096],[74.961,31.7242],[74.8977,31.7228],[74.8326,31.7754],[74.7693,31.7738],[74.7476,31.7913]]]]}},{"type":"Feature","properties":{"cell":104,"feature":1147,"phase":"Unclassified","min_bt_K":240.1,"area_km2":460,"cold_core_km2":0,"speed_kmh":null,"heading_deg":null,"d_min_bt_30":null,"age_min":0,"family":104,"touches_missing":true,"lon":81.4168,"lat":32.7102,"merges_splits_so_far":0},"geometry":{"type":"MultiPolygon","coordinates":[[[[81.5463,32.8484],[81.3521,32.7992],[81.3391,32.7364],[81.2732,32.6839],[81.2719,32.6479],[81.3874,32.5999],[81.4307,32.6168],[81.4534,32.6523],[81.5812,32.6489],[81.5304,32.7135],[81.5463,32.8484]]]]}},{"type":"Feature","properties":{"cell":105,"feature":1148,"phase":"Unclassified","min_bt_K":241.0,"area_km2":280,"cold_core_km2":0,"speed_kmh":null,"heading_deg":null,"d_min_bt_30":null,"age_min":0,"family":105,"touches_missing":true,"lon":80.1764,"lat":32.8859,"merges_splits_so_far":0},"geometry":{"type":"MultiPolygon","coordinates":[[[[80.1174,32.9689],[80.0528,32.9519],[80.0415,32.925],[80.0621,32.8886],[80.1567,32.8239],[80.1998,32.8413],[80.2208,32.8229],[80.328,32.8391],[80.3393,32.8659],[80.3825,32.8832],[80.373,32.9285],[80.3507,32.8928],[80.2866,32.8939],[80.1174,32.9689]]]]}},{"type":"Feature","properties":{"cell":107,"feature":1162,"phase":"Unclassified","min_bt_K":234.2,"area_km2":1564,"cold_core_km2":0,"speed_kmh":null,"heading_deg":null,"d_min_bt_30":null,"age_min":0,"family":53,"touches_missing":true,"lon":74.1958,"lat":27.8418,"merges_splits_so_far":1},"geometry":{"type":"MultiPolygon","coordinates":[[[[74.2953,28.0983],[74.2546,28.0971],[74.2355,28.0605],[74.1739,28.0768],[74.0866,27.9569],[74.0893,27.8848],[74.0388,27.8742],[73.9904,27.8096],[73.9925,27.7555],[73.9728,27.7368],[74.0147,27.702],[74.0174,27.6299],[74.0488,27.6037],[74.0893,27.6049],[74.1279,27.6602],[74.1488,27.6428],[74.2077,27.6987],[74.2482,27.6998],[74.3078,27.7376],[74.3692,27.7213],[74.3557,27.8202],[74.4062,27.8306],[74.4647,27.9044],[74.5053,27.9055],[74.5349,27.9333],[74.4826,27.9771],[74.442,27.976],[74.357,28.082],[74.2953,28.0983]]]]}},{"type":"Feature","properties":{"cell":108,"feature":1166,"phase":"Unclassified","min_bt_K":222.4,"area_km2":6968,"cold_core_km2":0,"speed_kmh":null,"heading_deg":null,"d_min_bt_30":null,"age_min":0,"family":5,"touches_missing":true,"lon":74.1645,"lat":32.4875,"merges_splits_so_far":1},"geometry":{"type":"MultiPolygon","coordinates":[[[[73.8575,32.7951],[73.8157,32.7757],[73.6228,32.7876],[73.6263,32.7155],[73.5623,32.7134],[73.5427,32.6767],[73.3954,32.6356],[73.387,32.5902],[73.325,32.5519],[73.4026,32.4915],[73.4451,32.4929],[73.4571,32.4663],[73.5227,32.4324],[73.5244,32.3964],[73.5797,32.3531],[73.6222,32.3545],[73.6451,32.3192],[73.73,32.3219],[73.7529,32.2866],[73.7937,32.3239],[73.8157,32.3066],[73.8574,32.3259],[73.9014,32.2912],[73.9651,32.2932],[74.0947,32.2429],[74.2432,32.2472],[74.3945,32.1792],[74.4581,32.1809],[74.4992,32.2181],[74.6682,32.2404],[74.773,32.2791],[74.8161,32.2621],[74.964,32.2836],[75.0254,32.3571],[75.0679,32.3581],[75.1403,32.4228],[75.0972,32.4399],[75.096,32.476],[75.0311,32.5106],[74.9971,32.573],[74.9545,32.572],[74.9344,32.5355],[74.8706,32.534],[74.8584,32.5788],[74.7823,32.6221],[74.7178,32.6386],[74.6538,32.637],[74.6339,32.6004],[74.6119,32.6179],[74.5267,32.6157],[74.4614,32.6501],[74.1814,32.7145],[74.191,32.7419],[74.1578,32.768],[73.8797,32.7777],[73.8575,32.7951]]]]}},{"type":"Feature","properties":{"cell":109,"feature":1168,"phase":"Unclassified","min_bt_K":228.1,"area_km2":3700,"cold_core_km2":0,"speed_kmh":null,"heading_deg":null,"d_min_bt_30":null,"age_min":0,"family":5,"touches_missing":true,"lon":73.6703,"lat":32.9682,"merges_splits_so_far":1},"geometry":{"type":"MultiPolygon","coordinates":[[[[73.4974,33.1624],[73.4545,33.1609],[73.3921,33.1227],[73.3278,33.1205],[73.2869,33.0829],[73.1789,33.0971],[73.1268,33.0682],[73.1074,33.0314],[73.1531,32.9789],[73.155,32.9429],[73.221,32.9091],[73.1588,32.8708],[73.1738,32.7901],[73.261,32.7572],[73.4317,32.7631],[73.4726,32.8006],[73.5152,32.8021],[73.5375,32.7848],[73.6868,32.7897],[73.709,32.7723],[73.8157,32.7757],[73.8362,32.7944],[73.8797,32.7777],[74.0504,32.7829],[74.1799,32.7506],[74.2321,32.7791],[74.2306,32.8152],[74.1864,32.85],[74.2055,32.9047],[74.1826,32.9401],[74.1788,33.0302],[74.2113,33.0221],[74.2423,33.0501],[74.2091,33.0762],[74.1662,33.075],[74.1219,33.1098],[74.0791,33.1085],[74.0592,33.0719],[73.9736,33.0693],[73.9283,33.1221],[73.8213,33.1188],[73.7339,33.1521],[73.5197,33.1451],[73.4974,33.1624]]]]}}]}