{"type":"FeatureCollection","features":[{"type":"Feature","properties":{"cell":32,"feature":1242,"phase":"Decaying","min_bt_K":225.2,"area_km2":39884,"cold_core_km2":0,"speed_kmh":35.0,"heading_deg":101,"d_min_bt_30":6.6,"age_min":240,"family":5,"touches_missing":true,"lon":75.9164,"lat":33.2868,"merges_splits_so_far":11},"geometry":{"type":"MultiPolygon","coordinates":[[[[74.6672,34.0087],[74.5918,33.9978],[74.6909,33.9551],[74.8415,33.9768],[74.8972,33.933],[74.8553,33.8959],[74.816,33.7867],[74.6788,33.7022],[74.6384,33.629],[74.5522,33.6268],[74.5224,33.5629],[74.4801,33.5437],[74.4822,33.4897],[74.5266,33.4547],[74.5058,33.4362],[74.5294,33.3826],[74.402,33.3432],[74.456,33.3356],[74.49,33.2914],[74.4749,33.1286],[74.6289,33.0243],[74.6316,32.9522],[74.688,32.8724],[74.7721,32.9106],[74.9802,32.7621],[75.0246,32.7089],[75.0258,32.6729],[75.08,32.647],[75.1024,32.6114],[75.1456,32.5943],[75.2089,32.6137],[75.2744,32.5609],[75.317,32.5618],[75.425,32.5098],[75.6132,32.6396],[75.678,32.6046],[75.7849,32.5884],[75.8058,32.6068],[75.9336,32.6089],[76.0172,32.6823],[76.0812,32.6832],[76.2315,32.6312],[76.2754,32.5596],[76.2964,32.5779],[76.3285,32.5693],[76.3399,32.5243],[76.4463,32.5256],[76.5533,32.4907],[76.6166,32.5275],[76.6381,32.5097],[76.7445,32.5107],[76.8514,32.4756],[76.915,32.4942],[76.979,32.4766],[77.0852,32.4954],[77.1919,32.4601],[77.2765,32.5147],[77.3403,32.515],[77.3934,32.5423],[77.2323,32.7129],[77.104,32.7481],[77.0717,32.775],[77.0821,32.8021],[77.2102,32.8029],[77.2203,32.8661],[77.3376,32.8938],[77.3586,32.9481],[77.5297,32.9307],[77.5512,32.9128],[77.6152,32.931],[77.6257,32.9942],[77.5828,33.0121],[77.5611,33.0661],[77.6145,33.0934],[77.6358,33.1295],[77.6893,33.1387],[77.6891,33.1928],[77.7212,33.2199],[77.8071,33.184],[77.9786,33.2022],[78.0,33.2202],[78.1286,33.2021],[78.1501,33.2201],[78.2359,33.22],[78.3326,33.2829],[78.3328,33.319],[78.2148,33.3824],[78.172,33.4366],[78.1075,33.4367],[78.0215,33.4728],[78.0,33.4728],[77.9785,33.4367],[77.9462,33.4818],[77.914,33.4908],[77.8817,33.4637],[77.8926,33.3825],[77.9785,33.3465],[78.0,33.3826],[78.0645,33.4006],[78.1181,33.3555],[78.0644,33.2743],[78.0215,33.2743],[77.9571,33.2382],[77.8819,33.3013],[77.8711,33.3825],[77.8496,33.3644],[77.7852,33.3644],[77.6131,33.4361],[77.5486,33.4359],[77.4838,33.4898],[77.4192,33.4896],[77.3976,33.5075],[77.3333,33.4711],[77.2902,33.4889],[77.2033,33.5787],[77.1172,33.5781],[77.0955,33.596],[76.9878,33.5952],[76.9665,33.577],[76.8799,33.6124],[76.7821,33.6747],[76.7816,33.7108],[76.9433,33.7212],[76.965,33.7033],[77.0297,33.7038],[77.04,33.749],[76.9302,33.9105],[76.767,33.9903],[76.7026,33.9536],[76.6588,33.9893],[76.5723,33.9884],[76.5504,34.0062],[75.5336,33.9914],[75.5115,34.009],[74.6895,33.9912],[74.6672,34.0087]]]]}},{"type":"Feature","properties":{"cell":63,"feature":1224,"phase":"Developing","min_bt_K":233.5,"area_km2":4180,"cold_core_km2":0,"speed_kmh":16.0,"heading_deg":124,"d_min_bt_30":-0.8,"age_min":120,"family":39,"touches_missing":true,"lon":82.4254,"lat":33.593,"merges_splits_so_far":3},"geometry":{"type":"MultiPolygon","coordinates":[[[[82.827,33.9993],[82.8127,33.9366],[82.7788,33.9108],[82.7056,33.9585],[82.7188,34.0031],[82.6756,34.0047],[82.5862,33.9536],[82.5449,33.9911],[82.307,33.999],[82.2845,33.9816],[82.2205,34.0017],[82.198,33.9844],[82.1772,34.0031],[82.0474,34.0071],[82.0241,33.9717],[81.8295,33.9774],[81.8087,33.996],[81.6028,33.9927],[81.6342,33.9648],[81.7206,33.9624],[81.784,33.9245],[81.8272,33.9233],[81.8688,33.886],[81.9336,33.8841],[82.0,33.9182],[82.0615,33.8442],[82.1056,33.8609],[82.1255,33.8242],[82.1686,33.8229],[82.2731,33.7474],[82.3162,33.746],[82.4514,33.6423],[82.4177,33.6164],[82.2877,33.6026],[82.2954,33.5391],[82.548,33.4225],[82.4267,33.3634],[82.3408,33.3662],[82.2351,33.4057],[82.2111,33.3523],[82.1467,33.3544],[82.1261,33.373],[82.1133,33.3283],[82.0472,33.2942],[82.0456,33.2582],[82.0011,33.2235],[81.9995,33.1874],[82.0725,33.1401],[82.1384,33.1742],[82.2241,33.1715],[82.2327,33.1261],[82.2096,33.0907],[82.2396,33.0447],[82.2944,33.07],[82.3184,33.1233],[82.2987,33.1601],[82.3107,33.1868],[82.3304,33.15],[82.4375,33.1465],[82.4513,33.2092],[82.4969,33.2618],[82.5304,33.2878],[82.6051,33.2762],[82.6284,33.3115],[82.5966,33.3216],[82.5667,33.3677],[82.5994,33.3756],[82.7125,33.48],[82.9685,33.4346],[83.034,33.4502],[83.0688,33.494],[83.038,33.5222],[82.9735,33.5247],[82.953,33.5435],[82.8875,33.5278],[82.8239,33.5482],[82.7398,33.5873],[82.7005,33.6609],[82.634,33.6271],[82.6153,33.6819],[82.4972,33.6949],[82.4784,33.7497],[82.5356,33.8109],[82.6219,33.808],[82.6669,33.8425],[82.8181,33.8372],[82.8582,33.7816],[82.923,33.7792],[82.9353,33.8058],[82.9794,33.8222],[82.9815,33.8583],[82.9403,33.8959],[82.965,33.9491],[83.0092,33.9655],[82.8476,33.9805],[82.827,33.9993]]],[[[82.3485,33.3028],[82.3021,33.2321],[82.2249,33.1895],[82.218,33.2709],[82.3485,33.3028]]],[[[82.4678,33.9666],[82.5083,33.9111],[82.5064,33.8751],[82.4736,33.8672],[82.4501,33.8319],[82.3224,33.8721],[82.2913,33.9002],[82.3484,33.9615],[82.3926,33.9781],[82.4678,33.9666]]]]}},{"type":"Feature","properties":{"cell":64,"feature":1246,"phase":"Developing","min_bt_K":215.0,"area_km2":10492,"cold_core_km2":1600,"speed_kmh":44.1,"heading_deg":175,"d_min_bt_30":-2.3,"age_min":120,"family":64,"touches_missing":true,"lon":72.4941,"lat":30.2192,"merges_splits_so_far":2},"geometry":{"type":"MultiPolygon","coordinates":[[[[72.6973,30.6426],[72.6358,30.6221],[72.4481,30.6144],[72.4303,30.5595],[72.3261,30.5551],[72.2657,30.5164],[72.1824,30.5127],[72.1626,30.4938],[72.0585,30.4892],[72.0355,30.5243],[72.0048,30.5138],[72.0103,30.4239],[71.9906,30.4049],[72.0103,30.0809],[71.9906,30.062],[72.01,29.738],[71.9905,29.7191],[72.011,29.5486],[72.0522,29.5504],[72.0914,29.5883],[72.1533,29.591],[72.1718,29.6279],[72.2751,29.6325],[72.3184,29.5982],[72.4835,29.6052],[72.5524,29.6712],[72.5278,29.7424],[72.6174,29.8093],[72.6588,29.8109],[72.6677,29.8384],[72.7378,29.8863],[73.0447,29.9703],[73.226,30.0853],[73.2882,30.0875],[73.3488,30.1258],[73.494,30.1308],[73.5447,30.1596],[73.5323,30.2043],[73.4077,30.2],[73.2987,30.3044],[73.2156,30.3015],[73.1831,30.3273],[73.2212,30.4009],[73.2177,30.473],[73.1634,30.5161],[73.0801,30.513],[73.0157,30.5467],[72.975,30.5271],[72.9523,30.5624],[72.8471,30.5764],[72.6973,30.6426]]],[[[73.1162,30.4151],[73.1605,30.3626],[73.1198,30.3431],[73.1225,30.289],[73.1559,30.2451],[73.0809,30.2875],[73.0791,30.3235],[73.1189,30.3611],[73.0954,30.4144],[73.1162,30.4151]]]]}},{"type":"Feature","properties":{"cell":72,"feature":1250,"phase":"Developing","min_bt_K":213.5,"area_km2":9792,"cold_core_km2":224,"speed_kmh":30.5,"heading_deg":34,"d_min_bt_30":-6.3,"age_min":120,"family":5,"touches_missing":true,"lon":72.4319,"lat":32.9104,"merges_splits_so_far":7},"geometry":{"type":"MultiPolygon","coordinates":[[[[72.0203,33.7362],[71.9898,33.7077],[72.0105,33.4018],[71.9903,33.3828],[72.0095,33.0949],[71.9893,33.0759],[71.9989,32.6071],[72.1603,32.5872],[72.2287,32.518],[72.3362,32.5045],[72.4065,32.3992],[72.4894,32.4388],[72.7009,32.4654],[72.7403,32.5211],[72.8234,32.5604],[72.9137,32.6632],[72.9553,32.6828],[72.9523,32.7368],[73.0143,32.7753],[73.1132,32.9233],[73.1011,32.9499],[72.9698,32.9992],[72.9566,33.0438],[72.924,33.0516],[72.8557,33.1212],[72.7905,33.1367],[72.7273,33.1161],[72.6925,33.1599],[72.7301,33.2516],[72.6861,33.2679],[72.685,33.2859],[72.7269,33.3056],[72.7237,33.3596],[72.691,33.3674],[72.6716,33.3305],[72.6593,33.3571],[72.6775,33.412],[72.7592,33.4874],[72.7561,33.5414],[72.839,33.5988],[72.8379,33.6168],[72.7836,33.6237],[72.6361,33.5637],[72.5263,33.5954],[72.4844,33.5756],[72.3122,33.5684],[72.2895,33.5855],[72.225,33.5827],[72.2113,33.6272],[72.0203,33.7362]]],[[[72.197,32.8505],[72.2419,32.8163],[72.233,32.7889],[72.2093,32.8239],[72.1026,32.8193],[72.0937,32.7918],[72.0724,32.7909],[72.1217,32.8562],[72.197,32.8505]]]]}},{"type":"Feature","properties":{"cell":78,"feature":1225,"phase":"Developing","min_bt_K":235.8,"area_km2":1536,"cold_core_km2":0,"speed_kmh":34.6,"heading_deg":293,"d_min_bt_30":-0.3,"age_min":90,"family":78,"touches_missing":true,"lon":80.8079,"lat":32.9289,"merges_splits_so_far":2},"geometry":{"type":"MultiPolygon","coordinates":[[[[80.4444,33.1978],[80.423,33.1982],[80.3678,33.1361],[80.344,33.0463],[80.3759,33.0367],[80.4191,33.054],[80.4824,33.0167],[80.5465,33.0155],[80.6196,32.951],[80.6186,32.9149],[80.7753,32.7944],[80.9033,32.7917],[80.9258,32.8273],[80.9685,32.8264],[81.1368,32.7504],[81.2545,32.7566],[81.2279,32.9106],[81.1638,32.9121],[81.1437,32.9487],[81.1009,32.9497],[81.038,32.9872],[80.8877,32.9725],[80.7824,33.0289],[80.7182,33.0302],[80.6133,33.1044],[80.4858,33.143],[80.4444,33.1978]]]]}},{"type":"Feature","properties":{"cell":82,"feature":1245,"phase":"Developing","min_bt_K":212.6,"area_km2":13936,"cold_core_km2":700,"speed_kmh":65.3,"heading_deg":100,"d_min_bt_30":3.7,"age_min":90,"family":53,"touches_missing":true,"lon":74.3746,"lat":27.2345,"merges_splits_so_far":2},"geometry":{"type":"MultiPolygon","coordinates":[[[[74.5297,27.7798],[74.4805,27.7333],[74.5013,27.7158],[74.4921,27.6885],[74.3704,27.6852],[74.3115,27.6294],[74.2703,27.6463],[74.2323,27.573],[74.1507,27.5887],[74.1317,27.552],[74.071,27.5502],[74.0521,27.5136],[74.0116,27.5123],[73.99,27.5478],[73.9293,27.5459],[73.9202,27.5186],[73.9829,27.4663],[73.9849,27.4122],[73.8782,27.2916],[73.8475,27.2996],[73.8364,27.3264],[73.7556,27.3238],[73.7166,27.2864],[73.6156,27.2831],[73.594,27.3185],[73.5738,27.3178],[73.5871,27.237],[73.4877,27.1975],[73.4907,27.1254],[73.4518,27.0879],[73.475,27.0165],[73.548,26.9558],[73.5674,26.9745],[73.8347,26.8388],[73.8957,26.8227],[74.1169,26.8294],[74.2607,26.7433],[74.3003,26.7624],[74.321,26.745],[74.3813,26.7466],[74.4008,26.7652],[74.4611,26.7669],[74.4818,26.7494],[74.5209,26.7865],[74.5812,26.7881],[74.6002,26.8247],[74.6398,26.8438],[74.7807,26.8473],[74.8198,26.8844],[74.9205,26.8868],[74.999,26.9608],[75.0589,26.9802],[75.0683,27.0075],[75.1671,27.0819],[75.1657,27.136],[75.2047,27.191],[75.2343,27.2188],[75.2747,27.2196],[75.3438,27.2842],[75.3407,27.4105],[75.3803,27.4474],[75.3794,27.4835],[75.4186,27.5384],[75.388,27.5469],[75.3255,27.6178],[75.2444,27.6161],[75.2049,27.5792],[75.1526,27.6413],[75.119,27.7579],[74.9588,27.6821],[74.9479,27.7089],[75.0082,27.7283],[74.9766,27.7727],[74.9162,27.7533],[74.8548,27.7699],[74.8153,27.7328],[74.7737,27.7679],[74.652,27.7649],[74.6328,27.7283],[74.5923,27.7272],[74.5297,27.7798]]],[[[75.1428,27.2439],[75.124,27.1893],[75.0447,27.1334],[75.0865,27.0801],[75.0565,27.0705],[75.0373,27.0339],[75.0265,27.0607],[75.0457,27.0973],[75.0246,27.1329],[75.0438,27.1695],[75.0738,27.1792],[75.1324,27.2527],[75.1428,27.2439]]]]}},{"type":"Feature","properties":{"cell":83,"feature":1234,"phase":"Developing","min_bt_K":226.0,"area_km2":7476,"cold_core_km2":0,"speed_kmh":94.5,"heading_deg":219,"d_min_bt_30":-0.3,"age_min":90,"family":53,"touches_missing":true,"lon":72.3732,"lat":27.7503,"merges_splits_so_far":5},"geometry":{"type":"MultiPolygon","coordinates":[[[[72.1701,28.2019],[72.1654,28.1024],[72.0947,28.0902],[72.0163,28.0325],[71.9904,27.9501],[72.0072,27.2828],[72.0592,27.2581],[72.0774,27.295],[72.1168,27.3149],[72.1592,27.2806],[72.2784,27.322],[72.3804,27.3083],[72.577,27.4249],[72.6983,27.4299],[72.7405,27.3954],[72.8205,27.4167],[72.8276,27.4801],[72.9034,27.5914],[72.9388,27.7011],[72.968,27.7293],[73.0288,27.7316],[73.0782,27.7606],[73.0496,27.94],[72.9959,28.0012],[72.8934,28.0153],[72.7891,28.0654],[72.6264,28.0588],[72.5432,28.0915],[72.3601,28.0838],[72.2739,28.1703],[72.2128,28.1677],[72.1701,28.2019]]],[[[72.5279,27.793],[72.5362,27.6309],[72.5062,27.6206],[72.4878,27.5837],[72.5076,27.7922],[72.5279,27.793]]],[[[72.6388,28.0142],[72.7467,27.8922],[72.7493,27.8381],[72.7008,27.7911],[72.6893,27.8177],[72.729,27.8373],[72.7264,27.8914],[72.6831,27.9438],[72.6415,27.9602],[72.6194,27.9954],[72.6185,28.0134],[72.6388,28.0142]]]]}},{"type":"Feature","properties":{"cell":87,"feature":1212,"phase":"Developing","min_bt_K":238.0,"area_km2":2324,"cold_core_km2":0,"speed_kmh":36.3,"heading_deg":120,"d_min_bt_30":4.9,"age_min":60,"family":87,"touches_missing":true,"lon":77.5753,"lat":32.0848,"merges_splits_so_far":0},"geometry":{"type":"MultiPolygon","coordinates":[[[[77.745,32.3901],[77.6813,32.3719],[77.6387,32.3899],[77.607,32.3627],[77.6285,32.2906],[77.7135,32.2547],[77.6819,32.2096],[77.5545,32.2272],[77.3853,32.1544],[77.2801,32.0456],[77.259,32.0455],[77.2162,32.0994],[77.1951,32.0812],[77.1314,32.0989],[77.1099,32.1348],[77.0681,32.0804],[77.0152,32.071],[76.9737,31.9985],[77.0688,32.0083],[77.1749,31.9729],[77.1959,31.991],[77.2806,31.9915],[77.5773,31.8846],[77.6196,31.8847],[77.6617,31.9209],[77.7463,31.9211],[77.8519,31.9573],[77.9259,32.0025],[77.8623,32.0746],[77.8622,32.1467],[77.9682,32.1829],[77.9682,32.255],[77.8939,32.3001],[77.8514,32.3001],[77.745,32.3901]]]]}},{"type":"Feature","properties":{"cell":90,"feature":1217,"phase":"Unclassified","min_bt_K":240.2,"area_km2":1856,"cold_core_km2":0,"speed_kmh":24.5,"heading_deg":276,"d_min_bt_30":1.2,"age_min":60,"family":90,"touches_missing":true,"lon":82.3461,"lat":32.3635,"merges_splits_so_far":2},"geometry":{"type":"MultiPolygon","coordinates":[[[[81.7509,32.6262],[81.6657,32.6286],[81.6093,32.549],[81.6827,32.5199],[81.723,32.4646],[81.8491,32.425],[81.8689,32.3883],[81.9751,32.3852],[81.9869,32.4119],[82.0412,32.4373],[82.1033,32.3993],[82.1458,32.398],[82.1859,32.3426],[82.2488,32.3226],[82.2683,32.2859],[82.321,32.2752],[82.3397,32.2204],[82.232,32.1878],[82.2515,32.1511],[82.3236,32.1037],[82.3787,32.147],[82.3592,32.1837],[82.405,32.2544],[82.4814,32.2969],[82.5239,32.2955],[82.5469,32.3308],[82.6088,32.2926],[82.6724,32.2904],[82.7555,32.2513],[82.8615,32.2475],[82.8808,32.2107],[82.9444,32.2084],[83.0273,32.1692],[83.2089,32.1892],[83.1676,32.2089],[83.1908,32.2441],[83.119,32.292],[83.0746,32.2576],[82.9299,32.3352],[82.8025,32.3399],[82.7804,32.3226],[82.6761,32.3624],[82.484,32.351],[82.4331,32.3978],[82.4246,32.4432],[82.3821,32.4446],[82.3158,32.3926],[82.23,32.3773],[82.1577,32.4247],[82.1397,32.4974],[82.0885,32.5441],[81.919,32.5673],[81.9057,32.5045],[81.8521,32.497],[81.8434,32.5424],[81.7905,32.5529],[81.7509,32.6262]]]]}},{"type":"Feature","properties":{"cell":95,"feature":1221,"phase":"Developing","min_bt_K":241.0,"area_km2":308,"cold_core_km2":0,"speed_kmh":59.8,"heading_deg":110,"d_min_bt_30":2.8,"age_min":60,"family":95,"touches_missing":false,"lon":79.5707,"lat":33.0818,"merges_splits_so_far":0},"geometry":{"type":"MultiPolygon","coordinates":[[[[79.3515,33.2495],[79.3187,33.2047],[79.4347,33.0862],[79.5198,33.0492],[79.584,33.0484],[79.6686,32.9933],[79.7328,32.9925],[79.7654,33.0191],[79.6703,33.0835],[79.4145,33.1586],[79.4259,33.2036],[79.3515,33.2495]]]]}},{"type":"Feature","properties":{"cell":99,"feature":1241,"phase":"Developing","min_bt_K":227.2,"area_km2":4656,"cold_core_km2":0,"speed_kmh":81.9,"heading_deg":113,"d_min_bt_30":4.0,"age_min":60,"family":99,"touches_missing":true,"lon":75.082,"lat":31.456,"merges_splits_so_far":0},"geometry":{"type":"MultiPolygon","coordinates":[[[[75.1293,31.746],[75.1087,31.7275],[75.087,31.7451],[74.9604,31.7423],[74.8778,31.6862],[74.7941,31.6662],[74.7327,31.6106],[74.5233,31.5692],[74.5144,31.5238],[74.5578,31.4889],[74.5815,31.4173],[74.6133,31.4091],[74.6789,31.3386],[74.721,31.3396],[74.7432,31.3041],[74.7852,31.3051],[74.8506,31.2345],[74.9136,31.236],[74.9573,31.1829],[74.9992,31.1838],[75.1267,31.1325],[75.2106,31.1343],[75.2326,31.0987],[75.3169,31.0824],[75.3164,31.1004],[75.2632,31.1264],[75.2832,31.1629],[75.3759,31.2279],[75.5018,31.2303],[75.4887,31.3293],[75.4672,31.3469],[75.5606,31.3938],[75.6027,31.3946],[75.6125,31.4218],[75.6747,31.459],[75.5246,31.5645],[75.5658,31.6014],[75.5335,31.6278],[75.386,31.625],[75.3217,31.6598],[75.2996,31.6954],[75.2363,31.6941],[75.1293,31.746]]]]}},{"type":"Feature","properties":{"cell":104,"feature":1219,"phase":"Unclassified","min_bt_K":241.1,"area_km2":312,"cold_core_km2":0,"speed_kmh":27.3,"heading_deg":83,"d_min_bt_30":1.1,"age_min":30,"family":104,"touches_missing":true,"lon":81.5614,"lat":32.7246,"merges_splits_so_far":0},"geometry":{"type":"MultiPolygon","coordinates":[[[[81.6523,32.8275],[81.5854,32.7571],[81.5428,32.7582],[81.4774,32.7239],[81.4568,32.7424],[81.3928,32.7441],[81.3598,32.7179],[81.4314,32.6348],[81.4547,32.6884],[81.5187,32.6867],[81.5393,32.6681],[81.5826,32.685],[81.6238,32.6478],[81.6686,32.7007],[81.7443,32.7257],[81.7458,32.7617],[81.7149,32.7896],[81.6722,32.7908],[81.6523,32.8275]]]]}},{"type":"Feature","properties":{"cell":105,"feature":1220,"phase":"Unclassified","min_bt_K":243.0,"area_km2":204,"cold_core_km2":0,"speed_kmh":19.0,"heading_deg":108,"d_min_bt_30":2.0,"age_min":30,"family":105,"touches_missing":false,"lon":80.273,"lat":32.8601,"merges_splits_so_far":0},"geometry":{"type":"MultiPolygon","coordinates":[[[[80.1593,32.9321],[80.1165,32.9328],[80.1052,32.9059],[80.2212,32.8409],[80.2639,32.8402],[80.3057,32.8034],[80.3702,32.8203],[80.4546,32.7827],[80.4874,32.8091],[80.3716,32.8744],[80.3498,32.8567],[80.2866,32.8939],[80.2434,32.8766],[80.1593,32.9321]]]]}},{"type":"Feature","properties":{"cell":107,"feature":1235,"phase":"Developing","min_bt_K":233.2,"area_km2":4408,"cold_core_km2":0,"speed_kmh":35.7,"heading_deg":45,"d_min_bt_30":-0.9,"age_min":30,"family":53,"touches_missing":true,"lon":74.3247,"lat":27.9553,"merges_splits_so_far":1},"geometry":{"type":"MultiPolygon","coordinates":[[[[74.6768,28.2709],[74.5546,28.2678],[74.515,28.2306],[74.4131,28.2279],[74.3736,28.1907],[74.2915,28.2065],[74.2699,28.242],[74.1884,28.2396],[74.1693,28.203],[74.0471,28.1994],[74.0254,28.2348],[73.9643,28.233],[73.9151,28.1863],[73.9186,28.0962],[74.0748,28.0017],[74.107,27.9575],[74.0578,27.9109],[73.9976,27.891],[73.9695,27.827],[73.9106,27.771],[73.9127,27.7169],[73.8742,27.6616],[73.8965,27.6081],[73.9462,27.6367],[73.9671,27.6193],[74.0481,27.6218],[74.0867,27.6771],[74.1076,27.6596],[74.2292,27.6632],[74.2678,27.7184],[74.3084,27.7196],[74.3274,27.7562],[74.4491,27.7596],[74.4885,27.7967],[74.5297,27.7798],[74.5784,27.8442],[74.5772,27.8803],[74.5355,27.9153],[74.5343,27.9514],[74.5639,27.9792],[74.726,28.0014],[74.7677,27.9663],[74.7875,27.9849],[74.8084,27.9673],[75.0319,27.9726],[75.0527,27.955],[75.1137,27.9563],[75.203,28.0395],[75.1306,28.083],[75.1217,28.0377],[75.0517,27.991],[75.0512,28.0091],[75.0815,28.0188],[75.0686,28.1178],[75.0274,28.1349],[75.0081,28.0984],[74.9877,28.0979],[74.9663,28.1335],[74.8035,28.1297],[74.8118,28.193],[74.7391,28.2364],[74.6984,28.2354],[74.6768,28.2709]]],[[[74.4309,28.0028],[74.4315,27.9847],[74.4826,27.9771],[74.4937,27.9503],[74.4432,27.9399],[74.4216,27.9754],[74.3915,27.9656],[74.3933,27.9115],[74.4345,27.8946],[74.4369,27.8224],[74.4074,27.7945],[74.3939,27.8934],[74.352,27.9284],[74.3508,27.9645],[74.381,27.9743],[74.4001,28.0109],[74.4309,28.0028]]],[[[74.5063,28.1853],[74.5488,28.1323],[74.5296,28.0957],[74.5709,28.0787],[74.5221,28.0142],[74.511,28.041],[74.5302,28.0776],[74.5093,28.0951],[74.5075,28.1492],[74.4656,28.1842],[74.5063,28.1853]]]]}},{"type":"Feature","properties":{"cell":108,"feature":1249,"phase":"Developing","min_bt_K":219.0,"area_km2":10748,"cold_core_km2":72,"speed_kmh":20.5,"heading_deg":151,"d_min_bt_30":-3.4,"age_min":30,"family":5,"touches_missing":true,"lon":74.2179,"lat":32.4071,"merges_splits_so_far":1},"geometry":{"type":"MultiPolygon","coordinates":[[[[74.0702,32.8196],[73.9666,32.7443],[73.7534,32.7377],[73.6006,32.8049],[73.4939,32.8013],[73.4233,32.7177],[73.4509,32.5924],[73.4203,32.5642],[73.3768,32.5808],[73.3573,32.544],[73.1973,32.5474],[73.2204,32.5121],[73.227,32.386],[73.2593,32.3782],[73.3212,32.4164],[73.3406,32.4532],[73.47,32.4216],[73.5049,32.3596],[73.466,32.2861],[73.4704,32.196],[73.5035,32.1701],[73.59,32.1369],[73.6315,32.1563],[73.7595,32.1424],[73.8002,32.1798],[73.823,32.1444],[73.8866,32.1464],[73.9745,32.0769],[74.1257,32.0092],[74.3359,32.0513],[74.4055,32.1704],[74.4787,32.1995],[74.4985,32.2361],[74.6476,32.2219],[74.6695,32.2044],[74.7755,32.207],[74.8404,32.1725],[75.0312,32.1769],[75.0741,32.1598],[75.0964,32.1242],[75.1383,32.1431],[75.3502,32.1475],[75.4133,32.1668],[75.4961,32.2405],[75.6008,32.2966],[75.6433,32.2973],[75.674,32.343],[75.716,32.3617],[75.7155,32.3798],[75.64,32.4236],[75.5337,32.4216],[75.5115,32.4573],[75.469,32.4565],[75.4358,32.501],[75.3601,32.5446],[75.3284,32.535],[75.2569,32.4343],[75.1271,32.5037],[75.0845,32.5028],[75.0225,32.4473],[74.98,32.4463],[74.7429,32.531],[74.6578,32.5289],[74.6358,32.5463],[74.5939,32.5272],[74.572,32.5447],[74.5514,32.5261],[74.4408,32.6315],[74.3336,32.6466],[74.0702,32.8196]]]]}},{"type":"Feature","properties":{"cell":109,"feature":1243,"phase":"Unclassified","min_bt_K":228.0,"area_km2":3532,"cold_core_km2":0,"speed_kmh":77.2,"heading_deg":96,"d_min_bt_30":-0.1,"age_min":30,"family":5,"touches_missing":true,"lon":74.0808,"lat":32.9301,"merges_splits_so_far":2},"geometry":{"type":"MultiPolygon","coordinates":[[[[73.8213,33.1188],[73.5857,33.1112],[73.5447,33.0737],[73.4795,33.0896],[73.4274,33.0607],[73.4934,33.0269],[73.5397,32.9563],[73.5006,32.8828],[73.5237,32.8475],[73.5152,32.8021],[73.6006,32.8049],[73.7534,32.7377],[73.9666,32.7443],[74.0702,32.8196],[74.202,32.7332],[74.2115,32.7605],[74.305,32.8263],[74.3271,32.8088],[74.369,32.828],[74.4765,32.8129],[74.4971,32.8315],[74.6466,32.8353],[74.6776,32.8631],[74.6316,32.9522],[74.6289,33.0243],[74.4859,33.1199],[74.4645,33.1193],[74.4445,33.0827],[74.3803,33.081],[74.3582,33.0984],[74.3375,33.0798],[74.3154,33.0972],[74.2091,33.0762],[74.1869,33.0936],[74.1662,33.075],[74.0806,33.0725],[74.0394,33.0352],[73.9086,33.0854],[73.8666,33.066],[73.8213,33.1188]]]]}},{"type":"Feature","properties":{"cell":112,"feature":1205,"phase":"Unclassified","min_bt_K":243.7,"area_km2":88,"cold_core_km2":0,"speed_kmh":null,"heading_deg":null,"d_min_bt_30":null,"age_min":0,"family":112,"touches_missing":false,"lon":79.4883,"lat":30.4012,"merges_splits_so_far":0},"geometry":{"type":"MultiPolygon","coordinates":[[[[79.6031,30.4323],[79.5401,30.397],[79.5196,30.4153],[79.3842,30.4077],[79.415,30.3803],[79.5398,30.3789],[79.5604,30.3607],[79.6131,30.4051],[79.6031,30.4323]]]]}},{"type":"Feature","properties":{"cell":116,"feature":1216,"phase":"Unclassified","min_bt_K":243.0,"area_km2":120,"cold_core_km2":0,"speed_kmh":null,"heading_deg":null,"d_min_bt_30":null,"age_min":0,"family":116,"touches_missing":false,"lon":83.7855,"lat":32.1622,"merges_splits_so_far":0},"geometry":{"type":"MultiPolygon","coordinates":[[[[83.8582,32.2074],[83.7946,32.2102],[83.6741,32.1522],[83.7043,32.1238],[83.8102,32.1192],[83.8671,32.1799],[83.8582,32.2074]]]]}},{"type":"Feature","properties":{"cell":118,"feature":1226,"phase":"Unclassified","min_bt_K":234.2,"area_km2":1300,"cold_core_km2":0,"speed_kmh":null,"heading_deg":null,"d_min_bt_30":null,"age_min":0,"family":118,"touches_missing":true,"lon":83.5682,"lat":33.4609,"merges_splits_so_far":0},"geometry":{"type":"MultiPolygon","coordinates":[[[[83.5224,33.6836],[83.4997,33.6665],[83.4351,33.6691],[83.323,33.6015],[83.2595,33.622],[83.2214,33.5242],[83.3585,33.4737],[83.4175,33.3811],[83.5237,33.3587],[83.6062,33.3011],[83.6277,33.3002],[83.674,33.3524],[83.717,33.3505],[83.7553,33.2767],[83.8571,33.3535],[83.8212,33.4634],[83.7465,33.4756],[83.707,33.5315],[83.664,33.5333],[83.5813,33.5909],[83.5383,33.5927],[83.553,33.6553],[83.5224,33.6836]]]]}},{"type":"Feature","properties":{"cell":121,"feature":1229,"phase":"Unclassified","min_bt_K":235.1,"area_km2":456,"cold_core_km2":0,"speed_kmh":null,"heading_deg":null,"d_min_bt_30":null,"age_min":0,"family":121,"touches_missing":false,"lon":81.4551,"lat":33.6367,"merges_splits_so_far":0},"geometry":{"type":"MultiPolygon","coordinates":[[[[81.3866,33.7186],[81.3435,33.7197],[81.2664,33.6765],[81.2644,33.6224],[81.295,33.5765],[81.338,33.5755],[81.3609,33.611],[81.4478,33.6268],[81.4575,33.5995],[81.4998,33.5804],[81.4866,33.5176],[81.5748,33.5694],[81.6617,33.5851],[81.6958,33.6292],[81.6973,33.6653],[81.6661,33.6932],[81.6223,33.6764],[81.493,33.6798],[81.4707,33.6623],[81.3866,33.7186]]]]}},{"type":"Feature","properties":{"cell":125,"feature":1237,"phase":"Unclassified","min_bt_K":231.0,"area_km2":8344,"cold_core_km2":0,"speed_kmh":null,"heading_deg":null,"d_min_bt_30":null,"age_min":0,"family":53,"touches_missing":true,"lon":73.4567,"lat":28.1802,"merges_splits_so_far":2},"geometry":{"type":"MultiPolygon","coordinates":[[[[73.3741,28.6648],[73.3127,28.6627],[73.2236,28.5963],[73.226,28.5422],[73.1468,28.4852],[73.1493,28.4311],[73.0702,28.374],[73.0523,28.3192],[72.9547,28.2253],[72.9573,28.1712],[72.9989,28.1547],[72.9853,28.0098],[73.0496,27.94],[73.0782,27.7606],[73.1091,27.7527],[73.148,27.7902],[73.1886,27.7917],[73.2479,27.83],[73.3525,27.7615],[73.5553,27.7685],[73.5748,27.7872],[73.7169,27.7919],[73.7379,27.7746],[73.7777,27.7939],[73.8995,27.7977],[73.9204,27.7803],[73.9695,27.827],[73.9877,27.8817],[74.0578,27.9109],[74.1063,27.9755],[73.9186,28.0962],[73.9151,28.1863],[73.9544,28.2236],[73.8624,28.2298],[73.8512,28.2565],[73.88,28.3026],[73.9812,28.3237],[74.0431,28.3076],[74.0858,28.2547],[74.0944,28.3001],[74.1345,28.3193],[74.1318,28.3914],[74.1108,28.4089],[74.1305,28.4275],[74.0996,28.4356],[74.0798,28.417],[73.9518,28.5575],[73.8496,28.5543],[73.8066,28.6071],[73.7453,28.6051],[73.7233,28.6405],[73.6839,28.6031],[73.643,28.6018],[73.6006,28.6365],[73.437,28.6309],[73.3741,28.6648]]],[[[73.5213,28.336],[73.5221,28.318],[73.4821,28.2986],[73.4844,28.2445],[73.415,28.197],[73.3962,28.1602],[73.3849,28.1869],[73.4436,28.2431],[73.4421,28.2791],[73.4805,28.3346],[73.5213,28.336]]],[[[73.6559,28.539],[73.6475,28.4936],[73.5961,28.501],[73.6249,28.547],[73.6559,28.539]]],[[[73.696,28.5584],[73.7073,28.5317],[73.7482,28.533],[73.7799,28.507],[73.7088,28.4957],[73.6763,28.5397],[73.6756,28.5577],[73.696,28.5584]]]]}},{"type":"Feature","properties":{"cell":130,"feature":1247,"phase":"Unclassified","min_bt_K":216.0,"area_km2":4652,"cold_core_km2":384,"speed_kmh":null,"heading_deg":null,"d_min_bt_30":null,"age_min":0,"family":64,"touches_missing":true,"lon":72.4363,"lat":30.75,"merges_splits_so_far":1},"geometry":{"type":"MultiPolygon","coordinates":[[[[72.417,31.1545],[72.3772,31.1167],[72.1048,31.1049],[72.086,31.0679],[72.0629,31.103],[71.9901,31.0907],[71.9991,30.9467],[72.1345,30.9618],[72.1477,30.9173],[72.0541,30.9041],[72.0035,30.8747],[72.0037,30.5318],[72.0355,30.5243],[72.0585,30.4892],[72.1626,30.4938],[72.1824,30.5127],[72.2657,30.5164],[72.3261,30.5551],[72.4303,30.5595],[72.4481,30.6144],[72.6358,30.6221],[72.6973,30.6426],[72.8471,30.5764],[72.9523,30.5624],[72.975,30.5271],[73.0565,30.5663],[73.1263,30.632],[73.0801,30.7206],[73.0782,30.7566],[73.1182,30.7941],[73.021,30.8537],[72.9792,30.8521],[72.9601,30.8153],[72.9364,30.8685],[72.8129,30.8277],[72.7901,30.8629],[72.7274,30.8604],[72.7184,30.833],[72.6875,30.8227],[72.6836,30.8947],[72.5561,30.9256],[72.4724,30.9222],[72.4505,30.9393],[72.2512,30.9398],[72.249,30.9758],[72.2898,30.9956],[72.2987,31.0231],[72.3416,31.0069],[72.4882,31.0131],[72.5959,30.9634],[72.6587,30.9659],[72.6886,30.9942],[72.6567,31.0019],[72.5898,31.0714],[72.55,31.0337],[72.5249,31.1048],[72.504,31.104],[72.4851,31.0671],[72.472,31.1116],[72.417,31.1545]]]]}},{"type":"Feature","properties":{"cell":131,"feature":1248,"phase":"Unclassified","min_bt_K":219.1,"area_km2":9900,"cold_core_km2":264,"speed_kmh":null,"heading_deg":null,"d_min_bt_30":null,"age_min":0,"family":5,"touches_missing":true,"lon":72.5192,"lat":32.2359,"merges_splits_so_far":1},"geometry":{"type":"MultiPolygon","coordinates":[[[[73.1234,32.9327],[73.0724,32.8857],[73.0143,32.7753],[72.9523,32.7368],[72.9553,32.6828],[72.9238,32.6726],[72.8234,32.5604],[72.7403,32.5211],[72.7009,32.4654],[72.6382,32.4448],[72.4894,32.4388],[72.4065,32.3992],[72.3474,32.496],[72.2287,32.518],[72.1603,32.5872],[72.0965,32.5844],[72.074,32.6014],[72.0001,32.5891],[72.0104,32.1023],[71.9904,32.0833],[72.01,31.7774],[71.9901,31.7584],[72.016,31.516],[72.0214,31.5974],[72.0513,31.6258],[72.0946,31.6097],[72.1245,31.6381],[72.1012,31.6732],[72.1089,31.7186],[72.1411,31.711],[72.1556,31.6485],[72.1933,31.7223],[72.3187,31.7458],[72.3377,31.7827],[72.3799,31.7845],[72.5013,31.8798],[72.6481,31.9039],[72.7296,31.9612],[72.9372,32.0415],[73.0228,32.0267],[73.1046,32.0838],[73.3596,32.0749],[73.3799,32.0937],[73.5493,32.0995],[73.5798,32.1275],[73.5679,32.1542],[73.4704,32.196],[73.4576,32.2407],[73.3506,32.2551],[73.2519,32.3147],[73.2223,32.4761],[73.1547,32.5458],[73.2269,32.5936],[73.287,32.6679],[73.3102,32.6326],[73.3306,32.6514],[73.4167,32.6363],[73.4428,32.7545],[73.3863,32.8157],[73.3659,32.797],[73.3018,32.7947],[73.2824,32.7579],[73.2035,32.8363],[73.2006,32.8904],[73.1234,32.9327]]]]}}]}