{"type":"FeatureCollection","features":[{"type":"Feature","properties":{"cell":32,"feature":1312,"phase":"Decaying","min_bt_K":226.0,"area_km2":28264,"cold_core_km2":0,"speed_kmh":13.1,"heading_deg":194,"d_min_bt_30":0.8,"age_min":270,"family":5,"touches_missing":true,"lon":75.8992,"lat":33.2295,"merges_splits_so_far":13},"geometry":{"type":"MultiPolygon","coordinates":[[[[75.5115,34.009],[75.1765,33.9933],[75.2686,33.8148],[75.2172,33.7325],[75.0249,33.6743],[74.9941,33.6285],[74.9307,33.5909],[74.9541,33.5373],[74.9123,33.5003],[74.9142,33.4462],[74.8933,33.4277],[74.9167,33.3741],[74.875,33.337],[74.8971,33.3195],[74.8788,33.2289],[74.9449,33.1763],[74.9462,33.1402],[74.8942,33.0939],[74.8513,33.0929],[74.8202,33.0651],[74.8214,33.029],[74.7475,33.0002],[74.7067,32.9451],[74.6212,32.9429],[74.5688,32.9145],[74.5695,32.8965],[74.6129,32.8796],[74.6142,32.8435],[74.5722,32.8244],[74.6052,32.7982],[74.6266,32.7987],[74.6466,32.8353],[74.7106,32.8369],[74.7333,32.8014],[74.8406,32.7859],[74.9272,32.7518],[74.9497,32.7163],[75.0137,32.7177],[75.1001,32.6835],[75.1854,32.6854],[75.2723,32.6331],[75.3357,32.6524],[75.4021,32.5635],[75.466,32.5647],[75.5502,32.6024],[75.6567,32.6043],[75.7641,32.57],[75.8492,32.5714],[75.8926,32.5361],[75.9352,32.5367],[75.9557,32.5731],[76.0409,32.5744],[76.061,32.6288],[76.2315,32.6312],[76.2957,32.614],[76.4035,32.5431],[76.4254,32.5073],[76.4679,32.5078],[76.5539,32.4547],[76.5961,32.4732],[76.725,32.3842],[76.789,32.3668],[76.8107,32.3309],[76.8532,32.3313],[76.895,32.3858],[76.9796,32.4225],[77.0223,32.4048],[77.1068,32.4595],[77.2768,32.4786],[77.2978,32.5148],[77.3509,32.5241],[77.3505,32.5782],[77.3928,32.6325],[77.2964,32.6952],[77.2538,32.6949],[77.1893,32.7487],[77.0398,32.7657],[77.0075,32.7926],[77.0069,32.8467],[76.942,32.9183],[76.856,32.9537],[76.8547,33.0619],[76.7789,33.1244],[76.7361,33.124],[76.7257,33.0969],[76.6726,33.0693],[76.6187,33.0958],[76.7242,33.2051],[76.7227,33.3133],[76.6577,33.3488],[76.6789,33.367],[76.6547,33.5472],[76.5793,33.5554],[76.5365,33.5369],[76.5238,33.6541],[76.7258,33.8456],[76.769,33.846],[76.8117,33.8825],[76.8656,33.892],[76.8644,33.9822],[76.8316,34.009],[76.7234,34.008],[76.7023,33.9717],[76.6804,33.9895],[76.6591,33.9713],[76.5942,33.9706],[76.5504,34.0062],[75.5336,33.9914],[75.5115,34.009]]],[[[75.8465,33.1397],[75.8478,33.0856],[75.8054,33.0669],[75.8495,33.0135],[75.8176,33.0039],[75.7552,32.9307],[75.7439,32.9576],[75.7757,32.9671],[75.8067,33.0128],[75.7844,33.0485],[75.8041,33.121],[75.8465,33.1397]]],[[[76.4566,33.7977],[76.436,33.7433],[76.4038,33.7339],[76.4351,33.7974],[76.4566,33.7977]]],[[[76.4325,33.9417],[76.4767,33.8881],[76.4889,33.8071],[76.4776,33.834],[76.4341,33.8515],[76.4331,33.9056],[76.3896,33.9232],[76.4325,33.9417]]]]}},{"type":"Feature","properties":{"cell":63,"feature":1295,"phase":"Developing","min_bt_K":234.0,"area_km2":880,"cold_core_km2":0,"speed_kmh":69.1,"heading_deg":113,"d_min_bt_30":0.5,"age_min":150,"family":39,"touches_missing":true,"lon":82.7686,"lat":33.4732,"merges_splits_so_far":5},"geometry":{"type":"MultiPolygon","coordinates":[[[[82.9775,33.5967],[82.8474,33.5834],[82.8219,33.5122],[82.7574,33.5145],[82.6948,33.5528],[82.6069,33.5198],[82.5657,33.5573],[82.3788,33.4823],[82.4097,33.4542],[82.5172,33.4506],[82.6003,33.3936],[82.7106,33.4439],[83.1158,33.3749],[83.1731,33.4359],[83.1425,33.4641],[82.993,33.4878],[82.9775,33.5967]]]]}},{"type":"Feature","properties":{"cell":64,"feature":1316,"phase":"Developing","min_bt_K":218.4,"area_km2":16356,"cold_core_km2":256,"speed_kmh":91.2,"heading_deg":70,"d_min_bt_30":3.4,"age_min":150,"family":64,"touches_missing":true,"lon":72.9391,"lat":30.3608,"merges_splits_so_far":4},"geometry":{"type":"MultiPolygon","coordinates":[[[[72.9945,30.961],[72.9545,30.9234],[72.7862,30.9349],[72.7672,30.898],[72.6627,30.8939],[72.6188,30.9282],[72.588,30.9179],[72.592,30.8459],[72.5323,30.7893],[72.5801,30.683],[72.4997,30.6256],[72.5038,30.5535],[72.4641,30.5158],[72.4801,30.4172],[72.3781,30.3768],[72.2886,30.4813],[72.2054,30.4777],[72.1669,30.4218],[72.1253,30.42],[72.0858,30.3821],[71.9939,30.3509],[72.01,29.738],[71.9905,29.7191],[72.0099,29.5666],[72.0501,29.5864],[72.1131,29.5712],[72.2348,29.6127],[72.3319,29.7251],[72.453,29.7844],[72.6598,29.7929],[72.6795,29.8118],[72.9286,29.8035],[72.9484,29.8223],[73.1337,29.8473],[73.3546,29.9996],[73.4367,30.0205],[73.4965,30.0767],[73.5595,30.0608],[73.6093,30.1076],[73.6469,30.1991],[73.6253,30.2164],[73.6205,30.3245],[73.6605,30.3619],[73.6374,30.4153],[73.6974,30.4714],[73.6958,30.5074],[73.8069,30.5922],[73.8178,30.5835],[73.7367,30.5268],[73.7391,30.4727],[73.6582,30.416],[73.6914,30.3719],[73.7799,30.4921],[73.861,30.5488],[73.8595,30.5848],[73.8054,30.6282],[73.7645,30.6089],[73.7328,30.6169],[73.7072,30.7243],[73.6104,30.7843],[73.5879,30.8196],[73.567,30.8189],[73.5477,30.7822],[73.506,30.7808],[73.4199,30.832],[73.4107,30.8046],[73.3798,30.7945],[73.3663,30.8572],[73.3337,30.8831],[73.2718,30.8629],[73.2265,30.9334],[73.1655,30.8951],[73.1428,30.9304],[73.0382,30.9265],[72.9945,30.961]]]]}},{"type":"Feature","properties":{"cell":78,"feature":1290,"phase":"Developing","min_bt_K":238.0,"area_km2":1052,"cold_core_km2":0,"speed_kmh":40.6,"heading_deg":119,"d_min_bt_30":2.2,"age_min":120,"family":78,"touches_missing":true,"lon":80.9981,"lat":32.8406,"merges_splits_so_far":2},"geometry":{"type":"MultiPolygon","coordinates":[[[[80.9738,32.9886],[80.9091,32.972],[80.8455,32.9914],[80.8016,32.9563],[80.7051,32.9492],[80.801,32.9382],[80.8323,32.9105],[80.7753,32.7944],[80.8393,32.7931],[80.8491,32.7658],[80.9223,32.7191],[80.9442,32.7367],[81.1362,32.7323],[81.1581,32.7498],[81.2435,32.7478],[81.2848,32.7107],[81.2971,32.7555],[81.3301,32.7818],[81.3618,32.7719],[81.3871,32.8796],[81.2512,32.9641],[81.1974,32.9564],[81.2803,32.8822],[81.279,32.8462],[81.246,32.8199],[81.1393,32.8225],[81.1296,32.8498],[81.0875,32.8688],[81.0685,32.9414],[80.9738,32.9886]]]]}},{"type":"Feature","properties":{"cell":82,"feature":1304,"phase":"Decaying","min_bt_K":223.2,"area_km2":17640,"cold_core_km2":0,"speed_kmh":60.8,"heading_deg":97,"d_min_bt_30":10.6,"age_min":120,"family":53,"touches_missing":true,"lon":74.6791,"lat":27.2004,"merges_splits_so_far":3},"geometry":{"type":"MultiPolygon","coordinates":[[[[75.3594,27.8893],[75.3102,27.8251],[75.321,27.7982],[75.3719,27.7902],[75.3625,27.763],[75.3219,27.7622],[75.3111,27.789],[75.27,27.8062],[75.2696,27.8243],[75.3097,27.8431],[75.2786,27.8696],[75.1364,27.8666],[75.1166,27.8481],[75.0755,27.8652],[74.9537,27.8625],[74.9339,27.8439],[74.8324,27.8415],[74.8132,27.805],[74.732,27.803],[74.7128,27.7664],[74.663,27.7381],[74.6345,27.6742],[74.5141,27.6349],[74.433,27.6328],[74.3857,27.5322],[74.3366,27.4857],[74.2955,27.5026],[74.2563,27.4654],[74.2159,27.4642],[74.1473,27.399],[74.2386,27.3926],[74.2196,27.356],[74.159,27.3542],[74.1375,27.3897],[74.0775,27.3699],[74.0358,27.4047],[73.9549,27.4023],[73.9472,27.3389],[73.9993,27.2953],[74.0801,27.2977],[74.1114,27.2716],[73.9805,27.2586],[73.9212,27.2207],[73.9135,27.1573],[73.8356,27.0826],[73.8383,27.0104],[73.7883,26.9998],[73.741,26.917],[73.8977,26.7685],[73.9573,26.7884],[74.041,26.7007],[74.1414,26.7037],[74.2004,26.7415],[74.3009,26.7444],[74.3825,26.7105],[74.4037,26.675],[74.4824,26.7313],[74.503,26.7138],[74.5627,26.7334],[74.6236,26.717],[74.6632,26.736],[74.6838,26.7185],[74.8044,26.7215],[74.8863,26.6693],[74.9867,26.6716],[75.0063,26.6901],[75.1866,26.7122],[75.2058,26.7487],[75.3255,26.7873],[75.4342,26.8707],[75.4433,26.916],[75.4737,26.9076],[75.5518,27.0174],[75.53,27.0892],[75.5695,27.1261],[75.5881,27.1986],[75.8462,27.4198],[75.8451,27.4739],[75.8142,27.5005],[75.6412,27.5426],[75.6806,27.5975],[75.6695,27.6424],[75.5884,27.6409],[75.4854,27.7112],[75.4557,27.6836],[75.4772,27.6298],[75.5281,27.6218],[75.6004,27.5599],[75.5702,27.5503],[75.5607,27.5231],[75.6943,27.4262],[75.7348,27.4269],[75.7458,27.382],[75.6547,27.3894],[75.6131,27.4428],[75.5726,27.4421],[75.521,27.4862],[75.5198,27.5404],[75.4789,27.5577],[75.4776,27.6118],[75.4173,27.5926],[75.4565,27.6475],[75.3539,27.6996],[75.3633,27.7269],[75.4747,27.7381],[75.4738,27.7742],[75.4328,27.7914],[75.4112,27.8452],[75.3594,27.8893]]]]}},{"type":"Feature","properties":{"cell":83,"feature":1306,"phase":"Developing","min_bt_K":224.2,"area_km2":13100,"cold_core_km2":0,"speed_kmh":19.6,"heading_deg":92,"d_min_bt_30":-1.8,"age_min":120,"family":53,"touches_missing":true,"lon":72.4724,"lat":27.7479,"merges_splits_so_far":5},"geometry":{"type":"MultiPolygon","coordinates":[[[[72.9602,28.3247],[72.9406,28.3059],[72.5533,28.2905],[72.5145,28.2528],[72.4126,28.2485],[72.3932,28.2296],[72.3515,28.2459],[72.2496,28.2415],[72.2312,28.2046],[72.111,28.1632],[72.0927,28.1262],[72.0016,28.1131],[72.0095,27.6079],[71.9903,27.589],[72.0092,27.2468],[72.0314,27.2117],[72.0727,27.1955],[72.1073,27.1158],[72.2283,27.1212],[72.2658,27.177],[72.5061,27.2234],[72.5254,27.2422],[72.5859,27.2447],[72.5973,27.2181],[72.6702,27.1759],[72.9526,27.1871],[72.9985,27.2881],[73.0276,27.3163],[73.068,27.3179],[73.0963,27.364],[73.1359,27.3836],[73.1326,27.4557],[73.1707,27.5112],[73.2104,27.5307],[73.0881,27.5443],[73.0832,27.6524],[73.0613,27.6877],[73.0085,27.7309],[72.9468,27.7466],[72.9346,27.7912],[73.0399,27.9306],[73.1212,27.9337],[73.1845,27.8818],[73.3673,27.8884],[73.3747,27.9518],[73.352,28.0052],[73.37,28.06],[73.2944,28.1566],[73.2138,28.1356],[73.2008,28.1984],[73.1478,28.2415],[73.1071,28.24],[72.9602,28.3247]]],[[[72.6762,27.6727],[72.6815,27.5646],[72.6428,27.5269],[72.6446,27.4909],[72.5761,27.4429],[72.6024,27.5253],[72.6419,27.5449],[72.6375,27.635],[72.6559,27.6719],[72.6762,27.6727]]]]}},{"type":"Feature","properties":{"cell":87,"feature":1284,"phase":"Developing","min_bt_K":244.0,"area_km2":56,"cold_core_km2":0,"speed_kmh":40.1,"heading_deg":107,"d_min_bt_30":6.0,"age_min":90,"family":87,"touches_missing":false,"lon":77.7781,"lat":32.0319,"merges_splits_so_far":0},"geometry":{"type":"MultiPolygon","coordinates":[[[[77.8094,32.0475],[77.7142,32.0383],[77.7672,31.9933],[77.8307,31.9934],[77.8413,32.0204],[77.8094,32.0475]]]]}},{"type":"Feature","properties":{"cell":90,"feature":1289,"phase":"Unclassified","min_bt_K":240.1,"area_km2":452,"cold_core_km2":0,"speed_kmh":86.7,"heading_deg":291,"d_min_bt_30":-0.1,"age_min":90,"family":90,"touches_missing":true,"lon":81.917,"lat":32.5059,"merges_splits_so_far":3},"geometry":{"type":"MultiPolygon","coordinates":[[[[81.7935,32.625],[81.7384,32.5815],[81.756,32.4908],[81.7128,32.4739],[81.7003,32.4292],[81.8309,32.4977],[81.9167,32.5132],[81.9562,32.4399],[81.9987,32.4386],[82.0396,32.4013],[82.1356,32.4074],[82.0971,32.4988],[82.0459,32.5454],[82.0239,32.5281],[81.9616,32.566],[81.8977,32.5679],[81.7935,32.625]]]]}},{"type":"Feature","properties":{"cell":99,"feature":1311,"phase":"Developing","min_bt_K":226.6,"area_km2":4836,"cold_core_km2":0,"speed_kmh":64.7,"heading_deg":124,"d_min_bt_30":-0.6,"age_min":90,"family":99,"touches_missing":true,"lon":75.3625,"lat":31.2908,"merges_splits_so_far":0},"geometry":{"type":"MultiPolygon","coordinates":[[[[75.5335,31.6278],[75.5134,31.5914],[75.4717,31.5725],[75.3453,31.5701],[75.22,31.5314],[75.179,31.4945],[75.1369,31.4936],[75.1148,31.5292],[75.0942,31.5107],[74.968,31.5079],[74.8194,31.5405],[74.6643,31.4555],[74.7605,31.4128],[74.9504,31.3992],[74.9828,31.3729],[74.9839,31.3368],[74.9436,31.2818],[74.9867,31.2467],[74.9675,31.1921],[75.0321,31.1395],[75.0439,31.0946],[75.0859,31.0956],[75.1288,31.0604],[75.1912,31.0798],[75.3399,31.0107],[75.4236,31.0123],[75.4441,31.0308],[75.633,31.0162],[75.7143,31.1259],[75.7562,31.1266],[75.8175,31.1998],[75.8594,31.2005],[75.8903,31.2281],[75.8998,31.2733],[75.9937,31.3018],[75.9403,31.3461],[75.8348,31.3625],[75.8026,31.389],[75.8224,31.4434],[75.801,31.4611],[75.7885,31.5421],[75.7464,31.5414],[75.703,31.5948],[75.6824,31.5764],[75.5335,31.6278]]]]}},{"type":"Feature","properties":{"cell":108,"feature":1319,"phase":"Developing","min_bt_K":217.6,"area_km2":27640,"cold_core_km2":80,"speed_kmh":133.7,"heading_deg":291,"d_min_bt_30":-1.4,"age_min":60,"family":5,"touches_missing":true,"lon":73.551,"lat":32.6165,"merges_splits_so_far":4},"geometry":{"type":"MultiPolygon","coordinates":[[[[72.6748,33.2765],[72.4818,33.2687],[72.4615,33.2498],[72.1816,33.2559],[72.1184,33.2351],[72.0791,33.1792],[72.0363,33.1773],[72.0059,33.1489],[72.0095,33.0949],[71.9893,33.0759],[72.0048,32.842],[72.0825,32.8003],[72.1903,32.787],[72.2252,32.7434],[72.2914,32.7102],[72.2936,32.6742],[72.3273,32.6485],[72.371,32.6323],[72.4237,32.6436],[72.4472,32.6085],[72.4559,32.4645],[72.4368,32.4276],[72.4714,32.3839],[72.5149,32.3676],[72.6625,32.3917],[72.7071,32.3574],[72.7496,32.359],[72.7728,32.3239],[72.879,32.328],[72.9195,32.3656],[73.0257,32.3696],[73.1928,32.4299],[73.2121,32.4667],[73.3148,32.5425],[73.3499,32.4806],[73.3535,32.4086],[73.4217,32.3207],[73.4139,32.0498],[73.6577,32.0489],[73.6797,32.0316],[73.7636,32.0523],[73.8287,32.0183],[73.8922,32.0203],[73.9784,31.9868],[74.0011,31.9514],[74.1091,31.9005],[74.3409,31.9251],[74.3817,31.9623],[74.7208,31.9531],[74.8066,31.9191],[74.8477,31.9561],[74.9117,31.9396],[74.9214,31.9669],[74.9837,32.0044],[74.9608,32.058],[74.9911,32.1038],[75.1176,32.1246],[75.2432,32.1814],[75.3507,32.1295],[75.4143,32.1307],[75.4665,32.1588],[75.4645,32.2309],[75.5055,32.2858],[75.4502,32.3659],[75.3424,32.418],[75.2362,32.4158],[75.216,32.3793],[75.1942,32.3969],[75.1305,32.3955],[75.0868,32.4307],[75.0661,32.4122],[75.0535,32.475],[75.0207,32.5014],[74.9131,32.535],[74.8694,32.5701],[74.8055,32.5686],[74.6951,32.6741],[74.6525,32.6731],[74.5899,32.6354],[74.5013,32.7233],[74.4806,32.7047],[74.4689,32.7315],[74.4035,32.7658],[74.4124,32.8112],[74.4978,32.8134],[74.5715,32.8424],[74.4847,32.8762],[74.526,32.9134],[74.5136,32.9582],[74.3839,32.9908],[74.3419,32.9716],[74.3198,32.9891],[74.2128,32.9861],[74.1922,32.9675],[74.1701,32.9849],[74.1059,32.983],[74.0853,32.9644],[74.0212,32.9625],[73.9879,32.9885],[74.0196,32.9985],[74.0291,33.0259],[73.9958,33.0519],[73.9752,33.0333],[73.7965,33.1902],[73.7536,33.1888],[73.709,33.2235],[73.5375,33.2179],[73.5152,33.2352],[73.4732,33.2157],[73.4509,33.233],[73.3893,33.1767],[73.3455,33.1933],[73.1955,33.1879],[73.176,33.1512],[73.1536,33.1684],[72.8323,33.1563],[72.8414,33.1838],[72.8179,33.219],[72.7617,33.2619],[72.7413,33.243],[72.6748,33.2765]]]]}},{"type":"Feature","properties":{"cell":112,"feature":1282,"phase":"Developing","min_bt_K":237.0,"area_km2":680,"cold_core_km2":0,"speed_kmh":29.2,"heading_deg":271,"d_min_bt_30":-6.6,"age_min":30,"family":112,"touches_missing":true,"lon":79.3363,"lat":30.4042,"merges_splits_so_far":0},"geometry":{"type":"MultiPolygon","coordinates":[[[[79.3543,30.5073],[79.271,30.5081],[79.2181,30.4454],[79.1552,30.4099],[79.1548,30.3738],[79.2479,30.3279],[79.5803,30.3063],[79.6535,30.3325],[79.6541,30.3685],[79.6234,30.396],[79.5817,30.3965],[79.5407,30.4331],[79.4991,30.4335],[79.3543,30.5073]]]]}},{"type":"Feature","properties":{"cell":116,"feature":1288,"phase":"Unclassified","min_bt_K":243.2,"area_km2":60,"cold_core_km2":0,"speed_kmh":0.4,"heading_deg":282,"d_min_bt_30":0.2,"age_min":30,"family":116,"touches_missing":false,"lon":83.7835,"lat":32.1626,"merges_splits_so_far":0},"geometry":{"type":"MultiPolygon","coordinates":[[[[83.8359,32.1903],[83.7511,32.194],[83.7165,32.1504],[83.789,32.1202],[83.8359,32.1903]]]]}},{"type":"Feature","properties":{"cell":118,"feature":1298,"phase":"Unclassified","min_bt_K":235.2,"area_km2":992,"cold_core_km2":0,"speed_kmh":53.9,"heading_deg":102,"d_min_bt_30":1.0,"age_min":30,"family":118,"touches_missing":false,"lon":83.8513,"lat":33.4092,"merges_splits_so_far":0},"geometry":{"type":"MultiPolygon","coordinates":[[[[83.9687,33.5742],[83.946,33.5572],[83.9257,33.5761],[83.7966,33.5818],[83.75,33.5296],[83.6628,33.5153],[83.6447,33.3987],[83.7576,33.3127],[83.8016,33.3288],[83.8601,33.236],[83.9649,33.1953],[83.9989,33.2209],[84.0097,33.3828],[83.9895,33.4018],[83.9992,33.5458],[83.9687,33.5742]]]]}},{"type":"Feature","properties":{"cell":121,"feature":1301,"phase":"Unclassified","min_bt_K":238.7,"area_km2":536,"cold_core_km2":0,"speed_kmh":46.1,"heading_deg":104,"d_min_bt_30":3.5,"age_min":30,"family":121,"touches_missing":true,"lon":81.6965,"lat":33.5875,"merges_splits_so_far":0},"geometry":{"type":"MultiPolygon","coordinates":[[[[81.6877,33.6926],[81.5792,33.6775],[81.5562,33.642],[81.4693,33.6263],[81.4575,33.5995],[81.511,33.5891],[81.5548,33.606],[81.563,33.5426],[81.5942,33.5147],[81.6802,33.5124],[81.7678,33.546],[81.7759,33.4826],[81.807,33.4547],[81.9503,33.5317],[81.92,33.5777],[81.8339,33.5802],[81.8139,33.6169],[81.7501,33.6367],[81.6877,33.6926]]]]}},{"type":"Feature","properties":{"cell":125,"feature":1309,"phase":"Unclassified","min_bt_K":232.0,"area_km2":12880,"cold_core_km2":0,"speed_kmh":66.7,"heading_deg":319,"d_min_bt_30":1.0,"age_min":30,"family":53,"touches_missing":true,"lon":73.2344,"lat":28.408,"merges_splits_so_far":7},"geometry":{"type":"MultiPolygon","coordinates":[[[[72.5318,28.7048],[72.4704,28.7022],[72.4518,28.6653],[72.3077,28.6773],[72.2074,28.6368],[72.1695,28.581],[72.1005,28.5328],[72.1036,28.4787],[72.0056,28.4021],[72.0097,28.3301],[72.0418,28.3045],[72.103,28.3072],[72.2486,28.2595],[72.268,28.2784],[72.2903,28.2433],[72.3515,28.2459],[72.3728,28.2288],[72.4126,28.2485],[72.5145,28.2528],[72.5533,28.2905],[72.9406,28.3059],[72.9602,28.3247],[73.1071,28.24],[73.2912,28.2287],[73.305,28.148],[73.3489,28.0773],[73.4001,28.0701],[73.4756,27.9734],[73.5696,27.9134],[73.6487,27.9702],[73.6991,27.9809],[73.6759,28.0523],[73.7053,28.0804],[73.8273,28.0843],[73.8673,28.1036],[73.8638,28.1938],[73.9453,28.1963],[73.9565,28.1696],[73.9368,28.1509],[73.9894,28.1074],[74.0905,28.1285],[74.1325,28.0936],[74.2953,28.0983],[74.307,28.0535],[74.3792,28.0284],[74.4599,28.0487],[74.5093,28.0951],[74.518,28.1405],[74.5604,28.0874],[74.6215,28.089],[74.6424,28.0715],[74.6825,28.0906],[74.7243,28.0555],[74.7853,28.057],[74.8442,28.1306],[74.8854,28.1136],[74.9256,28.1326],[74.9872,28.1159],[75.078,28.1451],[75.0567,28.1807],[75.076,28.2172],[75.0542,28.2709],[75.074,28.2894],[75.0427,28.3157],[74.9612,28.3139],[74.9193,28.349],[74.8785,28.3481],[74.8152,28.4187],[74.7948,28.4182],[74.7655,28.3724],[74.787,28.3368],[74.7777,28.3095],[74.7142,28.3802],[74.4898,28.3744],[74.4478,28.4093],[74.2635,28.4223],[74.2424,28.4397],[74.2345,28.3763],[74.2555,28.3589],[74.1845,28.3478],[74.1654,28.3112],[74.0838,28.3088],[74.02,28.3791],[73.8976,28.3753],[73.8961,28.4114],[74.0278,28.4425],[74.0237,28.5507],[74.1153,28.5624],[74.1931,28.673],[74.0499,28.6688],[74.0288,28.6862],[73.9674,28.6843],[73.966,28.7204],[73.8227,28.7159],[73.8037,28.6792],[73.7219,28.6766],[73.6824,28.6392],[73.6006,28.6365],[73.5817,28.5998],[73.3773,28.5927],[73.3584,28.556],[73.2971,28.5538],[73.2538,28.6064],[73.2023,28.6136],[73.1793,28.6669],[73.1261,28.71],[73.0647,28.7078],[72.9863,28.6326],[72.8841,28.6287],[72.8725,28.6553],[72.8201,28.6803],[72.5541,28.6696],[72.5318,28.7048]]],[[[73.6945,28.5945],[73.7376,28.5417],[73.7391,28.5057],[73.7814,28.4709],[73.7413,28.4516],[73.7555,28.3528],[73.7442,28.3795],[73.7027,28.3962],[73.7012,28.4322],[73.7405,28.4696],[73.7398,28.4876],[73.6982,28.5043],[73.696,28.5584],[73.6355,28.5384],[73.6445,28.5657],[73.6945,28.5945]]]]}},{"type":"Feature","properties":{"cell":130,"feature":1310,"phase":"Decaying","min_bt_K":230.0,"area_km2":2732,"cold_core_km2":0,"speed_kmh":30.9,"heading_deg":234,"d_min_bt_30":14.0,"age_min":30,"family":64,"touches_missing":true,"lon":72.3056,"lat":30.6687,"merges_splits_so_far":1},"geometry":{"type":"MultiPolygon","coordinates":[[[[72.4076,30.9556],[72.303,30.9511],[72.2633,30.9133],[72.1587,30.9087],[72.1367,30.9258],[72.0871,30.8785],[72.0904,30.8245],[72.041,30.7772],[72.0091,30.7847],[71.9904,30.7478],[72.0037,30.3604],[72.0453,30.3623],[72.1253,30.42],[72.1669,30.4218],[72.2054,30.4777],[72.2886,30.4813],[72.3781,30.3768],[72.49,30.4266],[72.4641,30.5158],[72.5038,30.5535],[72.4997,30.6256],[72.5801,30.683],[72.5323,30.7893],[72.592,30.8459],[72.588,30.9179],[72.4515,30.9213],[72.4076,30.9556]]]]}},{"type":"Feature","properties":{"cell":131,"feature":1318,"phase":"Unclassified","min_bt_K":220.5,"area_km2":5392,"cold_core_km2":44,"speed_kmh":63.7,"heading_deg":107,"d_min_bt_30":1.4,"age_min":30,"family":5,"touches_missing":true,"lon":72.8428,"lat":32.1535,"merges_splits_so_far":2},"geometry":{"type":"MultiPolygon","coordinates":[[[[73.3148,32.5425],[73.2935,32.5418],[73.1928,32.4299],[73.0257,32.3696],[72.9195,32.3656],[72.879,32.328],[72.7728,32.3239],[72.7496,32.359],[72.7071,32.3574],[72.6625,32.3917],[72.5999,32.3711],[72.4714,32.3839],[72.3595,32.298],[72.3628,32.244],[72.3259,32.1522],[72.3525,32.0631],[72.4293,32.0212],[72.4716,32.023],[72.5171,31.9707],[72.5806,31.9733],[72.629,31.867],[72.7347,31.8712],[72.7467,31.8446],[72.7799,31.8189],[72.8222,31.8205],[72.8452,31.7853],[72.8875,31.787],[72.8965,31.8144],[72.9277,31.8246],[72.9537,31.7354],[72.9618,31.7808],[73.0122,31.8278],[73.2004,31.8708],[73.3006,31.9826],[73.3632,32.0029],[73.4139,32.0498],[73.4217,32.3207],[73.3535,32.4086],[73.3499,32.4806],[73.3148,32.5425]]]]}},{"type":"Feature","properties":{"cell":133,"feature":1280,"phase":"Unclassified","min_bt_K":239.3,"area_km2":604,"cold_core_km2":0,"speed_kmh":null,"heading_deg":null,"d_min_bt_30":null,"age_min":0,"family":133,"touches_missing":true,"lon":80.4372,"lat":29.9425,"merges_splits_so_far":0},"geometry":{"type":"MultiPolygon","coordinates":[[[[80.4477,30.0586],[80.344,30.0604],[80.2911,30.0162],[80.2899,29.9621],[80.3719,29.9246],[80.3706,29.8705],[80.4213,29.8245],[80.6691,29.8017],[80.7008,29.8281],[80.6705,29.8558],[80.5877,29.8574],[80.5574,29.8851],[80.5997,29.9203],[80.6007,29.9564],[80.509,30.0213],[80.4676,30.0221],[80.4477,30.0586]]]]}},{"type":"Feature","properties":{"cell":134,"feature":1285,"phase":"Unclassified","min_bt_K":242.3,"area_km2":188,"cold_core_km2":0,"speed_kmh":null,"heading_deg":null,"d_min_bt_30":null,"age_min":0,"family":134,"touches_missing":true,"lon":83.3901,"lat":31.7425,"merges_splits_so_far":0},"geometry":{"type":"MultiPolygon","coordinates":[[[[83.4091,31.7933],[83.2281,31.7734],[83.2593,31.7632],[83.2984,31.7075],[83.4671,31.7007],[83.5225,31.7435],[83.4091,31.7933]]]]}},{"type":"Feature","properties":{"cell":135,"feature":1286,"phase":"Unclassified","min_bt_K":242.2,"area_km2":324,"cold_core_km2":0,"speed_kmh":null,"heading_deg":null,"d_min_bt_30":null,"age_min":0,"family":90,"touches_missing":true,"lon":82.6204,"lat":32.2308,"merges_splits_so_far":1},"geometry":{"type":"MultiPolygon","coordinates":[[[[82.6123,32.3646],[82.5699,32.3661],[82.5367,32.3402],[82.5986,32.3019],[82.5535,32.2494],[82.572,32.1946],[82.5261,32.124],[82.5548,32.0599],[82.6082,32.067],[82.61,32.1031],[82.6541,32.1376],[82.6559,32.1736],[82.7011,32.2262],[82.6844,32.317],[82.6123,32.3646]]]]}}]}