{"type":"FeatureCollection","features":[{"type":"Feature","properties":{"cell":32,"feature":1397,"phase":"Decaying","min_bt_K":230.0,"area_km2":25952,"cold_core_km2":0,"speed_kmh":58.7,"heading_deg":87,"d_min_bt_30":4.0,"age_min":300,"family":5,"touches_missing":true,"lon":76.2133,"lat":33.2448,"merges_splits_so_far":17},"geometry":{"type":"MultiPolygon","coordinates":[[[[76.8316,34.009],[75.6418,33.9933],[75.6317,33.9661],[75.6543,33.9304],[75.7752,33.8512],[75.7977,33.8155],[75.8409,33.8162],[75.8964,33.7539],[75.8647,33.7264],[75.7137,33.7239],[75.672,33.669],[75.6078,33.6499],[75.5001,33.6479],[75.478,33.6655],[75.3819,33.6366],[75.384,33.5645],[75.4506,33.4936],[75.4087,33.4567],[75.4752,33.3858],[75.4432,33.3762],[75.4228,33.3397],[75.3149,33.3556],[75.2411,33.309],[75.2637,33.2734],[75.2428,33.2549],[75.2675,33.1472],[75.2274,33.0561],[75.2499,33.0205],[75.2308,32.9479],[75.0389,32.9258],[75.0609,32.9082],[75.0632,32.8361],[75.1076,32.7829],[75.088,32.7284],[75.1324,32.6752],[75.1335,32.6392],[75.1876,32.6132],[75.2537,32.5425],[75.3388,32.5442],[75.3606,32.5266],[75.467,32.5286],[75.4769,32.5559],[75.4328,32.6092],[75.5061,32.6557],[75.6141,32.6035],[75.6998,32.587],[75.7219,32.5513],[75.8071,32.5527],[75.8279,32.5711],[75.8926,32.5361],[75.9352,32.5367],[75.977,32.5734],[76.0196,32.5741],[76.0842,32.5389],[76.191,32.5224],[76.3173,32.5962],[76.3812,32.597],[76.5536,32.4727],[76.5956,32.5092],[76.6171,32.4914],[76.7022,32.4923],[76.71,32.6998],[76.7305,32.7541],[76.7837,32.7636],[76.8257,32.8181],[76.9756,32.7833],[77.0171,32.8919],[77.2308,32.8933],[77.252,32.9114],[77.3161,32.9118],[77.4439,32.9845],[77.6149,33.0032],[77.6682,33.0484],[77.6036,33.1384],[77.6035,33.1745],[77.5498,33.1834],[77.4638,33.2372],[77.3569,33.1826],[77.1854,33.1816],[77.1215,33.1452],[76.9931,33.1262],[76.9494,33.198],[76.8851,33.1975],[76.7658,33.2957],[76.8607,33.4318],[77.0329,33.4152],[77.0646,33.4605],[77.0427,33.4964],[77.1389,33.5602],[77.2035,33.5606],[77.214,33.5877],[77.2783,33.6242],[77.2775,33.7324],[77.3419,33.7689],[77.3631,33.8231],[77.3521,33.8501],[77.2654,33.8857],[77.2006,33.8854],[77.1791,33.8672],[77.1356,33.903],[77.0924,33.9027],[76.9837,33.9561],[76.9616,33.992],[76.8535,33.9911],[76.8316,34.009]]],[[[76.7214,33.4035],[76.7325,33.3766],[76.7001,33.3853],[76.6999,33.4033],[76.7214,33.4035]]]]}},{"type":"Feature","properties":{"cell":64,"feature":1396,"phase":"Decaying","min_bt_K":228.0,"area_km2":13264,"cold_core_km2":0,"speed_kmh":75.8,"heading_deg":92,"d_min_bt_30":9.6,"age_min":180,"family":64,"touches_missing":true,"lon":73.333,"lat":30.3464,"merges_splits_so_far":4},"geometry":{"type":"MultiPolygon","coordinates":[[[[73.7744,30.8618],[73.7117,30.8598],[73.6715,30.8224],[73.5252,30.8175],[73.4642,30.7794],[73.4015,30.7772],[73.3162,30.8103],[73.1909,30.8058],[73.1264,30.8396],[72.991,30.8255],[72.9919,30.8075],[73.0455,30.7824],[73.1918,30.7878],[73.2244,30.7619],[73.2262,30.7259],[73.2697,30.6914],[73.2714,30.6553],[73.2324,30.5998],[73.235,30.5458],[73.2901,30.4846],[73.48,30.4371],[73.5841,30.4406],[73.6241,30.478],[73.7915,30.4654],[73.8462,30.4039],[73.7561,30.3199],[73.549,30.295],[73.4617,30.3823],[73.2979,30.3225],[73.1687,30.408],[72.9199,30.3807],[72.8594,30.3422],[72.7762,30.339],[72.7129,30.3545],[72.6902,30.3897],[72.5227,30.4009],[72.5029,30.3821],[72.4405,30.3795],[72.3604,30.3219],[72.3188,30.3201],[72.3001,30.2832],[72.2378,30.2805],[72.229,30.2531],[72.1786,30.2238],[72.136,30.24],[72.0945,30.2381],[72.0551,30.2003],[72.0332,30.2173],[72.0037,30.1889],[72.0103,30.0809],[71.9906,30.062],[72.0065,29.4491],[72.0998,29.4443],[72.3119,29.3453],[72.3835,29.3574],[72.3815,29.3934],[72.2183,29.5397],[72.1543,29.573],[72.1347,29.5541],[72.1033,29.5617],[72.1208,29.6167],[72.0763,29.6688],[72.0742,29.7048],[72.2048,29.7738],[72.2669,29.7765],[72.316,29.8237],[72.2923,29.8768],[72.3228,29.8872],[72.3414,29.9241],[72.4036,29.9267],[72.443,29.9645],[72.6294,29.9722],[72.6699,29.9919],[72.6916,29.9747],[72.8997,29.9648],[72.9213,29.9476],[73.0663,29.9531],[73.1889,29.9937],[73.3132,29.9982],[73.3223,30.0256],[73.3928,30.0732],[73.4965,30.0767],[73.5371,30.0961],[73.5754,30.1696],[73.5978,30.1343],[73.6808,30.137],[73.8653,30.197],[73.9076,30.1803],[74.2398,30.1902],[74.2419,30.1361],[74.3249,30.1384],[74.3343,30.1657],[74.3128,30.1832],[74.3537,30.2024],[74.3517,30.2564],[74.296,30.3541],[74.2766,30.3175],[74.2451,30.3256],[74.2208,30.4152],[74.2812,30.471],[74.2799,30.5071],[74.3605,30.5815],[74.3572,30.6716],[74.3255,30.6797],[74.3033,30.7152],[74.2629,30.678],[74.2507,30.7228],[74.1118,30.7999],[74.0499,30.7801],[74.0051,30.8509],[73.7969,30.8264],[73.7744,30.8618]]]]}},{"type":"Feature","properties":{"cell":78,"feature":1378,"phase":"Developing","min_bt_K":240.2,"area_km2":516,"cold_core_km2":0,"speed_kmh":19.3,"heading_deg":135,"d_min_bt_30":2.2,"age_min":150,"family":78,"touches_missing":false,"lon":81.0709,"lat":32.7789,"merges_splits_so_far":2},"geometry":{"type":"MultiPolygon","coordinates":[[[[81.1839,32.8755],[81.1198,32.8771],[81.0539,32.8244],[80.9691,32.8444],[80.9258,32.8273],[80.8704,32.7654],[80.9022,32.7557],[80.9223,32.7191],[81.029,32.7168],[81.0728,32.7518],[81.1143,32.7148],[81.1782,32.7133],[81.1989,32.6947],[81.2202,32.6942],[81.2428,32.7298],[81.3068,32.7282],[81.3185,32.755],[81.2984,32.7916],[81.1839,32.8755]]]]}},{"type":"Feature","properties":{"cell":82,"feature":1389,"phase":"Decaying","min_bt_K":226.2,"area_km2":17164,"cold_core_km2":0,"speed_kmh":18.2,"heading_deg":158,"d_min_bt_30":3.0,"age_min":150,"family":53,"touches_missing":true,"lon":74.7131,"lat":27.1241,"merges_splits_so_far":5},"geometry":{"type":"MultiPolygon","coordinates":[[[[75.7314,27.5893],[75.6909,27.5886],[75.6119,27.497],[75.4504,27.4759],[75.3708,27.4201],[75.2692,27.4361],[75.1691,27.3979],[75.0073,27.3943],[74.9555,27.4383],[74.9442,27.4831],[74.8425,27.4988],[74.7802,27.5514],[74.7189,27.568],[74.6789,27.5489],[74.517,27.5447],[74.4777,27.5076],[74.4372,27.5065],[74.4182,27.4699],[74.3777,27.4688],[74.3667,27.4955],[74.417,27.5059],[74.4262,27.5333],[74.3342,27.5578],[74.3256,27.5125],[74.2955,27.5026],[74.2864,27.4752],[74.3372,27.4676],[74.3483,27.4409],[74.298,27.4304],[74.2588,27.3932],[74.1982,27.3915],[74.1565,27.4264],[74.1369,27.4078],[74.0958,27.4246],[74.0358,27.4047],[74.0143,27.4402],[73.9334,27.4377],[73.9118,27.4732],[73.7095,27.4667],[73.6907,27.43],[73.6503,27.4287],[73.6412,27.4013],[73.6719,27.3933],[73.6914,27.412],[73.7326,27.3953],[73.734,27.3592],[73.6539,27.3385],[73.6427,27.3652],[73.612,27.3732],[73.5626,27.3445],[73.5932,27.3365],[73.6254,27.2924],[73.6499,27.1849],[73.9091,27.0036],[74.0521,26.9538],[74.193,26.958],[74.2961,26.8887],[74.3565,26.8904],[74.4077,26.8647],[74.3991,26.8194],[74.159,26.7764],[74.1109,26.7118],[74.1116,26.6938],[74.1627,26.6682],[74.2637,26.6531],[74.3027,26.6903],[74.4037,26.675],[74.4422,26.7302],[74.623,26.735],[74.6643,26.6999],[74.7039,26.719],[74.7647,26.7025],[74.8054,26.6854],[74.8265,26.6498],[74.9872,26.6536],[75.0068,26.6721],[75.067,26.6734],[75.1282,26.6387],[75.3692,26.6437],[75.4089,26.6626],[75.4196,26.6357],[75.4704,26.6096],[75.6109,26.6122],[75.7204,26.6593],[75.7185,26.7496],[75.6981,26.7673],[75.7379,26.786],[75.7368,26.8402],[75.7767,26.8589],[75.7756,26.9131],[75.5842,26.9187],[75.5534,26.9452],[75.6331,26.9828],[75.5921,27.0182],[75.5913,27.0543],[75.6316,27.055],[75.6327,27.0008],[75.6632,26.9924],[75.6841,26.9566],[75.8049,26.9587],[75.8268,26.8688],[75.8547,26.9866],[75.7232,27.0115],[75.6924,27.038],[75.692,27.0561],[75.7914,27.13],[75.7906,27.1661],[75.8405,27.194],[75.9011,27.195],[75.9705,27.2593],[75.9798,27.3045],[76.2322,27.3172],[76.221,27.3802],[76.1402,27.3791],[76.1193,27.4149],[76.0385,27.4137],[75.9771,27.4489],[75.8771,27.3932],[75.805,27.4552],[75.8352,27.4647],[75.8561,27.4289],[75.9168,27.4299],[75.9264,27.4572],[75.8746,27.5195],[75.8345,27.5008],[75.7933,27.5362],[75.7531,27.5175],[75.7826,27.5631],[75.7314,27.5893]]]]}},{"type":"Feature","properties":{"cell":83,"feature":1390,"phase":"Developing","min_bt_K":220.8,"area_km2":9232,"cold_core_km2":4,"speed_kmh":70.3,"heading_deg":142,"d_min_bt_30":-3.3,"age_min":150,"family":53,"touches_missing":true,"lon":72.6896,"lat":27.4963,"merges_splits_so_far":8},"geometry":{"type":"MultiPolygon","coordinates":[[[[72.3833,28.0306],[72.3784,27.9311],[72.3019,27.8376],[72.2893,27.6926],[72.2217,27.6265],[72.1407,27.6229],[72.1195,27.64],[72.0501,27.6098],[72.052,27.5738],[72.1466,27.5148],[72.2217,27.4369],[72.2669,27.3486],[72.2524,27.2396],[72.358,27.1539],[72.3704,27.1093],[72.4116,27.093],[72.5527,27.0989],[72.6369,27.0301],[72.7175,27.0334],[72.7964,27.0726],[73.0164,27.1173],[73.0551,27.1549],[73.0955,27.1564],[73.1019,27.2379],[73.1609,27.2762],[73.1884,27.3404],[73.249,27.3426],[73.291,27.308],[73.4832,27.3057],[73.5409,27.3799],[73.5394,27.4159],[73.4982,27.4326],[73.5162,27.4874],[73.4322,27.5567],[73.43,27.6108],[73.3263,27.6613],[73.3029,27.7327],[73.2397,27.7846],[73.2592,27.8033],[73.2479,27.83],[73.1667,27.827],[73.1244,27.8616],[72.9223,27.8359],[72.88,27.8704],[72.8191,27.868],[72.7979,27.8852],[72.6152,27.8778],[72.5612,27.9388],[72.5196,27.9551],[72.5072,27.9998],[72.4258,27.9963],[72.3833,28.0306]]],[[[72.894,27.7897],[72.9,27.6635],[72.9422,27.629],[72.9439,27.593],[72.9042,27.5734],[72.911,27.4292],[72.882,27.401],[72.8637,27.5718],[72.9034,27.5914],[72.9008,27.6455],[72.8586,27.68],[72.856,27.734],[72.8737,27.7889],[72.894,27.7897]]]]}},{"type":"Feature","properties":{"cell":90,"feature":1377,"phase":"Unclassified","min_bt_K":243.3,"area_km2":152,"cold_core_km2":0,"speed_kmh":22.6,"heading_deg":62,"d_min_bt_30":3.2,"age_min":120,"family":90,"touches_missing":true,"lon":82.0226,"lat":32.5543,"merges_splits_so_far":3},"geometry":{"type":"MultiPolygon","coordinates":[[[[82.0704,32.6169],[82.0262,32.5821],[81.9624,32.584],[81.9426,32.6207],[81.9316,32.612],[81.9293,32.5579],[81.9797,32.4933],[82.0018,32.5107],[82.0869,32.5081],[82.12,32.5341],[82.0995,32.5528],[82.1216,32.5702],[82.0704,32.6169]]]]}},{"type":"Feature","properties":{"cell":99,"feature":1364,"phase":"Developing","min_bt_K":237.0,"area_km2":3288,"cold_core_km2":0,"speed_kmh":54.1,"heading_deg":125,"d_min_bt_30":10.4,"age_min":120,"family":99,"touches_missing":true,"lon":75.5935,"lat":31.1491,"merges_splits_so_far":0},"geometry":{"type":"MultiPolygon","coordinates":[[[[75.4933,31.5549],[75.4619,31.5453],[75.4634,31.4912],[75.4232,31.4183],[75.3924,31.3906],[75.3294,31.3893],[75.2991,31.3436],[75.3001,31.3076],[75.3636,31.2908],[75.3866,31.2191],[75.3344,31.209],[75.2837,31.1449],[75.3077,31.0371],[75.2663,31.0182],[75.3,30.9377],[75.3418,30.9386],[75.3638,30.9029],[75.4893,30.9054],[75.5529,30.8705],[75.6366,30.872],[75.6464,30.8992],[75.7185,30.9456],[75.8445,30.9296],[75.9057,31.0028],[75.9895,31.0041],[76.1247,31.0512],[76.0711,31.1135],[76.0291,31.1129],[75.9655,31.148],[75.922,31.2195],[75.7421,31.2797],[75.7936,31.3257],[75.9196,31.3277],[75.9188,31.3638],[75.8558,31.3628],[75.8344,31.3805],[75.7927,31.3618],[75.7713,31.3795],[75.6666,31.3596],[75.5704,31.421],[75.5892,31.5116],[75.4933,31.5549]]],[[[75.6992,31.3151],[75.6898,31.2698],[75.6782,31.3147],[75.6992,31.3151]]]]}},{"type":"Feature","properties":{"cell":108,"feature":1401,"phase":"Developing","min_bt_K":204.2,"area_km2":60932,"cold_core_km2":6508,"speed_kmh":89.9,"heading_deg":214,"d_min_bt_30":-13.4,"age_min":90,"family":5,"touches_missing":true,"lon":73.2855,"lat":32.2797,"merges_splits_so_far":7},"geometry":{"type":"MultiPolygon","coordinates":[[[[72.3168,33.4964],[72.275,33.4765],[72.0385,33.4662],[71.9903,33.3828],[72.0095,33.0949],[71.9893,33.0759],[72.0096,32.77],[71.9894,32.751],[72.0095,32.4451],[71.9894,32.4262],[72.0031,31.8854],[72.1199,31.8815],[72.1399,31.9005],[72.2033,31.9033],[72.2222,31.9402],[72.2544,31.9325],[72.1844,31.8663],[72.141,31.8825],[72.1221,31.8456],[72.0066,31.8314],[72.01,31.7774],[71.9901,31.7584],[72.0095,31.4525],[71.9907,31.4156],[72.0682,31.3559],[72.1523,31.3596],[72.1644,31.3331],[72.0705,31.3199],[72.0251,31.372],[71.9941,31.3616],[72.0099,31.1096],[71.9901,31.0907],[72.0904,30.9959],[72.1984,30.9466],[72.2402,30.9484],[72.259,30.9853],[72.2799,30.9862],[72.579,30.8905],[72.6627,30.8939],[72.7604,31.0241],[72.8213,31.0626],[72.926,31.0666],[72.976,31.1136],[72.9713,31.2037],[73.0023,31.2139],[73.0114,31.2413],[72.8826,31.2905],[72.8758,31.4166],[72.9131,31.5082],[72.9442,31.5184],[72.9834,31.5741],[73.151,31.5983],[73.1739,31.5631],[73.2709,31.5215],[73.2736,31.4674],[73.3064,31.4415],[73.4344,31.4099],[73.5462,31.4949],[73.5656,31.5316],[73.5647,31.5496],[73.4779,31.6008],[73.5192,31.6203],[73.5167,31.6743],[73.4947,31.6916],[73.5115,31.7824],[73.5427,31.7925],[73.5656,31.7572],[73.6044,31.8306],[73.6475,31.814],[73.721,31.8254],[73.6982,31.8608],[73.7396,31.8801],[73.7441,32.0156],[73.7652,32.0163],[73.788,31.9809],[73.8287,32.0183],[73.871,32.0196],[73.9149,31.9849],[73.9784,31.9868],[73.9713,31.9054],[74.1332,31.829],[74.1965,31.8308],[74.3042,31.7798],[74.4084,31.8187],[74.514,31.8215],[74.6107,31.7789],[74.5902,31.7603],[74.6017,31.7336],[74.7507,31.7012],[74.7941,31.6662],[74.8573,31.6677],[74.8453,31.7125],[74.969,31.8056],[74.9786,31.8329],[74.9998,31.8334],[75.022,31.7978],[75.0643,31.7987],[75.1048,31.8537],[75.1265,31.8362],[75.1471,31.8546],[75.5701,31.845],[75.5889,31.9355],[75.6524,31.9367],[75.7987,32.0113],[75.9464,32.0317],[75.9552,32.1131],[76.0504,32.1235],[76.1024,32.1694],[76.0905,32.2323],[75.9421,32.2301],[75.8776,32.2652],[75.7931,32.2458],[75.8014,32.3451],[75.7802,32.3448],[75.7706,32.2995],[75.7065,32.3165],[75.6419,32.3514],[75.4457,32.5282],[75.2537,32.5425],[75.2204,32.5869],[75.1335,32.6392],[75.1324,32.6752],[75.088,32.7284],[75.1076,32.7829],[75.0632,32.8361],[75.0499,32.917],[75.0291,32.8985],[74.8576,32.9126],[74.7702,32.9646],[74.7274,32.9636],[74.7074,32.927],[74.6432,32.9254],[74.6212,32.9429],[74.5578,32.9233],[74.546,32.95],[74.5861,33.0232],[74.4638,33.1373],[74.3545,33.1885],[74.2895,33.2048],[74.2688,33.1861],[74.1371,33.2546],[74.095,33.2353],[73.902,33.2295],[73.8797,33.2469],[73.8162,33.2269],[73.7931,33.2622],[73.6859,33.2588],[73.6635,33.2761],[73.643,33.2574],[73.6206,33.2747],[73.5572,33.2546],[73.449,33.269],[73.3865,33.2308],[73.3185,33.3006],[73.1858,33.3681],[72.9497,33.3594],[72.8832,33.3929],[72.7124,33.3682],[72.5159,33.4145],[72.4492,33.4478],[72.4254,33.4829],[72.3395,33.4793],[72.3168,33.4964]]],[[[72.1257,31.2772],[72.2119,31.2449],[72.213,31.2269],[72.1721,31.2071],[72.1732,31.1891],[72.2162,31.1729],[72.1864,31.1446],[72.1302,31.2052],[72.1058,31.2583],[72.1047,31.2763],[72.1257,31.2772]]]]}},{"type":"Feature","properties":{"cell":121,"feature":1387,"phase":"Unclassified","min_bt_K":239.3,"area_km2":244,"cold_core_km2":0,"speed_kmh":46.6,"heading_deg":113,"d_min_bt_30":0.6,"age_min":60,"family":121,"touches_missing":true,"lon":81.9275,"lat":33.505,"merges_splits_so_far":0},"geometry":{"type":"MultiPolygon","coordinates":[[[[82.0276,33.5745],[81.8985,33.5784],[81.8642,33.5342],[81.7981,33.5],[81.8699,33.4168],[81.893,33.4522],[81.9351,33.4329],[82.0347,33.4931],[82.0276,33.5745]]]]}},{"type":"Feature","properties":{"cell":125,"feature":1392,"phase":"Unclassified","min_bt_K":232.1,"area_km2":7500,"cold_core_km2":0,"speed_kmh":259.8,"heading_deg":110,"d_min_bt_30":0.1,"age_min":60,"family":53,"touches_missing":true,"lon":74.4777,"lat":28.0067,"merges_splits_so_far":11},"geometry":{"type":"MultiPolygon","coordinates":[[[[73.3636,28.8991],[73.2546,28.814],[73.2784,28.7427],[73.2399,28.6871],[73.2915,28.68],[73.3659,28.6194],[73.3675,28.5834],[73.3985,28.5754],[73.4205,28.5401],[73.5636,28.545],[73.6022,28.6004],[73.6423,28.6198],[73.6741,28.5938],[73.6778,28.5037],[73.7307,28.4603],[73.7919,28.4622],[73.8757,28.4107],[74.0186,28.4151],[74.0397,28.3977],[74.1206,28.4182],[74.2457,28.3496],[74.3094,28.2792],[74.3915,28.2634],[74.4545,28.211],[74.5557,28.2317],[74.5674,28.1869],[74.6511,28.1168],[74.6523,28.0808],[74.7353,28.0287],[74.7056,28.0009],[74.5831,28.0158],[74.5651,27.9432],[74.5337,27.9694],[74.5325,28.0055],[74.5012,28.0317],[74.4605,28.0306],[74.4716,28.0039],[74.4025,27.9388],[74.3009,27.936],[74.2609,27.9168],[74.1974,27.9872],[74.0755,27.9836],[74.0538,28.0191],[74.0243,27.9911],[74.0263,27.937],[73.9877,27.8817],[74.0402,27.8382],[74.0808,27.8394],[74.2057,27.7528],[74.2672,27.7365],[74.3367,27.7836],[74.3453,27.8289],[74.5326,27.6896],[74.5934,27.6912],[74.6784,27.567],[74.7802,27.5514],[74.8217,27.5163],[74.9027,27.5183],[74.9287,27.6723],[74.8783,27.6621],[74.8668,27.707],[74.8964,27.7348],[74.9172,27.7172],[75.0082,27.7283],[74.9662,27.7815],[74.9834,27.8902],[74.8918,27.8971],[74.8709,27.9147],[74.8616,27.8874],[74.9438,27.8532],[74.873,27.8425],[74.8637,27.8152],[74.8335,27.8055],[74.8012,27.8679],[74.7183,27.92],[74.7485,27.9298],[74.811,27.8771],[74.8605,27.9234],[74.8792,27.978],[74.9194,27.997],[74.898,28.0326],[74.9282,28.0424],[74.9475,28.0789],[74.9887,28.0618],[75.0696,28.0817],[75.1983,28.2199],[75.086,28.2265],[75.0437,28.2797],[74.9826,28.2783],[74.9612,28.3139],[74.8995,28.3305],[74.8916,28.2491],[74.8624,28.2033],[74.8421,28.2028],[74.8206,28.2384],[74.6984,28.2354],[74.6587,28.1983],[74.6477,28.2251],[74.6879,28.2441],[74.6873,28.2622],[74.5546,28.2678],[74.5435,28.2946],[74.6757,28.307],[74.7142,28.3802],[74.551,28.376],[74.4979,28.4378],[74.5177,28.4563],[74.506,28.5011],[74.4256,28.4629],[74.3031,28.4595],[74.2814,28.495],[74.1792,28.4921],[74.1601,28.4554],[74.1193,28.4542],[74.1081,28.481],[74.1279,28.4996],[74.0857,28.5345],[74.0935,28.5979],[74.1951,28.6189],[74.2142,28.6555],[74.2948,28.6939],[74.4386,28.6798],[74.4783,28.717],[74.6005,28.7382],[74.6602,28.7939],[74.7222,28.7774],[74.7316,28.8047],[74.3722,28.8224],[74.376,28.7142],[74.353,28.7858],[74.2506,28.7829],[74.2314,28.7463],[74.1291,28.7433],[74.0499,28.6688],[73.9878,28.6849],[73.906,28.6824],[73.8862,28.6638],[73.8432,28.7165],[73.8227,28.7159],[73.8037,28.6792],[73.7832,28.6785],[73.7613,28.7139],[73.7204,28.7126],[73.6809,28.6752],[73.5787,28.6718],[73.5362,28.7065],[73.4953,28.7051],[73.4732,28.7405],[73.3807,28.7463],[73.3775,28.8184],[73.3562,28.8357],[73.3866,28.8458],[73.3956,28.8731],[73.3636,28.8991]]]]}},{"type":"Feature","properties":{"cell":133,"feature":1360,"phase":"Developing","min_bt_K":237.5,"area_km2":1252,"cold_core_km2":0,"speed_kmh":36.1,"heading_deg":103,"d_min_bt_30":-1.8,"age_min":30,"family":133,"touches_missing":true,"lon":80.6192,"lat":29.9055,"merges_splits_so_far":0},"geometry":{"type":"MultiPolygon","coordinates":[[[[80.8614,30.0142],[80.7371,30.0168],[80.7351,29.9447],[80.6749,30.0181],[80.5505,30.0205],[80.5288,29.9849],[80.4252,29.9868],[80.3305,29.9253],[80.3296,29.8893],[80.442,29.8241],[80.504,29.8229],[80.5652,29.7857],[80.6066,29.7849],[80.647,29.748],[80.7297,29.7463],[80.7494,29.7098],[80.7907,29.7089],[80.8431,29.7349],[80.8452,29.807],[80.7937,29.8171],[80.7841,29.8444],[80.8568,29.8519],[80.9199,29.8866],[80.9523,29.931],[80.9534,29.967],[80.8614,30.0142]]]]}},{"type":"Feature","properties":{"cell":134,"feature":1369,"phase":"Unclassified","min_bt_K":241.7,"area_km2":88,"cold_core_km2":0,"speed_kmh":13.6,"heading_deg":106,"d_min_bt_30":-0.5,"age_min":30,"family":134,"touches_missing":false,"lon":83.4588,"lat":31.7256,"merges_splits_so_far":0},"geometry":{"type":"MultiPolygon","coordinates":[[[[83.5568,31.7872],[83.5125,31.7529],[83.4281,31.7564],[83.3939,31.7127],[83.5093,31.6989],[83.5658,31.7597],[83.5568,31.7872]]]]}},{"type":"Feature","properties":{"cell":135,"feature":1374,"phase":"Developing","min_bt_K":240.0,"area_km2":468,"cold_core_km2":0,"speed_kmh":31.4,"heading_deg":244,"d_min_bt_30":-2.2,"age_min":30,"family":90,"touches_missing":true,"lon":82.4704,"lat":32.1691,"merges_splits_so_far":1},"geometry":{"type":"MultiPolygon","coordinates":[[[[82.5663,32.294],[82.5009,32.2602],[82.416,32.263],[82.2956,32.1858],[82.2727,32.1504],[82.3677,32.1383],[82.4269,32.0461],[82.4591,32.0541],[82.4719,32.0988],[82.5566,32.0959],[82.6117,32.1391],[82.5663,32.294]]]]}},{"type":"Feature","properties":{"cell":146,"feature":1358,"phase":"Unclassified","min_bt_K":236.1,"area_km2":1084,"cold_core_km2":0,"speed_kmh":null,"heading_deg":null,"d_min_bt_30":null,"age_min":0,"family":5,"touches_missing":true,"lon":72.1936,"lat":28.8903,"merges_splits_so_far":0},"geometry":{"type":"MultiPolygon","coordinates":[[[[72.3719,29.0049],[72.0436,28.9905],[72.0036,28.9706],[72.0033,28.7991],[72.098,28.7583],[72.2618,28.7655],[72.3008,28.8033],[72.3222,28.7862],[72.3837,28.7888],[72.5311,28.9123],[72.4979,28.9561],[72.4569,28.9544],[72.3719,29.0049]]]]}},{"type":"Feature","properties":{"cell":147,"feature":1375,"phase":"Unclassified","min_bt_K":240.5,"area_km2":164,"cold_core_km2":0,"speed_kmh":null,"heading_deg":null,"d_min_bt_30":null,"age_min":0,"family":147,"touches_missing":true,"lon":82.1176,"lat":32.1765,"merges_splits_so_far":0},"geometry":{"type":"MultiPolygon","coordinates":[[[[82.1174,32.2365],[82.0427,32.2298],[82.02,32.1944],[82.0498,32.1484],[82.0922,32.1471],[82.1542,32.1091],[82.177,32.1444],[82.2515,32.1511],[82.199,32.1618],[82.1904,32.2072],[82.1174,32.2365]]]]}},{"type":"Feature","properties":{"cell":148,"feature":1381,"phase":"Unclassified","min_bt_K":238.6,"area_km2":568,"cold_core_km2":0,"speed_kmh":null,"heading_deg":null,"d_min_bt_30":null,"age_min":0,"family":148,"touches_missing":true,"lon":82.5967,"lat":33.1287,"merges_splits_so_far":0},"geometry":{"type":"MultiPolygon","coordinates":[[[[82.4008,33.274],[82.3579,33.2754],[82.3244,33.2495],[82.3562,33.2394],[82.581,33.0153],[82.6238,33.0139],[82.647,33.0491],[82.7112,33.0469],[82.7671,33.09],[82.7709,33.1621],[82.7207,33.227],[82.6787,33.2466],[82.633,33.194],[82.525,33.1797],[82.5054,33.2164],[82.4625,33.2179],[82.4008,33.274]]]]}}]}