{"type":"FeatureCollection","features":[{"type":"Feature","properties":{"cell":32,"feature":1485,"phase":"Decaying","min_bt_K":234.0,"area_km2":13784,"cold_core_km2":0,"speed_kmh":70.8,"heading_deg":111,"d_min_bt_30":4.0,"age_min":330,"family":5,"touches_missing":false,"lon":76.5682,"lat":33.132,"merges_splits_so_far":21},"geometry":{"type":"MultiPolygon","coordinates":[[[[76.8316,34.009],[76.2907,34.0031],[76.2911,33.9851],[76.356,33.9859],[76.3999,33.9504],[76.4864,33.9514],[76.5083,33.9336],[76.6161,33.9528],[76.6605,33.8811],[76.7682,33.9001],[76.8117,33.8825],[76.8228,33.8555],[76.7484,33.7736],[76.6629,33.7187],[76.3614,33.6973],[76.3401,33.679],[76.1242,33.6942],[75.9644,33.6107],[75.9888,33.4847],[76.0646,33.4588],[76.1288,33.4777],[76.2282,33.3438],[76.2289,33.3077],[76.2937,33.2905],[76.2961,33.1642],[76.3834,33.0751],[76.363,33.0207],[76.364,32.9666],[76.3857,32.9489],[76.3541,32.9214],[76.3113,32.9209],[76.2784,32.9656],[76.2244,32.9919],[76.1389,32.9907],[76.1167,33.0265],[75.8814,33.023],[75.8499,32.9954],[75.8722,32.9597],[75.8298,32.941],[75.8337,32.7787],[75.8136,32.7242],[75.8785,32.6892],[75.9127,32.5905],[75.9758,32.6275],[76.0405,32.5924],[76.1578,32.5851],[76.1055,32.5392],[76.0525,32.5295],[76.0641,32.4845],[76.1279,32.4854],[76.2778,32.4333],[76.2977,32.5058],[76.3615,32.5066],[76.4473,32.4715],[76.4682,32.4898],[76.5323,32.4725],[76.5743,32.509],[76.6594,32.5099],[76.7235,32.4925],[76.788,32.439],[76.8306,32.4393],[76.8406,32.4845],[76.8829,32.5029],[76.8821,32.5751],[76.9244,32.5935],[76.9344,32.6567],[77.2327,32.6587],[77.2645,32.686],[77.2423,32.7941],[77.2847,32.8304],[77.2844,32.8665],[77.2415,32.8843],[77.2089,32.9472],[77.1448,32.9469],[77.1137,32.8474],[77.0392,32.8199],[76.9963,32.8376],[76.9314,32.9092],[76.8779,32.9178],[76.8882,32.945],[76.9737,32.9456],[77.0053,32.991],[77.0041,33.0992],[76.8741,33.2245],[76.9482,33.3063],[77.0344,33.2708],[77.1517,33.3528],[77.194,33.4252],[77.1186,33.4338],[77.0861,33.4606],[77.0858,33.4967],[77.2684,33.5249],[77.2785,33.6061],[77.2242,33.651],[77.1811,33.6507],[77.0505,33.7761],[77.0073,33.7758],[76.996,33.8208],[76.9306,33.8745],[76.9407,33.9377],[77.0704,33.9387],[77.0922,33.9208],[77.1025,33.9659],[77.0698,33.9928],[76.8535,33.9911],[76.8316,34.009]]]]}},{"type":"Feature","properties":{"cell":64,"feature":1479,"phase":"Decaying","min_bt_K":233.3,"area_km2":1520,"cold_core_km2":0,"speed_kmh":245.8,"heading_deg":248,"d_min_bt_30":5.2,"age_min":210,"family":64,"touches_missing":true,"lon":72.1565,"lat":29.9182,"merges_splits_so_far":5},"geometry":{"type":"MultiPolygon","coordinates":[[[[72.019,30.1084],[71.9906,30.062],[72.0012,29.5391],[72.1151,29.5352],[72.1827,29.6194],[72.1502,29.645],[72.0252,29.6575],[72.0122,29.702],[72.0819,29.7503],[72.2865,29.7954],[72.3455,29.8521],[72.4884,29.8942],[72.517,29.9405],[72.356,30.033],[72.3363,30.0141],[72.3146,30.0312],[72.2524,30.0285],[72.1445,30.096],[72.0408,30.0913],[72.019,30.1084]]]]}},{"type":"Feature","properties":{"cell":82,"feature":1473,"phase":"Decaying","min_bt_K":225.7,"area_km2":11932,"cold_core_km2":0,"speed_kmh":54.2,"heading_deg":322,"d_min_bt_30":-0.5,"age_min":180,"family":53,"touches_missing":true,"lon":74.5438,"lat":27.316,"merges_splits_so_far":8},"geometry":{"type":"MultiPolygon","coordinates":[[[[74.6424,28.0715],[74.6034,28.0163],[74.5337,27.9694],[74.5349,27.9333],[74.5662,27.9071],[74.6678,27.9097],[74.7825,27.8133],[74.7627,27.7947],[74.7644,27.7406],[74.8679,27.6709],[74.8487,27.6343],[74.9094,27.6358],[74.8601,27.5895],[74.7588,27.587],[74.7397,27.5504],[74.517,27.5447],[74.4777,27.5076],[74.4563,27.5431],[74.3753,27.5409],[74.3538,27.5764],[74.1918,27.5718],[74.1507,27.5887],[74.1637,27.5078],[74.1239,27.4886],[74.1656,27.4537],[74.1565,27.4264],[74.1356,27.4438],[73.9334,27.4377],[73.9145,27.401],[73.8538,27.3991],[73.835,27.3624],[73.7542,27.3598],[73.743,27.3866],[73.8336,27.3985],[73.8525,27.4352],[73.6914,27.412],[73.6629,27.3659],[73.5648,27.2904],[73.5677,27.2183],[73.5482,27.1996],[73.6117,27.1295],[73.5937,27.0747],[73.625,27.0487],[73.7264,27.0339],[73.7452,27.0707],[73.8258,27.0733],[73.8446,27.11],[73.9448,27.1311],[74.0378,27.0708],[74.1527,26.9568],[74.3144,26.9434],[74.3979,26.8554],[74.5404,26.8051],[74.6007,26.8067],[74.6203,26.8252],[74.7214,26.8097],[74.729,26.8912],[74.778,26.9375],[74.858,26.9575],[74.9071,27.0038],[74.9159,27.0492],[74.997,27.033],[75.1057,27.1167],[75.1043,27.1708],[75.0226,27.2051],[75.0207,27.2773],[75.0606,27.2962],[75.0685,27.3776],[75.1893,27.3983],[75.289,27.4546],[75.3295,27.4554],[75.379,27.5015],[75.388,27.5469],[75.4487,27.548],[75.4685,27.5665],[75.5095,27.5492],[75.6512,27.5518],[75.6913,27.5706],[75.7425,27.5444],[75.762,27.5808],[75.6591,27.6512],[75.627,27.7319],[75.5256,27.73],[75.4664,27.6567],[75.4147,27.7008],[75.4242,27.7281],[75.5053,27.7297],[75.5351,27.7573],[75.5338,27.8114],[75.5024,27.856],[75.4125,27.791],[75.3642,27.6908],[75.3219,27.7622],[75.2719,27.7341],[75.2714,27.7521],[75.3115,27.771],[75.2804,27.7974],[75.1789,27.7953],[75.1157,27.8842],[75.0859,27.8564],[75.0869,27.8203],[75.0171,27.7737],[75.0166,27.7917],[75.0468,27.8014],[75.0453,27.8555],[75.0037,27.8907],[75.0339,27.9004],[75.0448,27.8736],[75.0755,27.8652],[75.1048,27.911],[75.0731,27.9554],[75.0532,27.9369],[74.9511,27.9527],[74.9418,27.9254],[74.9115,27.9156],[74.9407,27.9614],[74.9298,27.9883],[74.8688,27.9868],[74.8474,28.0224],[74.7661,28.0204],[74.7567,27.9931],[74.7265,27.9834],[74.7551,28.0472],[74.6633,28.054],[74.6424,28.0715]]],[[[73.7083,27.241],[73.7306,27.1876],[73.7716,27.1708],[73.764,27.1074],[73.7208,27.1782],[73.6715,27.1495],[73.6805,27.1769],[73.7104,27.1869],[73.6679,27.2397],[73.7083,27.241]]],[[[74.2048,27.491],[74.1956,27.4636],[74.1846,27.4904],[74.2048,27.491]]]]}},{"type":"Feature","properties":{"cell":83,"feature":1476,"phase":"Decaying","min_bt_K":231.1,"area_km2":14584,"cold_core_km2":0,"speed_kmh":86.4,"heading_deg":68,"d_min_bt_30":10.2,"age_min":180,"family":53,"touches_missing":true,"lon":73.0965,"lat":27.6398,"merges_splits_so_far":10},"geometry":{"type":"MultiPolygon","coordinates":[[[[72.9771,28.3976],[72.9699,28.3341],[72.9309,28.2965],[72.9335,28.2425],[72.9776,28.172],[72.8661,28.1587],[72.8475,28.1218],[72.767,28.1006],[72.729,28.0449],[72.6689,28.0245],[72.6601,27.997],[72.7043,27.9266],[72.6549,27.8975],[72.617,27.8418],[72.5473,27.8119],[72.5694,27.7767],[72.5395,27.7664],[72.4823,27.6918],[72.381,27.6875],[72.3385,27.7218],[72.3317,27.6583],[72.2941,27.6025],[72.3461,27.5777],[72.3654,27.5966],[72.4165,27.5897],[72.4184,27.5537],[72.5462,27.4327],[72.5278,27.3958],[72.5543,27.2705],[72.6702,27.1759],[72.729,27.2144],[72.7895,27.2168],[72.8631,27.1565],[72.8656,27.1025],[72.9189,27.0413],[73.0189,27.0632],[73.0616,27.0107],[73.1841,26.9791],[73.2817,27.0548],[73.3092,27.119],[73.3779,27.1666],[73.558,27.2089],[73.5648,27.2904],[73.6629,27.3659],[73.6203,27.4186],[73.6181,27.4727],[73.6578,27.4921],[73.6564,27.5282],[73.7059,27.5569],[73.7247,27.5936],[73.7953,27.6049],[73.8134,27.6596],[73.7875,27.8032],[73.8064,27.8399],[73.7546,27.8654],[73.7434,27.8921],[73.8225,27.9488],[73.8582,28.0763],[73.7053,28.0804],[73.6737,28.1064],[73.6867,28.2874],[73.6444,28.3221],[73.6324,28.3668],[73.5719,28.3467],[73.55,28.3821],[73.2644,28.3721],[73.2432,28.3894],[72.9984,28.3804],[72.9771,28.3976]]],[[[73.1157,27.3828],[73.0777,27.3272],[73.1609,27.2762],[73.0535,27.1909],[73.043,27.1995],[73.1213,27.2566],[73.0567,27.3445],[73.0849,27.3907],[73.1157,27.3828]]],[[[73.2365,27.8567],[73.2397,27.7846],[73.2202,27.7658],[73.2511,27.7579],[73.294,27.7053],[73.1999,27.7651],[73.1959,27.8552],[73.2365,27.8567]]]]}},{"type":"Feature","properties":{"cell":108,"feature":1488,"phase":"Developing","min_bt_K":206.6,"area_km2":82956,"cold_core_km2":9208,"speed_kmh":27.5,"heading_deg":128,"d_min_bt_30":2.4,"age_min":120,"family":5,"touches_missing":true,"lon":73.4009,"lat":32.2039,"merges_splits_so_far":9},"geometry":{"type":"MultiPolygon","coordinates":[[[[72.0452,34.0081],[71.9918,33.9966],[72.0105,33.4018],[71.9903,33.3828],[72.0095,33.0949],[71.9893,33.0759],[72.0096,32.77],[71.9894,32.751],[72.0095,32.4451],[71.9894,32.4262],[72.0104,32.1023],[71.9904,32.0833],[72.01,31.7774],[71.9901,31.7584],[72.0095,31.4525],[71.9896,31.4336],[72.0099,31.1096],[72.2005,30.9106],[72.2622,30.9313],[72.2842,30.9142],[72.4316,30.9024],[72.4745,30.8862],[72.5193,30.8339],[72.6039,30.8193],[72.6487,30.767],[72.7342,30.7343],[72.8576,30.7753],[72.9121,30.7323],[72.9386,30.625],[72.9921,30.6],[73.1227,30.7041],[73.1209,30.7401],[73.23,30.8614],[73.2718,30.8629],[73.3319,30.9191],[73.4248,30.9494],[73.3812,30.984],[73.4105,31.0301],[73.4934,31.051],[73.5328,31.1065],[73.5747,31.1079],[73.6392,31.0739],[73.723,31.0767],[73.7533,31.1047],[73.7517,31.1407],[73.8332,31.1975],[73.8503,31.2882],[73.9117,31.3262],[74.0014,31.4462],[74.084,31.4848],[74.0934,31.5121],[74.1856,31.5779],[74.2916,31.5629],[74.3222,31.5908],[74.254,31.7152],[74.2103,31.7501],[74.2824,31.7972],[74.3021,31.8338],[74.3137,31.8071],[74.2729,31.7699],[74.2758,31.6978],[74.3187,31.6809],[74.3317,31.6181],[74.3527,31.6187],[74.3724,31.6553],[74.3942,31.6379],[74.4146,31.6565],[74.6676,31.6631],[74.6976,31.7089],[74.7699,31.7558],[74.8332,31.7573],[74.8549,31.7398],[74.981,31.7608],[75.0562,31.7173],[75.0682,31.6725],[75.1747,31.6387],[75.1952,31.6572],[75.3007,31.6594],[75.3551,31.5973],[75.4301,31.5537],[75.4727,31.5365],[75.5354,31.5557],[75.621,31.5031],[75.6613,31.576],[75.8096,31.5425],[75.9133,31.6163],[75.9336,31.6527],[75.9861,31.6625],[76.0061,31.7169],[75.8882,31.7963],[75.771,31.8395],[75.7702,31.8756],[75.8012,31.9031],[75.8646,31.9042],[75.9161,31.9681],[75.9149,32.0222],[75.851,32.0393],[75.8709,32.0937],[75.8169,32.1379],[75.7533,32.1369],[75.6889,32.1719],[75.6654,32.2616],[75.5159,32.295],[75.4403,32.3387],[75.5229,32.4305],[75.5214,32.4846],[75.4997,32.5022],[75.5309,32.5298],[75.5942,32.549],[75.6377,32.5137],[75.7233,32.4972],[75.7541,32.5428],[75.8275,32.5891],[75.9018,32.5993],[75.8785,32.6892],[75.8136,32.7242],[75.8337,32.7787],[75.8198,32.9137],[75.6693,32.9473],[75.5837,32.9458],[75.5211,32.8905],[75.3929,32.8881],[75.3721,32.8696],[75.2855,32.904],[75.136,32.9008],[75.0874,33.0802],[75.0666,33.0617],[75.0446,33.0793],[74.9162,33.0764],[74.9045,33.1032],[74.8501,33.1289],[74.8274,33.1645],[74.8066,33.146],[74.7839,33.1815],[74.7624,33.181],[74.7423,33.1444],[74.6332,33.1958],[74.591,33.1767],[74.5461,33.2297],[74.4817,33.228],[74.4374,33.2629],[74.3738,33.2432],[74.3087,33.2594],[74.1547,33.3453],[74.134,33.3267],[74.0696,33.3248],[73.9384,33.375],[73.8954,33.3737],[73.764,33.4237],[73.5634,33.5616],[73.4755,33.5948],[73.4343,33.5573],[73.046,33.5615],[73.0235,33.5787],[72.9374,33.5755],[72.8799,33.6364],[72.8245,33.6614],[72.7814,33.6597],[72.7426,33.586],[72.6781,33.5834],[72.6576,33.5646],[72.5478,33.5963],[72.311,33.5864],[72.2759,33.63],[72.2712,33.702],[72.2018,33.7712],[72.1575,33.7874],[72.2732,33.8375],[72.3391,33.8222],[72.3811,33.8421],[72.43,33.9253],[72.4277,33.9613],[72.3935,33.987],[72.3082,33.9653],[72.2843,34.0004],[72.068,33.991],[72.0452,34.0081]]],[[[72.5301,31.5652],[72.5422,31.5386],[72.6164,31.5326],[72.5053,31.4469],[72.4943,31.4554],[72.5353,31.4752],[72.5322,31.5292],[72.5101,31.5463],[72.5091,31.5643],[72.5301,31.5652]]],[[[72.5144,31.8352],[72.5809,31.7838],[72.6041,31.7487],[72.5951,31.7213],[72.5266,31.8087],[72.3577,31.8016],[72.3388,31.7647],[72.0967,31.7452],[72.1466,31.7925],[72.3366,31.8007],[72.3767,31.8385],[72.5144,31.8352]]],[[[72.2101,33.6452],[72.2148,33.5732],[72.1741,33.5354],[72.198,33.5003],[72.189,33.4728],[72.1311,33.5335],[72.1729,33.5534],[72.167,33.6434],[72.2101,33.6452]]]]}},{"type":"Feature","properties":{"cell":133,"feature":1449,"phase":"Developing","min_bt_K":241.0,"area_km2":708,"cold_core_km2":0,"speed_kmh":52.1,"heading_deg":108,"d_min_bt_30":3.5,"age_min":60,"family":133,"touches_missing":true,"lon":80.8759,"lat":29.833,"merges_splits_so_far":0},"geometry":{"type":"MultiPolygon","coordinates":[[[[81.024,29.9023],[80.7962,29.9073],[80.7331,29.8725],[80.671,29.8738],[80.5873,29.8394],[80.5762,29.8125],[80.6268,29.7664],[80.7513,29.7819],[80.8951,29.7428],[81.0191,29.74],[81.1353,29.8185],[81.024,29.9023]]]]}},{"type":"Feature","properties":{"cell":135,"feature":1461,"phase":"Developing","min_bt_K":240.0,"area_km2":360,"cold_core_km2":0,"speed_kmh":26.1,"heading_deg":251,"d_min_bt_30":0.0,"age_min":60,"family":90,"touches_missing":true,"lon":82.34,"lat":32.1304,"merges_splits_so_far":1},"geometry":{"type":"MultiPolygon","coordinates":[[[[82.3083,32.2305],[82.232,32.1878],[82.2287,32.1157],[82.2601,32.1057],[82.3203,32.0316],[82.4481,32.0454],[82.5041,32.1067],[82.4727,32.1168],[82.3922,32.2097],[82.3286,32.2118],[82.3083,32.2305]]]]}},{"type":"Feature","properties":{"cell":146,"feature":1487,"phase":"Developing","min_bt_K":208.1,"area_km2":2312,"cold_core_km2":620,"speed_kmh":50.9,"heading_deg":8,"d_min_bt_30":-28.0,"age_min":30,"family":5,"touches_missing":true,"lon":72.2311,"lat":29.1178,"merges_splits_so_far":0},"geometry":{"type":"MultiPolygon","coordinates":[[[[72.0875,29.2993],[71.9955,29.2861],[71.997,28.9072],[72.0283,28.8996],[72.0509,28.8645],[72.2138,28.8898],[72.2528,28.9276],[72.3348,28.9311],[72.413,29.0067],[72.4559,28.9724],[72.6005,28.9603],[72.6709,28.9903],[72.6886,29.0451],[72.7475,29.1016],[72.7027,29.172],[72.7223,29.1909],[72.7087,29.2535],[72.647,29.251],[72.6302,29.1781],[72.6087,29.1953],[72.5891,29.1764],[72.5069,29.173],[72.4854,29.1902],[72.4462,29.1525],[72.4325,29.215],[72.4012,29.2227],[72.3924,29.1953],[72.362,29.185],[72.2943,29.2904],[72.2326,29.2877],[72.1935,29.2499],[72.1709,29.285],[72.1092,29.2822],[72.0875,29.2993]]]]}},{"type":"Feature","properties":{"cell":147,"feature":1463,"phase":"Unclassified","min_bt_K":241.0,"area_km2":120,"cold_core_km2":0,"speed_kmh":22.6,"heading_deg":293,"d_min_bt_30":0.5,"age_min":30,"family":147,"touches_missing":false,"lon":82.0075,"lat":32.2163,"merges_splits_so_far":0},"geometry":{"type":"MultiPolygon","coordinates":[[[[82.097,32.2552],[81.9909,32.2584],[81.9352,32.1969],[81.9658,32.1689],[82.0726,32.1837],[82.1064,32.2278],[82.097,32.2552]]]]}},{"type":"Feature","properties":{"cell":148,"feature":1468,"phase":"Unclassified","min_bt_K":241.0,"area_km2":264,"cold_core_km2":0,"speed_kmh":38.1,"heading_deg":91,"d_min_bt_30":2.5,"age_min":30,"family":148,"touches_missing":true,"lon":82.8008,"lat":33.1256,"merges_splits_so_far":0},"geometry":{"type":"MultiPolygon","coordinates":[[[[82.7197,33.209],[82.6424,33.1666],[82.7578,33.1174],[82.7764,33.0626],[82.8182,33.0431],[82.8406,33.0603],[82.9252,33.0392],[82.9588,33.065],[82.9627,33.137],[82.9321,33.1653],[82.8873,33.1308],[82.8444,33.1324],[82.7197,33.209]]]]}},{"type":"Feature","properties":{"cell":163,"feature":1462,"phase":"Unclassified","min_bt_K":241.1,"area_km2":500,"cold_core_km2":0,"speed_kmh":null,"heading_deg":null,"d_min_bt_30":null,"age_min":0,"family":163,"touches_missing":true,"lon":82.7023,"lat":32.129,"merges_splits_so_far":0},"geometry":{"type":"MultiPolygon","coordinates":[[[[82.7342,32.2521],[82.6706,32.2543],[82.5711,32.1766],[82.5685,32.1225],[82.6598,32.0382],[82.807,32.0149],[82.8401,32.0408],[82.8264,32.1856],[82.7342,32.2521]]]]}},{"type":"Feature","properties":{"cell":166,"feature":1475,"phase":"Unclassified","min_bt_K":228.2,"area_km2":5804,"cold_core_km2":0,"speed_kmh":null,"heading_deg":null,"d_min_bt_30":null,"age_min":0,"family":53,"touches_missing":true,"lon":75.4964,"lat":27.2172,"merges_splits_so_far":1},"geometry":{"type":"MultiPolygon","coordinates":[[[[76.2583,27.5793],[76.0561,27.5584],[76.0571,27.5043],[75.8345,27.5008],[75.7933,27.5362],[75.7127,27.5168],[75.6917,27.5525],[75.6714,27.5522],[75.652,27.5157],[75.6115,27.515],[75.5904,27.5507],[75.5095,27.5492],[75.5615,27.487],[75.5524,27.4417],[75.5322,27.4413],[75.4698,27.5124],[75.3889,27.5108],[75.2495,27.4177],[75.0685,27.3776],[75.0606,27.2962],[75.0207,27.2773],[75.0226,27.2051],[75.0536,27.1787],[75.094,27.1796],[75.1057,27.1167],[75.1362,27.1083],[75.1779,27.0551],[75.2182,27.0559],[75.2491,27.0295],[75.2505,26.9753],[75.3019,26.9313],[75.463,26.9345],[75.5041,26.8992],[75.6848,26.9205],[75.6954,26.8936],[75.7258,26.8851],[75.7353,26.9124],[75.8345,26.9863],[75.8437,27.0316],[75.9035,27.0686],[75.964,27.0696],[76.0036,27.1063],[76.044,27.1069],[76.1535,27.1897],[76.1529,27.2258],[76.1221,27.2525],[76.0414,27.2513],[76.0308,27.2782],[76.1315,27.2977],[76.1498,27.4063],[76.0991,27.4146],[76.0885,27.4416],[76.1996,27.4521],[76.2694,27.5163],[76.2583,27.5793]]],[[[76.0686,27.4232],[76.0292,27.3685],[76.0799,27.3602],[76.0805,27.3241],[76.0401,27.3235],[76.0192,27.3593],[75.9586,27.3584],[75.9391,27.322],[75.8884,27.3302],[75.898,27.3574],[76.0186,27.3954],[76.0381,27.4318],[76.0686,27.4232]]]]}}]}