{"type":"FeatureCollection","features":[{"type":"Feature","properties":{"cell":32,"feature":1559,"phase":"Decaying","min_bt_K":231.0,"area_km2":10288,"cold_core_km2":0,"speed_kmh":66.9,"heading_deg":300,"d_min_bt_30":-3.0,"age_min":360,"family":5,"touches_missing":false,"lon":76.256,"lat":33.281,"merges_splits_so_far":22},"geometry":{"type":"MultiPolygon","coordinates":[[[[76.164,33.8571],[76.1208,33.8565],[75.9945,33.7103],[75.8774,33.6454],[75.8778,33.6274],[75.9433,33.5923],[75.9449,33.5201],[75.797,33.4095],[75.7572,33.2826],[75.78,33.2288],[75.738,33.192],[75.7193,33.0835],[75.7521,33.057],[75.8167,33.04],[75.8591,33.0587],[75.8919,33.0322],[75.9383,32.8705],[75.9927,32.8263],[76.0463,32.818],[76.0486,32.7098],[76.0812,32.6832],[76.1665,32.6844],[76.2325,32.5771],[76.297,32.5418],[76.446,32.5436],[76.5533,32.4907],[76.5953,32.5273],[76.6381,32.5097],[76.7115,32.5916],[76.7107,32.6457],[76.6786,32.6544],[76.6676,32.6814],[76.7207,32.6909],[76.7323,32.6279],[76.7756,32.5741],[76.755,32.5198],[76.8516,32.4576],[76.904,32.5211],[76.8608,32.5749],[76.8816,32.6112],[76.8803,32.7194],[76.8161,32.7369],[76.8149,32.8271],[76.7614,32.8356],[76.7396,32.8715],[76.526,32.8693],[76.5148,32.8962],[76.4613,32.9046],[76.4393,32.9405],[76.3107,32.9569],[76.2781,32.9836],[76.2539,33.1276],[76.307,33.1554],[76.3716,33.1381],[76.5858,33.1406],[76.6914,33.2499],[76.8838,33.3057],[76.9046,33.36],[76.969,33.3606],[77.0124,33.3248],[77.0553,33.3251],[77.1632,33.2717],[77.2379,33.3173],[77.2374,33.3714],[77.1078,33.4427],[77.0642,33.4966],[77.0635,33.5687],[77.0311,33.5775],[77.0092,33.6134],[76.9448,33.5949],[76.8366,33.6301],[76.772,33.6295],[76.7294,33.593],[76.5784,33.6096],[76.4476,33.6983],[76.296,33.7326],[76.164,33.8571]]]]}},{"type":"Feature","properties":{"cell":64,"feature":1540,"phase":"Decaying","min_bt_K":238.2,"area_km2":1036,"cold_core_km2":0,"speed_kmh":8.7,"heading_deg":324,"d_min_bt_30":4.9,"age_min":240,"family":64,"touches_missing":true,"lon":72.1298,"lat":29.9499,"merges_splits_so_far":5},"geometry":{"type":"MultiPolygon","coordinates":[[[[72.102,30.1121],[72.0823,30.0932],[72.019,30.1084],[71.9906,30.062],[72.01,29.738],[71.9905,29.7191],[72.1883,29.7009],[72.1981,29.7103],[72.1113,29.7787],[72.1277,29.8516],[72.2193,29.8827],[72.3642,29.889],[72.4134,29.9362],[72.2275,30.0996],[72.1238,30.0951],[72.102,30.1121]]]]}},{"type":"Feature","properties":{"cell":82,"feature":1556,"phase":"Decaying","min_bt_K":227.4,"area_km2":21300,"cold_core_km2":0,"speed_kmh":56.4,"heading_deg":287,"d_min_bt_30":1.8,"age_min":210,"family":53,"touches_missing":true,"lon":74.2714,"lat":27.3906,"merges_splits_so_far":10},"geometry":{"type":"MultiPolygon","coordinates":[[[[73.2089,28.2438],[73.1682,28.2423],[73.1592,28.2149],[73.2521,28.1912],[73.2635,28.1645],[73.1837,28.1255],[73.1959,28.0808],[73.2163,28.0816],[73.235,28.1184],[73.3571,28.1227],[73.3962,28.1602],[73.4076,28.1335],[73.3775,28.1234],[73.3587,28.0867],[73.2366,28.0823],[73.1976,28.0448],[73.1764,28.0621],[72.9527,28.0537],[72.9306,28.0889],[72.8068,28.1202],[72.7484,28.0638],[72.7068,28.0801],[72.6379,28.0322],[72.6892,28.0253],[72.7113,27.9901],[72.5894,27.9851],[72.5321,27.9105],[72.4402,27.9157],[72.443,27.8617],[72.4749,27.8359],[72.5155,27.8376],[72.5542,27.8753],[72.7167,27.882],[72.7749,27.9384],[72.8173,27.904],[72.8765,27.9424],[72.9277,27.9354],[72.9515,27.8641],[72.9929,27.8476],[73.0052,27.803],[72.9443,27.8006],[72.9257,27.7638],[72.8446,27.7607],[72.8058,27.723],[72.7538,27.748],[72.8243,27.7599],[72.8226,27.7959],[72.7423,27.7747],[72.7132,27.7464],[72.7158,27.6924],[72.6965,27.6735],[72.7599,27.6219],[72.7942,27.542],[72.8347,27.5436],[72.8971,27.5099],[73.0177,27.5326],[73.1011,27.4816],[73.2022,27.4853],[73.2143,27.4406],[73.2669,27.3974],[73.3275,27.3995],[73.359,27.3736],[73.3621,27.3015],[73.3935,27.2755],[73.5146,27.2797],[73.5572,27.227],[73.638,27.2297],[73.6826,27.1228],[73.8036,27.1267],[73.8231,27.1454],[73.8439,27.128],[73.9649,27.1318],[74.0066,27.0969],[74.0573,27.0894],[74.0904,27.0092],[74.1301,27.0284],[74.1905,27.0302],[74.232,26.9952],[74.2516,27.0139],[74.3126,26.9975],[74.453,27.0194],[74.464,26.9927],[74.5146,26.985],[74.6393,26.8618],[74.6997,26.8634],[74.7518,26.8015],[74.8441,26.7405],[75.3076,26.6966],[75.4294,26.6449],[75.5388,26.6921],[75.557,26.7828],[75.4667,26.772],[75.456,26.7989],[75.3439,26.8599],[75.2612,26.9485],[75.221,26.9476],[75.2097,26.9925],[75.229,27.0291],[75.147,27.0815],[75.1859,27.1365],[75.185,27.1726],[75.3047,27.2292],[75.324,27.2657],[75.3222,27.3379],[75.3016,27.3556],[75.3205,27.4101],[75.4203,27.4663],[75.419,27.5204],[75.3776,27.5557],[75.3763,27.6098],[75.3354,27.627],[75.3651,27.6547],[75.4259,27.6559],[75.4255,27.674],[75.3845,27.6912],[75.2831,27.6892],[75.2633,27.6707],[75.1615,27.6866],[75.1521,27.6593],[75.1931,27.6421],[75.1837,27.6149],[75.121,27.6857],[75.1007,27.6853],[74.9816,27.5923],[74.9712,27.6011],[75.0112,27.6201],[75.0503,27.6751],[74.9385,27.6816],[74.9074,27.7079],[74.9167,27.7352],[74.8367,27.6972],[74.8153,27.7328],[74.6937,27.7298],[74.6723,27.7654],[74.6328,27.7283],[74.5911,27.7633],[74.51,27.7612],[74.5007,27.7339],[74.5424,27.6989],[74.5251,27.6081],[74.4545,27.5972],[74.4134,27.6142],[74.3839,27.5863],[74.5158,27.5808],[74.517,27.5447],[74.3146,27.5392],[74.252,27.5916],[74.1501,27.6067],[74.101,27.5602],[74.1317,27.552],[74.171,27.5893],[74.2029,27.5451],[74.1729,27.5352],[74.152,27.5526],[74.133,27.516],[74.0318,27.513],[74.0129,27.4763],[74.0018,27.503],[74.0207,27.5397],[73.9992,27.5751],[74.0403,27.5583],[74.0377,27.6305],[74.0573,27.6491],[74.033,27.7567],[74.0023,27.7648],[73.9387,27.8351],[73.756,27.8293],[73.7448,27.856],[73.7847,27.8754],[73.7524,27.9194],[73.7125,27.9001],[73.6102,27.9148],[73.599,27.9415],[73.5576,27.9581],[73.5877,27.9682],[73.7111,27.9362],[73.7202,27.9635],[73.6276,27.9876],[73.6163,28.0143],[73.6849,28.0797],[73.7663,28.0824],[73.8147,28.1471],[73.722,28.1712],[73.5998,28.1672],[73.578,28.2025],[73.4965,28.1998],[73.4746,28.2351],[73.4542,28.2344],[73.4354,28.1977],[73.3947,28.1962],[73.3727,28.2316],[73.2301,28.2265],[73.2089,28.2438]]],[[[74.2446,27.5102],[74.2465,27.4561],[74.298,27.4304],[74.309,27.4037],[74.2184,27.3921],[74.1792,27.3548],[74.0788,27.3338],[74.1173,27.3891],[74.208,27.4008],[74.2073,27.4188],[74.1565,27.4264],[74.1454,27.4531],[74.1852,27.4724],[74.1944,27.4997],[74.2446,27.5102]]],[[[73.3442,28.1854],[73.3352,28.158],[73.3042,28.166],[73.3132,28.1934],[73.3442,28.1854]]]]}},{"type":"Feature","properties":{"cell":108,"feature":1567,"phase":"Decaying","min_bt_K":220.0,"area_km2":37728,"cold_core_km2":148,"speed_kmh":187.1,"heading_deg":33,"d_min_bt_30":13.5,"age_min":150,"family":5,"touches_missing":true,"lon":73.9494,"lat":32.9082,"merges_splits_so_far":16},"geometry":{"type":"MultiPolygon","coordinates":[[[[73.4682,33.7389],[73.4278,33.6834],[73.3416,33.6804],[73.1447,33.7275],[72.9969,33.6679],[72.7836,33.6237],[72.7426,33.586],[72.6781,33.5834],[72.5114,33.4865],[72.4888,33.5036],[72.4571,33.4933],[72.4705,33.2772],[72.4299,33.2394],[72.4151,33.1305],[72.3126,33.054],[72.298,32.9451],[72.3318,32.9194],[72.3734,32.9393],[72.5556,32.9378],[72.5653,32.7758],[72.528,32.684],[72.5728,32.6497],[72.5994,32.5606],[72.5499,32.4954],[72.5925,32.4971],[72.6371,32.4628],[72.7009,32.4654],[72.7232,32.4482],[72.8497,32.4712],[72.9377,32.4205],[72.9793,32.4401],[73.1116,32.3548],[73.1975,32.3399],[73.2307,32.314],[73.2326,32.278],[73.3303,32.2363],[73.4023,32.2839],[73.4514,32.3668],[73.493,32.3863],[73.6842,32.3926],[73.6927,32.438],[73.7438,32.4848],[73.9564,32.4914],[73.9998,32.4746],[74.0407,32.5119],[74.1676,32.5337],[74.208,32.589],[74.2293,32.5896],[74.274,32.5367],[74.3159,32.5559],[74.3819,32.5036],[74.4649,32.56],[74.6132,32.5819],[74.7003,32.5299],[74.8603,32.5248],[74.8834,32.4712],[74.9708,32.401],[74.9956,32.2933],[74.9543,32.2563],[74.9567,32.1842],[75.0111,32.1403],[75.1383,32.1431],[75.1796,32.1801],[75.222,32.181],[75.2437,32.1634],[75.3073,32.1647],[75.3936,32.1123],[75.436,32.1131],[75.4774,32.15],[75.6045,32.1523],[75.7118,32.1001],[75.7858,32.1104],[75.678,32.1807],[75.6333,32.2701],[75.6654,32.2616],[75.7069,32.2985],[75.8018,32.3271],[75.801,32.3632],[75.7359,32.4162],[75.735,32.4523],[75.7871,32.4983],[75.8926,32.5361],[75.9027,32.5633],[75.7628,32.6241],[75.7288,32.7048],[75.7819,32.7147],[75.8254,32.6793],[75.868,32.68],[75.9336,32.6089],[76.0711,32.656],[76.0463,32.818],[75.9927,32.8263],[75.9383,32.8705],[75.9145,32.9784],[75.8591,33.0587],[75.8381,33.0403],[75.7521,33.057],[75.7075,33.1284],[75.5585,33.0896],[75.4932,33.1245],[75.4723,33.1061],[75.4504,33.1237],[75.3867,33.1044],[75.3433,33.1216],[75.2587,33.0838],[75.2148,33.119],[75.172,33.1181],[75.1065,33.1528],[75.0515,33.1967],[75.0712,33.2513],[74.9725,33.3122],[74.8425,33.3453],[74.8197,33.3808],[74.7781,33.3438],[74.7351,33.3427],[74.6479,33.3766],[74.5578,33.4826],[74.3836,33.5322],[74.2545,33.5286],[74.0863,33.4336],[74.0219,33.4317],[73.9661,33.4751],[73.9645,33.5111],[74.0051,33.5665],[73.9699,33.6286],[73.8614,33.6433],[73.7502,33.712],[73.708,33.6926],[73.5993,33.7072],[73.5787,33.6884],[73.4682,33.7389]]]]}},{"type":"Feature","properties":{"cell":135,"feature":1548,"phase":"Developing","min_bt_K":241.2,"area_km2":264,"cold_core_km2":0,"speed_kmh":29.3,"heading_deg":287,"d_min_bt_30":1.2,"age_min":90,"family":90,"touches_missing":true,"lon":82.1912,"lat":32.1687,"merges_splits_so_far":1},"geometry":{"type":"MultiPolygon","coordinates":[[[[82.2242,32.2512],[82.0954,32.2191],[82.0624,32.1931],[82.1228,32.119],[82.1314,32.0737],[82.3159,32.1671],[82.3168,32.1851],[82.2242,32.2512]]]]}},{"type":"Feature","properties":{"cell":146,"feature":1561,"phase":"Developing","min_bt_K":212.0,"area_km2":9220,"cold_core_km2":3552,"speed_kmh":67.3,"heading_deg":72,"d_min_bt_30":3.9,"age_min":60,"family":5,"touches_missing":true,"lon":72.5595,"lat":29.2131,"merges_splits_so_far":1},"geometry":{"type":"MultiPolygon","coordinates":[[[[72.5651,29.6267],[72.5032,29.6241],[72.4452,29.5495],[72.4039,29.5477],[72.3853,29.5108],[72.3234,29.5082],[72.3048,29.4713],[72.2822,29.5064],[72.2214,29.4857],[72.1368,29.5181],[72.1183,29.4812],[72.026,29.468],[71.9901,29.3761],[72.0102,29.0341],[71.9907,29.0152],[71.9991,28.8712],[72.0529,28.8285],[72.4637,28.8283],[72.4861,28.7931],[72.5466,28.8137],[72.7337,28.7672],[72.893,28.8637],[72.9545,28.866],[72.9938,28.9036],[73.0553,28.9059],[73.0946,28.9435],[73.198,28.9293],[73.3686,29.0166],[73.344,29.106],[73.3744,29.1161],[73.3835,29.1434],[73.3416,29.16],[73.3803,29.2155],[73.3284,29.2227],[73.289,29.1852],[73.2569,29.2111],[73.2651,29.2566],[73.205,29.2183],[73.1794,29.3256],[73.1489,29.3155],[73.1515,29.2615],[73.1309,29.2607],[73.1283,29.3147],[73.0863,29.3312],[73.082,29.4213],[73.039,29.4558],[73.0578,29.4926],[73.0453,29.5373],[72.9843,29.5169],[72.9189,29.5866],[72.7744,29.581],[72.735,29.5433],[72.6693,29.6129],[72.6299,29.5752],[72.6182,29.6018],[72.5651,29.6267]]]]}},{"type":"Feature","properties":{"cell":163,"feature":1546,"phase":"Unclassified","min_bt_K":242.3,"area_km2":396,"cold_core_km2":0,"speed_kmh":20.8,"heading_deg":280,"d_min_bt_30":1.2,"age_min":30,"family":163,"touches_missing":true,"lon":82.5936,"lat":32.1448,"merges_splits_so_far":0},"geometry":{"type":"MultiPolygon","coordinates":[[[[82.6485,32.2371],[82.5636,32.24],[82.4974,32.1881],[82.4338,32.1903],[82.3999,32.1463],[82.4736,32.1348],[82.4829,32.1074],[82.5548,32.0599],[82.6809,32.0374],[82.7149,32.0813],[82.6947,32.1001],[82.6983,32.1722],[82.6485,32.2371]]]]}},{"type":"Feature","properties":{"cell":166,"feature":1557,"phase":"Unclassified","min_bt_K":231.0,"area_km2":6332,"cold_core_km2":0,"speed_kmh":32.2,"heading_deg":81,"d_min_bt_30":2.8,"age_min":30,"family":53,"touches_missing":true,"lon":75.6566,"lat":27.2409,"merges_splits_so_far":1},"geometry":{"type":"MultiPolygon","coordinates":[[[[75.6484,27.6781],[75.6393,27.6328],[75.6699,27.6244],[75.7322,27.5532],[75.7119,27.5529],[75.6909,27.5886],[75.6512,27.5518],[75.6293,27.6236],[75.6091,27.6233],[75.5896,27.5868],[75.5694,27.5864],[75.5483,27.6222],[75.5281,27.6218],[75.5086,27.5853],[75.4884,27.5849],[75.4673,27.6206],[75.3763,27.6098],[75.3776,27.5557],[75.419,27.5204],[75.4203,27.4663],[75.3304,27.4193],[75.3011,27.3736],[75.3222,27.3379],[75.3047,27.2292],[75.2751,27.2015],[75.1948,27.1818],[75.1859,27.1365],[75.1465,27.0995],[75.147,27.0815],[75.229,27.0291],[75.2097,26.9925],[75.221,26.9476],[75.2612,26.9485],[75.2925,26.904],[75.4051,26.825],[75.465,26.8442],[75.5668,26.792],[75.585,26.8826],[75.6852,26.9025],[75.7247,26.9393],[75.8247,26.9771],[75.8851,26.9781],[75.9056,26.9603],[75.9452,26.9971],[75.9854,26.9977],[76.0747,27.0803],[76.0737,27.1344],[76.1435,27.1806],[76.1839,27.1811],[76.1935,27.2083],[76.2535,27.2453],[76.2925,27.336],[76.2615,27.3808],[76.2521,27.3355],[76.2219,27.3261],[76.2011,27.3619],[76.1504,27.3702],[76.17,27.4066],[76.1595,27.4335],[76.0786,27.4324],[76.0577,27.4682],[75.9768,27.467],[75.9254,27.5113],[75.9748,27.5752],[76.0452,27.6034],[75.9933,27.6658],[75.8312,27.6632],[75.7918,27.6084],[75.7513,27.6077],[75.6484,27.6781]]]]}},{"type":"Feature","properties":{"cell":181,"feature":1564,"phase":"Unclassified","min_bt_K":220.1,"area_km2":17924,"cold_core_km2":124,"speed_kmh":null,"heading_deg":null,"d_min_bt_30":null,"age_min":0,"family":5,"touches_missing":true,"lon":74.414,"lat":32.0392,"merges_splits_so_far":3},"geometry":{"type":"MultiPolygon","coordinates":[[[[74.2293,32.5896],[74.208,32.589],[74.1676,32.5337],[74.0407,32.5119],[73.9998,32.4746],[73.9564,32.4914],[73.7438,32.4848],[73.6927,32.438],[73.6944,32.402],[73.6417,32.3912],[73.5907,32.3444],[73.5924,32.3084],[73.5517,32.271],[73.5772,32.1816],[73.6213,32.147],[73.5688,32.1362],[73.518,32.0894],[73.5249,31.9453],[73.5782,31.938],[73.6179,31.9935],[73.6814,31.9956],[73.7827,31.8635],[73.7859,31.7914],[73.9719,31.6438],[74.4581,31.6216],[74.4812,31.5681],[74.6082,31.5533],[74.6516,31.5183],[74.799,31.522],[74.882,31.56],[74.9475,31.4894],[75.0317,31.4913],[75.1385,31.4395],[75.179,31.4945],[75.2211,31.4954],[75.2935,31.542],[75.3233,31.6057],[75.4281,31.6258],[75.4605,31.5994],[75.3659,31.5885],[75.315,31.5244],[75.3166,31.4703],[75.3489,31.4439],[75.412,31.4451],[75.4531,31.482],[75.5999,31.5028],[75.746,31.5594],[75.8315,31.5067],[75.8843,31.4986],[75.8855,31.4445],[75.9069,31.4268],[75.8447,31.3897],[75.8455,31.3536],[75.8776,31.3271],[75.9406,31.3281],[75.9819,31.3648],[76.0247,31.3293],[76.0453,31.3477],[76.0667,31.33],[76.098,31.3394],[76.097,31.3935],[76.1283,31.403],[76.159,31.4485],[76.1369,31.5024],[76.1783,31.539],[76.1255,31.5473],[76.039,31.6543],[75.7835,31.7585],[75.7189,31.8115],[75.5922,31.8093],[75.4079,31.9772],[75.4286,31.9957],[75.3848,32.049],[75.4044,32.1035],[75.3502,32.1475],[75.222,32.181],[75.1796,32.1801],[75.1383,32.1431],[75.0111,32.1403],[74.9567,32.1842],[74.9543,32.2563],[74.9956,32.2933],[74.9708,32.401],[74.8834,32.4712],[74.8493,32.5335],[74.7003,32.5299],[74.6132,32.5819],[74.5281,32.5797],[74.3819,32.5036],[74.3159,32.5559],[74.274,32.5367],[74.2293,32.5896]]]]}}]}