{"type":"FeatureCollection","features":[{"type":"Feature","properties":{"cell":82,"feature":1653,"phase":"Decaying","min_bt_K":228.5,"area_km2":15040,"cold_core_km2":0,"speed_kmh":162.3,"heading_deg":97,"d_min_bt_30":1.0,"age_min":240,"family":53,"touches_missing":true,"lon":75.0843,"lat":27.2941,"merges_splits_so_far":12},"geometry":{"type":"MultiPolygon","coordinates":[[[[75.5661,27.7308],[75.5566,27.7035],[75.588,27.659],[75.5678,27.6586],[75.5467,27.6943],[75.5061,27.6936],[75.4664,27.6567],[75.425,27.692],[75.3845,27.6912],[75.3651,27.6547],[75.3246,27.6539],[75.2831,27.6892],[75.2444,27.6161],[75.2223,27.6879],[74.9588,27.6821],[74.9188,27.6631],[74.8159,27.7148],[74.7375,27.6226],[74.6362,27.6201],[74.5731,27.6906],[74.543,27.6808],[74.5442,27.6447],[74.5147,27.6169],[74.4932,27.6524],[74.4324,27.6508],[74.4232,27.6235],[74.4643,27.6065],[74.4551,27.5792],[74.4134,27.6142],[74.363,27.6038],[74.3845,27.5682],[74.3875,27.4781],[74.4182,27.4699],[74.4372,27.5065],[74.4777,27.5076],[74.4887,27.4808],[74.4384,27.4704],[74.4193,27.4338],[74.3575,27.4682],[74.3299,27.3862],[74.2907,27.349],[74.2931,27.2768],[74.213,27.2565],[74.2864,27.1773],[74.389,27.126],[74.4519,27.0555],[74.5325,27.0577],[74.5445,26.9948],[74.6371,26.934],[74.6774,26.935],[74.7388,26.9004],[74.778,26.9375],[74.9396,26.9233],[75.0216,26.871],[75.102,26.8728],[75.1437,26.8196],[75.2045,26.8028],[75.4055,26.807],[75.4261,26.7893],[75.5873,26.7743],[75.6169,26.8019],[75.6161,26.838],[75.6662,26.848],[75.678,26.7669],[75.7083,26.7584],[75.7576,26.8044],[75.7372,26.8221],[75.7463,26.8674],[75.9475,26.8707],[75.9772,26.8983],[75.9458,26.961],[75.9257,26.9606],[75.9062,26.9242],[75.866,26.9236],[75.8554,26.9505],[75.8049,26.9587],[75.784,26.9944],[75.8444,26.9955],[75.8639,27.0319],[75.8653,26.9597],[75.9056,26.9603],[75.9452,26.9971],[75.9557,26.9701],[76.0066,26.9438],[76.0261,26.9802],[76.1466,27.0001],[76.1764,27.0276],[76.1556,27.0634],[76.084,27.1255],[76.0436,27.125],[76.0129,27.1516],[76.1029,27.198],[76.305,27.1827],[76.3547,27.2285],[76.3442,27.2555],[76.243,27.2722],[76.2333,27.245],[76.2538,27.2272],[76.1833,27.2172],[76.152,27.28],[76.2017,27.3258],[76.2222,27.308],[76.303,27.3091],[76.3825,27.4004],[76.5033,27.4379],[76.513,27.4651],[76.4826,27.4738],[76.4618,27.5096],[76.3809,27.5087],[76.3398,27.5443],[76.2589,27.5432],[76.2175,27.5968],[76.177,27.5963],[76.1676,27.551],[76.1171,27.5413],[76.0963,27.5771],[76.0558,27.5765],[76.0146,27.612],[75.8927,27.6281],[75.8028,27.5635],[75.7936,27.5182],[75.6837,27.4531],[75.6745,27.4078],[75.6539,27.4255],[75.5734,27.406],[75.5627,27.4329],[75.5825,27.4513],[75.5111,27.477],[75.4797,27.5216],[75.6588,27.6693],[75.5661,27.7308]]],[[[75.4414,27.4306],[75.4521,27.4037],[75.4925,27.4045],[75.5647,27.3426],[75.5556,27.2973],[75.4426,27.3764],[75.4216,27.4121],[75.4211,27.4302],[75.4414,27.4306]]]]}},{"type":"Feature","properties":{"cell":108,"feature":1662,"phase":"Developing","min_bt_K":216.1,"area_km2":85532,"cold_core_km2":7264,"speed_kmh":162.4,"heading_deg":194,"d_min_bt_30":-4.0,"age_min":180,"family":5,"touches_missing":true,"lon":73.7374,"lat":32.1986,"merges_splits_so_far":22},"geometry":{"type":"MultiPolygon","coordinates":[[[[76.7234,34.008],[75.8908,33.9884],[75.9022,33.9615],[75.9455,33.9622],[76.0764,33.91],[76.098,33.9103],[76.1613,33.9834],[76.3567,33.9498],[76.3896,33.9232],[76.3902,33.8871],[76.5211,33.8164],[76.5214,33.7984],[76.4785,33.7799],[76.5023,33.6538],[76.4601,33.5992],[76.5474,33.528],[76.4514,33.4819],[76.4202,33.4183],[76.5074,33.3472],[76.508,33.3111],[76.5735,33.2397],[76.5527,33.2033],[76.6826,33.1145],[76.6832,33.0784],[76.7363,33.106],[76.7686,33.0973],[76.769,33.0612],[76.6531,32.9428],[76.4179,32.9402],[76.2662,33.0466],[76.2234,33.046],[76.1175,32.9904],[76.0957,33.0082],[76.0533,32.9895],[75.9666,33.0424],[75.8595,33.0407],[75.8172,33.022],[75.6865,33.11],[75.6441,33.0912],[75.4514,33.0876],[75.4295,33.1053],[75.3872,33.0864],[75.3736,33.1854],[75.4369,33.2227],[75.4987,33.3141],[75.4657,33.3405],[75.4233,33.3217],[75.4013,33.3393],[75.3154,33.3376],[75.2499,33.3723],[75.164,33.3705],[75.0327,33.4399],[74.9554,33.5013],[74.9763,33.5198],[74.9314,33.5729],[74.9301,33.609],[74.9713,33.664],[74.9381,33.6903],[74.8845,33.6801],[74.8858,33.644],[74.8538,33.6343],[74.7918,33.5606],[74.7057,33.5585],[74.6821,33.6121],[74.6175,33.6105],[74.5515,33.6449],[74.4869,33.6432],[74.4786,33.5798],[74.4474,33.5519],[74.2968,33.5478],[74.2084,33.5995],[74.1876,33.5808],[74.1645,33.6163],[74.1023,33.5603],[74.0593,33.5591],[73.9148,33.654],[73.9132,33.69],[73.8796,33.7161],[73.7175,33.72],[73.7001,33.8548],[73.6578,33.8354],[73.5499,33.8319],[73.5058,33.8484],[73.3997,33.8087],[73.203,33.6484],[73.1741,33.5842],[73.1311,33.5827],[73.0808,33.5176],[73.0388,33.498],[73.0408,33.462],[72.9701,33.3782],[72.8975,33.3303],[72.8791,33.2755],[72.8465,33.2832],[72.6844,33.1144],[72.6325,33.0853],[72.6347,33.0493],[72.5716,33.0287],[72.5759,32.9567],[72.5353,32.9189],[72.625,32.8504],[72.609,32.7595],[72.3104,32.5756],[72.2466,32.5729],[72.1571,32.4697],[72.1617,32.3977],[72.1215,32.3599],[72.1662,32.3257],[72.1284,32.2519],[72.1518,32.2168],[72.1117,32.179],[72.1163,32.107],[72.0762,32.0691],[72.1231,31.999],[72.1042,31.9621],[72.1276,31.927],[72.0888,31.8711],[72.0933,31.7992],[72.0534,31.7613],[72.0602,31.6533],[72.0402,31.6344],[72.0636,31.5993],[72.0448,31.5624],[72.088,31.5463],[72.1567,31.4591],[72.16,31.4051],[72.2042,31.3709],[72.2296,31.2998],[72.2958,31.2486],[72.3001,31.1766],[72.3442,31.1423],[72.3474,31.0883],[72.4212,31.0824],[72.4333,31.0559],[72.552,30.9977],[72.6188,30.9282],[72.8129,30.8277],[72.8746,30.8481],[73.0237,30.7997],[73.0864,30.802],[73.2144,30.7525],[73.3815,30.7585],[73.4032,30.7412],[73.4859,30.7621],[73.5252,30.8175],[73.5879,30.8196],[73.608,30.8383],[73.7558,30.8071],[73.8603,30.8104],[73.9633,30.8496],[74.0887,30.8534],[74.15,30.8913],[74.2553,30.8762],[74.3774,30.9699],[74.4206,30.9349],[74.5246,30.9558],[74.5442,30.9923],[74.5861,30.9934],[74.626,31.0486],[74.7505,31.0878],[74.8559,31.0723],[74.9176,31.1098],[74.9374,31.1463],[75.0621,31.1852],[75.2515,31.1713],[75.2924,31.2082],[75.3983,31.1742],[75.5312,31.3121],[75.4877,31.3654],[75.4975,31.3926],[75.5499,31.4026],[75.5485,31.4567],[75.5162,31.4832],[75.4531,31.482],[75.4325,31.4635],[75.39,31.4808],[75.3679,31.5164],[75.22,31.5314],[75.1131,31.5833],[75.0083,31.5629],[74.997,31.5897],[74.9434,31.6156],[74.8591,31.6136],[74.6924,31.5554],[74.545,31.5517],[74.4839,31.496],[74.3786,31.4931],[74.2959,31.4548],[74.2843,31.4815],[74.1979,31.5332],[74.1965,31.5692],[74.1217,31.5941],[74.0875,31.6563],[74.0446,31.673],[74.0415,31.7451],[74.1026,31.8011],[74.0959,31.9633],[74.074,31.9807],[74.2104,32.0117],[74.2607,32.0762],[74.2593,32.1123],[74.4253,32.2071],[74.4437,32.2797],[74.5061,32.3175],[74.5342,32.4174],[74.6611,32.4387],[74.6701,32.4841],[74.7435,32.5129],[74.8925,32.5165],[74.9545,32.572],[74.9977,32.555],[75.0184,32.5735],[75.2526,32.5785],[75.2608,32.6599],[75.3138,32.67],[75.3549,32.7249],[75.3767,32.7073],[75.4402,32.7266],[75.5057,32.6737],[75.5696,32.6749],[75.5914,32.6572],[75.7193,32.6595],[75.7614,32.6782],[75.9336,32.6089],[76.0176,32.6643],[76.1242,32.6658],[76.1888,32.6306],[76.4232,32.6336],[76.5525,32.5448],[76.7228,32.5466],[76.7443,32.5288],[76.7758,32.5561],[76.7754,32.5922],[76.7102,32.6818],[76.7842,32.7276],[76.8055,32.7278],[76.8273,32.6919],[76.87,32.6922],[76.8909,32.7285],[76.9762,32.7292],[77.05,32.8109],[77.0496,32.847],[77.0065,32.8828],[76.9839,32.9908],[77.0371,33.0183],[77.1013,33.0187],[77.1331,33.046],[77.0896,33.1179],[77.1321,33.1542],[77.1316,33.2084],[77.1853,33.1997],[77.2181,33.1187],[77.2503,33.1099],[77.3463,33.1735],[77.346,33.2096],[77.3886,33.2459],[77.3667,33.3179],[77.2807,33.3355],[77.3016,33.4078],[77.2362,33.5157],[77.2572,33.5699],[77.1165,33.6503],[77.0734,33.65],[76.9747,33.8026],[76.9095,33.8382],[76.8872,33.8921],[76.9083,33.9284],[76.8105,33.9727],[76.7672,33.9723],[76.7234,34.008]]],[[[73.3418,31.7946],[73.3114,31.7665],[73.2784,31.7924],[73.3418,31.7946]]],[[[75.3141,33.0218],[75.2828,32.9941],[75.1644,33.0187],[75.3141,33.0218]]],[[[76.6959,33.6739],[76.6855,33.6467],[76.6744,33.6737],[76.6959,33.6739]]],[[[76.6733,33.7459],[76.6629,33.7187],[76.6304,33.7274],[76.6408,33.7546],[76.6733,33.7459]]]]}},{"type":"Feature","properties":{"cell":146,"feature":1658,"phase":"Decaying","min_bt_K":217.2,"area_km2":6116,"cold_core_km2":584,"speed_kmh":12.0,"heading_deg":176,"d_min_bt_30":5.2,"age_min":90,"family":5,"touches_missing":true,"lon":72.5642,"lat":29.1591,"merges_splits_so_far":2},"geometry":{"type":"MultiPolygon","coordinates":[[[[72.3421,29.5451],[72.3008,29.5433],[72.2626,29.4875],[72.1832,29.4299],[72.1019,29.4083],[72.0931,29.3808],[72.0335,29.342],[72.0551,29.3249],[72.044,29.162],[72.1077,29.1287],[72.0892,29.0918],[72.0384,29.0805],[71.9907,29.0152],[71.996,28.9252],[72.0672,28.9374],[72.1544,28.851],[72.1943,28.8709],[72.2715,28.775],[72.3457,28.733],[72.3651,28.7519],[72.447,28.7554],[72.4899,28.7211],[72.6127,28.7262],[72.6341,28.709],[72.8174,28.7344],[72.8163,28.9599],[72.8752,29.0164],[72.8716,29.0884],[72.952,29.1276],[72.9637,29.3086],[73.0245,29.3289],[72.7397,29.4532],[72.6591,29.4139],[72.6179,29.4122],[72.5542,29.4457],[72.4531,29.4054],[72.3775,29.4654],[72.3421,29.5451]]]]}},{"type":"Feature","properties":{"cell":181,"feature":1661,"phase":"Mature","min_bt_K":220.0,"area_km2":16440,"cold_core_km2":112,"speed_kmh":85.7,"heading_deg":98,"d_min_bt_30":-0.1,"age_min":30,"family":5,"touches_missing":true,"lon":74.8631,"lat":31.9857,"merges_splits_so_far":3},"geometry":{"type":"MultiPolygon","coordinates":[[[[75.4402,32.7266],[75.4194,32.7081],[75.3549,32.7249],[75.3138,32.67],[75.2712,32.6691],[75.2526,32.5785],[75.0184,32.5735],[74.9977,32.555],[74.9545,32.572],[74.8925,32.5165],[74.7435,32.5129],[74.6804,32.4933],[74.6611,32.4387],[74.5342,32.4174],[74.5061,32.3175],[74.4437,32.2797],[74.4253,32.2071],[74.2593,32.1123],[74.2607,32.0762],[74.2104,32.0117],[74.074,31.9807],[74.0959,31.9633],[74.1026,31.8011],[74.0415,31.7451],[74.0446,31.673],[74.0875,31.6563],[74.1217,31.5941],[74.1965,31.5692],[74.1979,31.5332],[74.2516,31.5076],[74.2959,31.4548],[74.3786,31.4931],[74.4839,31.496],[74.545,31.5517],[74.6924,31.5554],[74.8591,31.6136],[74.9434,31.6156],[74.9861,31.5985],[75.0083,31.5629],[75.1131,31.5833],[75.22,31.5314],[75.3679,31.5164],[75.3792,31.4896],[75.4325,31.4635],[75.4531,31.482],[75.5162,31.4832],[75.5602,31.4118],[75.5807,31.4302],[75.8335,31.4166],[75.895,31.4897],[75.9999,31.5094],[76.0516,31.5553],[76.0405,31.5822],[75.8918,31.634],[75.7947,31.7316],[75.709,31.7843],[75.7503,31.8211],[75.7473,31.9473],[75.6731,31.9551],[75.5979,31.9988],[75.6186,32.0173],[75.5951,32.107],[75.6465,32.1711],[75.7195,32.2175],[75.7178,32.2896],[75.6961,32.3073],[75.7147,32.4158],[75.6929,32.4335],[75.7346,32.4703],[75.7315,32.5965],[75.6553,32.6584],[75.5057,32.6737],[75.4402,32.7266]]]]}},{"type":"Feature","properties":{"cell":184,"feature":1638,"phase":"Unclassified","min_bt_K":241.2,"area_km2":396,"cold_core_km2":0,"speed_kmh":null,"heading_deg":null,"d_min_bt_30":null,"age_min":0,"family":184,"touches_missing":true,"lon":75.2933,"lat":27.8071,"merges_splits_so_far":0},"geometry":{"type":"MultiPolygon","coordinates":[[[[75.237,27.9048],[75.187,27.8767],[75.1884,27.8226],[75.2507,27.7697],[75.1299,27.731],[75.2822,27.7252],[75.3034,27.6896],[75.3642,27.6908],[75.3935,27.7365],[75.3724,27.7722],[75.4315,27.8456],[75.4306,27.8817],[75.3192,27.8704],[75.237,27.9048]]]]}},{"type":"Feature","properties":{"cell":189,"feature":1652,"phase":"Unclassified","min_bt_K":236.3,"area_km2":996,"cold_core_km2":0,"speed_kmh":null,"heading_deg":null,"d_min_bt_30":null,"age_min":0,"family":189,"touches_missing":true,"lon":83.5316,"lat":33.8435,"merges_splits_so_far":0},"geometry":{"type":"MultiPolygon","coordinates":[[[[83.4767,33.9924],[83.3448,33.9616],[83.2162,33.9847],[83.1131,33.8894],[83.1871,33.8595],[83.2108,33.8947],[83.2519,33.857],[83.3166,33.8544],[83.3781,33.7978],[83.4655,33.8123],[83.5109,33.8465],[83.5609,33.7813],[83.528,33.7736],[83.4928,33.73],[83.5008,33.6845],[83.612,33.734],[83.7174,33.6935],[83.7641,33.7456],[83.8084,33.7618],[83.915,33.739],[83.9593,33.7551],[83.9947,33.7987],[83.9654,33.8451],[83.921,33.829],[83.8575,33.8499],[83.7244,33.8015],[83.6416,33.8592],[83.5552,33.8628],[83.503,33.892],[83.4767,33.9924]]]]}},{"type":"Feature","properties":{"cell":192,"feature":1656,"phase":"Unclassified","min_bt_K":231.6,"area_km2":2020,"cold_core_km2":0,"speed_kmh":null,"heading_deg":null,"d_min_bt_30":null,"age_min":0,"family":192,"touches_missing":true,"lon":73.4404,"lat":28.5143,"merges_splits_so_far":0},"geometry":{"type":"MultiPolygon","coordinates":[[[[73.7189,28.7487],[73.637,28.746],[73.5787,28.6718],[73.5173,28.6698],[73.4182,28.5942],[73.3568,28.592],[73.3176,28.5545],[73.235,28.5696],[73.1093,28.4116],[73.0107,28.3357],[72.9734,28.2621],[72.9768,28.19],[73.0281,28.1829],[73.1054,28.2761],[73.1266,28.2588],[73.1869,28.2791],[73.2832,28.4089],[73.3248,28.3923],[73.3632,28.4479],[73.3844,28.4305],[73.5485,28.4181],[73.612,28.3661],[73.652,28.3855],[73.6943,28.3508],[73.7555,28.3528],[73.7843,28.3988],[73.7164,28.5591],[73.7657,28.6058],[73.827,28.6077],[73.8764,28.6544],[73.8742,28.7085],[73.7613,28.7139],[73.7189,28.7487]]],[[[73.311,28.4731],[73.302,28.4457],[73.2906,28.4723],[73.311,28.4731]]]]}},{"type":"Feature","properties":{"cell":193,"feature":1657,"phase":"Unclassified","min_bt_K":229.0,"area_km2":1944,"cold_core_km2":0,"speed_kmh":null,"heading_deg":null,"d_min_bt_30":null,"age_min":0,"family":5,"touches_missing":true,"lon":74.1735,"lat":33.8958,"merges_splits_so_far":0},"geometry":{"type":"MultiPolygon","coordinates":[[[[74.0175,34.009],[73.834,33.9944],[73.8565,33.9771],[73.8591,33.923],[73.7113,33.8462],[73.7287,33.7114],[73.8796,33.7161],[73.902,33.6987],[73.921,33.7534],[73.9849,33.7734],[74.0712,33.776],[74.0936,33.7586],[74.3301,33.7833],[74.3971,33.731],[74.4617,33.7327],[74.4819,33.7694],[74.525,33.7705],[74.5772,33.8169],[74.5758,33.853],[74.5067,33.9595],[74.5158,34.0048],[74.0399,33.9916],[74.0175,34.009]]]]}},{"type":"Feature","properties":{"cell":194,"feature":1659,"phase":"Unclassified","min_bt_K":213.7,"area_km2":10580,"cold_core_km2":944,"speed_kmh":null,"heading_deg":null,"d_min_bt_30":null,"age_min":0,"family":5,"touches_missing":true,"lon":73.1869,"lat":29.3036,"merges_splits_so_far":1},"geometry":{"type":"MultiPolygon","coordinates":[[[[73.0888,29.9179],[72.9556,29.8858],[72.9835,29.7425],[72.9538,29.7143],[72.8684,29.7651],[72.8271,29.7635],[72.7688,29.689],[72.6862,29.6857],[72.6674,29.6489],[72.6448,29.6841],[72.5819,29.6995],[72.5632,29.6627],[72.5219,29.661],[72.4924,29.6327],[72.4943,29.5967],[72.4452,29.5495],[72.3529,29.5365],[72.3775,29.4654],[72.4531,29.4054],[72.5542,29.4457],[72.6179,29.4122],[72.6591,29.4139],[72.7397,29.4532],[73.0245,29.3289],[72.9637,29.3086],[72.952,29.1276],[72.8716,29.0884],[72.8752,29.0164],[72.8163,28.9599],[72.8271,28.7438],[72.8592,28.718],[73.0229,28.7242],[73.0621,28.7618],[73.2259,28.7678],[73.2472,28.7506],[73.2554,28.796],[73.3644,28.8811],[73.3857,28.8638],[73.4867,28.9034],[73.7122,28.9109],[73.792,28.9676],[73.8741,28.9702],[73.9236,29.0168],[73.908,29.1517],[73.8775,29.1417],[73.8797,29.0877],[73.8393,29.0684],[73.8825,29.0156],[73.8521,29.0056],[73.8195,29.0497],[73.9136,29.2692],[73.8504,29.3033],[73.8489,29.3394],[73.9085,29.3954],[73.8964,29.4401],[73.8772,29.4034],[73.846,29.4115],[73.8445,29.4475],[73.8835,29.5029],[73.8316,29.5103],[73.7918,29.4729],[73.7048,29.5784],[73.6444,29.5403],[73.6222,29.5757],[73.5611,29.5556],[73.5151,29.6623],[73.4845,29.6522],[73.5183,29.5902],[73.444,29.6328],[73.5035,29.689],[73.5019,29.725],[73.4482,29.7683],[73.2613,29.7798],[73.2497,29.8064],[73.0888,29.9179]]]]}}]}