{"type":"FeatureCollection","features":[{"type":"Feature","properties":{"cell":82,"feature":1750,"phase":"Decaying","min_bt_K":231.3,"area_km2":9716,"cold_core_km2":0,"speed_kmh":20.6,"heading_deg":328,"d_min_bt_30":2.8,"age_min":270,"family":53,"touches_missing":true,"lon":75.029,"lat":27.3728,"merges_splits_so_far":12},"geometry":{"type":"MultiPolygon","coordinates":[[[[75.0775,27.7931],[74.9963,27.7912],[75.0077,27.7464],[74.9282,27.6904],[74.9193,27.645],[74.8377,27.6612],[74.8185,27.6246],[74.7983,27.6241],[74.7665,27.6685],[74.7545,27.7313],[74.6531,27.7288],[74.634,27.6922],[74.6317,27.7644],[74.4086,27.7585],[74.3391,27.7114],[74.3403,27.6753],[74.403,27.6229],[74.4042,27.5868],[74.4661,27.5524],[74.4875,27.5169],[74.4678,27.4983],[74.5303,27.4458],[74.5551,27.302],[74.5758,27.2845],[74.559,27.1757],[74.5902,27.1495],[74.6299,27.1685],[74.734,27.0628],[74.7743,27.0638],[74.7955,27.0282],[74.8358,27.0292],[74.8782,26.958],[74.9985,26.9789],[75.0402,26.9256],[75.1423,26.8737],[75.2635,26.8582],[75.3054,26.7869],[75.3555,26.7969],[75.3752,26.8154],[75.3538,26.8691],[75.4039,26.8792],[75.4531,26.9253],[75.4301,27.0512],[75.3593,27.0588],[75.3486,27.0857],[75.4391,27.0965],[75.5181,27.1702],[75.5383,27.1706],[75.6209,27.0819],[75.7419,27.084],[75.7628,27.0483],[75.8232,27.0493],[75.8437,27.0316],[76.0046,27.0521],[76.0657,27.0169],[76.0753,27.0442],[76.1153,27.0628],[76.1147,27.0989],[76.0436,27.125],[75.9435,27.0873],[75.9127,27.1139],[75.9507,27.2409],[75.9493,27.3131],[75.8781,27.339],[75.8267,27.3833],[75.826,27.4194],[75.7234,27.4899],[75.7226,27.526],[75.6409,27.5607],[75.5992,27.6141],[75.5876,27.677],[75.3746,27.682],[75.3854,27.6551],[75.4259,27.6559],[75.4673,27.6206],[75.5281,27.6218],[75.6004,27.5599],[75.6012,27.5238],[75.7039,27.4535],[75.7054,27.3813],[75.7363,27.3547],[75.8072,27.3469],[75.7984,27.2836],[75.7572,27.319],[75.6966,27.3179],[75.6658,27.3445],[75.6642,27.4167],[75.6123,27.4789],[75.5615,27.487],[75.5607,27.5231],[75.5086,27.5853],[75.4276,27.5837],[75.3651,27.6547],[75.2435,27.6522],[75.2039,27.6153],[75.1827,27.6509],[75.1422,27.6501],[75.0483,27.7473],[75.0884,27.7662],[75.0775,27.7931]]]]}},{"type":"Feature","properties":{"cell":108,"feature":1759,"phase":"Developing","min_bt_K":218.0,"area_km2":56956,"cold_core_km2":2964,"speed_kmh":118.7,"heading_deg":36,"d_min_bt_30":2.0,"age_min":210,"family":5,"touches_missing":true,"lon":74.1085,"lat":32.6312,"merges_splits_so_far":24},"geometry":{"type":"MultiPolygon","coordinates":[[[[73.8072,33.8763],[73.764,33.8749],[73.7226,33.8375],[73.6794,33.8361],[73.4691,33.7209],[73.4597,33.6935],[73.4952,33.6315],[73.1473,33.484],[73.1492,33.448],[73.1092,33.3924],[73.1561,33.3219],[73.1253,33.2937],[73.0508,33.2819],[73.0537,33.2279],[73.0986,33.1934],[73.1239,33.1222],[72.9922,32.982],[72.7357,32.9721],[72.7132,32.9893],[72.6737,32.9335],[72.6309,32.9318],[72.5914,32.8761],[72.498,32.8271],[72.5515,32.6489],[72.4962,32.5022],[72.4368,32.4276],[72.4433,32.3196],[72.5282,32.3231],[72.4688,32.2484],[72.4731,32.1764],[72.4329,32.1386],[72.4139,32.1018],[72.4361,32.0846],[72.378,31.992],[72.3802,31.956],[72.4135,31.9303],[72.5192,31.9347],[72.5393,31.9536],[72.7729,31.9449],[72.8816,31.895],[72.9488,31.8254],[73.16,31.8332],[73.2408,31.9083],[73.4522,31.9157],[73.4725,31.9345],[73.6069,31.7766],[73.6568,31.8414],[73.688,31.8514],[73.7108,31.8161],[73.7733,31.8361],[73.8391,31.7841],[73.9032,31.768],[73.9235,31.7867],[74.0525,31.7364],[74.2635,31.7425],[74.2715,31.8059],[74.3021,31.8338],[74.3866,31.8361],[74.3947,31.8995],[74.4663,31.9646],[74.5305,31.9482],[74.5714,31.9854],[74.7637,31.9361],[74.8936,31.849],[74.9226,31.9308],[74.8567,32.0014],[74.9728,32.0132],[75.0449,32.0779],[75.0833,32.2051],[75.1458,32.2425],[75.1436,32.3146],[75.2978,32.4892],[75.3409,32.4721],[75.4457,32.5282],[75.4675,32.5106],[75.5526,32.5122],[75.5748,32.4765],[75.7025,32.4788],[75.7337,32.5064],[75.7328,32.5424],[75.7858,32.5524],[75.8275,32.5891],[75.8914,32.5902],[75.9348,32.5548],[75.9561,32.5551],[75.9766,32.5915],[76.0521,32.5475],[76.0861,32.4488],[76.1585,32.549],[76.1574,32.6031],[76.1358,32.6209],[76.1552,32.7113],[76.25,32.7758],[76.314,32.7766],[76.5081,32.6526],[76.5721,32.6533],[76.5931,32.6716],[76.6147,32.6538],[76.6568,32.6903],[76.7207,32.6909],[76.7423,32.6731],[76.8276,32.6738],[76.8706,32.6381],[76.9776,32.6029],[77.0839,32.6217],[77.0939,32.6849],[77.1685,32.6944],[77.2426,32.758],[77.146,32.8206],[76.9752,32.8194],[76.718,32.8893],[76.6966,32.8891],[76.6757,32.8528],[76.526,32.8693],[76.3317,32.9753],[76.2879,33.0288],[76.2237,33.028],[76.1588,33.0632],[76.1378,33.0449],[76.0736,33.0439],[76.0529,33.0076],[76.0101,33.0069],[76.0086,33.0791],[76.0514,33.0797],[76.1145,33.1347],[76.1573,33.1353],[76.1686,33.1084],[76.2009,33.0998],[76.2311,33.1995],[76.2947,33.2364],[76.1431,33.3065],[76.1849,33.3612],[76.1842,33.3973],[76.1299,33.4236],[76.0873,33.405],[75.9786,33.4575],[75.9576,33.4391],[75.8931,33.4381],[75.8492,33.4735],[75.7417,33.4718],[75.6978,33.5071],[75.4611,33.5028],[75.4191,33.4659],[75.1606,33.4787],[75.0396,33.5573],[75.0273,33.6021],[74.8335,33.5977],[74.767,33.6502],[74.7017,33.6667],[74.5293,33.6623],[74.4639,33.6787],[74.4431,33.6601],[74.3354,33.6572],[74.293,33.6379],[74.2045,33.6896],[74.0992,33.6324],[74.0864,33.6772],[74.0321,33.6846],[73.9977,33.7287],[73.9945,33.8008],[73.9401,33.8082],[73.8072,33.8763]]],[[[75.9487,33.3578],[75.9706,33.3401],[75.8973,33.2578],[75.7261,33.2369],[75.6499,33.2807],[75.8321,33.2928],[75.9162,33.3663],[75.9487,33.3578]]]]}},{"type":"Feature","properties":{"cell":184,"feature":1734,"phase":"Unclassified","min_bt_K":244.3,"area_km2":52,"cold_core_km2":0,"speed_kmh":8.1,"heading_deg":280,"d_min_bt_30":3.0,"age_min":30,"family":184,"touches_missing":false,"lon":75.2529,"lat":27.8133,"merges_splits_so_far":0},"geometry":{"type":"MultiPolygon","coordinates":[[[[75.279,27.8515],[75.1686,27.8041],[75.2403,27.7785],[75.3007,27.7978],[75.3102,27.8251],[75.279,27.8515]]]]}},{"type":"Feature","properties":{"cell":189,"feature":1749,"phase":"Unclassified","min_bt_K":236.3,"area_km2":352,"cold_core_km2":0,"speed_kmh":14.4,"heading_deg":74,"d_min_bt_30":0.0,"age_min":30,"family":189,"touches_missing":false,"lon":83.6065,"lat":33.8618,"merges_splits_so_far":0},"geometry":{"type":"MultiPolygon","coordinates":[[[[83.6246,33.9321],[83.5598,33.9348],[83.5371,33.9177],[83.4734,33.9383],[83.4382,33.8946],[83.4575,33.8578],[83.5303,33.8096],[83.6813,33.8033],[83.7017,33.7844],[83.8257,33.8603],[83.7951,33.8887],[83.7075,33.8744],[83.6883,33.9113],[83.6246,33.9321]]]]}},{"type":"Feature","properties":{"cell":192,"feature":1751,"phase":"Unclassified","min_bt_K":233.3,"area_km2":4408,"cold_core_km2":0,"speed_kmh":105.2,"heading_deg":92,"d_min_bt_30":1.7,"age_min":30,"family":192,"touches_missing":true,"lon":73.9775,"lat":28.5,"merges_splits_so_far":0},"geometry":{"type":"MultiPolygon","coordinates":[[[[74.2044,28.926],[74.1329,28.9149],[74.1336,28.8968],[74.1753,28.88],[74.1673,28.8166],[74.1356,28.8428],[74.1343,28.8788],[74.0933,28.8776],[74.0946,28.8415],[74.0543,28.8223],[74.0676,28.7415],[73.9229,28.7732],[73.9039,28.7365],[73.7818,28.7146],[73.7628,28.6779],[73.6536,28.5931],[73.6559,28.539],[73.6067,28.4923],[73.5658,28.4909],[73.547,28.4542],[73.4759,28.4427],[73.4594,28.3519],[73.5311,28.3454],[73.5629,28.3193],[73.5334,28.2913],[73.4927,28.2899],[73.4601,28.3339],[73.4292,28.3419],[73.4005,28.2957],[73.4029,28.2417],[73.3524,28.2309],[73.3434,28.2035],[73.4761,28.1991],[73.5184,28.1644],[73.6202,28.1678],[73.6594,28.2052],[73.7205,28.2072],[73.7697,28.2539],[73.778,28.2993],[73.8983,28.3573],[74.0601,28.3983],[74.12,28.4362],[74.2036,28.3845],[74.2648,28.3862],[74.3069,28.3513],[74.3476,28.3525],[74.3872,28.3896],[74.509,28.411],[74.558,28.4754],[74.5463,28.5203],[74.4874,28.4465],[74.4769,28.4552],[74.4955,28.5099],[74.5358,28.529],[74.5123,28.6186],[74.5749,28.5842],[74.5562,28.5295],[74.5871,28.5213],[74.6169,28.5492],[74.6152,28.6033],[74.5941,28.6208],[74.6134,28.6574],[74.5193,28.7181],[74.4392,28.6618],[74.3574,28.6596],[74.273,28.7294],[74.2321,28.7282],[74.2176,28.8451],[74.2361,28.8998],[74.2044,28.926]]]]}},{"type":"Feature","properties":{"cell":193,"feature":1753,"phase":"Developing","min_bt_K":225.6,"area_km2":2384,"cold_core_km2":0,"speed_kmh":40.9,"heading_deg":105,"d_min_bt_30":-3.4,"age_min":30,"family":5,"touches_missing":false,"lon":74.3868,"lat":33.8474,"merges_splits_so_far":0},"geometry":{"type":"MultiPolygon","coordinates":[[[[74.0175,34.009],[73.9958,34.0084],[73.9863,33.981],[74.076,33.9115],[74.0776,33.8754],[74.0136,33.8555],[73.9937,33.8188],[73.9977,33.7287],[74.0321,33.6846],[74.0864,33.6772],[74.0992,33.6324],[74.2045,33.6896],[74.293,33.6379],[74.3354,33.6572],[74.4431,33.6601],[74.4639,33.6787],[74.7343,33.6585],[74.727,33.8568],[74.6385,33.9087],[74.6378,33.9268],[74.7223,33.983],[74.7111,33.9917],[74.6672,34.0087],[74.0399,33.9916],[74.0175,34.009]]]]}},{"type":"Feature","properties":{"cell":194,"feature":1755,"phase":"Unclassified","min_bt_K":215.9,"area_km2":15356,"cold_core_km2":148,"speed_kmh":19.0,"heading_deg":247,"d_min_bt_30":2.2,"age_min":30,"family":5,"touches_missing":true,"lon":73.0967,"lat":29.27,"merges_splits_so_far":3},"geometry":{"type":"MultiPolygon","coordinates":[[[[73.644,30.0275],[73.5727,29.9981],[73.595,29.9627],[73.5651,29.9347],[73.3588,29.9096],[73.3191,29.8721],[73.2777,29.8706],[73.2191,29.7963],[73.1561,29.8121],[73.0743,29.791],[73.0527,29.8082],[73.0437,29.7808],[72.9835,29.7425],[72.9565,29.6602],[72.8739,29.657],[72.8542,29.6382],[72.6881,29.6497],[72.6496,29.594],[72.5877,29.5915],[72.5661,29.6086],[72.5277,29.5529],[72.3843,29.5289],[72.3255,29.4722],[72.2842,29.4704],[72.3187,29.4087],[72.3021,29.3358],[72.3463,29.2836],[72.3395,29.2201],[72.2572,29.2166],[72.2387,29.1797],[72.1976,29.1779],[72.1436,29.2206],[72.1189,29.2917],[72.067,29.2984],[72.0443,29.3335],[72.0031,29.3316],[72.0102,29.0341],[71.9928,28.9792],[72.1688,28.96],[72.2488,28.9996],[72.2565,29.0451],[72.3054,29.0923],[72.3836,28.9783],[72.3876,28.9063],[72.368,28.8874],[72.4003,28.8617],[72.4841,28.8292],[72.6061,28.8522],[72.6383,28.8265],[72.6518,28.7639],[72.7755,28.7508],[72.8183,28.7164],[72.8797,28.7188],[72.9223,28.6843],[73.1883,28.6943],[73.208,28.713],[73.3504,28.7362],[73.4102,28.7744],[73.5126,28.7779],[73.7137,28.8748],[73.7554,28.8581],[73.8048,28.9048],[73.7799,29.0123],[73.675,29.0631],[73.6727,29.1171],[73.6301,29.1518],[73.627,29.2239],[73.7033,29.3708],[73.6819,29.3881],[73.6796,29.4422],[73.7583,29.535],[73.7706,29.7339],[73.7905,29.7526],[73.7591,29.7606],[73.7209,29.6872],[73.7078,29.7499],[73.6649,29.7846],[73.6848,29.8033],[73.6526,29.8293],[73.6113,29.8279],[73.5782,29.872],[73.5866,29.9174],[73.6901,29.9208],[73.74,29.9675],[73.644,30.0275]]]]}},{"type":"Feature","properties":{"cell":198,"feature":1752,"phase":"Unclassified","min_bt_K":222.1,"area_km2":940,"cold_core_km2":0,"speed_kmh":null,"heading_deg":null,"d_min_bt_30":null,"age_min":0,"family":198,"touches_missing":true,"lon":72.155,"lat":33.1958,"merges_splits_so_far":0},"geometry":{"type":"MultiPolygon","coordinates":[[[[72.4085,33.41],[72.3011,33.4055],[72.2819,33.3685],[72.2073,33.3563],[72.2007,33.2928],[72.0505,33.2862],[71.9999,33.2389],[72.0095,33.0949],[71.9893,33.0759],[72.0102,32.9234],[72.0392,32.9699],[72.0357,33.0239],[72.1053,33.1082],[72.1267,33.1091],[72.1504,33.0741],[72.3092,33.108],[72.3047,33.18],[72.3655,33.2367],[72.361,33.3087],[72.4209,33.3834],[72.4085,33.41]]]]}},{"type":"Feature","properties":{"cell":201,"feature":1757,"phase":"Unclassified","min_bt_K":219.0,"area_km2":30432,"cold_core_km2":280,"speed_kmh":null,"heading_deg":null,"d_min_bt_30":null,"age_min":0,"family":5,"touches_missing":true,"lon":74.5598,"lat":31.5716,"merges_splits_so_far":3},"geometry":{"type":"MultiPolygon","coordinates":[[[[75.4457,32.5282],[75.3409,32.4721],[75.2978,32.4892],[75.1436,32.3146],[75.1458,32.2425],[75.0833,32.2051],[75.0449,32.0779],[74.9728,32.0132],[74.8567,32.0014],[74.9226,31.9308],[74.8936,31.849],[74.7637,31.9361],[74.5714,31.9854],[74.5305,31.9482],[74.4663,31.9646],[74.3947,31.8995],[74.3866,31.8361],[74.3021,31.8338],[74.2715,31.8059],[74.2635,31.7425],[74.0525,31.7364],[73.9235,31.7867],[73.9032,31.768],[73.8391,31.7841],[73.7733,31.8361],[73.7108,31.8161],[73.688,31.8514],[73.6669,31.8507],[73.6069,31.7766],[73.4725,31.9345],[73.4522,31.9157],[73.2408,31.9083],[73.16,31.8332],[72.9488,31.8254],[72.9446,31.7079],[72.9777,31.6821],[73.0198,31.6837],[73.0868,31.614],[73.107,31.6328],[73.15,31.6163],[73.2132,31.6186],[73.2334,31.6374],[73.2792,31.5669],[73.4266,31.572],[73.5024,31.5295],[73.5084,31.4034],[73.4891,31.3667],[73.4387,31.3198],[73.3866,31.309],[73.3935,31.1649],[73.4699,31.1044],[73.5537,31.1072],[73.5755,31.0899],[73.6384,31.092],[73.6819,31.0573],[73.7657,31.06],[73.81,31.0073],[73.8736,30.9912],[73.889,30.8744],[73.9741,30.8409],[73.9872,30.7782],[74.0707,30.7807],[74.0909,30.7993],[74.217,30.7849],[74.2567,30.8402],[74.2985,30.8414],[74.3383,30.8966],[74.4422,30.9175],[74.482,30.9727],[74.5036,30.9552],[75.0274,30.9499],[75.0671,31.023],[75.1084,31.0419],[75.1509,31.0248],[75.253,31.1172],[75.4007,31.0841],[75.4422,31.1029],[75.4846,31.0857],[75.5894,31.0876],[75.5987,31.1329],[75.6916,31.1977],[75.8397,31.1461],[75.9228,31.1835],[76.0486,31.1854],[76.1119,31.1682],[76.1336,31.1325],[76.1755,31.1331],[76.2471,31.2332],[76.2251,31.2871],[76.2978,31.3331],[76.3286,31.3786],[76.1793,31.4849],[76.168,31.5298],[76.0627,31.5284],[75.9237,31.6255],[75.9217,31.7156],[75.8998,31.7514],[75.9304,31.797],[75.9938,31.7979],[76.0145,31.8163],[76.1627,31.8004],[76.1727,31.8276],[76.1298,31.8631],[76.1291,31.8991],[76.076,31.9074],[76.0649,31.9343],[76.0222,31.9517],[75.9672,32.0501],[75.8813,32.1029],[75.8389,32.1022],[75.7957,32.1376],[75.7425,32.1457],[75.7416,32.1818],[75.7936,32.2277],[75.8464,32.2376],[75.9292,32.3292],[75.9284,32.3652],[75.8313,32.4268],[75.7888,32.4261],[75.7446,32.4975],[75.7025,32.4788],[75.5748,32.4765],[75.5526,32.5122],[75.4675,32.5106],[75.4457,32.5282]]]]}}]}