{"type":"FeatureCollection","features":[{"type":"Feature","properties":{"cell":82,"feature":1821,"phase":"Decaying","min_bt_K":236.0,"area_km2":8472,"cold_core_km2":0,"speed_kmh":47.1,"heading_deg":70,"d_min_bt_30":4.7,"age_min":300,"family":53,"touches_missing":true,"lon":75.2523,"lat":27.4463,"merges_splits_so_far":12},"geometry":{"type":"MultiPolygon","coordinates":[[[[74.9715,27.9531],[74.9511,27.9527],[74.9319,27.9161],[74.749,27.9117],[74.6991,27.8834],[74.7414,27.8303],[74.7654,27.7045],[74.8892,27.6353],[74.8092,27.5973],[74.871,27.5627],[74.872,27.5266],[75.0137,27.5299],[74.9985,27.349],[74.9187,27.311],[74.9394,27.2935],[74.9404,27.2574],[74.9015,27.2023],[74.9247,27.0945],[75.0172,27.0335],[75.2191,27.0198],[75.2706,26.9758],[75.2321,26.9027],[75.2943,26.8318],[75.3054,26.7869],[75.4248,26.8435],[75.4659,26.8081],[75.6267,26.8111],[75.6563,26.8388],[75.6647,26.9202],[75.7858,26.9042],[75.8345,26.9863],[75.7434,27.0118],[75.6841,26.9566],[75.6434,26.9739],[75.5427,26.9721],[75.5119,26.9986],[75.5107,27.0528],[75.549,27.1437],[75.5984,27.1898],[75.7195,27.192],[75.7426,27.0479],[75.7921,27.0939],[75.8108,27.1664],[75.8706,27.2035],[75.7987,27.2655],[75.7584,27.2648],[75.7389,27.2284],[75.7283,27.2553],[75.7778,27.3013],[75.8281,27.3111],[75.8271,27.3653],[75.8671,27.384],[75.8664,27.4201],[75.9168,27.4299],[75.9781,27.3948],[76.1402,27.3791],[76.1492,27.4424],[76.1181,27.4871],[76.0169,27.4856],[75.8337,27.5369],[75.8028,27.5635],[75.8216,27.636],[75.7494,27.698],[75.6985,27.7061],[75.7184,27.7245],[75.6977,27.7422],[75.7176,27.7606],[75.7065,27.8055],[75.6154,27.7949],[75.6369,27.7411],[75.6286,27.6597],[75.598,27.6682],[75.5971,27.7043],[75.5661,27.7308],[75.5256,27.73],[75.5061,27.6936],[75.4647,27.7289],[75.4242,27.7281],[75.4147,27.7008],[75.3845,27.6912],[75.3737,27.7181],[75.3228,27.7261],[75.3016,27.7617],[75.2313,27.7332],[75.1478,27.8217],[75.1676,27.8402],[75.1558,27.9031],[75.0953,27.8837],[75.0339,27.9004],[74.9715,27.9531]]],[[[75.4099,27.0508],[75.4107,27.0147],[75.4519,26.9794],[75.4527,26.9433],[75.4942,26.8899],[75.555,26.873],[75.5254,26.8454],[75.4236,26.8976],[75.4124,26.9425],[75.3713,26.9778],[75.3696,27.05],[75.4099,27.0508]]],[[[75.7841,27.4909],[75.8061,27.401],[75.7558,27.3912],[75.7443,27.4542],[75.7031,27.4896],[75.7841,27.4909]]]]}},{"type":"Feature","properties":{"cell":108,"feature":1857,"phase":"Mature","min_bt_K":220.3,"area_km2":61560,"cold_core_km2":60,"speed_kmh":53.3,"heading_deg":74,"d_min_bt_30":2.3,"age_min":240,"family":5,"touches_missing":true,"lon":74.3816,"lat":32.6976,"merges_splits_so_far":26},"geometry":{"type":"MultiPolygon","coordinates":[[[[74.6672,34.0087],[74.4076,34.002],[74.3867,33.9834],[74.3002,33.981],[74.1944,33.9239],[74.1296,33.9221],[74.0888,33.8667],[73.9376,33.8622],[73.8443,33.7782],[73.846,33.7421],[73.783,33.7041],[73.789,33.5779],[73.758,33.5499],[73.6934,33.5478],[73.6419,33.501],[73.6669,33.4296],[73.7116,33.395],[73.6712,33.3396],[73.5983,33.2921],[73.5581,33.2366],[73.4303,33.2142],[73.3902,33.1587],[73.3055,33.1377],[73.2338,33.072],[73.2367,33.018],[73.1958,32.9804],[73.2006,32.8904],[73.1588,32.8708],[73.1219,32.7612],[73.0599,32.7228],[73.0222,32.6312],[73.0464,32.5779],[73.0368,32.361],[72.975,32.3226],[72.9779,32.2686],[72.8951,32.2294],[72.898,32.1753],[72.8355,32.1549],[72.8203,32.046],[72.7467,32.0341],[72.6169,31.8936],[72.6453,31.7684],[72.6674,31.7512],[72.6534,31.6244],[72.6976,31.59],[72.6785,31.5532],[72.7247,31.4828],[72.7056,31.446],[72.7837,31.3679],[72.9098,31.3728],[72.9499,31.4104],[73.0751,31.4331],[73.1556,31.5083],[73.2178,31.5286],[73.2397,31.5113],[73.3029,31.5136],[73.323,31.5323],[73.4073,31.5353],[73.4476,31.5727],[73.5108,31.5749],[73.531,31.5936],[73.6996,31.5992],[73.7486,31.682],[73.7429,31.8081],[73.7811,31.8995],[73.8335,31.9102],[73.9345,32.0216],[74.0403,32.0248],[74.0796,32.0981],[74.1016,32.0807],[74.2498,32.085],[74.2702,32.1036],[74.355,32.1059],[74.4164,32.1617],[74.48,32.1634],[74.5019,32.146],[74.7562,32.1524],[74.7768,32.1709],[74.947,32.1569],[75.0226,32.1135],[75.0237,32.0775],[75.1243,31.9083],[75.2067,31.9822],[75.249,31.9831],[75.3104,32.0565],[75.3528,32.0573],[75.436,32.1131],[75.5419,32.1151],[75.573,32.1427],[75.5489,32.2505],[75.6433,32.2973],[75.6857,32.2981],[75.7481,32.3533],[75.8543,32.355],[75.8643,32.3823],[75.8214,32.3996],[75.8205,32.4357],[75.8518,32.4632],[75.8943,32.4639],[75.9573,32.501],[76.1495,32.4677],[76.1697,32.5221],[76.2335,32.523],[76.3278,32.6054],[76.3787,32.7413],[76.485,32.7606],[76.559,32.8065],[76.5587,32.8245],[76.4941,32.8599],[76.4932,32.914],[76.4498,32.9496],[76.46,32.9768],[76.5134,32.9864],[76.5128,33.0225],[76.4585,33.067],[76.3943,33.0662],[76.3403,33.0926],[76.3396,33.1287],[76.3924,33.1745],[76.4039,33.1295],[76.4793,33.1033],[76.523,33.0497],[76.6514,33.051],[76.6731,33.0332],[76.758,33.0881],[76.8865,33.0893],[77.0033,33.1714],[77.0029,33.2075],[76.9165,33.2609],[76.9161,33.297],[76.7967,33.3952],[76.7322,33.3946],[76.7102,33.4305],[76.6028,33.4294],[76.5595,33.447],[76.5156,33.5006],[76.4729,33.4821],[76.2578,33.4795],[76.1926,33.5147],[76.1065,33.5135],[76.0643,33.4768],[75.9567,33.4752],[75.8791,33.5732],[75.8774,33.6454],[75.8229,33.6716],[75.5652,33.6311],[75.5016,33.5938],[75.4586,33.593],[75.4381,33.5565],[75.352,33.5548],[75.2863,33.5896],[75.2002,33.5878],[75.167,33.6142],[75.1432,33.6859],[75.1746,33.7136],[75.2609,33.7154],[75.2819,33.7339],[75.3681,33.7356],[75.478,33.6655],[75.6064,33.704],[75.9293,33.7274],[75.9611,33.7549],[75.9171,33.7904],[75.9162,33.8264],[75.8717,33.8799],[75.8171,33.906],[75.6658,33.9035],[75.5563,33.9557],[75.5663,33.9829],[75.5115,34.009],[74.6895,33.9912],[74.6672,34.0087]]],[[[75.9908,33.3945],[76.0666,33.3686],[76.1092,33.3872],[76.2381,33.389],[76.2712,33.3443],[76.1969,33.2982],[76.1322,33.3154],[76.09,33.2787],[75.9608,33.2949],[75.8847,33.3388],[75.8948,33.366],[75.9908,33.3945]]],[[[75.7724,33.5354],[75.7733,33.4994],[75.7412,33.4898],[75.7298,33.5167],[75.7724,33.5354]]],[[[74.6731,33.5667],[74.664,33.5214],[74.621,33.5203],[74.5876,33.5465],[74.5974,33.5739],[74.6731,33.5667]]]]}},{"type":"Feature","properties":{"cell":192,"feature":1823,"phase":"Unclassified","min_bt_K":236.0,"area_km2":3888,"cold_core_km2":0,"speed_kmh":87.6,"heading_deg":65,"d_min_bt_30":2.7,"age_min":60,"family":192,"touches_missing":true,"lon":74.3828,"lat":28.6676,"merges_splits_so_far":0},"geometry":{"type":"MultiPolygon","coordinates":[[[[74.4287,28.9683],[74.3261,28.9655],[74.3082,28.8928],[74.2672,28.8917],[74.1673,28.8166],[74.1264,28.8154],[74.0967,28.7875],[74.0987,28.7334],[74.0591,28.6961],[74.0605,28.66],[74.0104,28.6315],[73.9814,28.5855],[73.9948,28.5047],[74.0949,28.5618],[74.1094,28.4449],[74.1601,28.4554],[74.245,28.3676],[74.2759,28.3595],[74.218,28.2676],[74.2291,28.2408],[74.331,28.2437],[74.4502,28.3372],[74.4811,28.329],[74.4928,28.2842],[74.5312,28.3574],[74.6117,28.3956],[74.6938,28.3796],[74.7324,28.4528],[74.7937,28.4543],[74.8837,28.5196],[74.8726,28.5464],[74.8423,28.5367],[74.8301,28.5996],[74.7483,28.5976],[74.6759,28.6229],[74.6736,28.695],[74.6935,28.7135],[74.6702,28.8032],[74.71,28.8403],[74.6884,28.8758],[74.6356,28.9196],[74.5741,28.918],[74.553,28.9355],[74.512,28.9345],[74.5027,28.9071],[74.4722,28.8973],[74.4287,28.9683]]],[[[74.4714,28.6175],[74.4925,28.6001],[74.4832,28.5727],[74.4522,28.5809],[74.451,28.617],[74.4714,28.6175]]],[[[74.6064,28.8737],[74.6081,28.8197],[74.6497,28.8027],[74.6509,28.7666],[74.5807,28.7197],[74.5701,28.7284],[74.6105,28.7475],[74.6087,28.8016],[74.566,28.8547],[74.6064,28.8737]]]]}},{"type":"Feature","properties":{"cell":194,"feature":1854,"phase":"Unclassified","min_bt_K":214.5,"area_km2":12788,"cold_core_km2":352,"speed_kmh":74.8,"heading_deg":82,"d_min_bt_30":-1.5,"age_min":60,"family":5,"touches_missing":true,"lon":73.4783,"lat":29.3146,"merges_splits_so_far":5},"geometry":{"type":"MultiPolygon","coordinates":[[[[74.1672,29.9174],[74.0843,29.915],[74.0651,29.8783],[73.8174,29.8527],[73.7561,29.8327],[73.717,29.7773],[73.6558,29.7572],[73.6343,29.7746],[73.2828,29.7625],[73.2225,29.7242],[73.0994,29.7017],[73.1232,29.4228],[73.1875,29.3711],[73.1678,29.3523],[73.1969,29.1729],[73.1048,29.1605],[73.0958,29.1331],[73.0064,29.0665],[72.9243,29.0634],[72.7833,29.0038],[72.7422,29.0021],[72.634,29.1061],[72.5714,29.1216],[72.5478,28.9852],[72.6648,28.9088],[72.7049,28.9284],[72.7603,28.8494],[72.8556,28.79],[72.9375,28.7932],[73.0007,28.7595],[73.2661,28.7873],[73.2784,28.7427],[73.1892,28.6763],[73.19,28.6582],[73.3733,28.6828],[73.4028,28.711],[73.3512,28.7182],[73.3193,28.7441],[73.3283,28.7715],[73.4331,28.721],[73.452,28.7578],[73.5339,28.7606],[73.6537,28.8368],[73.7152,28.8388],[73.7986,28.8054],[73.8989,28.8627],[73.9399,28.8639],[73.9873,28.9647],[74.0765,29.0486],[74.1176,29.0498],[74.2282,29.1161],[74.2474,29.1528],[74.2428,29.279],[74.1379,29.3301],[74.1351,29.4022],[74.1863,29.4127],[74.3373,29.5162],[74.3334,29.6244],[74.1881,29.6383],[74.1861,29.6924],[74.2774,29.7401],[74.2861,29.7855],[74.202,29.8192],[74.1672,29.9174]]],[[[74.1385,29.8534],[74.0579,29.7969],[73.9987,29.7229],[74.013,29.6241],[74.0016,29.6509],[73.9595,29.6676],[73.9574,29.7217],[73.988,29.7316],[74.1072,29.8615],[74.1385,29.8534]]]]}},{"type":"Feature","properties":{"cell":198,"feature":1853,"phase":"Developing","min_bt_K":222.0,"area_km2":5380,"cold_core_km2":0,"speed_kmh":19.1,"heading_deg":119,"d_min_bt_30":-0.1,"age_min":30,"family":198,"touches_missing":true,"lon":72.2446,"lat":33.1539,"merges_splits_so_far":0},"geometry":{"type":"MultiPolygon","coordinates":[[[[72.2156,33.7267],[72.1078,33.722],[72.0671,33.6841],[71.9923,33.6717],[72.0096,32.77],[71.9894,32.751],[72.0095,32.4451],[71.9894,32.4262],[72.01,32.2737],[72.04,32.3021],[72.0331,32.4101],[72.0744,32.43],[72.0709,32.484],[72.0922,32.4849],[72.0957,32.4309],[72.0555,32.393],[72.069,32.3485],[72.1404,32.3968],[72.1571,32.4697],[72.2992,32.5842],[72.2959,32.6382],[72.2735,32.6553],[72.2936,32.6742],[72.2903,32.7282],[72.3498,32.8029],[72.3475,32.8389],[72.4093,32.8776],[72.3869,32.8947],[72.3835,32.9487],[72.4353,32.978],[72.531,32.9909],[72.5085,33.0081],[72.5277,33.0449],[72.5008,33.1341],[72.458,33.1323],[72.4511,33.0689],[72.4366,33.1314],[72.4964,33.2061],[72.5382,33.2259],[72.5349,33.2799],[72.5665,33.2902],[72.5858,33.3271],[72.6094,33.2919],[72.6738,33.2945],[72.7339,33.3691],[72.7779,33.3528],[72.8177,33.4084],[72.8811,33.4289],[72.9108,33.4752],[72.9087,33.5112],[72.8421,33.5448],[72.8051,33.6245],[72.7857,33.5877],[72.6587,33.5466],[72.6394,33.5097],[72.5748,33.5071],[72.5555,33.4702],[72.4062,33.446],[72.387,33.4091],[72.3214,33.4244],[72.3011,33.4055],[72.2421,33.4842],[72.2398,33.5202],[72.1048,33.6045],[72.1545,33.6699],[72.1987,33.6538],[72.2293,33.6822],[72.2156,33.7267]]],[[[72.1301,32.5588],[72.1235,32.4953],[72.1088,32.5578],[72.1301,32.5588]]],[[[72.1946,32.8865],[72.2419,32.8163],[72.2499,32.6903],[72.2185,32.68],[72.2095,32.6525],[72.2544,32.6183],[72.1827,32.5701],[72.2107,32.6345],[72.1669,32.6506],[72.2073,32.6885],[72.2004,32.7965],[72.2206,32.8154],[72.1768,32.8316],[72.1733,32.8855],[72.1946,32.8865]]],[[[72.4196,33.0585],[72.4229,33.0045],[72.3712,32.9753],[72.37,32.9933],[72.4016,33.0036],[72.3982,33.0576],[72.4196,33.0585]]]]}},{"type":"Feature","properties":{"cell":201,"feature":1856,"phase":"Unclassified","min_bt_K":220.0,"area_km2":38528,"cold_core_km2":60,"speed_kmh":20.1,"heading_deg":181,"d_min_bt_30":1.0,"age_min":30,"family":5,"touches_missing":true,"lon":74.5576,"lat":31.4808,"merges_splits_so_far":5},"geometry":{"type":"MultiPolygon","coordinates":[[[[76.069,32.2501],[76.0265,32.2494],[76.0065,32.195],[75.7343,32.0463],[75.6496,32.0449],[75.5626,32.1335],[75.5419,32.1151],[75.436,32.1131],[75.3528,32.0573],[75.3104,32.0565],[75.249,31.9831],[75.2067,31.9822],[75.1243,31.9083],[75.0237,32.0775],[75.0226,32.1135],[74.947,32.1569],[74.8622,32.1549],[74.8404,32.1725],[74.7768,32.1709],[74.7562,32.1524],[74.5019,32.146],[74.48,32.1634],[74.4164,32.1617],[74.355,32.1059],[74.2702,32.1036],[74.2498,32.085],[74.1016,32.0807],[74.0796,32.0981],[74.0403,32.0248],[73.9345,32.0216],[73.8335,31.9102],[73.7811,31.8995],[73.7429,31.8081],[73.7486,31.682],[73.6996,31.5992],[73.531,31.5936],[73.5108,31.5749],[73.4476,31.5727],[73.4073,31.5353],[73.323,31.5323],[73.3029,31.5136],[73.2397,31.5113],[73.2178,31.5286],[73.1556,31.5083],[73.0751,31.4331],[72.9499,31.4104],[72.9098,31.3728],[72.7837,31.3679],[72.7046,31.2745],[72.6526,31.2634],[72.6557,31.2094],[72.7525,31.1682],[72.8574,31.1723],[72.9222,31.1387],[72.9451,31.1034],[72.987,31.105],[73.0945,31.0549],[73.171,30.9946],[73.1955,30.9233],[73.2483,30.9162],[73.26,30.8895],[73.368,30.8212],[73.3698,30.7851],[73.4015,30.7772],[73.4458,30.7246],[73.5293,30.7274],[73.5727,30.6928],[73.657,30.6776],[73.6686,30.6509],[73.7436,30.6082],[73.9104,30.6135],[73.932,30.5961],[74.0154,30.5986],[74.0348,30.6353],[74.0773,30.6185],[74.0866,30.6458],[74.1384,30.6564],[74.1579,30.693],[74.3646,30.753],[74.657,30.7607],[74.664,30.8601],[74.7369,30.8709],[74.7775,30.908],[74.9454,30.8939],[75.0065,30.9495],[75.3209,30.9381],[75.4422,31.1029],[75.5051,31.1041],[75.588,31.1417],[75.6304,31.1244],[75.6509,31.1429],[75.882,31.1287],[75.9857,31.1844],[76.1326,31.1866],[76.3017,31.1167],[76.3445,31.0631],[76.4493,31.0644],[76.5944,31.1742],[76.6884,31.2023],[76.6672,31.2201],[76.6664,31.2742],[76.6141,31.2646],[76.508,31.3357],[76.4864,31.3715],[76.4443,31.371],[76.4017,31.4066],[76.3596,31.4061],[76.2428,31.4677],[76.2629,31.5221],[76.3361,31.5501],[76.3669,31.5956],[76.3443,31.6855],[76.2589,31.7385],[76.2793,31.7749],[76.2569,31.8468],[76.225,31.8553],[76.128,31.9532],[76.1473,32.0437],[76.1893,32.0623],[76.1879,32.1345],[76.2196,32.1439],[76.2505,32.1894],[76.1549,32.1972],[76.069,32.2501]]]]}}]}