{"type":"FeatureCollection","features":[{"type":"Feature","properties":{"cell":108,"feature":1941,"phase":"Mature","min_bt_K":223.0,"area_km2":96816,"cold_core_km2":0,"speed_kmh":108.8,"heading_deg":145,"d_min_bt_30":2.7,"age_min":270,"family":5,"touches_missing":true,"lon":74.715,"lat":32.2966,"merges_splits_so_far":29},"geometry":{"type":"MultiPolygon","coordinates":[[[[75.5115,34.009],[75.0788,34.0003],[75.0368,33.9632],[75.0152,33.9628],[74.9923,33.9983],[74.7111,33.9917],[74.6685,33.9726],[74.6065,33.8989],[74.5633,33.8978],[74.5535,33.8705],[74.438,33.7862],[74.3093,33.7647],[74.1231,33.579],[74.0593,33.5591],[74.0497,33.5317],[74.0943,33.497],[73.9797,33.4123],[73.8843,33.3824],[73.7828,33.2529],[73.7862,33.1808],[73.7459,33.1254],[73.7476,33.0894],[73.6654,33.0145],[73.6261,32.9411],[73.5433,32.8842],[73.5664,32.8489],[73.5264,32.7934],[73.5486,32.7761],[73.5512,32.7221],[73.45,32.6104],[73.4527,32.5563],[73.3739,32.4273],[73.3987,32.356],[73.3396,32.2637],[73.3653,32.1744],[73.1507,32.0134],[73.1084,32.0118],[73.0781,31.9836],[73.0809,31.9296],[73.0405,31.892],[73.0434,31.838],[72.982,31.7996],[72.9034,31.6883],[72.822,31.631],[72.8891,31.5615],[72.8308,31.469],[72.8538,31.4338],[72.9408,31.383],[72.9026,31.3093],[72.9036,31.2913],[72.9465,31.2749],[72.9074,31.2193],[72.9804,31.2311],[73.2202,31.0595],[73.4079,31.0842],[73.568,31.0265],[73.5085,30.9523],[73.5102,30.9163],[73.5838,30.9097],[73.6248,30.9291],[73.6574,30.9031],[73.6272,30.8751],[73.5227,30.8716],[73.4165,30.904],[73.3655,30.8752],[73.4081,30.8586],[73.4316,30.8053],[73.4851,30.7801],[73.5469,30.8002],[73.6112,30.7663],[73.6739,30.7683],[73.6815,30.8317],[73.7125,30.8418],[73.8518,30.765],[73.8433,30.7196],[73.7907,30.727],[73.7938,30.6549],[73.8255,30.6469],[73.9019,30.5681],[73.9034,30.532],[73.864,30.4767],[73.8979,30.4146],[74.0235,30.4004],[74.0737,30.447],[74.0723,30.483],[74.1642,30.5308],[74.2139,30.5954],[74.1902,30.6669],[74.2205,30.6948],[74.304,30.6972],[74.538,30.5772],[74.5993,30.6149],[74.6214,30.5794],[74.9539,30.6235],[74.9624,30.6868],[75.0143,30.697],[75.0651,30.7433],[75.0109,30.8052],[74.9584,30.8131],[74.9669,30.8764],[75.0087,30.8773],[75.1111,30.9518],[75.131,30.9883],[75.2765,31.0274],[75.3813,31.0296],[75.4431,31.0668],[75.5894,31.0876],[75.6509,31.1429],[75.7985,31.1093],[75.8191,31.1277],[75.882,31.1287],[75.8919,31.1559],[75.9231,31.1654],[75.9445,31.1477],[76.2178,31.1156],[76.3448,31.0451],[76.4074,31.0639],[76.4694,31.1187],[76.5323,31.1194],[76.6465,31.2018],[76.562,31.237],[76.5816,31.3274],[76.5178,31.3809],[76.495,31.4889],[76.6624,31.5628],[76.5981,31.6343],[76.5973,31.6884],[76.5329,31.7599],[76.5321,31.814],[76.4893,31.8496],[76.4887,31.8857],[76.4455,31.9393],[76.3815,31.9746],[76.4542,32.0567],[76.5279,32.0845],[76.5052,32.1745],[76.41,32.1644],[76.3474,32.1095],[76.0935,32.0881],[76.0173,32.1862],[76.0894,32.2864],[76.1635,32.2965],[76.1628,32.3326],[76.0868,32.4127],[75.9384,32.3924],[75.906,32.419],[75.9051,32.4551],[75.8518,32.4632],[75.8405,32.4901],[75.8931,32.518],[75.9152,32.4823],[75.9577,32.4829],[75.9669,32.5462],[76.0196,32.5741],[76.1686,32.5762],[76.1903,32.5585],[76.3603,32.5787],[76.4445,32.6338],[76.5073,32.7067],[76.5923,32.7257],[76.6974,32.835],[76.7506,32.8445],[76.7499,32.8986],[76.7069,32.9163],[76.7383,32.9617],[76.9092,32.9812],[76.9943,33.018],[77.0043,33.0812],[77.0466,33.1356],[77.0035,33.1533],[76.9921,33.2164],[76.8201,33.2511],[76.7767,33.2868],[76.734,33.2683],[76.6797,33.3129],[76.6792,33.349],[76.7219,33.3674],[76.7102,33.4305],[76.603,33.4114],[76.5162,33.4646],[76.4302,33.4636],[76.3435,33.4986],[76.3322,33.5255],[76.3746,33.5621],[76.3415,33.6068],[76.244,33.6327],[76.2635,33.7412],[76.2306,33.7678],[76.2093,33.7495],[76.1446,33.7486],[76.1019,33.73],[76.0599,33.6752],[75.8035,33.581],[75.8026,33.6171],[75.931,33.6553],[75.9619,33.7189],[76.0474,33.7562],[75.981,33.8274],[76.065,33.9369],[75.9446,33.9983],[75.5336,33.9914],[75.5115,34.009]]]]}},{"type":"Feature","properties":{"cell":194,"feature":1946,"phase":"Unclassified","min_bt_K":218.2,"area_km2":11448,"cold_core_km2":116,"speed_kmh":29.2,"heading_deg":42,"d_min_bt_30":3.7,"age_min":90,"family":5,"touches_missing":true,"lon":73.58,"lat":29.4119,"merges_splits_so_far":8},"geometry":{"type":"MultiPolygon","coordinates":[[[[72.9195,29.9836],[72.9114,29.9382],[72.7918,29.8433],[72.804,29.6092],[72.7842,29.5904],[72.8067,29.5552],[72.7476,29.4987],[72.7495,29.4627],[72.6502,29.3865],[72.6727,29.3513],[72.6334,29.3136],[72.6353,29.2776],[72.7517,29.2191],[72.8385,29.1323],[72.8796,29.1339],[72.902,29.0986],[73.0047,29.1026],[73.0466,29.0861],[73.0539,29.1495],[73.0941,29.1691],[73.1112,29.2419],[73.1416,29.2521],[73.1802,29.3076],[73.2831,29.3113],[73.3424,29.3676],[73.4446,29.3892],[73.4668,29.3539],[73.5187,29.3466],[73.5859,29.2226],[73.596,28.9883],[73.536,28.9502],[73.5399,28.8601],[73.5915,28.8528],[73.855,28.9335],[73.8939,28.9889],[73.9356,28.9721],[73.9753,29.0094],[74.0368,29.0113],[74.1176,29.0498],[74.197,29.1243],[74.2792,29.1266],[74.2879,29.172],[74.2667,29.1894],[74.3171,29.2179],[74.5627,29.2606],[74.6126,29.307],[74.5984,29.424],[74.5566,29.4409],[74.4848,29.43],[74.5291,29.3409],[74.5709,29.324],[74.5615,29.2967],[74.5079,29.3584],[74.4661,29.3754],[74.4642,29.4295],[74.3998,29.4999],[74.3579,29.5168],[74.3566,29.5528],[74.3247,29.579],[74.2414,29.5947],[74.2195,29.6302],[74.1355,29.6639],[74.0108,29.6782],[73.9245,29.7658],[73.8212,29.7626],[73.799,29.798],[73.7576,29.7966],[73.7354,29.832],[73.5699,29.8266],[73.4474,29.7863],[73.4259,29.8036],[73.3432,29.8007],[73.3233,29.782],[73.2613,29.7798],[73.1812,29.7227],[73.1183,29.7385],[73.058,29.7001],[73.0257,29.726],[73.0239,29.762],[72.9925,29.7699],[72.9592,29.8137],[72.9565,29.8678],[72.9349,29.885],[72.9519,29.9578],[72.9195,29.9836]]],[[[72.8962,29.8294],[72.9835,29.7425],[72.943,29.7229],[72.9655,29.6876],[72.9565,29.6602],[72.9449,29.6868],[72.9026,29.7033],[72.9017,29.7213],[72.9421,29.7409],[72.8765,29.8105],[72.8755,29.8286],[72.8962,29.8294]]]]}},{"type":"Feature","properties":{"cell":198,"feature":1943,"phase":"Developing","min_bt_K":225.2,"area_km2":13196,"cold_core_km2":0,"speed_kmh":41.1,"heading_deg":49,"d_min_bt_30":3.2,"age_min":60,"family":198,"touches_missing":true,"lon":72.4099,"lat":33.2764,"merges_splits_so_far":1},"geometry":{"type":"MultiPolygon","coordinates":[[[[72.2626,33.9995],[72.0897,33.992],[72.0273,33.9531],[71.9979,33.9067],[72.0105,33.4018],[71.9903,33.3828],[72.0095,33.0949],[71.9893,33.0759],[72.0096,32.77],[71.9894,32.751],[72.0095,32.4451],[71.9894,32.4262],[72.0193,32.1297],[72.2701,32.1949],[72.2768,32.2584],[72.3361,32.3331],[72.3976,32.3718],[72.4155,32.4267],[72.4771,32.4653],[72.475,32.5013],[72.5356,32.558],[72.511,32.6111],[72.5696,32.7037],[72.6111,32.7235],[72.6688,32.8341],[72.6432,32.9052],[72.7031,32.9798],[72.6978,33.0699],[72.7171,33.1067],[72.7589,33.1264],[72.7923,33.2901],[72.8433,33.3372],[72.9701,33.3782],[72.9926,33.361],[73.1135,33.5098],[73.1966,33.567],[73.2612,33.5693],[73.2901,33.6335],[73.2854,33.7235],[73.1859,33.7651],[73.1427,33.7636],[73.0801,33.7252],[73.0575,33.7424],[72.9928,33.74],[72.9476,33.7744],[72.9055,33.7547],[72.7751,33.7678],[72.7341,33.7301],[72.7195,33.7927],[72.7616,33.8124],[72.7584,33.8664],[72.8005,33.8861],[72.7427,33.947],[72.7017,33.9093],[72.5505,33.9032],[72.5278,33.9203],[72.4641,33.8997],[72.2626,33.9995]]],[[[72.1427,32.3608],[72.211,32.2916],[72.2054,32.2102],[72.173,32.2178],[72.1674,32.3078],[72.1439,32.3428],[72.1003,32.3589],[72.1427,32.3608]]],[[[72.3609,32.6229],[72.3631,32.5869],[72.3228,32.5491],[72.3463,32.514],[72.3294,32.4411],[72.2578,32.3929],[72.2567,32.4109],[72.288,32.4213],[72.2847,32.4753],[72.3261,32.4951],[72.2802,32.5473],[72.3216,32.5671],[72.3183,32.6211],[72.3609,32.6229]]],[[[72.0698,32.502],[72.0284,32.4821],[72.0373,32.5095],[72.0698,32.502]]],[[[72.5994,32.9215],[72.6218,32.9044],[72.6015,32.8855],[72.6047,32.8315],[72.5642,32.7938],[72.5483,32.7029],[72.4674,32.6274],[72.4695,32.5914],[72.4392,32.563],[72.4248,32.6256],[72.5067,32.6831],[72.5035,32.7371],[72.545,32.7569],[72.5418,32.8109],[72.5834,32.8306],[72.578,32.9207],[72.5994,32.9215]]]]}},{"type":"Feature","properties":{"cell":212,"feature":1942,"phase":"Unclassified","min_bt_K":233.3,"area_km2":1816,"cold_core_km2":0,"speed_kmh":null,"heading_deg":null,"d_min_bt_30":null,"age_min":0,"family":5,"touches_missing":true,"lon":72.6669,"lat":31.266,"merges_splits_so_far":1},"geometry":{"type":"MultiPolygon","coordinates":[[[[72.6695,31.5258],[72.6615,31.4803],[72.5925,31.3963],[72.4895,31.356],[72.4265,31.3534],[72.3965,31.325],[72.319,31.2135],[72.3232,31.1415],[72.3573,31.0978],[72.439,31.1373],[72.6707,31.1288],[72.7574,31.0781],[72.8023,31.0257],[72.8441,31.0274],[72.9122,31.1293],[72.8965,31.2279],[72.8655,31.2177],[72.8703,31.1276],[72.8393,31.1174],[72.8203,31.0806],[72.7884,31.0884],[72.8284,31.126],[72.8245,31.198],[72.9046,31.2733],[72.9408,31.383],[72.8868,31.408],[72.8198,31.4776],[72.7136,31.4914],[72.6695,31.5258]]]]}},{"type":"Feature","properties":{"cell":213,"feature":1944,"phase":"Unclassified","min_bt_K":224.9,"area_km2":2172,"cold_core_km2":0,"speed_kmh":null,"heading_deg":null,"d_min_bt_30":null,"age_min":0,"family":198,"touches_missing":true,"lon":73.6275,"lat":33.8801,"merges_splits_so_far":0},"geometry":{"type":"MultiPolygon","coordinates":[[[[73.4326,34.0084],[73.3574,33.9968],[73.3809,33.9615],[73.3396,33.924],[73.3434,33.8519],[73.3012,33.8324],[73.2413,33.74],[73.2854,33.7235],[73.2837,33.552],[73.3698,33.555],[73.3903,33.5738],[73.4343,33.5573],[73.4755,33.5948],[73.5832,33.5983],[73.6977,33.6833],[73.7381,33.7387],[73.7355,33.7928],[73.7778,33.8122],[73.7873,33.8395],[73.8098,33.8222],[73.8737,33.8422],[73.9152,33.8796],[74.0856,33.9388],[74.116,33.9848],[74.0175,34.009],[73.4551,33.9911],[73.4326,34.0084]]],[[[73.6906,33.8274],[73.6933,33.7734],[73.6398,33.7626],[73.6268,33.8073],[73.6578,33.8354],[73.6906,33.8274]]]]}}]}