{"type":"FeatureCollection","features":[{"type":"Feature","properties":{"cell":108,"feature":2042,"phase":"Mature","min_bt_K":226.1,"area_km2":62012,"cold_core_km2":0,"speed_kmh":35.8,"heading_deg":65,"d_min_bt_30":3.1,"age_min":300,"family":5,"touches_missing":true,"lon":74.8875,"lat":32.3646,"merges_splits_so_far":36},"geometry":{"type":"MultiPolygon","coordinates":[[[[76.4867,33.9333],[76.3361,33.8955],[76.12,33.8926],[76.0568,33.8195],[75.9704,33.8182],[75.9069,33.7631],[75.8638,33.7625],[75.7362,33.6882],[75.6715,33.6871],[75.6495,33.7047],[75.6078,33.6499],[75.5016,33.5938],[75.4586,33.593],[75.4165,33.5561],[75.3735,33.5553],[75.2637,33.6252],[75.2217,33.5883],[75.1362,33.5684],[75.1053,33.5227],[75.042,33.4852],[75.0444,33.4131],[75.0131,33.3853],[74.9271,33.3833],[74.78,33.2897],[74.6506,33.3045],[74.5959,33.3302],[74.562,33.3745],[74.4553,33.3536],[74.4109,33.3885],[74.325,33.3862],[74.3131,33.4129],[74.2805,33.4211],[74.1984,33.3285],[74.1555,33.3273],[74.0728,33.2527],[73.9981,33.2415],[73.9783,33.2048],[74.0013,33.1694],[74.0791,33.1085],[74.1433,33.1104],[74.1552,33.0837],[74.125,33.0377],[74.0608,33.0358],[74.0196,32.9985],[73.9768,32.9972],[73.957,32.9605],[73.8732,32.9219],[73.7808,32.8378],[73.8029,32.8204],[73.8096,32.6763],[73.9201,32.5895],[73.8579,32.5515],[73.8407,32.4607],[73.8084,32.4688],[73.7879,32.4501],[73.7692,32.3953],[73.7054,32.3933],[73.6536,32.3646],[73.6383,32.2377],[73.556,32.1809],[73.5189,32.0714],[73.4571,32.0332],[73.4588,31.9972],[73.5038,31.9446],[73.6137,31.858],[73.541,31.8285],[73.5292,31.8552],[73.4759,31.8624],[73.4201,31.9237],[73.4377,31.9964],[73.3641,31.9849],[73.2546,31.8457],[73.2573,31.7916],[73.216,31.7721],[73.1784,31.6805],[73.1803,31.6445],[73.2453,31.6108],[73.27,31.5395],[73.3248,31.4963],[73.3678,31.4798],[73.4274,31.554],[73.4393,31.5273],[73.4191,31.5086],[73.4419,31.4733],[73.6378,31.3355],[73.558,31.2427],[73.5697,31.216],[73.6738,31.2375],[73.6831,31.2648],[73.7142,31.2749],[73.8853,31.2081],[73.9202,31.128],[73.9954,31.0852],[74.0373,31.0864],[74.1197,31.125],[74.1392,31.1616],[74.2007,31.1995],[74.2846,31.2018],[74.3665,31.2582],[74.6802,31.3025],[74.8074,31.2696],[74.8614,31.2258],[74.8637,31.1536],[74.9595,31.1108],[75.0246,31.0401],[75.0665,31.041],[75.0869,31.0595],[75.1498,31.0609],[75.2525,31.1352],[75.2944,31.1361],[75.4164,31.2828],[75.5419,31.3032],[75.6452,31.3773],[75.6653,31.4137],[75.9804,31.4369],[76.0129,31.3923],[75.9716,31.3556],[75.9723,31.3195],[75.8994,31.2913],[75.8689,31.2458],[75.901,31.2192],[75.943,31.2199],[75.9636,31.2382],[76.1315,31.2407],[76.1728,31.2773],[76.2561,31.3145],[76.3192,31.3154],[76.444,31.389],[76.5492,31.3902],[76.591,31.4087],[76.653,31.4815],[76.7055,31.4911],[76.7672,31.5999],[76.7353,31.6267],[76.5242,31.6425],[76.4815,31.6781],[76.398,31.623],[76.188,31.5842],[76.1465,31.5476],[76.0937,31.5559],[76.1126,31.6644],[76.1541,31.701],[76.1312,31.7909],[76.215,31.8282],[76.2143,31.8642],[76.128,31.9532],[76.1484,31.9896],[76.1236,32.1697],[76.1445,32.188],[76.0373,32.2406],[75.9922,32.3662],[76.0544,32.4393],[76.1174,32.4763],[76.1372,32.5487],[76.0827,32.6111],[76.0188,32.6101],[75.9971,32.6279],[75.9127,32.5905],[75.7614,32.6782],[75.7392,32.714],[75.6757,32.6948],[75.5582,32.7017],[75.5548,32.828],[75.5961,32.8828],[75.7975,32.9495],[75.8608,32.9866],[75.9023,33.0414],[76.0518,33.0617],[76.1573,33.1353],[76.2216,33.1362],[76.2869,33.0829],[76.4579,33.1031],[76.5858,33.1406],[76.6278,33.1951],[76.6922,33.1958],[76.7345,33.2323],[76.863,33.2514],[76.9055,33.2879],[77.0017,33.3157],[76.969,33.3606],[76.8399,33.3775],[76.8286,33.4225],[76.7742,33.4672],[76.7312,33.4668],[76.6223,33.5559],[76.5359,33.573],[76.5247,33.6],[76.4813,33.6175],[76.5341,33.6813],[76.5772,33.6817],[76.6091,33.7091],[76.5646,33.7989],[76.5637,33.853],[76.4867,33.9333]]]]}},{"type":"Feature","properties":{"cell":194,"feature":2050,"phase":"Developing","min_bt_K":217.0,"area_km2":15372,"cold_core_km2":160,"speed_kmh":36.2,"heading_deg":93,"d_min_bt_30":-1.2,"age_min":120,"family":5,"touches_missing":true,"lon":73.7664,"lat":29.4041,"merges_splits_so_far":9},"geometry":{"type":"MultiPolygon","coordinates":[[[[73.1836,30.1018],[73.0177,30.0957],[72.9365,30.0565],[72.8672,29.9906],[72.8295,29.917],[72.9574,29.8497],[72.9655,29.6876],[72.9978,29.6618],[73.1433,29.6492],[73.1657,29.6139],[73.216,29.6428],[73.1971,29.606],[73.2194,29.5707],[73.1683,29.5599],[73.1287,29.5223],[73.0668,29.52],[73.0381,29.4738],[73.0416,29.4018],[73.0013,29.3822],[73.0335,29.3563],[73.0953,29.3586],[73.0979,29.3046],[73.0576,29.285],[72.9082,29.3877],[72.8777,29.3775],[72.8795,29.3414],[73.0289,29.2389],[73.002,29.1566],[73.062,29.195],[73.1361,29.1526],[73.1805,29.082],[73.1839,29.01],[73.2488,28.9401],[73.2833,28.8602],[73.3857,28.8638],[73.4488,28.8299],[73.6537,28.8368],[73.6734,28.8555],[73.8579,28.8614],[73.8975,28.8987],[73.959,28.9006],[73.9979,28.956],[74.0601,28.9398],[74.0793,28.9764],[74.1607,28.9969],[74.1798,29.0335],[74.2216,29.0167],[74.3223,29.0737],[74.3633,29.0748],[74.4511,29.2126],[74.481,29.2404],[74.5222,29.2415],[74.5615,29.2967],[74.5827,29.2792],[74.6126,29.307],[74.6114,29.3431],[74.7115,29.4358],[74.7309,29.4724],[74.7257,29.6347],[74.7659,29.6718],[74.734,29.698],[74.672,29.6965],[74.6507,29.714],[74.6307,29.6955],[74.5869,29.7665],[74.5675,29.7299],[74.5042,29.7643],[74.4422,29.7627],[74.4328,29.7354],[74.4021,29.7255],[74.3801,29.761],[74.214,29.7744],[74.2234,29.8017],[74.1699,29.8453],[73.963,29.8392],[73.9438,29.8025],[73.7576,29.7966],[73.7377,29.7779],[73.7163,29.7953],[73.6128,29.7919],[73.5277,29.8432],[73.5218,29.7437],[73.5647,29.7091],[73.5341,29.699],[73.5226,29.7257],[73.4804,29.7423],[73.4764,29.8324],[73.4549,29.8497],[73.464,29.8771],[73.4863,29.8418],[73.517,29.8519],[73.4938,29.9052],[73.2967,29.9074],[73.2769,29.8886],[73.213,29.9224],[73.2005,29.9671],[73.2377,30.0586],[73.2061,30.0665],[73.1836,30.1018]]],[[[73.5679,29.637],[73.5389,29.5909],[73.4861,29.6162],[73.4952,29.6436],[73.5679,29.637]]]]}},{"type":"Feature","properties":{"cell":198,"feature":2043,"phase":"Developing","min_bt_K":229.0,"area_km2":14044,"cold_core_km2":0,"speed_kmh":7.3,"heading_deg":238,"d_min_bt_30":3.8,"age_min":90,"family":198,"touches_missing":true,"lon":72.3767,"lat":33.259,"merges_splits_so_far":1},"geometry":{"type":"MultiPolygon","coordinates":[[[[72.0452,34.0081],[71.9918,33.9966],[72.0102,33.7267],[71.9898,33.7077],[72.0105,33.4018],[71.9903,33.3828],[72.0095,33.0949],[71.9893,33.0759],[72.0096,32.77],[71.9894,32.751],[71.9976,32.3002],[72.1149,32.2964],[72.1373,32.2794],[72.2646,32.2849],[72.2724,32.3304],[72.2277,32.3645],[72.3272,32.4771],[72.3552,32.5414],[72.418,32.5621],[72.5392,32.6754],[72.5818,32.6772],[72.7024,32.8083],[72.8111,32.7765],[72.8741,32.797],[72.9453,32.8629],[72.9433,32.8989],[72.8975,32.9513],[72.9556,33.0618],[72.9016,33.0688],[72.8598,33.0491],[72.8466,33.0937],[72.8017,33.1281],[72.9231,33.2591],[72.8761,33.3295],[72.8944,33.3843],[72.9261,33.3946],[72.9456,33.4314],[72.9783,33.4236],[72.8965,33.3483],[72.8975,33.3303],[72.9415,33.3139],[72.9547,33.2693],[73.0151,33.3438],[73.1204,33.3837],[73.1858,33.3681],[73.1951,33.3955],[73.138,33.4566],[73.0838,33.4636],[73.0603,33.4988],[73.0788,33.5537],[72.9681,33.6037],[72.963,33.6937],[73.0462,33.751],[73.0442,33.787],[73.0216,33.8042],[73.0165,33.8943],[72.9599,33.9373],[72.9054,33.9443],[72.8909,34.0069],[72.068,33.991],[72.0452,34.0081]]],[[[72.7104,32.8538],[72.7013,32.8264],[72.6891,32.8529],[72.7104,32.8538]]],[[[72.8314,32.9849],[72.7419,32.8641],[72.7479,32.9455],[72.7988,32.9926],[72.8314,32.9849]]],[[[72.8587,33.2566],[72.7996,33.1641],[72.7171,33.1067],[72.7202,33.0527],[72.7651,33.0184],[72.7336,33.0081],[72.7213,33.0347],[72.6775,33.051],[72.6753,33.087],[72.8475,33.2652],[72.8587,33.2566]]],[[[72.9404,33.7109],[72.8574,33.6536],[72.84,33.5808],[72.8093,33.5525],[72.7949,33.6151],[72.8266,33.6254],[72.9076,33.7187],[72.9404,33.7109]]],[[[72.924,33.6201],[72.9148,33.5927],[72.882,33.6004],[72.924,33.6201]]],[[[72.3003,33.9199],[72.2913,33.8924],[72.2583,33.9],[72.2673,33.9275],[72.3003,33.9199]]]]}},{"type":"Feature","properties":{"cell":212,"feature":2031,"phase":"Unclassified","min_bt_K":235.0,"area_km2":2396,"cold_core_km2":0,"speed_kmh":57.0,"heading_deg":318,"d_min_bt_30":1.7,"age_min":30,"family":5,"touches_missing":true,"lon":72.4649,"lat":31.4558,"merges_splits_so_far":1},"geometry":{"type":"MultiPolygon","coordinates":[[[[72.3756,31.8565],[72.2077,31.8313],[72.17,31.7574],[72.0157,31.6874],[72.0513,31.6258],[72.1356,31.6296],[72.2664,31.5631],[72.3628,31.5402],[72.367,31.4682],[72.3082,31.3935],[72.3346,31.3044],[72.1976,31.3075],[72.1909,31.244],[72.2461,31.2013],[72.3101,31.186],[72.4569,31.1922],[72.5188,31.2128],[72.5257,31.2763],[72.5976,31.3063],[72.6227,31.2351],[72.7696,31.241],[72.7776,31.2864],[72.7326,31.3388],[72.7517,31.3756],[72.7287,31.4108],[72.7467,31.4657],[72.7237,31.5008],[72.8198,31.4776],[72.846,31.5778],[72.7708,31.602],[72.7307,31.5643],[72.6675,31.5618],[72.6084,31.4872],[72.5264,31.4477],[72.4843,31.446],[72.4722,31.4726],[72.4401,31.4803],[72.4333,31.4168],[72.4023,31.4065],[72.3891,31.451],[72.4691,31.5266],[72.467,31.5626],[72.5091,31.5643],[72.5232,31.5018],[72.5733,31.5489],[72.5912,31.6038],[72.5681,31.6389],[72.5139,31.6638],[72.3674,31.6396],[72.2909,31.6815],[72.4242,31.7503],[72.4532,31.7966],[72.4522,31.8146],[72.3756,31.8565]]],[[[72.2855,31.7715],[72.2766,31.744],[72.2022,31.7498],[72.2533,31.7791],[72.2855,31.7715]]]]}},{"type":"Feature","properties":{"cell":213,"feature":2048,"phase":"Developing","min_bt_K":220.0,"area_km2":5596,"cold_core_km2":140,"speed_kmh":52.0,"heading_deg":97,"d_min_bt_30":-4.9,"age_min":30,"family":198,"touches_missing":true,"lon":73.9066,"lat":33.8529,"merges_splits_so_far":0},"geometry":{"type":"MultiPolygon","coordinates":[[[[73.4326,34.0084],[73.4006,33.9983],[73.4044,33.9262],[73.3189,33.9052],[73.3218,33.8512],[73.2712,33.7862],[73.1859,33.7651],[73.1663,33.7283],[73.0595,33.7064],[73.0184,33.6688],[72.9651,33.6577],[72.9681,33.6037],[73.0675,33.5623],[73.092,33.509],[73.1771,33.5302],[73.2387,33.5865],[73.3248,33.5896],[73.3408,33.4909],[73.395,33.4837],[73.4989,33.5594],[73.5419,33.5609],[73.6253,33.6178],[73.6478,33.6005],[73.6675,33.6372],[73.7106,33.6386],[73.7993,33.5873],[73.8854,33.5899],[73.9915,33.6293],[74.0992,33.6324],[74.1414,33.6517],[74.1822,33.707],[74.2253,33.7082],[74.2596,33.6641],[74.3257,33.6298],[74.3272,33.5938],[74.3814,33.5862],[74.4758,33.6519],[74.52,33.8967],[74.6929,33.9011],[74.7131,33.9376],[74.778,33.9392],[74.852,33.9861],[74.6895,33.9912],[74.6672,34.0087],[74.0399,33.9916],[74.0175,34.009],[73.4551,33.9911],[73.4326,34.0084]]]]}},{"type":"Feature","properties":{"cell":217,"feature":2035,"phase":"Unclassified","min_bt_K":234.0,"area_km2":7440,"cold_core_km2":0,"speed_kmh":null,"heading_deg":null,"d_min_bt_30":null,"age_min":0,"family":217,"touches_missing":true,"lon":75.9599,"lat":27.9087,"merges_splits_so_far":0},"geometry":{"type":"MultiPolygon","coordinates":[[[[76.1031,28.3353],[76.0627,28.3166],[75.9199,28.3145],[75.8799,28.2777],[75.8387,28.2951],[75.7798,28.1858],[75.7395,28.1671],[75.5666,28.155],[75.5679,28.1009],[75.6716,28.0125],[75.7345,27.9233],[75.705,27.8777],[75.5554,27.7577],[75.5777,27.6678],[75.4979,27.6122],[75.4591,27.5392],[75.5214,27.4682],[75.5437,27.3784],[75.5849,27.343],[75.5453,27.3062],[75.5469,27.234],[75.619,27.1721],[75.7084,27.2369],[75.6875,27.2726],[75.737,27.3186],[75.7984,27.2836],[75.8792,27.2849],[75.9291,27.3128],[75.9281,27.3669],[75.898,27.3574],[75.8359,27.4286],[75.7955,27.4279],[75.7848,27.4548],[75.8135,27.5366],[75.8948,27.5198],[75.9751,27.5572],[75.9638,27.6202],[75.9937,27.6477],[76.0744,27.667],[76.1343,27.722],[76.2154,27.7231],[76.2554,27.7598],[76.4174,27.7799],[76.4374,27.7982],[76.7621,27.8016],[76.8326,27.8474],[76.7606,27.928],[76.7202,27.9095],[76.6284,27.9357],[76.6278,27.9898],[76.5866,28.0255],[76.5861,28.0616],[76.6266,28.0801],[76.6357,28.1614],[76.4728,28.1596],[76.453,28.1233],[76.4123,28.1228],[76.3197,28.1848],[76.3191,28.2209],[76.2881,28.2476],[76.2264,28.2828],[76.1242,28.2995],[76.1031,28.3353]]]]}},{"type":"Feature","properties":{"cell":219,"feature":2037,"phase":"Unclassified","min_bt_K":230.0,"area_km2":3544,"cold_core_km2":0,"speed_kmh":null,"heading_deg":null,"d_min_bt_30":null,"age_min":0,"family":5,"touches_missing":true,"lon":74.7723,"lat":30.4121,"merges_splits_so_far":0},"geometry":{"type":"MultiPolygon","coordinates":[[[[74.8479,30.6752],[74.6392,30.67],[74.6189,30.6515],[74.4723,30.6657],[74.4648,30.5843],[74.4446,30.5657],[74.4491,30.4395],[74.4101,30.3663],[74.3692,30.3471],[74.3128,30.1832],[74.2613,30.1727],[74.191,30.1076],[74.2232,30.0814],[74.2626,30.1367],[74.3677,30.1035],[74.4507,30.1058],[74.4909,30.1429],[74.5425,30.1533],[74.5494,30.2527],[74.5916,30.2358],[74.6955,30.2384],[74.7169,30.2209],[74.7792,30.2224],[74.7994,30.241],[74.8415,30.2239],[75.0285,30.2283],[75.0689,30.2652],[75.1105,30.2662],[75.1505,30.3212],[75.2124,30.3405],[75.2322,30.377],[75.2839,30.3871],[75.2489,30.5217],[75.1448,30.5195],[75.0603,30.5537],[75.0192,30.5348],[74.9764,30.5699],[74.9139,30.5684],[74.8389,30.6298],[74.8479,30.6752]]]]}},{"type":"Feature","properties":{"cell":220,"feature":2038,"phase":"Unclassified","min_bt_K":234.0,"area_km2":1676,"cold_core_km2":0,"speed_kmh":null,"heading_deg":null,"d_min_bt_30":null,"age_min":0,"family":5,"touches_missing":true,"lon":74.1803,"lat":30.5296,"merges_splits_so_far":2},"geometry":{"type":"MultiPolygon","coordinates":[[[[73.8611,30.7924],[73.694,30.787],[73.6646,30.741],[73.783,30.6636],[73.9089,30.6495],[73.973,30.6154],[74.0493,30.5365],[74.073,30.465],[74.2638,30.3803],[74.2645,30.3623],[74.2236,30.3431],[74.2471,30.2716],[74.341,30.2652],[74.3692,30.3471],[74.4101,30.3663],[74.4491,30.4395],[74.4452,30.5477],[74.3814,30.582],[74.38,30.6181],[74.4103,30.646],[74.452,30.6471],[74.4615,30.6744],[74.4077,30.7181],[74.3053,30.6611],[74.201,30.6582],[74.1586,30.675],[74.1183,30.6377],[74.0751,30.6726],[74.0557,30.6359],[74.0233,30.662],[74.0427,30.6987],[74.0204,30.7341],[73.9693,30.7055],[73.9353,30.7676],[73.8611,30.7924]]]]}},{"type":"Feature","properties":{"cell":221,"feature":2039,"phase":"Unclassified","min_bt_K":233.2,"area_km2":904,"cold_core_km2":0,"speed_kmh":null,"heading_deg":null,"d_min_bt_30":null,"age_min":0,"family":5,"touches_missing":true,"lon":75.4494,"lat":30.4823,"merges_splits_so_far":0},"geometry":{"type":"MultiPolygon","coordinates":[[[[75.5588,30.636],[75.4545,30.6341],[75.4448,30.6068],[75.373,30.5603],[75.2591,30.5309],[75.2616,30.4408],[75.2946,30.3783],[75.3778,30.38],[75.3991,30.3624],[75.461,30.3816],[75.5452,30.3471],[75.5757,30.3747],[75.5536,30.4284],[75.5939,30.4833],[75.6253,30.4749],[75.7388,30.5219],[75.6963,30.5573],[75.6848,30.6022],[75.5588,30.636]]]]}},{"type":"Feature","properties":{"cell":223,"feature":2041,"phase":"Unclassified","min_bt_K":228.9,"area_km2":4616,"cold_core_km2":0,"speed_kmh":null,"heading_deg":null,"d_min_bt_30":null,"age_min":0,"family":5,"touches_missing":false,"lon":74.5931,"lat":31.0326,"merges_splits_so_far":1},"geometry":{"type":"MultiPolygon","coordinates":[[[[74.6802,31.3025],[74.3665,31.2582],[74.2846,31.2018],[74.2007,31.1995],[74.1392,31.1616],[74.1197,31.125],[74.0474,31.0958],[74.1594,30.9186],[74.1406,30.8639],[74.2156,30.821],[74.279,30.8047],[74.2992,30.8234],[74.3956,30.7629],[74.4184,30.7093],[74.4723,30.6657],[74.5557,30.6679],[74.5772,30.6504],[74.6392,30.67],[74.8479,30.6752],[74.9178,30.776],[75.0002,30.814],[75.1009,30.9425],[75.0778,31.0142],[74.9816,31.0752],[74.9595,31.1108],[74.8955,31.1454],[74.8439,31.1171],[74.8614,31.2258],[74.8074,31.2696],[74.6802,31.3025]]],[[[74.5607,30.8214],[74.5627,30.7673],[74.5316,30.7575],[74.4987,30.8017],[74.5291,30.8296],[74.5607,30.8214]]],[[[74.7607,31.097],[74.7835,31.0435],[74.7745,30.9981],[74.6907,30.9961],[74.6368,31.0398],[74.6661,31.1037],[74.7607,31.097]]]]}}]}