{"type":"FeatureCollection","features":[{"type":"Feature","properties":{"cell":108,"feature":2137,"phase":"Mature","min_bt_K":228.2,"area_km2":28456,"cold_core_km2":0,"speed_kmh":88.8,"heading_deg":147,"d_min_bt_30":2.2,"age_min":330,"family":5,"touches_missing":true,"lon":75.1456,"lat":32.0298,"merges_splits_so_far":43},"geometry":{"type":"MultiPolygon","coordinates":[[[[75.7343,32.9123],[75.5658,32.8191],[75.5231,32.8184],[75.4794,32.8536],[75.3939,32.852],[75.3627,32.8243],[75.3643,32.7702],[75.3122,32.7241],[75.2483,32.7228],[75.2073,32.6678],[75.1854,32.6854],[75.0149,32.6817],[74.9308,32.6437],[74.7823,32.6221],[74.7739,32.5588],[74.7223,32.5124],[74.5953,32.4912],[74.493,32.3803],[74.4081,32.378],[74.3861,32.3955],[74.2594,32.3739],[74.2074,32.3454],[74.1993,32.282],[74.0076,32.2944],[73.9848,32.3298],[73.9022,32.2732],[73.8386,32.2712],[73.808,32.2432],[73.7892,32.1885],[73.885,32.1824],[73.8992,32.1017],[73.9745,32.0769],[74.038,32.0788],[74.1,32.1167],[74.355,32.1059],[74.368,32.0431],[74.4547,31.9913],[74.4779,31.9378],[74.4793,31.9018],[74.3771,31.8088],[74.4663,31.6849],[74.4051,31.6292],[74.3888,31.5024],[74.2639,31.4629],[74.2486,31.3181],[74.208,31.2809],[74.2203,31.2361],[74.3483,31.1856],[74.4322,31.1879],[74.4538,31.1704],[74.5994,31.2103],[74.6604,31.266],[74.8494,31.2706],[74.871,31.253],[74.9124,31.2721],[74.955,31.255],[74.9754,31.2735],[75.1644,31.2777],[75.2263,31.3151],[75.2689,31.2979],[75.2894,31.3164],[75.4999,31.3025],[75.562,31.3397],[75.689,31.3059],[75.8335,31.4166],[76.0952,31.4837],[76.1141,31.5922],[76.1766,31.6292],[76.1548,31.665],[76.2174,31.7019],[76.2167,31.738],[76.2784,31.829],[76.2774,31.8831],[76.2237,31.9275],[76.1602,31.9266],[76.1491,31.9535],[76.2122,31.9724],[76.2324,32.0268],[76.2744,32.0454],[76.2734,32.0995],[76.3151,32.1361],[76.304,32.1631],[76.2077,32.2069],[76.2279,32.2613],[76.1416,32.3323],[76.1401,32.4044],[76.1819,32.4411],[76.2025,32.4774],[76.1805,32.5132],[76.2224,32.5499],[76.1686,32.5762],[76.1574,32.6031],[76.2734,32.6678],[76.4439,32.6699],[76.5815,32.7346],[76.5485,32.7974],[76.5058,32.7969],[76.485,32.7606],[76.421,32.7598],[76.3672,32.7863],[76.3984,32.8317],[76.4944,32.8419],[76.4938,32.878],[76.4185,32.9041],[76.1415,32.8645],[76.0785,32.8095],[76.0358,32.8089],[76.0153,32.7725],[75.8881,32.7344],[75.8555,32.761],[75.8747,32.8515],[75.8211,32.8596],[75.7343,32.9123]]]]}},{"type":"Feature","properties":{"cell":194,"feature":2146,"phase":"Developing","min_bt_K":210.9,"area_km2":13536,"cold_core_km2":1572,"speed_kmh":30.4,"heading_deg":101,"d_min_bt_30":-6.1,"age_min":150,"family":5,"touches_missing":false,"lon":73.9205,"lat":29.3785,"merges_splits_so_far":10},"geometry":{"type":"MultiPolygon","coordinates":[[[[73.7124,29.8854],[73.5906,29.8273],[73.5492,29.8259],[73.3275,29.6919],[73.3218,29.5924],[73.2087,29.5794],[73.1592,29.5325],[73.1816,29.4972],[73.1421,29.4596],[73.1867,29.3891],[73.167,29.3703],[73.1712,29.2802],[73.1524,29.2434],[73.2042,29.2363],[73.238,29.1744],[73.2799,29.1578],[73.2602,29.1391],[73.2865,29.0137],[73.362,28.9351],[73.4867,28.9034],[73.5087,28.868],[73.5702,28.8701],[73.6127,28.8354],[73.6742,28.8375],[73.7031,28.8835],[73.5967,28.9703],[73.6264,28.9983],[73.732,28.9296],[73.8352,28.9148],[73.8784,28.862],[74.1237,28.8875],[74.2229,28.9806],[74.3665,28.9847],[74.3585,28.9213],[74.2989,28.8655],[74.2995,28.8475],[74.3306,28.8393],[74.3498,28.8759],[74.4113,28.8776],[74.4809,28.9426],[74.4181,28.9771],[74.527,29.0973],[74.611,29.0453],[74.7824,29.1489],[74.7602,29.2024],[74.8202,29.258],[74.8391,29.3126],[74.7739,29.4193],[74.7939,29.4379],[74.7799,29.5548],[74.6549,29.5878],[74.5693,29.6758],[74.4434,29.7266],[74.4234,29.7081],[74.3808,29.743],[74.1934,29.7738],[74.0872,29.8429],[73.9837,29.8398],[73.9637,29.8211],[73.8595,29.836],[73.8197,29.7986],[73.7576,29.7966],[73.7124,29.8854]]]]}},{"type":"Feature","properties":{"cell":198,"feature":2144,"phase":"Developing","min_bt_K":232.0,"area_km2":7084,"cold_core_km2":0,"speed_kmh":63.3,"heading_deg":10,"d_min_bt_30":3.0,"age_min":120,"family":198,"touches_missing":true,"lon":72.4374,"lat":33.5398,"merges_splits_so_far":3},"geometry":{"type":"MultiPolygon","coordinates":[[[[72.4789,34.0086],[72.3708,34.0041],[72.364,33.9406],[72.2732,33.8375],[72.2607,33.864],[72.2799,33.901],[72.3219,33.9208],[72.3173,33.9928],[72.1876,33.9872],[72.2104,33.9702],[72.2139,33.9162],[72.1935,33.8972],[72.2175,33.8622],[72.2257,33.7362],[72.167,33.6434],[72.002,33.5278],[72.0105,33.4018],[71.9903,33.3828],[72.0136,33.1943],[72.0553,33.2143],[72.2268,33.2218],[72.2494,33.2047],[72.3137,33.2075],[72.334,33.2264],[72.5912,33.237],[72.6218,33.2653],[72.6185,33.3194],[72.6673,33.4025],[72.6818,33.3399],[72.64,33.3202],[72.6577,33.2036],[72.685,33.2859],[72.7269,33.3056],[72.7452,33.3605],[72.7962,33.4076],[72.8944,33.3843],[72.8546,33.3287],[72.8689,33.266],[73.0663,33.3908],[73.0613,33.4808],[73.1238,33.5192],[73.1228,33.5372],[73.0563,33.5709],[73.0861,33.6171],[73.1291,33.6187],[73.1702,33.6563],[73.3426,33.6624],[73.395,33.6913],[73.3913,33.7633],[73.3688,33.7806],[73.3875,33.8354],[73.4297,33.8549],[73.4175,33.8815],[73.3331,33.8425],[73.2506,33.7674],[73.1427,33.7636],[73.1089,33.7894],[73.1059,33.8434],[73.1687,33.8818],[73.1461,33.899],[73.1667,33.9178],[73.173,33.9993],[72.6746,33.9985],[72.6552,33.9616],[72.5903,33.959],[72.4789,34.0086]]],[[[72.7109,33.5757],[72.7797,33.5062],[72.7533,33.4059],[72.7205,33.4137],[72.7173,33.4677],[72.6947,33.4848],[72.7141,33.5217],[72.6894,33.5749],[72.7109,33.5757]]],[[[72.9064,33.9262],[72.9085,33.8902],[72.8663,33.8706],[72.8684,33.8345],[72.9229,33.8276],[72.9466,33.7924],[73.0319,33.8136],[73.0883,33.7706],[73.0482,33.715],[73.0533,33.6249],[72.9794,33.5951],[72.8933,33.5918],[72.8369,33.6348],[72.8563,33.6716],[72.8306,33.7428],[72.8716,33.7805],[72.8705,33.7985],[72.8377,33.8063],[72.8284,33.7789],[72.7864,33.7592],[72.7896,33.7052],[72.7475,33.6855],[72.7507,33.6314],[72.7959,33.5971],[72.7642,33.5868],[72.7292,33.6306],[72.726,33.6846],[72.8263,33.8149],[72.8632,33.9246],[72.9064,33.9262]]]]}},{"type":"Feature","properties":{"cell":212,"feature":2125,"phase":"Unclassified","min_bt_K":236.0,"area_km2":3064,"cold_core_km2":0,"speed_kmh":45.2,"heading_deg":21,"d_min_bt_30":1.0,"age_min":60,"family":5,"touches_missing":true,"lon":72.5518,"lat":31.6455,"merges_splits_so_far":2},"geometry":{"type":"MultiPolygon","coordinates":[[[[72.8072,32.0906],[72.6853,31.9956],[72.5573,32.0084],[72.5118,32.0607],[72.4695,32.059],[72.378,31.992],[72.3834,31.902],[72.4268,31.8857],[72.43,31.8317],[72.3566,31.8196],[72.2855,31.7715],[72.2898,31.6995],[72.3342,31.6653],[72.3363,31.6293],[72.3085,31.5649],[72.2154,31.5338],[72.3161,31.4389],[72.3902,31.433],[72.4176,31.3259],[72.4937,31.284],[72.6826,31.2917],[72.7196,31.3834],[72.7426,31.3482],[72.8057,31.3507],[72.8128,31.4141],[72.8629,31.4612],[72.8768,31.3986],[72.8978,31.3994],[72.9121,31.5262],[72.9532,31.5459],[72.9082,31.5983],[72.9264,31.6531],[72.8732,31.6601],[72.8129,31.6036],[72.7297,31.5823],[72.6855,31.6166],[72.6434,31.6149],[72.5197,31.7452],[72.5176,31.7812],[72.5477,31.8095],[72.6512,31.8498],[72.7105,31.9244],[72.7528,31.9261],[72.8233,31.992],[72.8404,32.0648],[72.8072,32.0906]]]]}},{"type":"Feature","properties":{"cell":213,"feature":2145,"phase":"Developing","min_bt_K":223.0,"area_km2":7064,"cold_core_km2":0,"speed_kmh":58.9,"heading_deg":98,"d_min_bt_30":3.0,"age_min":60,"family":198,"touches_missing":true,"lon":74.222,"lat":33.8175,"merges_splits_so_far":1},"geometry":{"type":"MultiPolygon","coordinates":[[[[74.0175,34.009],[73.5633,33.9947],[73.5575,33.8953],[73.5161,33.8578],[73.5179,33.8218],[73.6088,33.7345],[73.5899,33.6798],[73.6899,33.6199],[73.7657,33.6133],[73.7468,33.5585],[73.6831,33.5384],[73.684,33.5204],[73.7391,33.4951],[73.7821,33.4965],[73.8449,33.5345],[73.8689,33.4812],[73.9549,33.4838],[73.9781,33.4484],[74.107,33.4522],[74.1684,33.5262],[74.2322,33.546],[74.2456,33.4832],[74.3672,33.4054],[74.4517,33.4438],[74.6459,33.4307],[74.7839,33.4792],[74.8453,33.5709],[74.8433,33.625],[74.7892,33.6327],[74.7108,33.712],[74.7728,33.7857],[74.8886,33.8697],[74.9318,33.8707],[74.9979,33.8361],[75.0071,33.8814],[75.0812,33.9281],[75.3833,33.9524],[75.436,33.9985],[74.0399,33.9916],[74.0175,34.009]]]]}},{"type":"Feature","properties":{"cell":217,"feature":2114,"phase":"Unclassified","min_bt_K":234.0,"area_km2":5784,"cold_core_km2":0,"speed_kmh":58.4,"heading_deg":50,"d_min_bt_30":0.0,"age_min":30,"family":217,"touches_missing":true,"lon":76.1884,"lat":28.0772,"merges_splits_so_far":0},"geometry":{"type":"MultiPolygon","coordinates":[[[[76.1203,28.516],[75.9368,28.4952],[75.8469,28.3945],[75.8487,28.3043],[75.8287,28.2859],[75.8498,28.2502],[75.9635,28.1707],[76.0449,28.172],[76.117,28.1279],[76.1073,28.1007],[76.0666,28.1001],[76.0369,28.0545],[76.0589,27.9646],[76.0093,27.9007],[75.959,27.8729],[75.9201,27.782],[75.8205,27.6901],[75.8224,27.5999],[75.8732,27.5917],[75.8838,27.5648],[76.0173,27.4676],[76.0372,27.4859],[76.1383,27.4874],[76.1576,27.5418],[76.2386,27.5429],[76.2586,27.5613],[76.2993,27.5437],[76.3484,27.6436],[76.4192,27.6535],[76.4492,27.681],[76.3679,27.698],[76.3673,27.7341],[76.3259,27.7878],[76.3863,27.8246],[76.3354,27.833],[76.3248,27.86],[76.416,27.8701],[76.4369,27.8343],[76.5181,27.8352],[76.5482,27.8626],[76.5271,27.9165],[76.6072,28.0077],[76.6268,28.062],[76.5854,28.1157],[76.5239,28.1511],[76.594,28.2331],[76.6449,28.2427],[76.6238,28.2966],[76.5108,28.3586],[76.4906,28.3403],[76.4496,28.3578],[76.3666,28.4471],[76.2438,28.4636],[76.2227,28.4994],[76.141,28.4982],[76.1203,28.516]]]]}},{"type":"Feature","properties":{"cell":219,"feature":2133,"phase":"Developing","min_bt_K":225.1,"area_km2":5424,"cold_core_km2":0,"speed_kmh":56.9,"heading_deg":140,"d_min_bt_30":-4.9,"age_min":30,"family":5,"touches_missing":true,"lon":74.9617,"lat":30.2149,"merges_splits_so_far":0},"geometry":{"type":"MultiPolygon","coordinates":[[[[74.8716,30.5855],[74.7989,30.5747],[74.7828,30.43],[74.7525,30.4022],[74.6686,30.4182],[74.6282,30.3811],[74.6169,30.4078],[74.5854,30.416],[74.5658,30.3795],[74.2873,30.3088],[74.2907,30.2187],[74.3436,30.1931],[74.4059,30.1948],[74.4595,30.1511],[74.4633,30.0429],[74.4954,30.0167],[74.5576,30.0184],[74.5771,30.055],[74.6393,30.0566],[74.7039,29.986],[74.7868,29.988],[74.8484,30.0076],[74.868,30.0441],[74.9094,30.0451],[74.9307,30.0276],[75.0136,30.0294],[75.0976,29.9952],[75.1598,29.9966],[75.1816,29.961],[75.3685,29.9468],[75.3887,29.9652],[75.4716,29.9668],[75.5536,30.0044],[75.6158,30.0056],[75.6966,30.0972],[75.8211,30.0993],[75.8618,30.1361],[75.9037,30.1187],[75.9955,30.2013],[75.9211,30.2814],[75.7964,30.2794],[75.7556,30.2426],[75.6517,30.2408],[75.6301,30.2765],[75.5054,30.2742],[75.4241,30.2005],[75.3826,30.1996],[75.3188,30.2525],[75.2565,30.2512],[75.1952,30.2139],[75.1729,30.2675],[75.1105,30.2662],[75.0785,30.2925],[75.0983,30.329],[75.0759,30.3827],[75.1159,30.4377],[75.157,30.4566],[75.156,30.4927],[75.1031,30.5186],[74.8942,30.5319],[74.8716,30.5855]]]]}},{"type":"Feature","properties":{"cell":220,"feature":2123,"phase":"Unclassified","min_bt_K":238.2,"area_km2":332,"cold_core_km2":0,"speed_kmh":27.1,"heading_deg":339,"d_min_bt_30":4.2,"age_min":30,"family":5,"touches_missing":true,"lon":74.1291,"lat":30.6435,"merges_splits_so_far":2},"geometry":{"type":"MultiPolygon","coordinates":[[[[74.2608,30.7321],[74.1787,30.6936],[74.0118,30.6887],[74.0032,30.6433],[74.0255,30.6079],[74.0054,30.5893],[74.1218,30.5476],[74.1312,30.575],[74.183,30.5855],[74.2226,30.6408],[74.265,30.6239],[74.306,30.6431],[74.3147,30.6885],[74.2608,30.7321]]]]}},{"type":"Feature","properties":{"cell":221,"feature":2134,"phase":"Developing","min_bt_K":228.3,"area_km2":2688,"cold_core_km2":0,"speed_kmh":24.6,"heading_deg":131,"d_min_bt_30":-4.9,"age_min":30,"family":5,"touches_missing":true,"lon":75.5465,"lat":30.4099,"merges_splits_so_far":0},"geometry":{"type":"MultiPolygon","coordinates":[[[[75.3303,30.5955],[75.3105,30.5591],[75.2068,30.5389],[75.1763,30.5112],[75.1768,30.4931],[75.219,30.476],[75.189,30.4302],[75.126,30.4469],[75.0759,30.3827],[75.0977,30.3471],[75.0785,30.2925],[75.1105,30.2662],[75.1729,30.2675],[75.1952,30.2139],[75.2565,30.2512],[75.3188,30.2525],[75.3826,30.1996],[75.4241,30.2005],[75.5054,30.2742],[75.8168,30.2977],[75.878,30.3529],[75.94,30.3719],[76.0239,30.3371],[76.0543,30.3826],[76.0313,30.4905],[75.9999,30.4991],[75.9673,30.5617],[75.9146,30.588],[75.7895,30.5859],[75.5823,30.5282],[75.5393,30.5815],[75.5189,30.5631],[75.4147,30.5611],[75.3934,30.5787],[75.3522,30.5599],[75.3303,30.5955]]]]}},{"type":"Feature","properties":{"cell":223,"feature":2135,"phase":"Unclassified","min_bt_K":231.3,"area_km2":1904,"cold_core_km2":0,"speed_kmh":109.5,"heading_deg":137,"d_min_bt_30":2.5,"age_min":30,"family":5,"touches_missing":true,"lon":74.9806,"lat":30.6694,"merges_splits_so_far":1},"geometry":{"type":"MultiPolygon","coordinates":[[[[75.0274,30.9499],[75.0076,30.9134],[74.9239,30.9115],[74.7805,30.8179],[74.7166,30.8524],[74.5702,30.8487],[74.5082,30.829],[74.4785,30.7831],[74.5943,30.7591],[74.6386,30.688],[74.6588,30.7066],[74.7012,30.6896],[74.8091,30.584],[74.8716,30.5855],[74.8942,30.5319],[75.1031,30.5186],[75.1666,30.4839],[75.2068,30.5389],[75.3105,30.5591],[75.3202,30.5863],[75.2352,30.6387],[75.2337,30.6928],[75.0415,30.833],[75.0195,30.8686],[75.0393,30.9051],[75.0274,30.9499]]]]}},{"type":"Feature","properties":{"cell":230,"feature":2130,"phase":"Unclassified","min_bt_K":232.2,"area_km2":1876,"cold_core_km2":0,"speed_kmh":null,"heading_deg":null,"d_min_bt_30":null,"age_min":0,"family":5,"touches_missing":true,"lon":75.7543,"lat":29.2384,"merges_splits_so_far":0},"geometry":{"type":"MultiPolygon","coordinates":[[[[75.7935,29.4674],[75.6917,29.4115],[75.5886,29.4096],[75.5483,29.3728],[75.5066,29.3901],[75.4155,29.3252],[75.4475,29.2807],[75.4887,29.2815],[75.5496,29.3187],[75.6013,29.3106],[75.592,29.2654],[75.5097,29.2638],[75.4594,29.2178],[75.4612,29.1456],[75.5237,29.1107],[75.5456,29.057],[75.5975,29.0309],[75.6378,29.0677],[75.6788,29.0684],[75.7397,29.1056],[75.8013,29.1066],[75.8416,29.1434],[75.9238,29.1447],[75.9642,29.1814],[76.0873,29.2013],[76.1072,29.2376],[76.1888,29.2749],[76.2917,29.2763],[76.4454,29.3233],[76.229,29.3296],[76.1679,29.2926],[76.0444,29.2909],[76.0346,29.2637],[76.0039,29.2542],[75.9924,29.3172],[75.9505,29.3526],[75.9704,29.389],[75.9183,29.4153],[75.8981,29.3969],[75.8363,29.3959],[75.7935,29.4674]]]]}},{"type":"Feature","properties":{"cell":235,"feature":2139,"phase":"Unclassified","min_bt_K":230.0,"area_km2":7676,"cold_core_km2":0,"speed_kmh":null,"heading_deg":null,"d_min_bt_30":null,"age_min":0,"family":5,"touches_missing":true,"lon":73.8402,"lat":31.6312,"merges_splits_so_far":2},"geometry":{"type":"MultiPolygon","coordinates":[[[[73.7774,32.2152],[73.7468,32.1871],[73.7339,32.0063],[73.6932,31.9689],[73.6949,31.9328],[73.6323,31.9128],[73.634,31.8767],[73.6035,31.8487],[73.5824,31.848],[73.5376,31.9006],[73.4777,31.8264],[73.4051,31.7968],[73.4077,31.7428],[73.4517,31.7082],[73.4534,31.6722],[73.4121,31.6527],[73.4569,31.6001],[73.4173,31.5446],[73.441,31.4913],[73.3761,31.5252],[73.4165,31.5627],[73.4139,31.6167],[73.3708,31.6332],[73.4112,31.6707],[73.4086,31.7248],[73.3646,31.7593],[73.384,31.7961],[73.3519,31.804],[73.318,31.8479],[73.3373,31.8847],[73.3254,31.9113],[73.2831,31.9099],[73.2124,31.8442],[73.2344,31.8269],[73.194,31.7894],[73.2197,31.7001],[73.1784,31.6805],[73.1812,31.6265],[73.2132,31.6186],[73.2251,31.592],[73.194,31.5819],[73.1848,31.5545],[73.2315,31.4659],[73.2123,31.4291],[73.257,31.3766],[73.2186,31.3031],[73.328,31.2167],[73.4171,31.1116],[73.5118,31.1058],[73.6098,31.0279],[73.6357,30.9205],[73.6674,30.9125],[73.69,30.8771],[73.7318,30.8785],[73.7961,30.8444],[73.9215,30.8484],[73.9263,30.9838],[73.8829,31.0186],[73.924,31.0379],[73.9186,31.164],[73.9389,31.1827],[73.8961,31.1994],[73.8511,31.2702],[73.7865,31.3042],[73.7639,31.3396],[73.8035,31.395],[73.7918,31.4217],[73.6842,31.4724],[73.5799,31.4509],[73.5462,31.4949],[73.4814,31.5288],[73.5218,31.5662],[73.499,31.6016],[73.5394,31.639],[73.4956,31.6736],[73.5858,31.7759],[73.6475,31.814],[73.7108,31.8161],[73.7267,31.6993],[73.7064,31.6806],[73.7502,31.6459],[73.7518,31.6099],[73.826,31.6032],[73.9336,31.5524],[73.9516,31.6251],[74.0999,31.6115],[74.1594,31.7035],[74.2649,31.7065],[74.2846,31.7431],[74.3901,31.746],[74.3996,31.7734],[74.3771,31.8088],[74.4793,31.9018],[74.4779,31.9378],[74.4547,31.9913],[74.368,32.0431],[74.355,32.1059],[74.1,32.1167],[74.038,32.0788],[73.9745,32.0769],[73.8992,32.1017],[73.885,32.1824],[73.8002,32.1798],[73.7774,32.2152]]]]}},{"type":"Feature","properties":{"cell":237,"feature":2141,"phase":"Unclassified","min_bt_K":230.0,"area_km2":24428,"cold_core_km2":0,"speed_kmh":null,"heading_deg":null,"d_min_bt_30":null,"age_min":0,"family":5,"touches_missing":true,"lon":75.3941,"lat":33.1551,"merges_splits_so_far":2},"geometry":{"type":"MultiPolygon","coordinates":[[[[76.7883,34.0086],[75.9013,33.9976],[75.8263,33.9694],[75.8929,33.8982],[75.8396,33.8703],[75.7325,33.8325],[75.6245,33.8306],[75.6034,33.8122],[75.4734,33.8278],[75.4323,33.7549],[75.3256,33.7167],[75.2609,33.7154],[75.2532,33.616],[75.2753,33.5984],[75.2769,33.5443],[75.2455,33.5166],[75.0309,33.494],[74.9891,33.4569],[74.9234,33.4915],[74.8595,33.472],[74.7937,33.5065],[74.7735,33.47],[74.6459,33.4307],[74.5384,33.428],[74.5294,33.3826],[74.6056,33.3575],[74.6181,33.3127],[74.5661,33.2663],[74.5232,33.2652],[74.4721,33.2007],[74.3471,33.1071],[74.3279,33.0525],[74.3522,32.9809],[74.4619,32.9117],[74.3808,32.8013],[74.3836,32.7292],[74.3321,32.6827],[74.2895,32.6815],[74.1852,32.6244],[74.1213,32.6226],[74.0984,32.658],[74.0337,32.6741],[74.0061,32.5741],[74.0384,32.566],[74.0502,32.5393],[74.0084,32.52],[73.9911,32.4293],[74.1091,32.4057],[74.1964,32.3541],[74.3443,32.3763],[74.3649,32.3949],[74.493,32.3803],[74.5953,32.4912],[74.7223,32.5124],[74.7739,32.5588],[74.7823,32.6221],[74.9308,32.6437],[75.0149,32.6817],[75.1854,32.6854],[75.2073,32.6678],[75.2483,32.7228],[75.3122,32.7241],[75.3643,32.7702],[75.3627,32.8243],[75.3939,32.852],[75.4794,32.8536],[75.5231,32.8184],[75.5658,32.8191],[75.7343,32.9123],[75.8211,32.8596],[75.8638,32.8603],[75.9694,32.9161],[76.0545,32.9354],[76.0646,32.9626],[76.1175,32.9904],[76.203,32.9916],[76.4563,33.1932],[76.7139,33.1779],[76.7242,33.2051],[76.7562,33.2144],[76.8104,33.1698],[76.7895,33.1335],[76.8869,33.0532],[76.9511,33.0537],[76.9615,33.0809],[77.0041,33.0992],[77.0244,33.2076],[76.788,33.2418],[76.7868,33.332],[76.808,33.3502],[76.7861,33.3861],[76.9141,33.4594],[76.903,33.4863],[76.7955,33.4854],[76.7844,33.5124],[76.9012,33.6306],[76.9443,33.631],[76.9868,33.6854],[77.0404,33.7129],[77.04,33.749],[76.9856,33.7937],[76.9424,33.7934],[76.9326,33.7121],[76.8463,33.7114],[76.867,33.7837],[76.8122,33.8464],[76.7581,33.8549],[76.7792,33.8912],[76.757,33.9271],[76.7998,33.9636],[76.7883,34.0086]]]]}},{"type":"Feature","properties":{"cell":238,"feature":2142,"phase":"Unclassified","min_bt_K":229.0,"area_km2":6632,"cold_core_km2":0,"speed_kmh":null,"heading_deg":null,"d_min_bt_30":null,"age_min":0,"family":198,"touches_missing":true,"lon":72.3377,"lat":32.8839,"merges_splits_so_far":1},"geometry":{"type":"MultiPolygon","coordinates":[[[[72.5912,33.237],[72.334,33.2264],[72.3137,33.2075],[72.0553,33.2143],[72.0035,33.1849],[72.003,32.3817],[72.3395,32.4505],[72.4,32.5072],[72.5255,32.5485],[72.6255,32.6609],[72.7279,32.7372],[72.7908,32.7577],[72.8416,32.8048],[72.8497,32.8502],[72.9148,32.8347],[72.9982,32.8739],[73.0991,32.9859],[73.1419,32.9875],[73.1725,33.0157],[73.1127,33.1308],[72.9842,33.126],[72.9394,33.1604],[72.8537,33.1572],[72.8292,33.2104],[72.6802,33.1865],[72.6352,33.2208],[72.6137,33.2199],[72.6046,33.1925],[72.6373,33.1847],[72.6496,33.1582],[72.6181,33.1479],[72.5832,33.1916],[72.5912,33.237]]]]}}]}