{"type":"FeatureCollection","features":[{"type":"Feature","properties":{"cell":108,"feature":2221,"phase":"Mature","min_bt_K":231.0,"area_km2":7956,"cold_core_km2":0,"speed_kmh":58.3,"heading_deg":8,"d_min_bt_30":2.8,"age_min":360,"family":5,"touches_missing":false,"lon":75.1881,"lat":32.2902,"merges_splits_so_far":45},"geometry":{"type":"MultiPolygon","coordinates":[[[[75.2909,32.7236],[75.1854,32.6854],[75.0788,32.6831],[75.0569,32.7006],[74.7158,32.6927],[74.6855,32.6468],[74.6435,32.6277],[74.6345,32.5824],[74.5926,32.5633],[74.5274,32.5977],[74.4855,32.5785],[74.4656,32.5419],[74.423,32.5408],[74.3922,32.5129],[74.4478,32.4512],[74.5445,32.4267],[74.5691,32.3371],[74.6013,32.329],[74.6457,32.276],[74.7949,32.2616],[74.8167,32.2441],[75.0707,32.2679],[75.1137,32.2508],[75.2122,32.1537],[75.1709,32.1167],[75.1731,32.0446],[75.1416,32.0349],[75.07,31.9522],[75.0929,31.8986],[75.0757,31.7719],[75.1617,31.7196],[75.1736,31.6748],[75.2791,31.677],[75.3835,31.7152],[75.4247,31.7521],[75.5091,31.7537],[75.6335,31.8461],[75.6537,31.8826],[75.8858,31.9045],[75.95,31.8694],[75.9811,31.897],[75.9788,32.0052],[76.0615,32.0966],[75.9417,32.2482],[75.8988,32.2655],[75.7927,32.2638],[75.7494,32.2992],[75.6857,32.2981],[75.664,32.3157],[75.5366,32.3135],[75.4715,32.3664],[75.429,32.3655],[75.4062,32.4192],[75.2994,32.4351],[75.2449,32.4791],[75.2428,32.5513],[75.2843,32.5882],[75.2816,32.6783],[75.3237,32.6972],[75.2909,32.7236]]]]}},{"type":"Feature","properties":{"cell":194,"feature":2214,"phase":"Decaying","min_bt_K":224.6,"area_km2":21832,"cold_core_km2":0,"speed_kmh":79.1,"heading_deg":80,"d_min_bt_30":13.6,"age_min":180,"family":5,"touches_missing":true,"lon":74.3224,"lat":29.4378,"merges_splits_so_far":11},"geometry":{"type":"MultiPolygon","coordinates":[[[[73.9677,30.2363],[73.9269,30.217],[73.9176,30.1896],[73.9499,30.1636],[73.9914,30.1648],[74.0773,30.0952],[74.1609,30.0796],[74.1831,30.0442],[74.2145,30.0361],[74.0608,29.9865],[73.9815,29.8939],[73.8802,29.8366],[73.7553,29.8507],[73.7163,29.7953],[73.694,29.8307],[73.55,29.8079],[73.5409,29.7805],[73.5003,29.7611],[73.544,29.7084],[73.4721,29.6969],[73.4432,29.6508],[73.4679,29.5614],[73.4282,29.524],[73.4596,29.516],[73.4711,29.4894],[73.3194,29.4209],[73.3111,29.3755],[73.3951,29.3424],[73.4238,29.1629],[73.4886,29.0929],[73.5845,29.015],[73.6256,29.0163],[73.6583,28.9723],[73.7744,28.8948],[73.8784,28.862],[73.9003,28.8266],[73.983,28.8111],[73.9922,28.8385],[74.0226,28.8484],[74.1264,28.8154],[74.1462,28.834],[74.2083,28.8178],[74.3927,28.823],[74.5181,28.7541],[74.5795,28.7557],[74.6193,28.7929],[74.7012,28.7949],[74.7205,28.8315],[74.7615,28.8325],[74.8219,28.8701],[74.8612,28.9252],[74.8823,28.9076],[74.9811,29.0362],[75.0627,29.0561],[75.1424,29.1481],[75.1835,29.149],[75.2236,29.1859],[75.2647,29.1868],[75.3762,29.2522],[75.3748,29.3063],[75.3432,29.3328],[75.2609,29.3311],[75.2408,29.3126],[75.1579,29.3289],[75.1383,29.2924],[75.0851,29.3544],[75.1157,29.3641],[75.1353,29.4006],[75.1775,29.3654],[75.2172,29.4204],[75.3404,29.441],[75.3294,29.4678],[75.3674,29.5949],[75.3976,29.6226],[75.4187,29.6049],[75.4591,29.6418],[75.5004,29.6426],[75.5299,29.7063],[75.5083,29.742],[75.4348,29.7857],[75.3112,29.7652],[75.2275,29.7995],[75.1846,29.8528],[75.1018,29.851],[75.0163,29.9393],[74.9749,29.9384],[74.8697,29.99],[74.7453,29.987],[74.7033,30.004],[74.6701,30.0664],[74.6545,30.2193],[74.4468,30.2139],[74.4073,30.1587],[74.3852,30.1942],[74.2814,30.1913],[74.2599,30.2088],[74.2191,30.1896],[74.1554,30.2238],[74.0723,30.2214],[74.0522,30.2027],[73.9677,30.2363]]]]}},{"type":"Feature","properties":{"cell":213,"feature":2227,"phase":"Developing","min_bt_K":227.0,"area_km2":9640,"cold_core_km2":0,"speed_kmh":54.1,"heading_deg":102,"d_min_bt_30":4.0,"age_min":90,"family":198,"touches_missing":true,"lon":74.5073,"lat":33.7647,"merges_splits_so_far":1},"geometry":{"type":"MultiPolygon","coordinates":[[[[74.0175,34.009],[73.9102,33.9877],[73.8167,33.9036],[73.8193,33.8496],[73.7778,33.8122],[73.7813,33.7401],[73.6847,33.728],[73.6357,33.6271],[73.5307,33.5695],[73.5455,33.4888],[73.6315,33.4917],[73.7752,33.6406],[73.808,33.6327],[73.832,33.5793],[73.7597,33.5138],[73.7167,33.5125],[73.6754,33.475],[73.653,33.4924],[73.6248,33.4102],[73.5827,33.3908],[73.6309,33.2841],[73.6644,33.2581],[73.7073,33.2595],[73.7906,33.3163],[73.831,33.3717],[73.8946,33.3917],[74.045,33.3963],[74.068,33.3608],[74.2398,33.3658],[74.3057,33.3315],[74.3902,33.3699],[74.5183,33.3914],[74.5814,33.4291],[74.6459,33.4307],[74.7618,33.4967],[74.8029,33.5519],[74.8107,33.6332],[74.8753,33.6348],[74.9172,33.6718],[74.9393,33.6543],[75.0255,33.6562],[75.1315,33.7127],[75.3266,33.6806],[75.3692,33.6995],[75.3897,33.736],[75.4328,33.7368],[75.496,33.7922],[75.5392,33.793],[75.6029,33.8302],[75.733,33.8144],[75.7412,33.9138],[75.784,33.9326],[75.7716,33.9955],[75.5336,33.9914],[75.5115,34.009],[74.6895,33.9912],[74.6672,34.0087],[74.0399,33.9916],[74.0175,34.009]]]]}},{"type":"Feature","properties":{"cell":219,"feature":2218,"phase":"Developing","min_bt_K":227.5,"area_km2":22584,"cold_core_km2":0,"speed_kmh":127.8,"heading_deg":41,"d_min_bt_30":2.4,"age_min":60,"family":5,"touches_missing":true,"lon":75.4024,"lat":30.6466,"merges_splits_so_far":5},"geometry":{"type":"MultiPolygon","coordinates":[[[[75.7382,31.884],[75.6537,31.8826],[75.5818,31.8001],[75.5091,31.7537],[75.4247,31.7521],[75.3835,31.7152],[75.2791,31.677],[75.1314,31.6739],[75.0283,31.5995],[74.9759,31.5893],[75.0203,31.5181],[74.9583,31.4806],[74.9799,31.463],[74.9816,31.409],[74.9612,31.3905],[74.9833,31.3549],[74.9862,31.2647],[74.9249,31.2092],[74.9261,31.1731],[75.0326,31.1214],[75.0569,31.0137],[75.0263,30.986],[75.0048,31.0035],[74.9844,30.985],[74.9007,30.9831],[74.8917,30.9378],[74.9675,30.8584],[75.0296,30.8778],[75.0822,30.87],[75.0833,30.8339],[75.147,30.7992],[75.139,30.7178],[74.9934,30.6966],[74.972,30.7141],[74.8676,30.7117],[74.7411,30.7447],[74.6367,30.7421],[74.6044,30.7684],[74.6197,30.9311],[74.6501,30.959],[74.8696,30.9734],[74.7739,31.0162],[74.7326,30.9971],[74.5233,30.9918],[74.5017,31.0093],[74.4611,30.9721],[74.4186,30.989],[74.3565,30.9693],[74.3369,30.9327],[74.2323,30.9297],[74.1919,30.8925],[74.1702,30.9099],[74.0772,30.8801],[74.1096,30.854],[74.256,30.8582],[74.2776,30.8408],[74.2985,30.8414],[74.3383,30.8966],[74.5069,30.8651],[74.5392,30.8389],[74.5418,30.7668],[74.5114,30.7389],[74.405,30.7902],[74.217,30.7849],[74.1975,30.7483],[74.1665,30.7384],[74.1672,30.7204],[74.2097,30.7035],[74.1909,30.6489],[74.2549,30.6146],[74.257,30.5605],[74.3323,30.4995],[74.3954,30.4832],[74.4176,30.4477],[74.48,30.4494],[74.5652,30.3975],[74.5854,30.416],[74.6478,30.4176],[74.6591,30.3909],[74.7335,30.3476],[74.7751,30.3486],[74.8813,30.279],[74.9443,30.2624],[74.9555,30.2356],[74.9976,30.2185],[74.9784,30.164],[75.0205,30.1469],[75.0216,30.1108],[75.0748,30.0669],[75.1795,30.0331],[75.2417,30.0344],[75.3049,29.9996],[75.4081,30.0197],[75.5104,30.0758],[75.5316,30.0582],[75.5722,30.095],[75.6344,30.0961],[75.675,30.1329],[75.7381,30.0979],[75.9452,30.1194],[75.9656,30.1377],[76.0487,30.139],[76.0698,30.1212],[76.1102,30.176],[76.1933,30.1771],[76.2355,30.1416],[76.277,30.1421],[76.3576,30.2875],[76.545,30.2717],[76.6158,30.4077],[76.5634,30.4342],[76.521,30.4879],[76.4165,30.5047],[76.2691,30.5931],[76.186,30.5739],[76.0807,30.6266],[76.0687,30.7076],[76.0163,30.7158],[76.0046,30.7788],[75.8989,30.8313],[75.8978,30.8854],[75.9594,30.9405],[75.9168,30.9759],[75.9156,31.03],[75.8942,31.0477],[75.9144,31.0841],[75.8824,31.1107],[75.8409,31.092],[75.8294,31.1369],[75.8808,31.1828],[75.9228,31.1835],[75.9849,31.2205],[76.0361,31.2844],[75.9723,31.3195],[75.9915,31.41],[75.9482,31.4635],[75.9475,31.4996],[75.8835,31.5346],[75.9042,31.553],[75.8827,31.5707],[75.9244,31.5894],[75.8811,31.6428],[75.9225,31.6796],[75.8906,31.6881],[75.8472,31.7415],[75.7943,31.7497],[75.7382,31.884]]],[[[75.8145,30.866],[75.8047,30.8388],[75.7522,30.8469],[75.762,30.8742],[75.8145,30.866]]],[[[75.2684,30.9461],[75.3316,30.9293],[75.2806,30.8832],[75.1862,30.8902],[75.1948,30.9536],[75.2684,30.9461]]]]}},{"type":"Feature","properties":{"cell":230,"feature":2216,"phase":"Developing","min_bt_K":229.6,"area_km2":12104,"cold_core_km2":0,"speed_kmh":153.6,"heading_deg":24,"d_min_bt_30":-2.6,"age_min":30,"family":5,"touches_missing":true,"lon":76.0833,"lat":29.8688,"merges_splits_so_far":1},"geometry":{"type":"MultiPolygon","coordinates":[[[[76.4616,30.2888],[76.3576,30.2875],[76.277,30.1421],[76.2355,30.1416],[76.1933,30.1771],[76.1102,30.176],[76.0698,30.1212],[76.0487,30.139],[75.8207,30.1174],[75.8004,30.099],[75.6966,30.0972],[75.656,30.0604],[75.573,30.0589],[75.5519,30.0766],[75.5316,30.0582],[75.5104,30.0758],[75.3463,30.0005],[75.1375,30.0502],[75.0769,29.9948],[75.0355,29.9939],[74.9643,29.9471],[75.0163,29.9393],[75.1018,29.851],[75.1846,29.8528],[75.2275,29.7995],[75.3112,29.7652],[75.3728,29.7845],[75.4766,29.7684],[75.5404,29.6975],[75.6024,29.6986],[75.6324,29.7443],[75.724,29.809],[75.9011,29.7488],[75.9019,29.7127],[75.8715,29.6852],[75.8091,29.7022],[75.707,29.6463],[75.645,29.6452],[75.6353,29.618],[75.6564,29.6003],[75.5641,29.5716],[75.5242,29.5167],[75.3899,29.5232],[75.3913,29.4691],[75.4123,29.4514],[75.3303,29.4317],[75.3519,29.3961],[75.3327,29.3416],[75.3748,29.3063],[75.3762,29.2522],[75.2341,29.1771],[75.2461,29.1142],[75.3895,29.1352],[75.4214,29.0907],[75.4525,29.0823],[75.5946,29.1571],[75.6885,29.0956],[75.6692,29.0412],[75.7211,29.015],[75.7308,29.0422],[75.7715,29.061],[75.7485,29.1689],[75.8498,29.2427],[75.8475,29.351],[75.888,29.3877],[75.8872,29.4238],[75.9487,29.4428],[75.948,29.4789],[76.0182,29.5792],[76.0595,29.5798],[76.1001,29.6165],[76.183,29.5996],[76.2033,29.6179],[76.3685,29.6201],[76.3889,29.6384],[76.4922,29.6396],[76.5549,29.5861],[76.5959,29.6046],[76.6261,29.6681],[76.5735,29.7307],[76.4079,29.7468],[76.3452,29.7822],[76.2832,29.7814],[76.2517,29.808],[76.3023,29.8718],[76.468,29.8739],[76.5932,29.8031],[76.6353,29.7494],[76.6975,29.732],[76.7591,29.7686],[76.8418,29.7694],[76.8627,29.7515],[76.9866,29.7706],[76.9967,29.7977],[76.9758,29.8156],[77.0273,29.8431],[77.0372,29.8882],[77.1093,29.9339],[77.2543,29.9348],[77.2751,29.9168],[77.3372,29.9172],[77.3789,29.8813],[77.4202,29.8995],[77.5237,29.8999],[77.5754,29.9272],[77.5234,29.9721],[77.4198,29.9717],[77.3158,30.0253],[77.2121,30.0247],[77.1911,30.0607],[77.1289,30.0603],[77.0869,30.1141],[77.0245,30.1317],[76.9416,30.113],[76.9102,30.1398],[76.9096,30.194],[76.8156,30.2383],[76.6494,30.2367],[76.4616,30.2888]]]]}},{"type":"Feature","properties":{"cell":235,"feature":2219,"phase":"Unclassified","min_bt_K":228.4,"area_km2":4764,"cold_core_km2":0,"speed_kmh":74.5,"heading_deg":19,"d_min_bt_30":-1.6,"age_min":30,"family":5,"touches_missing":true,"lon":73.9693,"lat":31.9486,"merges_splits_so_far":3},"geometry":{"type":"MultiPolygon","coordinates":[[[[74.3812,32.5216],[74.34,32.4844],[74.2352,32.4454],[74.2154,32.4088],[74.0894,32.369],[73.9675,32.2391],[73.925,32.2378],[73.8944,32.2098],[73.8365,32.0817],[73.7754,32.0256],[73.6568,31.8414],[73.6584,31.8053],[73.5959,31.7852],[73.5976,31.7492],[73.6626,31.7153],[73.6221,31.6778],[73.649,31.5524],[73.6708,31.5351],[73.6304,31.4977],[73.6354,31.3896],[73.6152,31.3709],[73.637,31.3536],[73.6419,31.2455],[73.6855,31.2108],[73.7206,31.1307],[73.7602,31.1861],[73.8658,31.1714],[73.8961,31.1994],[73.8829,31.2622],[73.8619,31.2615],[73.8425,31.2248],[73.8106,31.2328],[73.8511,31.2702],[73.8487,31.3243],[73.8059,31.341],[73.8464,31.3783],[73.8448,31.4143],[73.8868,31.4157],[73.8884,31.3796],[73.8573,31.3696],[73.8479,31.3423],[73.8915,31.3075],[73.9039,31.2628],[73.911,31.3442],[73.9499,31.4176],[73.9912,31.4369],[73.9897,31.4729],[73.9578,31.481],[73.9383,31.4443],[73.925,31.507],[73.8822,31.5238],[73.8782,31.6139],[73.8564,31.6312],[73.8743,31.704],[73.9048,31.732],[73.9173,31.6872],[73.9384,31.6879],[73.9579,31.7246],[73.954,31.8147],[74.0449,31.9166],[74.0668,31.8992],[74.1294,31.9191],[74.1513,31.9017],[74.2249,31.9129],[74.1541,32.0913],[74.2681,32.1576],[74.4164,32.1617],[74.478,32.2175],[74.5409,32.2372],[74.5608,32.2738],[74.6354,32.2667],[74.6341,32.3027],[74.5691,32.3371],[74.5445,32.4267],[74.4478,32.4512],[74.3812,32.5216]]]]}},{"type":"Feature","properties":{"cell":237,"feature":2223,"phase":"Unclassified","min_bt_K":232.0,"area_km2":9260,"cold_core_km2":0,"speed_kmh":5.9,"heading_deg":178,"d_min_bt_30":2.0,"age_min":30,"family":5,"touches_missing":false,"lon":75.3952,"lat":33.1287,"merges_splits_so_far":4},"geometry":{"type":"MultiPolygon","coordinates":[[[[76.7451,34.0082],[76.4422,34.005],[76.4425,33.987],[76.4858,33.9874],[76.5187,33.9608],[76.4341,33.8515],[76.4579,33.7255],[76.3832,33.6795],[76.2755,33.6782],[76.1904,33.6229],[76.1257,33.622],[76.0838,33.5673],[75.9977,33.5661],[75.9129,33.5106],[75.7838,33.5085],[75.7627,33.4902],[75.7197,33.4894],[75.6973,33.5251],[75.5041,33.5036],[75.4511,33.4756],[75.4537,33.3854],[75.4013,33.3393],[75.3154,33.3376],[75.2714,33.3728],[75.0996,33.3692],[75.0363,33.3317],[74.8444,33.2912],[74.8346,33.2639],[74.7092,33.1707],[74.6904,33.098],[74.7443,33.0903],[74.8079,33.1099],[74.8494,33.147],[74.8636,33.0481],[74.9962,32.9248],[74.9974,32.8888],[74.8601,32.8405],[74.829,32.8127],[74.8309,32.7586],[74.7791,32.7123],[74.7262,32.702],[75.0569,32.7006],[75.0788,32.6831],[75.2701,32.7052],[75.3533,32.779],[75.4377,32.8167],[75.4992,32.9081],[75.5415,32.927],[75.5847,32.9097],[75.627,32.9285],[75.6488,32.9108],[75.7329,32.9664],[75.8063,33.0308],[75.8045,33.1029],[75.7507,33.1111],[75.7175,33.1556],[75.7914,33.202],[75.8557,33.203],[75.9183,33.2762],[76.0896,33.2968],[76.1525,33.3698],[76.2483,33.4162],[76.2472,33.4703],[76.2254,33.4881],[76.4058,33.6257],[76.556,33.6635],[76.7499,33.6654],[76.8139,33.7201],[76.9004,33.7028],[76.9439,33.6671],[77.0517,33.6679],[77.0618,33.7311],[77.0398,33.767],[76.9965,33.7848],[76.9958,33.8389],[77.0388,33.8572],[77.038,33.9294],[77.0593,33.9656],[77.1023,33.984],[76.767,33.9903],[76.7451,34.0082]]],[[[74.9437,33.2123],[74.9664,33.1767],[74.9137,33.1485],[74.9008,33.2113],[74.9437,33.2123]]],[[[76.6285,33.8537],[76.6187,33.7904],[76.5211,33.8164],[76.5959,33.8623],[76.6285,33.8537]]]]}},{"type":"Feature","properties":{"cell":238,"feature":2226,"phase":"Developing","min_bt_K":224.5,"area_km2":7764,"cold_core_km2":0,"speed_kmh":77.1,"heading_deg":36,"d_min_bt_30":-4.5,"age_min":30,"family":198,"touches_missing":true,"lon":72.5809,"lat":33.1646,"merges_splits_so_far":2},"geometry":{"type":"MultiPolygon","coordinates":[[[[72.8707,33.609],[72.7642,33.5868],[72.7039,33.5123],[72.6609,33.5106],[72.5792,33.4351],[72.4085,33.41],[72.3734,33.4537],[72.3406,33.4613],[72.3225,33.4064],[72.1984,33.3288],[72.1238,33.3166],[72.1184,33.2351],[72.044,33.2228],[72.0714,33.1337],[72.0511,33.1148],[72.0547,33.0608],[71.9941,33.0039],[72.0096,32.77],[71.9894,32.751],[72.0013,32.5711],[72.0349,32.5455],[72.0639,32.5919],[72.1166,32.6033],[72.196,32.697],[72.26,32.6998],[72.2802,32.7187],[72.4507,32.7259],[72.4955,32.6917],[72.5381,32.6934],[72.5616,32.6583],[72.6255,32.6609],[72.6447,32.6978],[72.73,32.7012],[72.7359,32.7826],[72.805,32.8846],[72.9748,32.9091],[73.1939,33.0164],[73.1594,33.0603],[73.1511,33.0149],[73.1297,33.0141],[73.1161,33.2663],[73.0834,33.2741],[73.063,33.2553],[73.0058,33.3163],[73.0478,33.336],[73.0448,33.39],[73.0765,33.4002],[73.0857,33.4276],[72.8707,33.609]]]]}},{"type":"Feature","properties":{"cell":240,"feature":2215,"phase":"Unclassified","min_bt_K":224.4,"area_km2":4128,"cold_core_km2":0,"speed_kmh":null,"heading_deg":null,"d_min_bt_30":null,"age_min":0,"family":5,"touches_missing":true,"lon":76.2122,"lat":29.2801,"merges_splits_so_far":1},"geometry":{"type":"MultiPolygon","coordinates":[[[[76.5131,29.6218],[76.4511,29.6211],[76.4104,29.5845],[76.3479,29.6198],[76.2653,29.6187],[76.2249,29.5641],[76.1228,29.5085],[76.0196,29.507],[75.9986,29.5248],[75.948,29.4789],[75.9487,29.4428],[75.8872,29.4238],[75.888,29.3877],[75.8475,29.351],[75.8498,29.2427],[75.8095,29.206],[75.8513,29.1706],[75.7703,29.1151],[75.8218,29.1069],[76.0088,29.0016],[76.1525,29.0037],[76.3561,29.1147],[76.4169,29.1695],[76.7241,29.2631],[76.7542,29.3265],[76.733,29.3805],[76.7531,29.4167],[76.7321,29.4526],[76.7008,29.4794],[76.6596,29.479],[76.5131,29.6218]]]]}},{"type":"Feature","properties":{"cell":241,"feature":2217,"phase":"Unclassified","min_bt_K":233.3,"area_km2":724,"cold_core_km2":0,"speed_kmh":null,"heading_deg":null,"d_min_bt_30":null,"age_min":0,"family":5,"touches_missing":false,"lon":74.877,"lat":30.0597,"merges_splits_so_far":1},"geometry":{"type":"MultiPolygon","coordinates":[[[[74.7388,30.1854],[74.6765,30.1838],[74.6677,30.1385],[74.6926,30.0128],[74.7453,29.987],[74.8697,29.99],[74.9329,29.9554],[74.9951,29.9569],[75.1274,30.041],[75.0216,30.1108],[75.0099,30.1557],[74.8444,30.1338],[74.7388,30.1854]]]]}},{"type":"Feature","properties":{"cell":243,"feature":2222,"phase":"Unclassified","min_bt_K":232.4,"area_km2":10888,"cold_core_km2":0,"speed_kmh":null,"heading_deg":null,"d_min_bt_30":null,"age_min":0,"family":5,"touches_missing":false,"lon":75.954,"lat":32.7181,"merges_splits_so_far":1},"geometry":{"type":"MultiPolygon","coordinates":[[[[77.2054,33.3441],[76.9048,33.342],[76.8835,33.3238],[76.776,33.3409],[76.734,33.2683],[76.6697,33.2677],[76.6256,33.3394],[76.5612,33.3388],[76.3699,33.2283],[76.2842,33.2272],[76.2624,33.245],[76.2212,33.1542],[76.1246,33.1619],[76.1664,33.2166],[76.1551,33.2436],[76.1337,33.2433],[76.0919,33.1885],[75.9208,33.1679],[75.8578,33.1128],[75.8045,33.1029],[75.8063,33.0308],[75.7329,32.9664],[75.6488,32.9108],[75.627,32.9285],[75.6061,32.9101],[75.5629,32.9273],[75.4992,32.9081],[75.4481,32.826],[75.3013,32.7329],[75.3237,32.6972],[75.2816,32.6783],[75.2843,32.5882],[75.2428,32.5513],[75.2449,32.4791],[75.3424,32.418],[75.4062,32.4192],[75.4181,32.3744],[75.4715,32.3664],[75.5366,32.3135],[75.664,32.3157],[75.6857,32.2981],[75.7494,32.2992],[75.7927,32.2638],[75.8988,32.2655],[75.9409,32.2842],[75.9613,32.3206],[76.0038,32.3213],[76.1088,32.3769],[76.3422,32.3981],[76.3942,32.4619],[76.3933,32.516],[76.4463,32.5256],[76.5729,32.5992],[76.6676,32.6814],[76.667,32.7174],[76.7094,32.7359],[76.7089,32.772],[76.6555,32.7805],[76.5923,32.7257],[76.5382,32.7702],[76.5377,32.8063],[76.4297,32.8772],[76.4501,32.9316],[76.5242,32.9775],[76.7162,33.0156],[76.7371,33.0519],[76.8436,33.0889],[76.8646,33.1252],[76.9501,33.1439],[76.9925,33.1803],[77.2707,33.2363],[77.3455,33.2817],[77.2054,33.3441]]]]}}]}