{"type":"FeatureCollection","features":[{"type":"Feature","properties":{"cell":108,"feature":2307,"phase":"Developing","min_bt_K":230.1,"area_km2":8756,"cold_core_km2":0,"speed_kmh":63.0,"heading_deg":199,"d_min_bt_30":-0.9,"age_min":390,"family":5,"touches_missing":true,"lon":75.0806,"lat":32.0212,"merges_splits_so_far":46},"geometry":{"type":"MultiPolygon","coordinates":[[[[75.3435,32.3819],[75.2389,32.3257],[74.8136,32.3342],[74.793,32.3157],[74.645,32.294],[74.4951,32.3262],[74.4225,32.2792],[74.3836,32.1879],[74.4055,32.1704],[74.411,32.0263],[74.5906,32.04],[74.6548,32.0236],[74.6753,32.0421],[74.7388,32.0437],[74.7292,32.0164],[74.7516,31.9809],[74.838,31.9288],[74.8175,31.9103],[74.8199,31.8382],[74.8851,31.7856],[74.8242,31.712],[74.8995,31.6687],[74.9109,31.6419],[74.8278,31.6038],[74.808,31.5673],[74.8206,31.5044],[74.968,31.5079],[75.0954,31.4746],[75.1569,31.5301],[75.2406,31.5499],[75.2606,31.5864],[75.3027,31.5873],[75.3438,31.6242],[75.4071,31.6254],[75.5143,31.5553],[75.6407,31.5576],[75.6604,31.6121],[75.7236,31.6132],[75.7335,31.6404],[75.7856,31.6684],[75.8385,31.6602],[75.8398,31.6061],[75.7985,31.5693],[75.8311,31.5248],[75.8942,31.5258],[75.9145,31.5622],[75.9988,31.5635],[76.0287,31.6451],[75.9643,31.6983],[75.9838,31.7707],[75.9615,31.8245],[75.8762,31.8593],[75.8642,31.9222],[75.8008,31.9212],[75.714,32.0099],[75.6717,32.0092],[75.6285,32.0445],[75.3749,32.0217],[75.3213,32.0477],[75.3311,32.075],[75.3838,32.085],[75.434,32.1852],[75.4552,32.1856],[75.467,32.1408],[75.5424,32.0971],[75.6116,32.2878],[75.5791,32.3142],[75.4305,32.3114],[75.3974,32.3559],[75.3435,32.3819]]]]}},{"type":"Feature","properties":{"cell":194,"feature":2297,"phase":"Developing","min_bt_K":220.3,"area_km2":25524,"cold_core_km2":8,"speed_kmh":46.6,"heading_deg":87,"d_min_bt_30":-4.3,"age_min":210,"family":5,"touches_missing":true,"lon":74.5623,"lat":29.4475,"merges_splits_so_far":11},"geometry":{"type":"MultiPolygon","coordinates":[[[[74.4073,30.1587],[74.3657,30.1576],[74.3155,30.1111],[74.2473,29.9919],[74.1437,29.9889],[74.1244,29.9523],[73.9379,29.9467],[73.898,29.9093],[73.8566,29.908],[73.7561,29.8327],[73.6948,29.8127],[73.6856,29.7853],[73.645,29.7659],[73.668,29.7125],[73.6513,29.6217],[73.6727,29.6044],[73.5405,29.5549],[73.5008,29.5175],[73.4596,29.516],[73.4307,29.4699],[73.4775,29.3452],[73.4585,29.3085],[73.5013,29.2738],[73.4831,29.2191],[73.5266,29.1664],[73.5297,29.0943],[73.6248,29.0344],[73.6446,29.0531],[73.9003,28.8266],[73.9413,28.8279],[73.9837,28.7931],[74.0451,28.7949],[74.1502,28.7259],[74.4777,28.735],[74.5397,28.7186],[74.6403,28.7754],[74.885,28.8175],[74.9254,28.8365],[74.9648,28.8915],[75.0269,28.8749],[75.1965,29.05],[75.1329,29.1208],[75.1825,29.1851],[75.204,29.1494],[75.3078,29.1155],[75.5338,29.1199],[75.5548,29.1023],[75.6164,29.1034],[75.6252,29.1667],[75.7155,29.2675],[75.7772,29.2686],[75.8607,29.2158],[75.9018,29.2165],[76.0937,29.4089],[76.0714,29.4988],[76.0399,29.5254],[75.9675,29.5333],[76.0067,29.6422],[75.8925,29.6675],[75.8609,29.694],[75.8489,29.775],[75.7868,29.774],[75.7568,29.7284],[75.726,29.7188],[75.6636,29.7358],[75.5373,29.8237],[75.5171,29.8053],[75.455,29.8041],[75.4334,29.8398],[75.3295,29.8558],[75.3179,29.9006],[75.2442,29.9442],[75.078,29.9587],[75.0567,29.9763],[74.9531,29.9739],[74.9318,29.9915],[74.8075,29.9885],[74.7021,30.0401],[74.6191,30.038],[74.5758,30.091],[74.4073,30.1587]]],[[[75.2906,29.3768],[75.3739,29.3424],[75.3442,29.2967],[75.2824,29.2954],[75.2297,29.3395],[75.2393,29.3667],[75.2906,29.3768]]]]}},{"type":"Feature","properties":{"cell":213,"feature":2310,"phase":"Developing","min_bt_K":225.1,"area_km2":8500,"cold_core_km2":0,"speed_kmh":38.2,"heading_deg":238,"d_min_bt_30":-1.9,"age_min":120,"family":198,"touches_missing":true,"lon":74.3323,"lat":33.6738,"merges_splits_so_far":4},"geometry":{"type":"MultiPolygon","coordinates":[[[[74.6672,34.0087],[74.0399,33.9916],[73.9688,33.8902],[73.9057,33.8522],[73.8675,33.7428],[73.8063,33.6687],[73.808,33.6327],[73.6917,33.5838],[73.6469,33.6185],[73.6271,33.5817],[73.5737,33.571],[73.5567,33.4802],[73.6127,33.4369],[73.6763,33.457],[73.7098,33.431],[73.6695,33.3756],[73.673,33.3035],[73.7176,33.2689],[73.7193,33.2328],[73.8085,33.1635],[73.8101,33.1274],[73.8991,33.058],[73.8793,33.0213],[73.957,32.9605],[74.0101,32.9712],[73.9871,33.0066],[73.9973,33.2595],[74.0497,33.2881],[74.1205,33.3894],[74.2768,33.5112],[74.3628,33.5135],[74.3962,33.4874],[74.4191,33.4519],[74.4227,33.3618],[74.4456,33.3263],[74.4782,33.3181],[74.5398,33.3919],[74.625,33.4122],[74.709,33.4684],[74.7735,33.47],[74.8355,33.5436],[74.8994,33.5631],[74.9621,33.6187],[75.0698,33.6211],[75.1117,33.6581],[75.1868,33.6687],[75.2015,33.8856],[75.1005,34.0007],[74.6895,33.9912],[74.6672,34.0087]]]]}},{"type":"Feature","properties":{"cell":219,"feature":2302,"phase":"Developing","min_bt_K":230.1,"area_km2":15960,"cold_core_km2":0,"speed_kmh":10.6,"heading_deg":100,"d_min_bt_30":2.6,"age_min":90,"family":5,"touches_missing":true,"lon":75.4569,"lat":30.6383,"merges_splits_so_far":8},"geometry":{"type":"MultiPolygon","coordinates":[[[[75.5447,31.1951],[75.4622,31.1394],[75.3573,31.1373],[75.3144,31.1726],[75.2095,31.1704],[75.1477,31.133],[75.0837,31.1677],[75.0015,31.1117],[74.708,31.1048],[74.6864,31.1223],[74.6661,31.1037],[74.5194,31.1],[74.4889,31.0721],[74.5004,31.0453],[74.4375,31.0437],[74.4179,31.007],[74.2713,31.003],[74.2099,30.9652],[74.1782,30.9733],[74.1761,31.0274],[74.0995,31.1063],[74.0684,31.0964],[74.0908,31.061],[74.0814,31.0336],[74.0156,31.1038],[73.9528,31.1019],[73.9248,31.0199],[74.01,30.9864],[74.0447,30.9062],[74.1702,30.9099],[74.2351,30.8576],[74.3592,30.8972],[74.4219,30.8989],[74.4435,30.8814],[74.484,30.9186],[74.5265,30.9017],[74.5886,30.9213],[74.6102,30.9038],[74.6938,30.906],[74.7101,30.735],[74.6607,30.6525],[74.5981,30.6509],[74.5766,30.6684],[74.5058,30.6034],[74.509,30.5133],[74.6258,30.4532],[74.6662,30.4903],[74.7091,30.4553],[74.8132,30.4578],[74.8672,30.3959],[74.9735,30.3262],[74.9858,30.2634],[75.1318,30.2486],[75.1744,30.2134],[75.3633,30.1451],[75.4693,30.057],[75.532,30.0401],[75.6348,30.0781],[75.7385,30.0799],[75.7792,30.1167],[75.8207,30.1174],[75.8822,30.1545],[75.943,30.2276],[76.0261,30.2288],[76.0342,30.3462],[76.1273,30.3747],[76.1682,30.4113],[76.2098,30.4119],[76.2297,30.4663],[76.3537,30.522],[76.3637,30.5492],[76.4256,30.586],[76.3316,30.5939],[76.2999,30.6205],[76.3201,30.6569],[76.2778,30.6924],[76.2771,30.7285],[76.108,30.8344],[76.1073,30.8705],[76.1385,30.88],[76.1896,30.9438],[76.168,30.9796],[76.1886,30.9979],[76.1463,31.0154],[76.1659,31.0878],[76.113,31.1141],[76.0913,31.1499],[76.0284,31.149],[76.0078,31.1306],[75.9865,31.1484],[75.7562,31.1266],[75.5447,31.1951]]],[[[75.0156,30.9948],[75.0167,30.9587],[75.0698,30.9328],[75.1026,30.8884],[74.8861,30.7843],[74.8713,30.9193],[74.9126,30.9383],[74.8905,30.9739],[74.9211,31.0016],[75.0156,30.9948]]]]}},{"type":"Feature","properties":{"cell":230,"feature":2299,"phase":"Developing","min_bt_K":229.0,"area_km2":8044,"cold_core_km2":0,"speed_kmh":63.6,"heading_deg":64,"d_min_bt_30":-0.6,"age_min":60,"family":5,"touches_missing":true,"lon":76.3795,"lat":29.9938,"merges_splits_so_far":2},"geometry":{"type":"MultiPolygon","coordinates":[[[[76.7725,30.3642],[76.7211,30.3186],[76.7007,30.2823],[76.7218,30.2645],[76.691,30.2371],[76.6281,30.2725],[76.5865,30.2721],[76.4627,30.2166],[76.4208,30.2341],[76.3802,30.1795],[76.2137,30.1954],[76.1926,30.2132],[75.943,30.2276],[75.8924,30.1636],[75.8207,30.1174],[75.7792,30.1167],[75.7385,30.0799],[75.6247,30.0689],[75.6513,29.8168],[75.5897,29.7976],[75.6636,29.7358],[75.726,29.7188],[75.7467,29.7192],[75.7868,29.774],[75.8489,29.775],[75.8609,29.694],[75.9342,29.6501],[76.0067,29.6422],[75.9675,29.5333],[76.0609,29.5076],[76.163,29.5632],[76.2043,29.5638],[76.2446,29.6185],[76.3886,29.6564],[76.4087,29.6927],[76.4804,29.7387],[76.479,29.8289],[76.5096,29.8563],[76.551,29.8567],[76.5917,29.9113],[76.8607,29.9319],[76.9128,29.9053],[76.8929,29.833],[76.9242,29.8062],[77.0069,29.8068],[77.0278,29.7889],[77.0483,29.8071],[77.2552,29.8085],[77.2235,29.8895],[77.1197,29.9249],[77.2642,29.998],[77.2842,30.0883],[77.2213,30.1781],[77.2209,30.2322],[77.1479,30.2589],[76.9818,30.2396],[76.9399,30.2754],[76.8568,30.2747],[76.7725,30.3642]]]]}},{"type":"Feature","properties":{"cell":235,"feature":2306,"phase":"Developing","min_bt_K":228.1,"area_km2":5704,"cold_core_km2":0,"speed_kmh":53.4,"heading_deg":52,"d_min_bt_30":-0.2,"age_min":60,"family":5,"touches_missing":true,"lon":74.1929,"lat":32.0959,"merges_splits_so_far":3},"geometry":{"type":"MultiPolygon","coordinates":[[[[74.6965,32.6381],[74.6538,32.637],[74.6126,32.5999],[74.5281,32.5797],[74.4889,32.4884],[74.4053,32.4501],[74.277,32.4646],[74.2374,32.3913],[74.1524,32.3889],[74.1232,32.3249],[74.0602,32.305],[74.0641,32.2149],[74.0232,32.1776],[74.0247,32.1416],[73.9824,32.1403],[73.9737,32.0949],[73.9204,32.1023],[73.9156,32.2105],[73.9565,32.2478],[73.9549,32.2838],[73.9227,32.2919],[73.9022,32.2732],[73.8794,32.3086],[73.808,32.2432],[73.8308,32.2078],[73.8137,32.1171],[73.8788,32.083],[73.8796,32.065],[73.8381,32.0457],[73.8828,31.9929],[73.7599,31.8988],[73.807,31.7921],[73.747,31.718],[73.7502,31.6459],[73.8057,31.5845],[73.8681,31.6045],[73.9017,31.5605],[73.8494,31.5498],[73.7793,31.4664],[73.8238,31.4137],[73.8253,31.3776],[73.7857,31.3223],[73.7982,31.2776],[73.8394,31.2969],[73.8619,31.2615],[73.9755,31.3101],[74.0145,31.3835],[73.9897,31.4729],[74.0716,31.5295],[74.0273,31.5823],[73.9844,31.5991],[74.025,31.6364],[74.022,31.7085],[74.0626,31.7458],[74.0713,31.7911],[74.1033,31.783],[74.1158,31.7383],[74.1245,31.7837],[74.2067,31.8402],[74.2563,31.9228],[74.3204,31.9065],[74.3831,31.9263],[74.5985,31.8237],[74.6926,31.8531],[74.6919,31.8712],[74.649,31.8881],[74.69,31.9252],[74.7086,31.9979],[74.6759,32.0241],[74.6124,32.0225],[74.5906,32.04],[74.422,32.0175],[74.4055,32.1704],[74.3836,32.1879],[74.4225,32.2792],[74.4951,32.3262],[74.7087,32.2956],[74.7293,32.3141],[74.9089,32.3455],[74.9071,32.3996],[74.8736,32.4439],[74.7461,32.4408],[74.7132,32.4671],[74.6907,32.5026],[74.6965,32.6381]]]]}},{"type":"Feature","properties":{"cell":237,"feature":2309,"phase":"Unclassified","min_bt_K":232.0,"area_km2":7364,"cold_core_km2":0,"speed_kmh":23.4,"heading_deg":135,"d_min_bt_30":-0.0,"age_min":60,"family":5,"touches_missing":false,"lon":75.4841,"lat":33.0546,"merges_splits_so_far":4},"geometry":{"type":"MultiPolygon","coordinates":[[[[76.5758,33.7719],[76.5007,33.744],[76.5016,33.6899],[76.4701,33.6445],[76.3839,33.6434],[76.3199,33.6066],[76.1907,33.6049],[76.0842,33.5493],[76.0623,33.567],[75.869,33.546],[75.8378,33.5004],[75.7636,33.4541],[75.5687,33.5048],[75.4987,33.3141],[75.3401,33.2298],[75.2565,33.156],[75.1928,33.1366],[75.0631,33.1699],[74.8709,33.1475],[74.8397,33.1197],[74.8831,33.1027],[74.907,33.031],[74.8453,32.9574],[74.846,32.9394],[74.8893,32.9224],[74.89,32.9043],[74.8478,32.8853],[74.8497,32.8312],[74.893,32.8142],[74.8735,32.7596],[75.0131,32.7358],[75.1007,32.6655],[75.3351,32.6704],[75.4006,32.6176],[75.5289,32.602],[75.5805,32.6661],[75.6189,32.8291],[75.6502,32.8567],[75.7143,32.8579],[75.8198,32.9137],[75.9456,33.024],[76.0094,33.043],[76.0611,33.125],[75.9645,33.1325],[75.9443,33.0781],[75.7735,33.0573],[75.7188,33.1015],[75.7175,33.1556],[75.7909,33.22],[75.8548,33.2391],[75.941,33.2224],[75.9831,33.2591],[76.0685,33.2784],[76.1318,33.3334],[76.1962,33.3343],[76.206,33.3796],[76.2698,33.4165],[76.2691,33.4526],[76.3438,33.4806],[76.4071,33.5535],[76.4935,33.5365],[76.6002,33.5918],[76.6531,33.6554],[76.5666,33.6726],[76.5758,33.7719]]]]}},{"type":"Feature","properties":{"cell":238,"feature":2313,"phase":"Developing","min_bt_K":222.4,"area_km2":6044,"cold_core_km2":0,"speed_kmh":45.3,"heading_deg":42,"d_min_bt_30":-2.1,"age_min":60,"family":198,"touches_missing":true,"lon":72.744,"lat":33.3162,"merges_splits_so_far":3},"geometry":{"type":"MultiPolygon","coordinates":[[[[72.9959,33.686],[72.9753,33.6671],[72.9107,33.6647],[72.8912,33.6279],[72.8482,33.6262],[72.8072,33.5885],[72.7642,33.5868],[72.7039,33.5123],[72.6609,33.5106],[72.5996,33.454],[72.5566,33.4522],[72.499,33.513],[72.5059,33.5765],[72.3677,33.5437],[72.3553,33.3987],[72.256,33.2682],[72.2786,33.2511],[72.2821,33.1971],[72.2415,33.1592],[72.2664,33.1062],[72.2091,32.9954],[72.2114,32.9594],[72.1811,32.931],[72.1384,32.9291],[72.0933,32.9632],[72.0013,32.896],[72.0054,32.6705],[72.1782,32.6421],[72.1825,32.7416],[72.15,32.7492],[72.1151,32.7927],[72.1655,32.8401],[72.2734,32.8267],[72.3127,32.8825],[72.3992,32.8682],[72.4228,32.833],[72.617,32.8049],[72.6405,32.7698],[72.7258,32.7732],[72.7461,32.792],[72.8538,32.7782],[72.8843,32.8064],[72.8833,32.8244],[72.8396,32.8408],[72.8578,32.8956],[72.812,32.948],[72.9149,33.0242],[72.9098,33.1142],[72.9292,33.151],[73.0946,33.2655],[73.1122,33.3383],[73.1634,33.3853],[73.2166,33.3962],[73.1585,33.4754],[73.1155,33.4738],[73.096,33.437],[73.0388,33.498],[73.0563,33.5709],[73.0112,33.6053],[73.043,33.6155],[73.0522,33.6429],[72.9959,33.686]]],[[[72.3836,33.2916],[72.4299,33.2394],[72.4569,33.1503],[72.3644,33.0833],[72.3633,33.1013],[72.4354,33.1494],[72.3892,33.2016],[72.3859,33.2556],[72.3633,33.2727],[72.3622,33.2907],[72.3836,33.2916]]]]}},{"type":"Feature","properties":{"cell":240,"feature":2298,"phase":"Unclassified","min_bt_K":227.2,"area_km2":6728,"cold_core_km2":0,"speed_kmh":44.1,"heading_deg":71,"d_min_bt_30":2.8,"age_min":30,"family":5,"touches_missing":true,"lon":76.4272,"lat":29.3434,"merges_splits_so_far":1},"geometry":{"type":"MultiPolygon","coordinates":[[[[76.6131,29.8574],[76.5096,29.8563],[76.479,29.8289],[76.4804,29.7387],[76.3985,29.6836],[76.3895,29.6023],[76.3688,29.602],[76.3476,29.6378],[76.2856,29.6371],[76.2446,29.6185],[76.2043,29.5638],[76.0812,29.526],[76.0937,29.4089],[76.0127,29.3355],[75.9729,29.2627],[75.974,29.2086],[75.9332,29.1899],[75.9033,29.1443],[75.7594,29.142],[75.7296,29.0964],[75.761,29.0698],[75.8215,29.125],[75.8738,29.0807],[75.8543,29.0263],[75.8857,28.9997],[76.0082,29.0377],[76.0499,29.0022],[76.1737,28.9679],[76.1948,28.9321],[76.2769,28.9332],[76.3185,28.8976],[76.3898,28.9256],[76.4095,28.98],[76.3679,29.0156],[76.4185,29.0613],[76.4796,29.0981],[76.5618,29.099],[76.5613,29.1351],[76.664,29.1362],[76.6945,29.1636],[76.6529,29.1992],[76.6626,29.2444],[76.7244,29.2451],[76.7447,29.2633],[76.9505,29.2651],[76.9807,29.3285],[77.0728,29.3923],[77.1238,29.4558],[77.0928,29.4646],[77.0406,29.5274],[77.1022,29.5639],[77.0295,29.6085],[76.9265,29.5897],[76.8848,29.6254],[76.8331,29.634],[76.7907,29.7238],[76.9346,29.7972],[76.8824,29.8419],[76.6961,29.8402],[76.655,29.8218],[76.6131,29.8574]]]]}},{"type":"Feature","properties":{"cell":241,"feature":2301,"phase":"Developing","min_bt_K":231.1,"area_km2":2368,"cold_core_km2":0,"speed_kmh":11.8,"heading_deg":359,"d_min_bt_30":-2.2,"age_min":30,"family":5,"touches_missing":true,"lon":74.8763,"lat":30.1132,"merges_splits_so_far":1},"geometry":{"type":"MultiPolygon","coordinates":[[[[74.5475,30.3068],[74.528,30.2702],[74.4852,30.3052],[74.2357,30.2983],[74.1855,30.2518],[74.2814,30.1913],[74.3035,30.1559],[74.3456,30.139],[74.4073,30.1587],[74.5758,30.091],[74.6191,30.038],[74.7021,30.0401],[74.8075,29.9885],[74.9318,29.9915],[74.9531,29.9739],[75.1401,29.9601],[75.221,30.034],[75.2625,30.0348],[75.2928,30.0625],[75.2899,30.1707],[75.1318,30.2486],[75.0487,30.2468],[75.0274,30.2643],[74.8617,30.2425],[74.8196,30.2595],[74.7792,30.2224],[74.6961,30.2204],[74.6325,30.2549],[74.5916,30.2358],[74.5475,30.3068]]]]}},{"type":"Feature","properties":{"cell":243,"feature":2308,"phase":"Developing","min_bt_K":231.3,"area_km2":12544,"cold_core_km2":0,"speed_kmh":59.9,"heading_deg":248,"d_min_bt_30":-1.1,"age_min":30,"family":5,"touches_missing":false,"lon":75.6577,"lat":32.6172,"merges_splits_so_far":1},"geometry":{"type":"MultiPolygon","coordinates":[[[[77.1202,33.2714],[77.0344,33.2708],[76.9276,33.2339],[76.7131,33.232],[76.6498,33.1593],[76.5641,33.1584],[76.434,33.2471],[76.3053,33.2455],[76.2627,33.227],[76.1998,33.154],[76.0716,33.1341],[76.0094,33.043],[75.9456,33.024],[75.8198,32.9137],[75.7143,32.8579],[75.6502,32.8567],[75.599,32.7746],[75.5805,32.6661],[75.5289,32.602],[75.4006,32.6176],[75.3351,32.6704],[75.1007,32.6655],[75.0131,32.7358],[74.8632,32.7504],[74.7074,32.6293],[74.6907,32.5026],[74.7461,32.4408],[74.8736,32.4439],[74.9198,32.3367],[75.2389,32.3257],[75.3435,32.3819],[75.3865,32.3647],[75.4305,32.3114],[75.5791,32.3142],[75.6116,32.2878],[75.5513,32.1604],[75.5532,32.0882],[75.5861,32.0437],[75.6285,32.0445],[75.7572,31.9746],[75.7978,32.0474],[75.8398,32.0661],[75.9456,32.0678],[75.978,32.0412],[75.9788,32.0052],[76.0107,31.9966],[76.0627,32.0425],[76.0824,32.115],[75.986,32.1586],[75.9225,32.1577],[75.89,32.1842],[75.8892,32.2203],[75.9513,32.2934],[76.0142,32.3304],[76.013,32.3846],[76.1506,32.4136],[76.2346,32.4689],[76.3622,32.4705],[76.5096,32.5624],[76.5522,32.5629],[76.6678,32.6633],[76.667,32.7174],[76.7094,32.7359],[76.7087,32.79],[76.6657,32.8076],[76.6644,32.8978],[76.6853,32.9341],[76.7381,32.9797],[76.9515,33.0176],[76.9617,33.0628],[77.0786,33.1449],[77.207,33.1637],[77.2389,33.191],[77.2064,33.2359],[77.1202,33.2714]]],[[[76.4489,33.0037],[76.4393,32.9405],[76.4179,32.9402],[76.3959,32.976],[76.3422,32.9844],[76.3525,33.0116],[76.4489,33.0037]]]]}},{"type":"Feature","properties":{"cell":247,"feature":2286,"phase":"Unclassified","min_bt_K":235.0,"area_km2":952,"cold_core_km2":0,"speed_kmh":null,"heading_deg":null,"d_min_bt_30":null,"age_min":0,"family":247,"touches_missing":true,"lon":72.1732,"lat":29.4985,"merges_splits_so_far":0},"geometry":{"type":"MultiPolygon","coordinates":[[[[72.1481,29.681],[72.0273,29.6215],[71.999,29.5751],[72.001,29.3676],[72.2275,29.3777],[72.2461,29.4146],[72.3677,29.456],[72.3971,29.4843],[72.3941,29.5383],[72.3519,29.5545],[72.3282,29.6077],[72.2967,29.6153],[72.274,29.6505],[72.2534,29.6496],[72.2348,29.6127],[72.1481,29.681]]]]}},{"type":"Feature","properties":{"cell":248,"feature":2296,"phase":"Unclassified","min_bt_K":231.2,"area_km2":2336,"cold_core_km2":0,"speed_kmh":null,"heading_deg":null,"d_min_bt_30":null,"age_min":0,"family":5,"touches_missing":true,"lon":76.8025,"lat":28.9261,"merges_splits_so_far":0},"geometry":{"type":"MultiPolygon","coordinates":[[[[76.9105,29.1565],[76.6844,29.1544],[76.6442,29.0819],[76.5821,29.1173],[76.5516,29.0899],[76.5529,28.9997],[76.5737,28.9819],[76.5537,28.9456],[76.5957,28.8738],[76.5152,28.7647],[76.5675,28.684],[76.7112,28.6494],[76.7519,28.6679],[76.8135,28.6504],[76.864,28.714],[76.8634,28.7681],[76.894,28.7774],[77.0564,28.9411],[77.0974,28.9414],[77.138,28.9958],[77.2301,29.0234],[77.2298,29.0595],[77.1781,29.1043],[77.1374,29.068],[77.0547,29.1215],[76.9932,29.103],[76.9105,29.1565]]]]}},{"type":"Feature","properties":{"cell":255,"feature":2314,"phase":"Unclassified","min_bt_K":231.7,"area_km2":3420,"cold_core_km2":0,"speed_kmh":null,"heading_deg":null,"d_min_bt_30":null,"age_min":0,"family":198,"touches_missing":false,"lon":75.7494,"lat":33.9091,"merges_splits_so_far":2},"geometry":{"type":"MultiPolygon","coordinates":[[[[75.5115,34.009],[75.1116,33.9919],[75.2015,33.8856],[75.2033,33.8315],[75.1822,33.813],[75.1979,33.66],[75.283,33.6978],[75.4334,33.7188],[75.4755,33.7557],[75.6912,33.7596],[75.755,33.7968],[75.992,33.8186],[76.0128,33.855],[76.0784,33.8198],[76.1208,33.8565],[76.1859,33.8394],[76.4009,33.8962],[76.4873,33.8973],[76.5095,33.8614],[76.6826,33.8452],[76.7466,33.8999],[76.9195,33.9014],[76.9407,33.9377],[77.0488,33.9385],[77.124,33.9841],[76.9616,33.992],[76.9402,33.9738],[76.8537,33.9731],[76.81,34.0088],[75.5336,33.9914],[75.5115,34.009]]]]}}]}