{"type":"FeatureCollection","features":[{"type":"Feature","properties":{"cell":108,"feature":2374,"phase":"Developing","min_bt_K":233.1,"area_km2":4328,"cold_core_km2":0,"speed_kmh":109.8,"heading_deg":151,"d_min_bt_30":3.0,"age_min":420,"family":5,"touches_missing":true,"lon":75.3624,"lat":31.5886,"merges_splits_so_far":46},"geometry":{"type":"MultiPolygon","coordinates":[[[[75.6487,32.0809],[75.5852,32.0798],[75.5645,32.0614],[75.4798,32.0598],[75.4581,32.0774],[75.3956,32.0401],[75.3104,32.0565],[75.3016,31.9932],[75.3336,31.9848],[75.3883,31.9227],[75.3465,31.9039],[75.3274,31.8313],[75.2857,31.8124],[75.2662,31.7579],[75.132,31.6559],[75.0066,31.617],[74.8591,31.6136],[74.8188,31.5585],[74.6937,31.5194],[74.6299,31.5358],[74.5578,31.4889],[74.5795,31.4714],[74.5841,31.3452],[74.4898,31.3337],[74.4803,31.3064],[74.5345,31.2627],[74.5758,31.2818],[74.6064,31.3097],[74.6051,31.3457],[74.6872,31.4019],[74.6535,31.4642],[74.7587,31.4669],[74.7803,31.4493],[74.8417,31.5049],[74.9259,31.5069],[74.9662,31.562],[74.9981,31.5537],[74.9805,31.445],[75.035,31.3831],[75.1401,31.3854],[75.2647,31.4422],[75.277,31.3793],[75.3093,31.3529],[75.5615,31.3577],[75.6335,31.4222],[75.6308,31.5304],[75.6833,31.5403],[75.7344,31.6043],[75.7335,31.6404],[75.6263,31.7107],[75.6681,31.7295],[75.6861,31.8561],[75.8746,31.9314],[75.8742,31.9494],[75.7127,32.064],[75.6487,32.0809]]]]}},{"type":"Feature","properties":{"cell":194,"feature":2371,"phase":"Decaying","min_bt_K":234.1,"area_km2":12240,"cold_core_km2":0,"speed_kmh":35.0,"heading_deg":155,"d_min_bt_30":13.9,"age_min":240,"family":5,"touches_missing":true,"lon":74.6376,"lat":29.304,"merges_splits_so_far":12},"geometry":{"type":"MultiPolygon","coordinates":[[[[74.6885,29.8232],[74.4402,29.8168],[74.3895,29.7883],[74.3908,29.7523],[74.3608,29.7244],[74.2974,29.7587],[74.2354,29.757],[74.1768,29.6651],[74.1355,29.6639],[74.0137,29.6061],[73.9517,29.6042],[73.9083,29.657],[73.8463,29.6551],[73.8179,29.591],[73.8261,29.3928],[73.8894,29.3587],[73.9128,29.2872],[73.8724,29.2679],[73.854,29.2132],[73.8037,29.1845],[73.7945,29.1572],[73.8584,29.1051],[73.8719,29.0243],[73.9328,29.0442],[73.9753,29.0094],[74.16,29.0149],[74.2235,28.9626],[74.2857,28.9463],[74.2976,28.9015],[74.2784,28.8649],[74.3312,28.8213],[74.3722,28.8224],[74.4045,28.7782],[74.4566,28.7525],[74.6204,28.7568],[74.7217,28.7955],[74.988,28.8018],[74.9995,28.7569],[75.1149,28.6603],[75.1343,28.6968],[75.1753,28.6977],[75.2457,28.7443],[75.2238,28.7979],[75.3845,28.9276],[75.4036,28.9821],[75.4442,29.0009],[75.4014,29.0723],[75.3178,29.1247],[75.3164,29.1788],[75.2638,29.2229],[75.1815,29.2211],[75.0756,29.3271],[75.0238,29.335],[75.0201,29.4612],[74.9884,29.4876],[74.9477,29.4686],[74.8318,29.547],[74.8094,29.6006],[74.8295,29.6192],[74.8273,29.6913],[74.7624,29.7799],[74.6885,29.8232]]],[[[73.9554,29.2524],[73.9767,29.235],[73.9264,29.2064],[73.9143,29.2512],[73.9554,29.2524]]]]}},{"type":"Feature","properties":{"cell":213,"feature":2377,"phase":"Developing","min_bt_K":230.0,"area_km2":8036,"cold_core_km2":0,"speed_kmh":35.6,"heading_deg":194,"d_min_bt_30":4.9,"age_min":150,"family":198,"touches_missing":true,"lon":74.2851,"lat":33.5181,"merges_splits_so_far":5},"geometry":{"type":"MultiPolygon","coordinates":[[[[74.6239,34.0076],[74.2995,33.999],[74.257,33.9798],[74.2473,33.9525],[74.2697,33.9351],[74.2168,33.9065],[74.1136,33.7953],[74.0273,33.7927],[73.9745,33.7641],[73.977,33.71],[73.9244,33.6814],[73.8527,33.598],[73.8346,33.5252],[73.7502,33.4865],[73.7545,33.3964],[73.7983,33.3797],[73.8,33.3437],[73.7794,33.325],[73.782,33.2709],[73.7502,33.2609],[73.7408,33.2335],[73.8299,33.1641],[73.8093,33.1455],[73.8118,33.0914],[73.7596,33.0627],[73.7296,33.0166],[73.786,32.9552],[73.9768,32.9972],[74.1219,33.1098],[74.206,33.1483],[74.3131,33.1513],[74.3796,33.099],[74.5081,33.1024],[74.7072,33.2247],[74.7052,33.2788],[74.8087,33.3896],[74.7846,33.4612],[74.8687,33.5173],[74.8877,33.5899],[74.9295,33.627],[74.9282,33.6631],[74.8937,33.7254],[74.7879,33.6688],[74.7552,33.677],[74.7512,33.7852],[74.729,33.8027],[74.7263,33.8748],[74.7472,33.8934],[74.6239,34.0076]]]]}},{"type":"Feature","properties":{"cell":219,"feature":2373,"phase":"Developing","min_bt_K":230.0,"area_km2":23000,"cold_core_km2":0,"speed_kmh":69.1,"heading_deg":34,"d_min_bt_30":-0.1,"age_min":120,"family":5,"touches_missing":true,"lon":75.6565,"lat":30.8982,"merges_splits_so_far":11},"geometry":{"type":"MultiPolygon","coordinates":[[[[75.934,31.6347],[75.7443,31.6316],[75.7142,31.5679],[75.6308,31.5304],[75.6335,31.4222],[75.5615,31.3577],[75.3093,31.3529],[75.277,31.3793],[75.2647,31.4422],[75.2027,31.4048],[75.035,31.3831],[74.9731,31.3456],[74.9095,31.3622],[74.8806,31.2803],[74.8092,31.2155],[74.7672,31.2145],[74.7475,31.1779],[74.7259,31.1954],[74.7055,31.1769],[74.6839,31.1944],[74.6636,31.1758],[74.4748,31.1709],[74.4653,31.1436],[74.424,31.1245],[74.4673,31.0896],[74.4369,31.0617],[74.3307,31.0949],[74.2895,31.0757],[74.2989,31.103],[74.2665,31.1292],[74.1812,31.1628],[74.1609,31.1442],[74.1465,31.243],[74.2073,31.2989],[74.2051,31.353],[74.0472,31.3574],[74.0393,31.294],[74.061,31.2766],[74.0423,31.2219],[73.9801,31.202],[74.0025,31.1666],[74.0669,31.1324],[74.0684,31.0964],[74.1768,31.0093],[74.1371,30.9541],[74.1385,30.918],[74.0656,30.9068],[74.0354,30.8789],[74.0174,30.8062],[74.1039,30.7366],[74.1161,30.6918],[74.2615,30.714],[74.3262,30.6617],[74.3888,30.6634],[74.4103,30.646],[74.4305,30.6646],[74.5557,30.6679],[74.6423,30.5799],[74.6631,30.5804],[74.7233,30.6541],[74.7858,30.6556],[74.8473,30.6932],[74.889,30.6942],[75.0598,30.5718],[75.1432,30.5736],[75.3575,30.3615],[75.5045,30.3103],[75.5669,30.3114],[75.6509,30.2768],[75.6712,30.2953],[75.7132,30.2779],[75.8999,30.2991],[75.9215,30.2633],[76.0046,30.2646],[76.0257,30.2469],[76.3164,30.2689],[76.3775,30.3419],[76.6261,30.4169],[76.6565,30.4803],[76.521,30.4879],[76.4787,30.5235],[76.4371,30.523],[76.3338,30.4676],[76.2297,30.4663],[76.1883,30.4477],[76.0624,30.5],[76.0719,30.5453],[76.144,30.5914],[76.5199,30.56],[76.6859,30.6159],[76.654,30.6607],[76.7154,30.7515],[76.7149,30.7876],[76.6515,30.8411],[76.7135,30.8958],[76.6707,30.9676],[76.6697,31.0397],[76.5851,31.093],[76.574,31.1379],[76.4797,31.1279],[76.4789,31.182],[76.4573,31.2178],[76.3725,31.2709],[76.3075,31.3784],[76.3069,31.4144],[76.1693,31.4577],[76.1159,31.5021],[76.1683,31.5118],[76.168,31.5298],[76.0413,31.5461],[76.0302,31.573],[75.934,31.6347]]],[[[74.7847,31.0074],[74.8068,30.9719],[74.7781,30.89],[74.7154,30.8884],[74.6539,30.8508],[74.5702,30.8487],[74.4745,30.8913],[74.4827,30.9546],[74.5043,30.9372],[74.5448,30.9743],[74.6704,30.9775],[74.7111,31.0146],[74.7847,31.0074]]],[[[75.0265,31.3198],[74.9958,31.292],[74.9635,31.3183],[75.0265,31.3198]]]]}},{"type":"Feature","properties":{"cell":235,"feature":2375,"phase":"Developing","min_bt_K":228.1,"area_km2":6664,"cold_core_km2":0,"speed_kmh":70.7,"heading_deg":59,"d_min_bt_30":-0.1,"age_min":90,"family":5,"touches_missing":true,"lon":74.5136,"lat":32.2608,"merges_splits_so_far":3},"geometry":{"type":"MultiPolygon","coordinates":[[[[74.904,32.8054],[74.7139,32.7468],[74.5919,32.5813],[74.445,32.5233],[74.4223,32.5588],[74.3797,32.5577],[74.3702,32.5303],[74.3283,32.5112],[74.3305,32.4571],[74.2887,32.4379],[74.3171,32.2582],[74.2645,32.2478],[74.2242,32.1925],[74.1504,32.1814],[74.1322,32.1087],[74.0097,31.9968],[74.0113,31.9607],[73.9298,31.8861],[73.9321,31.832],[73.9118,31.8134],[73.9345,31.778],[73.9149,31.7413],[73.9485,31.6972],[73.9907,31.6985],[74.0781,31.6289],[74.1311,31.6215],[74.1333,31.5674],[74.1769,31.5326],[74.1363,31.4953],[74.1907,31.4518],[74.2327,31.453],[74.2822,31.5356],[74.3236,31.5548],[74.2793,31.6077],[74.3106,31.6176],[74.3303,31.6542],[74.3731,31.6373],[74.4037,31.6652],[74.4207,31.7739],[74.4513,31.8018],[74.5774,31.8232],[74.649,31.8881],[74.6042,31.9592],[74.624,31.9957],[74.6207,32.0859],[74.7241,32.1606],[74.7749,32.225],[74.8179,32.208],[74.9325,32.2738],[74.9295,32.364],[74.9921,32.4015],[74.9702,32.419],[74.9666,32.5272],[74.9442,32.5628],[75.0063,32.6183],[75.0246,32.7089],[74.9924,32.7172],[74.9583,32.7796],[74.904,32.8054]]]]}},{"type":"Feature","properties":{"cell":238,"feature":2379,"phase":"Developing","min_bt_K":224.2,"area_km2":6248,"cold_core_km2":0,"speed_kmh":61.3,"heading_deg":61,"d_min_bt_30":1.8,"age_min":90,"family":198,"touches_missing":true,"lon":73.032,"lat":33.4504,"merges_splits_so_far":4},"geometry":{"type":"MultiPolygon","coordinates":[[[[73.441,33.8462],[73.2899,33.841],[73.2496,33.7854],[73.1633,33.7824],[73.1212,33.7628],[73.1016,33.726],[73.0154,33.7228],[72.9538,33.6663],[72.8892,33.6639],[72.8214,33.7154],[72.7567,33.7129],[72.733,33.7481],[72.6263,33.7258],[72.5876,33.652],[72.481,33.6296],[72.4311,33.5644],[72.4661,33.3492],[72.5563,33.2807],[72.58,33.2456],[72.5607,33.2087],[72.6405,33.1307],[72.7069,33.0973],[72.7711,33.0998],[72.8507,33.0217],[72.7672,32.9824],[72.7815,32.9198],[72.8874,32.9419],[72.9261,33.0156],[73.0777,32.9851],[73.1259,33.0862],[73.2989,33.2638],[73.3511,33.2927],[73.3287,33.31],[73.3912,33.3482],[73.409,33.421],[73.4511,33.4405],[73.4483,33.4946],[73.4801,33.5047],[73.5513,33.5883],[73.4822,33.6762],[73.514,33.6863],[73.5234,33.7137],[73.4785,33.7483],[73.4991,33.767],[73.4541,33.8016],[73.441,33.8462]]],[[[72.8574,33.6536],[72.8482,33.6262],[72.8358,33.6528],[72.8574,33.6536]]]]}},{"type":"Feature","properties":{"cell":240,"feature":2369,"phase":"Unclassified","min_bt_K":231.0,"area_km2":11384,"cold_core_km2":0,"speed_kmh":90.7,"heading_deg":94,"d_min_bt_30":3.8,"age_min":60,"family":5,"touches_missing":true,"lon":76.8929,"lat":29.3111,"merges_splits_so_far":1},"geometry":{"type":"MultiPolygon","coordinates":[[[[77.4832,29.7193],[77.4212,29.7191],[77.3596,29.6647],[77.2148,29.6819],[77.1943,29.6638],[76.9877,29.6623],[76.9674,29.6261],[76.8228,29.6249],[76.7602,29.6784],[76.7189,29.6781],[76.6781,29.6416],[76.5337,29.622],[76.4418,29.5578],[76.3508,29.4394],[76.2887,29.4567],[76.2272,29.4378],[76.1967,29.4103],[76.1974,29.3742],[76.1062,29.2918],[76.065,29.2912],[75.9736,29.2266],[75.9336,29.1719],[75.9343,29.1358],[76.0482,29.0924],[76.0903,29.0389],[76.1313,29.0395],[76.1936,29.0043],[76.2548,29.0231],[76.3578,29.0064],[76.4615,28.9355],[76.5843,28.9549],[76.6249,28.9914],[76.707,28.9923],[76.7484,28.9566],[76.8098,28.9752],[76.9116,29.0482],[76.9529,29.0305],[76.9732,29.0487],[77.0966,29.0316],[77.1374,29.068],[77.1787,29.0321],[77.3019,29.0328],[77.4049,28.9792],[77.4664,28.9795],[77.4559,29.0245],[77.5072,29.0338],[77.5685,29.1062],[77.6711,29.1425],[77.7121,29.1787],[77.7533,29.1788],[77.8354,29.2331],[77.9383,29.2512],[78.0103,29.2963],[77.9691,29.3505],[77.9691,29.3865],[78.0,29.3956],[78.0103,29.4226],[77.9588,29.4677],[77.8969,29.4857],[77.7936,29.5939],[77.711,29.5937],[77.6488,29.6657],[77.6075,29.6656],[77.566,29.7016],[77.504,29.7014],[77.4832,29.7193]]]]}},{"type":"Feature","properties":{"cell":243,"feature":2376,"phase":"Developing","min_bt_K":233.1,"area_km2":18184,"cold_core_km2":0,"speed_kmh":96.9,"heading_deg":26,"d_min_bt_30":1.8,"age_min":60,"family":5,"touches_missing":false,"lon":75.8835,"lat":33.0102,"merges_splits_so_far":2},"geometry":{"type":"MultiPolygon","coordinates":[[[[76.8316,34.009],[75.8259,33.9874],[75.7867,33.8244],[75.9378,33.8268],[75.8841,33.8169],[75.8739,33.7897],[75.8101,33.7526],[75.8325,33.7168],[75.9729,33.71],[76.0372,33.729],[76.0819,33.6575],[76.103,33.6758],[76.1681,33.6587],[76.2324,33.6776],[76.3087,33.6335],[76.3093,33.5974],[76.2141,33.515],[76.1288,33.4777],[76.0553,33.3955],[75.96,33.3309],[75.8527,33.3292],[75.8106,33.2925],[75.7462,33.2914],[75.7261,33.2369],[75.6613,33.2539],[75.6303,33.2082],[75.6527,33.1725],[75.6327,33.118],[75.5485,33.0624],[75.5932,32.991],[75.4992,32.9081],[75.3929,32.8881],[75.2888,32.7958],[75.118,32.7922],[75.0771,32.7372],[75.0246,32.7089],[75.0063,32.6183],[74.9442,32.5628],[74.9666,32.5272],[74.9702,32.419],[74.9921,32.4015],[74.9295,32.364],[74.9325,32.2738],[74.8913,32.2368],[74.9131,32.2193],[74.8114,32.0906],[74.8132,32.0365],[74.8465,31.9922],[74.974,31.9771],[75.1199,32.0525],[75.1502,32.0983],[75.1486,32.1524],[75.0964,32.1242],[75.0426,32.15],[75.2193,32.2711],[75.2736,32.2271],[75.1899,32.1893],[75.2138,32.0996],[75.2464,32.0732],[75.4153,32.0947],[75.4798,32.0598],[75.5645,32.0614],[75.5852,32.0798],[75.7127,32.064],[75.7434,32.1096],[75.7001,32.145],[75.6992,32.1811],[75.7624,32.2002],[75.7611,32.2543],[75.8443,32.3278],[75.863,32.4364],[76.02,32.556],[76.1253,32.6117],[76.2318,32.6131],[76.295,32.65],[76.4655,32.6521],[76.4871,32.6343],[76.5081,32.6526],[76.6147,32.6538],[76.6244,32.717],[76.6563,32.7263],[76.7192,32.7991],[76.7725,32.8086],[76.772,32.8447],[76.7396,32.8715],[76.6968,32.8711],[76.6757,32.8528],[76.4625,32.8325],[76.336,32.7408],[76.2717,32.758],[76.2297,32.7214],[76.0269,32.7275],[76.0261,32.7636],[76.0789,32.7914],[76.1313,32.8373],[76.1306,32.8734],[76.236,32.947],[76.1704,33.0182],[76.309,33.0471],[76.3511,33.0837],[76.5007,33.1035],[76.5215,33.1399],[76.393,33.1384],[76.3818,33.1653],[76.5301,33.2753],[76.5289,33.3474],[76.5606,33.3748],[76.6681,33.3759],[76.8165,33.5217],[76.9128,33.5676],[76.9123,33.6037],[76.8151,33.6299],[76.8039,33.6569],[76.8681,33.6935],[76.8999,33.7389],[76.9858,33.7757],[77.0505,33.7761],[77.1579,33.831],[77.2227,33.8314],[77.2441,33.8495],[77.3521,33.8501],[77.4271,33.9316],[77.4269,33.9677],[77.4701,33.9859],[76.8535,33.9911],[76.8316,34.009]]],[[[75.4328,32.6092],[75.5076,32.6016],[75.5195,32.5567],[75.4675,32.5106],[75.3824,32.509],[75.3616,32.4905],[75.3066,32.5526],[75.4328,32.6092]]],[[[75.7809,33.1928],[75.8036,33.139],[75.7722,33.1114],[75.7293,33.1107],[75.6965,33.1372],[75.6956,33.1733],[75.7271,33.2009],[75.7809,33.1928]]],[[[76.5442,33.7265],[76.6523,33.7096],[76.5778,33.6456],[76.5132,33.6449],[76.4582,33.7075],[76.5117,33.7351],[76.5442,33.7265]]],[[[76.757,33.9271],[76.7682,33.9001],[76.8328,33.9187],[76.8656,33.892],[76.8876,33.8561],[76.8667,33.8018],[76.9101,33.7841],[76.8781,33.7568],[76.835,33.7564],[76.8022,33.7832],[76.8017,33.8192],[76.7581,33.8549],[76.7466,33.8999],[76.7362,33.8728],[76.6613,33.8269],[76.585,33.8713],[76.5847,33.8893],[76.6383,33.9169],[76.757,33.9271]]],[[[76.2408,33.795],[76.2306,33.7678],[76.1549,33.7758],[76.1651,33.803],[76.2408,33.795]]]]}},{"type":"Feature","properties":{"cell":247,"feature":2364,"phase":"Unclassified","min_bt_K":238.0,"area_km2":1584,"cold_core_km2":0,"speed_kmh":36.6,"heading_deg":81,"d_min_bt_30":3.0,"age_min":30,"family":247,"touches_missing":true,"lon":72.3598,"lat":29.5248,"merges_splits_so_far":0},"geometry":{"type":"MultiPolygon","coordinates":[[[[72.4727,29.8033],[72.4116,29.7827],[72.3899,29.7998],[72.3387,29.7886],[72.3428,29.7166],[72.272,29.6865],[72.2456,29.6041],[72.1935,29.6108],[72.0673,29.4699],[72.0694,29.4339],[72.1019,29.4083],[72.1431,29.4101],[72.1657,29.375],[72.2687,29.3795],[72.2903,29.3624],[72.3511,29.3831],[72.3727,29.3659],[72.4325,29.4046],[72.5149,29.408],[72.564,29.4552],[72.5827,29.492],[72.5601,29.5272],[72.5995,29.5649],[72.5966,29.6189],[72.575,29.6361],[72.5937,29.6729],[72.4855,29.7587],[72.4727,29.8033]]]]}},{"type":"Feature","properties":{"cell":248,"feature":2368,"phase":"Developing","min_bt_K":227.7,"area_km2":2564,"cold_core_km2":0,"speed_kmh":51.6,"heading_deg":112,"d_min_bt_30":-3.5,"age_min":30,"family":5,"touches_missing":true,"lon":77.0477,"lat":28.839,"merges_splits_so_far":0},"geometry":{"type":"MultiPolygon","coordinates":[[[[76.9322,29.0484],[76.8708,29.0298],[76.8098,28.9752],[76.7687,28.9748],[76.6675,28.8655],[76.6265,28.8651],[76.5962,28.8377],[76.5966,28.8016],[76.6485,28.7571],[76.7916,28.7765],[76.9766,28.7059],[77.0385,28.6522],[77.1203,28.6528],[77.141,28.6349],[77.1817,28.6532],[77.3863,28.6543],[77.4373,28.6816],[77.4061,28.7627],[77.3243,28.7442],[77.2522,28.807],[77.3236,28.8525],[77.3853,28.8167],[77.4266,28.7628],[77.5083,28.8172],[77.5184,28.8443],[77.4568,28.8621],[77.4565,28.9163],[77.4974,28.9525],[77.4664,28.9795],[77.4049,28.9792],[77.3019,29.0328],[77.1787,29.0321],[77.0971,28.9775],[77.0559,28.9952],[77.035,29.0312],[76.9945,28.9767],[76.9322,29.0484]]]]}},{"type":"Feature","properties":{"cell":255,"feature":2380,"phase":"Unclassified","min_bt_K":233.0,"area_km2":3316,"cold_core_km2":0,"speed_kmh":123.8,"heading_deg":266,"d_min_bt_30":1.3,"age_min":30,"family":198,"touches_missing":false,"lon":75.0825,"lat":33.8666,"merges_splits_so_far":2},"geometry":{"type":"MultiPolygon","coordinates":[[[[74.6672,34.0087],[74.6351,33.9989],[74.6581,33.9634],[74.7472,33.8934],[74.7263,33.8748],[74.7552,33.677],[74.7879,33.6688],[74.8937,33.7254],[74.9406,33.6182],[75.1344,33.6225],[75.1554,33.641],[75.22,33.6424],[75.3687,33.7176],[75.5623,33.7393],[75.5833,33.7577],[75.7128,33.76],[75.7871,33.8063],[75.7853,33.8785],[75.7311,33.8866],[75.7196,33.9134],[75.8268,33.9513],[75.8148,33.9962],[75.5336,33.9914],[75.5115,34.009],[74.6895,33.9912],[74.6672,34.0087]]]]}},{"type":"Feature","properties":{"cell":256,"feature":2370,"phase":"Unclassified","min_bt_K":220.9,"area_km2":20620,"cold_core_km2":4,"speed_kmh":null,"heading_deg":null,"d_min_bt_30":null,"age_min":0,"family":5,"touches_missing":true,"lon":75.4718,"lat":29.7992,"merges_splits_so_far":4},"geometry":{"type":"MultiPolygon","coordinates":[[[[74.8537,30.4949],[74.8126,30.4758],[74.803,30.4485],[74.8351,30.4222],[74.8768,30.4232],[74.9516,30.3618],[74.9527,30.3258],[74.9117,30.3068],[74.9139,30.2347],[74.8842,30.1889],[74.8421,30.2059],[74.6142,30.1822],[74.5708,30.2352],[74.4877,30.2331],[74.4079,30.1407],[74.347,30.1029],[74.2847,30.1012],[74.2653,30.0646],[74.2239,30.0634],[74.1744,29.9988],[74.0829,29.951],[74.0736,29.9237],[74.1058,29.8976],[74.23,29.9012],[74.262,29.875],[74.2454,29.7663],[74.2974,29.7587],[74.3401,29.7238],[74.3908,29.7523],[74.3895,29.7883],[74.4402,29.8168],[74.6885,29.8232],[74.7305,29.8062],[74.8273,29.6913],[74.8295,29.6192],[74.8094,29.6006],[74.8318,29.547],[74.9477,29.4686],[74.9884,29.4876],[75.0201,29.4612],[75.0238,29.335],[75.0756,29.3271],[75.1815,29.2211],[75.2638,29.2229],[75.3164,29.1788],[75.3178,29.1247],[75.4014,29.0723],[75.4337,29.0097],[75.4743,29.0286],[75.494,29.065],[75.5355,29.0478],[75.6164,29.1034],[75.7602,29.1059],[75.7804,29.1243],[75.8218,29.1069],[75.8622,29.1437],[75.9238,29.1447],[76.0039,29.2542],[76.065,29.2912],[76.1062,29.2918],[76.1974,29.3742],[76.217,29.4286],[76.2988,29.4658],[76.3592,29.5568],[76.4206,29.5936],[76.4401,29.666],[76.5633,29.7216],[76.562,29.8118],[76.4359,29.9366],[76.4138,30.0266],[76.3717,30.0622],[76.3708,30.1163],[76.3498,30.134],[76.348,30.2423],[76.3164,30.2689],[76.0257,30.2469],[76.0046,30.2646],[75.9215,30.2633],[75.8999,30.2991],[75.796,30.2974],[75.7756,30.279],[75.6712,30.2953],[75.6509,30.2768],[75.5669,30.3114],[75.4416,30.3271],[75.3362,30.3791],[75.1698,30.3757],[75.1063,30.4104],[74.9809,30.4257],[74.9375,30.4788],[74.9173,30.4603],[74.8537,30.4949]]],[[[75.8071,29.3142],[75.8498,29.2427],[75.7175,29.1774],[75.705,29.2764],[75.7555,29.3224],[75.8071,29.3142]]]]}}]}