{"type":"FeatureCollection","features":[{"type":"Feature","properties":{"cell":213,"feature":2456,"phase":"Developing","min_bt_K":231.0,"area_km2":8120,"cold_core_km2":0,"speed_kmh":57.9,"heading_deg":74,"d_min_bt_30":1.0,"age_min":180,"family":198,"touches_missing":true,"lon":74.5852,"lat":33.5883,"merges_splits_so_far":8},"geometry":{"type":"MultiPolygon","coordinates":[[[[74.6672,34.0087],[74.3643,34.0008],[74.301,33.963],[74.2296,33.8617],[74.2342,33.7536],[74.2014,33.7617],[74.1591,33.7424],[74.1072,33.6958],[74.088,33.6411],[74.1103,33.6237],[74.1127,33.5697],[74.0497,33.5317],[74.0625,33.487],[74.1469,33.5255],[74.1804,33.4994],[74.0983,33.4068],[74.0354,33.3689],[74.037,33.3329],[74.0696,33.3248],[74.1371,33.2546],[74.2015,33.2564],[74.2348,33.2303],[74.2363,33.1943],[74.3464,33.1251],[74.3589,33.0804],[74.4638,33.1373],[74.5281,33.139],[74.5488,33.1576],[74.6131,33.1592],[74.6372,33.0877],[74.7015,33.0893],[74.743,33.1264],[74.8488,33.165],[74.8709,33.1475],[74.9229,33.1938],[74.921,33.2479],[75.0444,33.4131],[74.9781,33.4657],[74.9769,33.5018],[75.0187,33.5388],[75.0366,33.6475],[75.1216,33.6854],[75.1204,33.7215],[75.065,33.7654],[75.0243,33.6923],[75.0126,33.7191],[74.9689,33.7362],[74.9454,33.7898],[75.0416,33.819],[75.0755,33.7746],[75.1082,33.7663],[75.1922,33.8403],[75.2354,33.8412],[75.3628,33.9159],[75.4065,33.8987],[75.4693,33.9721],[75.5231,33.9821],[75.5115,34.009],[74.6895,33.9912],[74.6672,34.0087]]]]}},{"type":"Feature","properties":{"cell":219,"feature":2450,"phase":"Developing","min_bt_K":230.1,"area_km2":24664,"cold_core_km2":0,"speed_kmh":78.6,"heading_deg":29,"d_min_bt_30":0.1,"age_min":150,"family":5,"touches_missing":true,"lon":75.8594,"lat":31.2065,"merges_splits_so_far":13},"geometry":{"type":"MultiPolygon","coordinates":[[[[76.1387,31.9444],[76.0757,31.9254],[75.8427,31.9399],[75.7809,31.8667],[75.6748,31.883],[75.6542,31.8645],[75.5063,31.8619],[75.4856,31.8434],[75.4222,31.8422],[75.4006,31.8598],[75.1265,31.8362],[75.0826,31.8893],[75.0186,31.9059],[74.9895,31.8241],[74.9285,31.7505],[74.7538,31.6111],[74.6695,31.609],[74.6478,31.6265],[74.5845,31.6249],[74.5641,31.6063],[74.5213,31.6232],[74.4703,31.5768],[74.4513,31.5221],[74.475,31.4506],[74.4031,31.4036],[74.3814,31.421],[74.3312,31.3565],[74.397,31.2861],[74.399,31.2321],[74.4633,31.1977],[74.4971,31.1355],[74.6439,31.1392],[74.6655,31.1217],[74.6858,31.1403],[74.7906,31.1429],[74.9182,31.0918],[75.002,31.0937],[75.0224,31.1122],[75.1482,31.115],[75.1697,31.0974],[75.2106,31.1343],[75.2535,31.0991],[75.3374,31.1008],[75.391,31.0568],[75.3973,30.8224],[75.3769,30.8039],[75.4294,30.796],[75.4944,30.707],[75.557,30.7082],[75.5774,30.7266],[75.6307,30.6824],[75.632,30.6283],[75.7278,30.5488],[75.7903,30.5499],[75.8513,30.623],[75.8839,30.5604],[75.926,30.5431],[75.9582,30.4984],[76.1248,30.5009],[76.146,30.4832],[76.3957,30.5045],[76.4585,30.4872],[76.4668,30.6226],[76.4979,30.632],[76.5388,30.6865],[76.5803,30.705],[76.7684,30.6889],[76.8306,30.7255],[76.8724,30.7259],[76.9344,30.7805],[77.0807,30.7816],[77.2052,30.8907],[77.2887,30.9092],[77.3198,30.9544],[77.2252,30.999],[77.1414,30.9985],[77.1203,31.0164],[77.0577,30.9979],[77.0047,31.0607],[77.0462,31.0971],[77.0036,31.1689],[76.9508,31.1956],[76.8563,31.2038],[76.7922,31.2934],[76.7915,31.3476],[76.6968,31.3557],[76.6434,31.4183],[76.6218,31.4541],[76.6426,31.4724],[76.6317,31.4994],[76.4838,31.5338],[76.4197,31.5872],[76.3137,31.622],[76.2709,31.6575],[76.1659,31.6381],[76.1337,31.6647],[76.1108,31.7546],[76.1845,31.7646],[76.2264,31.7832],[76.2364,31.8104],[76.1509,31.8634],[76.1387,31.9444]]]]}},{"type":"Feature","properties":{"cell":238,"feature":2454,"phase":"Developing","min_bt_K":225.4,"area_km2":7356,"cold_core_km2":0,"speed_kmh":62.1,"heading_deg":79,"d_min_bt_30":1.2,"age_min":120,"family":198,"touches_missing":true,"lon":73.36,"lat":33.5029,"merges_splits_so_far":5},"geometry":{"type":"MultiPolygon","coordinates":[[[[73.9093,34.0057],[73.4128,33.9716],[73.288,33.877],[73.2448,33.8755],[73.2138,33.8473],[73.2158,33.8113],[73.1736,33.7918],[73.1663,33.7283],[73.1418,33.7816],[73.0123,33.7768],[72.9455,33.8104],[72.925,33.7916],[72.9024,33.8088],[72.8705,33.7985],[72.7701,33.6683],[72.7529,33.5954],[72.6087,33.4814],[72.5916,33.4085],[72.6459,33.4017],[72.691,33.3674],[72.7339,33.3691],[72.8167,33.4265],[72.8811,33.4289],[72.9691,33.3962],[73.0335,33.3986],[73.0907,33.3375],[73.0752,33.2287],[73.0119,33.2083],[73.0139,33.1723],[72.9332,33.079],[72.9159,33.0061],[72.9515,32.9443],[73.1225,32.9507],[73.1847,32.989],[73.2702,32.9921],[73.2785,33.0375],[73.5871,33.3007],[73.6257,33.3922],[73.6884,33.4303],[73.6651,33.4657],[73.6969,33.4757],[73.7064,33.5031],[73.6737,33.5111],[73.6616,33.5378],[73.7038,33.5572],[73.7011,33.6112],[73.7433,33.6306],[73.8356,33.7328],[73.858,33.7154],[73.9505,33.8175],[73.9264,33.8709],[73.9671,33.9263],[73.9222,33.961],[73.9093,34.0057]]],[[[73.0482,33.715],[73.0943,33.6625],[73.0738,33.6437],[73.0788,33.5537],[73.1116,33.5458],[73.1125,33.5278],[73.0573,33.5529],[73.0502,33.679],[73.0051,33.7134],[73.0482,33.715]]]]}},{"type":"Feature","properties":{"cell":240,"feature":2448,"phase":"Unclassified","min_bt_K":232.2,"area_km2":15092,"cold_core_km2":0,"speed_kmh":20.2,"heading_deg":57,"d_min_bt_30":1.2,"age_min":90,"family":5,"touches_missing":true,"lon":76.9801,"lat":29.3608,"merges_splits_so_far":1},"geometry":{"type":"MultiPolygon","coordinates":[[[[77.1931,29.8081],[77.069,29.8073],[77.0073,29.7707],[76.9659,29.7704],[76.9456,29.7342],[76.8214,29.7512],[76.7805,29.7147],[76.7391,29.7143],[76.6985,29.6598],[76.6365,29.6592],[76.6156,29.677],[76.5332,29.6581],[76.4935,29.5494],[76.411,29.5484],[76.3703,29.5118],[76.329,29.5113],[76.2872,29.5469],[76.2668,29.5285],[76.2253,29.546],[76.2053,29.5097],[76.1539,29.5],[76.1571,29.3196],[76.0451,29.2548],[75.9733,29.2447],[75.9743,29.1906],[75.873,29.1168],[75.8741,29.0627],[75.8342,29.0079],[75.9062,29.0],[76.1297,29.1297],[76.2637,29.1045],[76.2647,29.0503],[76.1639,28.9407],[76.1851,28.9049],[76.1652,28.8685],[76.104,28.8496],[76.1873,28.7786],[76.1677,28.7242],[76.2304,28.6529],[76.2414,28.6079],[76.3033,28.5726],[76.3646,28.5734],[76.3949,28.6008],[76.3935,28.6911],[76.4339,28.7276],[76.4336,28.7457],[76.3612,28.7899],[76.2591,28.7706],[76.2279,28.7972],[76.2273,28.8333],[76.2677,28.8699],[76.2261,28.9055],[76.3578,29.0064],[76.4396,29.0255],[76.5428,28.9905],[76.5332,28.9453],[76.5851,28.9008],[76.6261,28.9012],[76.912,29.0122],[76.9943,28.9948],[77.0769,28.9412],[77.1589,28.9418],[77.1793,28.9599],[77.2205,28.9422],[77.3124,29.0058],[77.3118,29.096],[77.229,29.1678],[77.2804,29.1771],[77.3213,29.2134],[77.383,29.2137],[77.4347,29.1508],[77.5172,29.097],[77.5174,29.0609],[77.5585,29.043],[77.5588,28.9888],[77.6102,28.9439],[77.6513,28.944],[77.6921,28.9982],[77.7537,28.9984],[77.7947,29.0345],[77.8973,29.0527],[78.0617,29.2332],[78.1646,29.2331],[78.2264,29.3052],[78.2676,29.3051],[78.2986,29.3321],[78.2885,29.4133],[78.2267,29.4315],[78.103,29.4136],[78.1031,29.4677],[78.2269,29.4856],[78.2474,29.4495],[78.3298,29.4493],[78.4228,29.4941],[78.392,29.5393],[78.3301,29.5395],[78.3095,29.5215],[78.2064,29.5939],[78.1239,29.594],[78.1033,29.6301],[78.0207,29.6301],[78.0,29.6482],[77.9587,29.6482],[77.9381,29.6121],[77.8761,29.6481],[77.8348,29.6481],[77.7523,29.5938],[77.6697,29.5936],[77.6491,29.5755],[77.4524,29.6921],[77.4624,29.7553],[77.2141,29.7721],[77.1931,29.8081]]],[[[77.2489,29.2581],[77.2696,29.2402],[77.239,29.2129],[77.1873,29.2397],[77.1974,29.2668],[77.2489,29.2581]]]]}},{"type":"Feature","properties":{"cell":243,"feature":2452,"phase":"Developing","min_bt_K":227.3,"area_km2":20308,"cold_core_km2":0,"speed_kmh":84.1,"heading_deg":226,"d_min_bt_30":-5.9,"age_min":90,"family":5,"touches_missing":true,"lon":75.5617,"lat":32.7455,"merges_splits_so_far":3},"geometry":{"type":"MultiPolygon","coordinates":[[[[76.8316,34.009],[76.6153,34.0069],[76.5945,33.9525],[76.4977,33.9244],[76.4983,33.8884],[76.5524,33.8799],[76.5628,33.9071],[76.6164,33.9347],[76.6812,33.9354],[76.7031,33.9176],[76.7677,33.9362],[76.8112,33.9186],[76.8554,33.8468],[76.942,33.8294],[76.9965,33.7848],[76.9326,33.7121],[76.9759,33.6944],[76.9874,33.6313],[76.9445,33.613],[76.8153,33.6119],[76.7841,33.5304],[76.7097,33.4666],[76.6452,33.4659],[76.5498,33.3837],[76.5503,33.3477],[76.5186,33.3202],[76.4333,33.2832],[76.3475,33.2822],[76.3383,33.2009],[76.2434,33.1185],[76.1577,33.1173],[76.116,33.0626],[75.9581,32.943],[75.9589,32.9069],[75.9057,32.8971],[75.8642,32.8423],[75.7361,32.8402],[75.6066,32.8921],[75.5733,32.9366],[75.5923,33.0271],[75.4942,33.0885],[75.4733,33.07],[75.4086,33.0868],[75.3882,33.0503],[75.2818,33.0302],[75.2099,32.9295],[75.1365,32.8828],[75.0955,32.8278],[75.0101,32.8259],[74.9577,32.7976],[74.9589,32.7616],[74.8961,32.7241],[74.8785,32.6154],[74.8468,32.6056],[74.7751,32.5227],[74.777,32.4686],[74.6611,32.4387],[74.5472,32.3546],[74.4862,32.2809],[74.4882,32.2268],[74.4267,32.171],[74.4281,32.135],[74.271,32.0856],[74.2615,32.0582],[74.2198,32.039],[74.2629,32.0222],[74.2643,31.9861],[74.2235,31.9489],[74.2264,31.8768],[74.1849,31.8576],[74.1885,31.7675],[74.2627,31.7606],[74.3028,31.8158],[74.3662,31.8176],[74.4432,31.7384],[74.5398,31.6959],[74.5622,31.6604],[74.706,31.7723],[74.7277,31.7548],[74.7904,31.7743],[74.8411,31.8387],[74.8144,32.0004],[74.8459,32.0102],[74.8688,31.9566],[75.0049,32.0049],[74.9808,32.0945],[74.9167,32.1111],[74.8919,32.2188],[74.9646,32.2656],[75.0919,32.2684],[75.1545,32.3058],[75.1969,32.3067],[75.259,32.3622],[75.3129,32.3362],[75.2943,32.2456],[75.3497,32.1655],[75.4128,32.1848],[75.4557,32.1676],[75.5617,32.1696],[75.6248,32.1888],[75.6559,32.2164],[75.6229,32.2609],[75.7078,32.2624],[75.8148,32.2281],[75.836,32.2284],[75.8564,32.2649],[75.9625,32.2665],[75.9841,32.2488],[76.0686,32.2681],[76.0995,32.3136],[76.0775,32.3494],[76.0022,32.3934],[75.9384,32.3924],[75.8547,32.337],[75.7485,32.3352],[75.7268,32.3529],[75.6211,32.333],[75.6098,32.3599],[75.7047,32.3886],[75.8326,32.3727],[75.9364,32.4826],[76.0227,32.4298],[76.2356,32.4147],[76.267,32.4422],[76.2346,32.4689],[76.192,32.4683],[76.1592,32.5129],[76.2011,32.5496],[76.2004,32.5857],[76.1145,32.6206],[76.2315,32.6312],[76.2747,32.5957],[76.3173,32.5962],[76.3809,32.615],[76.4436,32.6879],[76.5712,32.7074],[76.5806,32.7887],[76.6017,32.807],[76.5584,32.8426],[76.6211,32.9335],[76.6206,32.9695],[76.7164,32.9975],[76.7371,33.0519],[76.8865,33.0893],[76.918,33.1346],[76.8427,33.1611],[76.81,33.2059],[76.9482,33.3063],[77.0555,33.3071],[77.1511,33.4069],[77.1508,33.443],[77.2043,33.4704],[77.2469,33.5248],[77.3114,33.5251],[77.322,33.5523],[77.3649,33.5705],[77.3858,33.6608],[77.4827,33.6702],[77.4933,33.6973],[77.5364,33.7155],[77.5252,33.7787],[77.4389,33.7783],[77.4171,33.8143],[77.3308,33.8139],[77.3305,33.85],[77.4601,33.8506],[77.4819,33.8146],[77.5682,33.8149],[77.5789,33.842],[77.6758,33.9054],[77.8271,33.9057],[77.8487,33.9237],[77.8919,33.9057],[77.9135,33.9238],[77.9784,33.9238],[78.0216,33.9599],[78.0973,33.9689],[78.0865,33.996],[76.8535,33.9911],[76.8316,34.009]]],[[[74.638,32.1946],[74.6811,32.1776],[74.7067,32.0519],[74.5926,31.9859],[74.5503,31.9848],[74.5387,32.0116],[74.5989,32.1034],[74.5956,32.1935],[74.638,32.1946]]],[[[75.4967,32.6104],[75.4868,32.5831],[75.4754,32.61],[75.4967,32.6104]]],[[[76.0898,32.7826],[76.1542,32.7654],[76.1444,32.7202],[76.0595,32.701],[76.0389,32.6646],[75.9545,32.6272],[75.8371,32.6344],[75.8358,32.6885],[75.8676,32.698],[75.909,32.7528],[76.0362,32.7908],[76.0898,32.7826]]],[[[77.0614,33.7672],[77.0509,33.74],[77.0398,33.767],[77.0614,33.7672]]]]}},{"type":"Feature","properties":{"cell":248,"feature":2447,"phase":"Developing","min_bt_K":230.6,"area_km2":3332,"cold_core_km2":0,"speed_kmh":40.3,"heading_deg":104,"d_min_bt_30":2.9,"age_min":60,"family":5,"touches_missing":true,"lon":77.2483,"lat":28.7954,"merges_splits_so_far":0},"geometry":{"type":"MultiPolygon","coordinates":[[[[77.5482,29.052],[77.4867,29.0337],[77.3223,29.051],[77.3124,29.0058],[77.2205,28.9422],[77.0769,28.9412],[77.0355,28.977],[76.912,29.0122],[76.8214,28.858],[76.8021,28.7495],[76.854,28.6868],[76.9971,28.706],[77.0076,28.6791],[76.9672,28.6246],[77.0596,28.5802],[77.1005,28.5805],[77.1411,28.6168],[77.2839,28.6718],[77.366,28.6181],[77.4069,28.6183],[77.4378,28.5914],[77.4175,28.5552],[77.4483,28.5282],[77.5913,28.5288],[77.6014,28.5739],[77.5604,28.6099],[77.591,28.619],[77.601,28.6641],[77.7031,28.7366],[77.703,28.7727],[77.6824,28.8087],[77.6414,28.8267],[77.6821,28.917],[77.5588,28.9888],[77.5482,29.052]]]]}},{"type":"Feature","properties":{"cell":256,"feature":2449,"phase":"Decaying","min_bt_K":226.0,"area_km2":25560,"cold_core_km2":0,"speed_kmh":105.0,"heading_deg":79,"d_min_bt_30":5.1,"age_min":30,"family":5,"touches_missing":true,"lon":76.0048,"lat":29.8903,"merges_splits_so_far":5},"geometry":{"type":"MultiPolygon","coordinates":[[[[75.8513,30.623],[75.7903,30.5499],[75.7278,30.5488],[75.6427,30.6195],[75.6014,30.6007],[75.5593,30.618],[75.5291,30.5723],[75.5305,30.5182],[75.573,30.4829],[75.5318,30.4641],[75.5327,30.4281],[75.681,30.3225],[75.6945,30.1874],[75.4661,30.1832],[75.4449,30.2009],[75.2783,30.2156],[75.217,30.1782],[74.9886,30.1732],[74.8242,30.1153],[74.7827,30.1143],[74.74,30.1493],[74.6777,30.1477],[74.6683,30.1204],[74.6274,30.1014],[74.6286,30.0653],[74.6819,30.0215],[74.7234,30.0226],[74.8187,29.9618],[74.7796,29.8886],[74.8221,29.8536],[74.7429,29.7434],[74.8485,29.6738],[74.8284,29.6552],[74.8507,29.6016],[74.8312,29.5651],[74.7705,29.5275],[74.7716,29.4915],[74.8028,29.4832],[74.8429,29.5202],[74.8563,29.4213],[74.8875,29.413],[74.9092,29.3775],[74.9499,29.3964],[75.0529,29.3988],[75.064,29.372],[75.0127,29.3618],[75.0032,29.3345],[75.0555,29.3086],[75.1795,29.2933],[75.2221,29.24],[75.3456,29.2426],[75.3853,29.2975],[75.4769,29.3444],[75.486,29.3897],[75.6504,29.4108],[75.682,29.3843],[75.6324,29.3022],[75.5912,29.3014],[75.4695,29.227],[75.3662,29.243],[75.346,29.2245],[75.2332,29.2132],[75.2351,29.1411],[75.2667,29.1147],[75.4109,29.0995],[75.5045,29.0562],[75.4337,29.0097],[75.3927,29.0089],[75.3635,28.9452],[75.2824,28.9074],[75.2833,28.8714],[75.2228,28.834],[75.2343,28.7891],[75.3572,28.7917],[75.4569,28.9019],[75.4979,28.9027],[75.5075,28.9299],[75.4866,28.9476],[75.5171,28.9572],[75.5368,28.9937],[75.5674,29.0032],[75.5866,29.0577],[75.6273,29.0765],[75.626,29.1306],[75.6562,29.1582],[75.7179,29.1593],[75.7397,29.1056],[75.7804,29.1243],[75.8831,29.126],[75.9743,29.1906],[75.9834,29.2539],[76.0451,29.2548],[76.1571,29.3196],[76.1542,29.4819],[75.9889,29.4975],[76.0392,29.5615],[76.2043,29.5638],[76.2668,29.5285],[76.471,29.6754],[76.5126,29.6578],[76.5536,29.6763],[76.6985,29.6598],[76.7493,29.7235],[76.7489,29.7595],[76.8919,29.9232],[76.8398,29.9498],[76.8193,29.9316],[76.6835,30.0115],[76.7343,30.0932],[76.8788,30.1666],[76.9828,30.1494],[77.1481,30.2408],[77.2107,30.2051],[77.273,30.2055],[77.2939,30.1876],[77.3353,30.2058],[77.377,30.188],[77.4287,30.2153],[77.3662,30.2511],[77.3763,30.2962],[77.4178,30.3144],[77.5842,30.297],[77.5945,30.3241],[77.6464,30.3513],[77.7296,30.3515],[77.7921,30.3156],[77.8336,30.3156],[77.8752,30.3518],[77.9272,30.2886],[77.8337,30.2615],[77.6259,30.2611],[77.5635,30.2789],[77.5532,30.2518],[77.6678,30.171],[77.7716,30.1892],[77.8339,30.1533],[77.8962,30.1533],[77.9169,30.1714],[78.2906,30.153],[78.3738,30.1889],[78.4569,30.1887],[78.4882,30.2156],[78.4571,30.2428],[78.4156,30.2429],[78.4054,30.288],[78.3016,30.3424],[78.3121,30.3875],[78.4578,30.3871],[78.4892,30.4321],[78.3956,30.4414],[78.3538,30.4055],[78.229,30.4238],[78.2292,30.514],[78.0417,30.5142],[78.0,30.5322],[77.9792,30.4961],[77.8958,30.4961],[77.875,30.478],[77.7709,30.4779],[77.75,30.4959],[77.7292,30.4778],[77.7083,30.4958],[77.5208,30.5133],[77.5,30.4952],[77.3959,30.4948],[77.2921,30.4401],[77.1878,30.4576],[77.1673,30.4214],[77.0012,30.3841],[76.9599,30.3477],[76.8975,30.3472],[76.8876,30.302],[76.7741,30.2379],[76.7723,30.3822],[76.7517,30.364],[76.4399,30.3426],[76.2518,30.3944],[76.2293,30.4843],[75.9582,30.4984],[75.9472,30.5253],[75.8839,30.5604],[75.8513,30.623]]]]}}]}