{"type":"FeatureCollection","features":[{"type":"Feature","properties":{"cell":213,"feature":2510,"phase":"Developing","min_bt_K":228.0,"area_km2":15272,"cold_core_km2":0,"speed_kmh":102.0,"heading_deg":252,"d_min_bt_30":-3.0,"age_min":210,"family":198,"touches_missing":true,"lon":74.0647,"lat":33.4415,"merges_splits_so_far":11},"geometry":{"type":"MultiPolygon","coordinates":[[[[74.0175,34.009],[73.6178,33.9875],[73.598,33.9508],[73.6052,33.8066],[73.5647,33.7511],[73.5495,33.6243],[73.4858,33.6041],[73.4877,33.5681],[73.4053,33.4931],[73.4072,33.4571],[73.3651,33.4376],[73.3679,33.3835],[73.3044,33.3633],[73.3063,33.3272],[73.2662,33.2717],[73.27,33.1996],[73.2291,33.1621],[73.2319,33.108],[73.1473,33.0869],[73.1492,33.0509],[73.1939,33.0164],[73.1754,32.9616],[73.2089,32.9358],[73.3585,32.9411],[73.3808,32.9238],[73.4208,32.9793],[73.4636,32.9808],[73.525,33.037],[73.5883,33.0571],[73.7596,33.0627],[73.8057,32.992],[73.8699,32.994],[73.9926,33.124],[74.0354,33.1253],[74.1402,33.1825],[74.206,33.1483],[74.237,33.1762],[74.2348,33.2303],[74.1586,33.2552],[74.1172,33.2179],[74.1045,33.2627],[74.1252,33.2813],[74.1229,33.3354],[74.2798,33.4391],[74.2916,33.4123],[74.2717,33.3757],[74.2946,33.3402],[74.2317,33.3024],[74.2451,33.2396],[74.3094,33.2414],[74.3294,33.2781],[74.3938,33.2798],[74.4775,33.3362],[74.5107,33.31],[74.5121,33.2739],[74.4706,33.2367],[74.4617,33.1914],[74.356,33.1525],[74.2703,33.1501],[74.2075,33.1122],[74.1559,33.0657],[74.1376,32.993],[74.0742,32.9731],[74.0758,32.937],[74.109,32.9109],[74.1723,32.9308],[74.2593,32.8972],[74.3013,32.9164],[74.4082,32.9193],[74.6185,33.015],[74.6496,33.0429],[74.6476,33.097],[74.743,33.1264],[74.7839,33.1815],[74.8684,33.2196],[74.9541,33.2216],[75.059,33.2961],[75.1234,33.2975],[75.1332,33.3248],[75.0462,33.359],[75.0966,33.4593],[75.1821,33.4792],[75.2912,33.4273],[75.5662,33.595],[75.5753,33.6583],[75.6069,33.6859],[75.8651,33.7083],[75.9712,33.7822],[75.9932,33.7645],[76.0254,33.774],[75.9904,33.8907],[75.8391,33.8884],[75.7541,33.8328],[75.7334,33.7964],[75.6034,33.8122],[75.4749,33.7737],[75.3692,33.6995],[75.3045,33.6982],[75.0743,33.8107],[75.0737,33.8287],[75.1163,33.8477],[75.1151,33.8837],[75.0818,33.9101],[74.8886,33.8697],[74.8448,33.8867],[74.8219,33.9222],[74.7682,33.9119],[74.776,33.9933],[74.6679,33.9907],[74.6155,33.9442],[74.5974,33.8536],[74.6636,33.8191],[74.6649,33.7831],[74.7094,33.7481],[74.6892,33.7115],[74.4801,33.5437],[74.5259,33.4728],[74.4947,33.4449],[74.4517,33.4438],[74.3747,33.4868],[74.3717,33.5589],[74.4119,33.6322],[74.4966,33.6705],[74.484,33.7153],[74.2692,33.6914],[74.2276,33.6542],[74.163,33.6523],[74.1407,33.6697],[74.1215,33.615],[74.1079,33.6778],[74.0409,33.73],[74.06,33.7847],[74.1432,33.8593],[74.1416,33.8953],[74.1736,33.9053],[74.2145,33.9606],[74.3106,33.9903],[74.0399,33.9916],[74.0175,34.009]]],[[[74.0736,33.9655],[74.0432,33.9195],[74.0103,33.9276],[74.0407,33.9736],[74.0736,33.9655]]]]}},{"type":"Feature","properties":{"cell":219,"feature":2506,"phase":"Developing","min_bt_K":229.3,"area_km2":21568,"cold_core_km2":0,"speed_kmh":69.0,"heading_deg":56,"d_min_bt_30":-0.8,"age_min":180,"family":5,"touches_missing":true,"lon":76.1602,"lat":31.3802,"merges_splits_so_far":15},"geometry":{"type":"MultiPolygon","coordinates":[[[[75.7767,32.0471],[75.6496,32.0449],[75.5871,32.0077],[75.4817,31.9877],[75.3996,31.8959],[75.3573,31.8951],[75.3161,31.8582],[75.2522,31.8749],[75.211,31.838],[75.1687,31.8371],[75.0665,31.7266],[74.9628,31.6701],[74.8362,31.6672],[74.8139,31.7027],[74.6669,31.6811],[74.6605,31.5637],[74.6835,31.5101],[74.5884,31.5167],[74.5177,31.4337],[74.5923,31.4086],[74.6579,31.3381],[74.784,31.3412],[74.8056,31.3237],[74.8891,31.3437],[74.9532,31.3091],[75.0804,31.2759],[75.1644,31.2777],[75.1859,31.2601],[75.2279,31.261],[75.2479,31.2975],[75.3114,31.2807],[75.4369,31.3013],[75.4798,31.266],[75.5638,31.2676],[75.5974,31.187],[75.6505,31.1609],[75.8006,31.0191],[75.9057,31.0028],[75.9693,30.9677],[76.0111,30.9683],[76.0203,31.0316],[76.0931,31.0597],[76.134,31.1144],[76.2594,31.1342],[76.398,31.0006],[76.4003,30.8563],[76.4742,30.8121],[76.6205,30.8137],[76.6626,30.7961],[76.6953,30.6972],[76.7267,30.6885],[76.748,30.6526],[76.8106,30.6532],[76.8937,30.69],[77.0608,30.6732],[77.0708,30.7184],[77.0285,30.7722],[77.0493,30.7904],[77.0278,30.8444],[77.1006,30.89],[77.1419,30.9444],[77.2671,30.9993],[77.3501,31.1079],[77.5908,31.2081],[77.5381,31.253],[77.4331,31.2526],[77.391,31.2705],[77.3171,31.3333],[77.3271,31.3965],[77.0532,31.4489],[77.0106,31.5027],[76.9262,31.5201],[76.8624,31.5737],[76.7994,31.5551],[76.7462,31.5997],[76.7457,31.6358],[76.714,31.6445],[76.639,31.7249],[76.6588,31.8153],[76.7008,31.8338],[76.6575,31.9055],[76.6991,31.9601],[76.667,31.9868],[76.5818,32.022],[76.5186,32.0033],[76.4756,32.0389],[76.4121,32.0381],[76.3916,32.0018],[76.3076,31.9647],[76.0961,31.9618],[76.0746,31.9795],[75.8414,31.994],[75.7767,32.0471]]]]}},{"type":"Feature","properties":{"cell":240,"feature":2503,"phase":"Unclassified","min_bt_K":227.3,"area_km2":7936,"cold_core_km2":0,"speed_kmh":102.0,"heading_deg":254,"d_min_bt_30":-4.8,"age_min":120,"family":5,"touches_missing":true,"lon":76.4767,"lat":29.2298,"merges_splits_so_far":2},"geometry":{"type":"MultiPolygon","coordinates":[[[[76.1214,29.5807],[76.0182,29.5792],[75.9266,29.5146],[75.9697,29.4251],[75.9393,29.3975],[75.8981,29.3969],[75.8172,29.3234],[75.7454,29.3132],[75.7466,29.2591],[75.7264,29.2407],[75.7478,29.2049],[75.9841,29.2178],[75.9938,29.245],[76.0245,29.2545],[76.0562,29.2098],[75.9952,29.1728],[75.9869,29.0735],[76.1307,29.0756],[76.1933,29.0223],[76.2754,29.0234],[76.2953,29.0598],[76.3057,29.0509],[76.3066,28.9967],[76.2147,28.9685],[76.1444,28.8863],[76.145,28.8502],[76.1866,28.8147],[76.1983,28.7336],[76.2799,28.7528],[76.3303,28.7985],[76.3387,28.916],[76.4005,28.8987],[76.4942,28.8005],[76.4538,28.764],[76.5056,28.7194],[76.7103,28.7216],[76.7722,28.6861],[76.8127,28.7226],[76.8944,28.7413],[76.9654,28.8051],[76.9447,28.8229],[76.9442,28.8771],[77.0053,28.9136],[77.0252,28.986],[76.9838,29.0217],[76.9832,29.0759],[76.9314,29.1206],[76.8903,29.1202],[76.8797,29.1472],[76.9105,29.1565],[76.951,29.211],[76.9922,29.2113],[77.0022,29.2384],[77.0432,29.2568],[77.0119,29.3017],[76.9709,29.2833],[76.9189,29.328],[76.929,29.3551],[76.9598,29.3644],[76.9592,29.4185],[76.8966,29.4902],[76.8654,29.517],[76.7622,29.5161],[76.7203,29.5698],[76.6171,29.5688],[76.4734,29.5131],[76.4316,29.5487],[76.2049,29.5277],[76.1214,29.5807]]]]}},{"type":"Feature","properties":{"cell":243,"feature":2509,"phase":"Developing","min_bt_K":226.8,"area_km2":5464,"cold_core_km2":0,"speed_kmh":5.9,"heading_deg":350,"d_min_bt_30":-0.5,"age_min":120,"family":5,"touches_missing":true,"lon":75.5562,"lat":32.7716,"merges_splits_so_far":4},"geometry":{"type":"MultiPolygon","coordinates":[[[[76.1533,33.3337],[76.0252,33.2958],[75.941,33.2224],[75.8133,33.1843],[75.7927,33.1478],[75.6651,33.1096],[75.6237,33.0547],[75.5176,33.0167],[75.4883,32.9169],[75.3627,32.8243],[75.3637,32.7882],[75.3024,32.6968],[75.2286,32.6682],[75.2084,32.6317],[75.1439,32.6484],[75.0615,32.5564],[75.0397,32.574],[74.9368,32.4634],[74.884,32.4531],[74.8864,32.381],[75.0041,32.3567],[75.0696,32.304],[75.2819,32.3085],[75.3041,32.2729],[75.3678,32.2741],[75.3756,32.3735],[75.427,32.4377],[75.511,32.4753],[75.5748,32.4765],[75.7854,32.5704],[75.7949,32.6157],[75.8475,32.6436],[75.8994,32.7075],[75.8768,32.7613],[75.9597,32.8709],[75.9795,32.9433],[76.1167,33.0265],[76.1479,33.0721],[76.1904,33.0907],[76.1896,33.1268],[76.2746,33.164],[76.3162,33.2367],[76.2828,33.2994],[76.1969,33.2982],[76.1533,33.3337]]],[[[75.9961,33.1601],[75.9888,33.0066],[75.9746,33.1598],[75.9961,33.1601]]]]}},{"type":"Feature","properties":{"cell":256,"feature":2504,"phase":"Decaying","min_bt_K":231.0,"area_km2":31488,"cold_core_km2":0,"speed_kmh":126.0,"heading_deg":85,"d_min_bt_30":5.0,"age_min":60,"family":5,"touches_missing":true,"lon":76.6555,"lat":29.9334,"merges_splits_so_far":5},"geometry":{"type":"MultiPolygon","coordinates":[[[[76.9563,30.6905],[76.8313,30.6714],[76.7794,30.6439],[76.7693,30.6167],[76.6859,30.6159],[76.6646,30.6518],[76.6439,30.6335],[76.5605,30.6326],[76.4559,30.6495],[76.4253,30.6041],[76.3737,30.5764],[76.2903,30.5753],[76.2264,30.6466],[76.1638,30.6458],[76.1758,30.5648],[76.1242,30.537],[76.0835,30.4823],[76.0624,30.5],[76.021,30.4814],[75.9601,30.4083],[75.929,30.3988],[76.0247,30.301],[76.1078,30.3022],[76.1709,30.267],[76.1719,30.2129],[76.1508,30.2306],[75.9634,30.2459],[75.9423,30.2637],[75.7764,30.2429],[75.756,30.2245],[75.6729,30.2231],[75.6097,30.2581],[75.5266,30.2565],[75.4638,30.2734],[75.3894,30.3351],[75.388,30.3892],[75.3347,30.4332],[75.2317,30.395],[75.2103,30.4126],[75.0647,30.4095],[75.0348,30.3637],[75.0476,30.2828],[74.9016,30.2975],[74.8718,30.2517],[74.9886,30.1732],[75.0306,30.1561],[75.0716,30.1751],[75.1248,30.1311],[75.1518,29.9152],[75.1942,29.88],[75.1977,29.7538],[75.2905,29.7648],[75.3107,29.7832],[75.3939,29.7668],[75.4059,29.7039],[75.4486,29.6506],[75.4499,29.5965],[75.4921,29.5612],[75.4935,29.5071],[75.6282,29.4825],[75.6496,29.4468],[75.7527,29.4486],[75.7725,29.4851],[75.8348,29.468],[75.8959,29.5051],[75.9169,29.4874],[75.9266,29.5146],[76.0182,29.5792],[76.1214,29.5807],[76.2049,29.5277],[76.3287,29.5293],[76.3903,29.5482],[76.4104,29.5845],[76.4718,29.6213],[76.5957,29.6227],[76.6377,29.569],[76.7203,29.5698],[76.7622,29.5161],[76.8654,29.517],[76.9592,29.4185],[76.9598,29.3644],[77.0321,29.3379],[77.1145,29.3385],[77.1552,29.3929],[77.1964,29.3931],[77.2586,29.3394],[77.2998,29.3396],[77.3614,29.376],[77.4646,29.3403],[77.5673,29.3949],[77.6082,29.4672],[77.7525,29.4856],[77.7835,29.4585],[77.7424,29.4224],[77.7631,29.3863],[77.7425,29.3682],[77.7633,29.2781],[77.7942,29.2691],[77.8353,29.3052],[77.9383,29.2332],[78.0206,29.2512],[78.1028,29.2151],[78.1337,29.188],[78.1336,29.1519],[78.0925,29.1339],[78.0925,29.0978],[78.1642,29.0165],[78.2054,29.0706],[78.267,29.0705],[78.2876,29.0885],[78.3698,29.0883],[78.3902,29.0521],[78.4725,29.088],[78.5341,29.0877],[78.6671,29.0059],[78.6669,28.9698],[78.7582,28.834],[78.7992,28.8338],[78.8508,28.8786],[78.8718,28.9326],[79.0786,29.0934],[79.0582,29.1116],[79.1516,29.1921],[79.2133,29.1915],[79.2551,29.2453],[79.3374,29.2444],[79.4097,29.2708],[79.3998,29.2979],[79.3173,29.2807],[79.2768,29.3353],[79.2141,29.2637],[79.132,29.2825],[79.1112,29.2646],[79.0495,29.2651],[79.0286,29.2292],[78.9257,29.2299],[78.8431,29.1944],[78.8227,29.2126],[78.7404,29.213],[78.7198,29.1951],[78.4318,29.1783],[78.4218,29.2415],[78.4635,29.3677],[78.4122,29.413],[78.3503,29.4131],[78.3298,29.4312],[78.1236,29.3775],[78.0928,29.4406],[77.9484,29.5489],[77.9174,29.6121],[77.7934,29.648],[77.721,29.711],[77.7416,29.7291],[77.7413,29.8554],[77.6893,29.9184],[77.6686,29.9184],[77.6068,29.8461],[77.524,29.8458],[77.441,29.8815],[77.3377,29.845],[77.3173,29.8088],[77.2345,29.8083],[77.1409,29.8709],[77.1197,29.9249],[77.0469,29.9515],[77.0154,29.9963],[77.0773,30.0329],[77.056,30.0868],[77.0763,30.1411],[77.0136,30.1767],[77.0238,30.2039],[77.1482,30.2228],[77.1694,30.1688],[77.2526,30.1512],[77.3144,30.2237],[77.3767,30.2241],[77.5634,30.297],[77.6881,30.2973],[77.7504,30.3335],[77.896,30.3337],[77.9168,30.3518],[78.104,30.3337],[78.052,30.2706],[78.0831,30.2435],[78.2078,30.2434],[78.2493,30.2072],[78.4571,30.2247],[78.5399,30.1703],[78.6644,30.1697],[78.7265,30.1333],[78.9342,30.1501],[78.9345,30.1861],[78.8932,30.2045],[78.7892,30.1871],[78.7584,30.2324],[78.9563,30.2942],[79.0603,30.2934],[79.1544,30.3378],[79.1548,30.3738],[79.1029,30.3833],[79.0617,30.4197],[78.9782,30.4023],[78.9376,30.5109],[78.7083,30.4942],[78.5829,30.4227],[78.5204,30.423],[78.4893,30.4501],[78.5103,30.4681],[78.4376,30.5135],[78.125,30.5141],[78.1146,30.5412],[78.0834,30.5502],[78.0,30.4961],[77.9583,30.4961],[77.9375,30.46],[77.8542,30.46],[77.7499,30.532],[77.7291,30.5139],[77.6458,30.5137],[77.5003,30.4411],[77.4378,30.4408],[77.3751,30.4766],[77.2714,30.422],[77.1881,30.4215],[77.1468,30.3851],[76.9804,30.384],[76.9487,30.4288],[76.9068,30.4465],[76.906,30.5187],[76.9792,30.4922],[77.0624,30.5109],[77.1132,30.6465],[76.9563,30.6905]]],[[[75.2235,30.3137],[75.2758,30.3057],[75.2874,30.2609],[75.2362,30.2328],[75.1739,30.2314],[75.1419,30.2578],[75.2129,30.3225],[75.2235,30.3137]]]]}},{"type":"Feature","properties":{"cell":264,"feature":2502,"phase":"Unclassified","min_bt_K":234.0,"area_km2":6384,"cold_core_km2":0,"speed_kmh":null,"heading_deg":null,"d_min_bt_30":null,"age_min":0,"family":5,"touches_missing":false,"lon":77.4607,"lat":28.9457,"merges_splits_so_far":2},"geometry":{"type":"MultiPolygon","coordinates":[[[[77.5057,29.3586],[77.4234,29.3402],[77.3619,29.2858],[77.3207,29.3036],[77.2998,29.3396],[77.2586,29.3394],[77.0947,29.2481],[77.074,29.266],[77.0124,29.2475],[76.9922,29.2113],[76.951,29.211],[76.9105,29.1565],[76.8797,29.1472],[76.8903,29.1202],[76.9314,29.1206],[76.9832,29.0759],[76.9838,29.0217],[77.0357,28.959],[77.1076,28.9505],[77.047,28.8418],[76.9962,28.7963],[76.9756,28.8142],[76.9045,28.7504],[76.915,28.7234],[76.9969,28.7241],[77.0176,28.7062],[77.0583,28.7245],[77.2426,28.7257],[77.2838,28.6899],[77.3656,28.6903],[77.386,28.7084],[77.4271,28.6725],[77.468,28.6727],[77.5088,28.7089],[77.5906,28.7092],[77.6112,28.6912],[77.6316,28.7093],[77.8158,28.7097],[77.8362,28.7278],[77.9795,28.7279],[78.1742,28.8631],[78.1538,28.9353],[78.1949,28.9533],[78.195,28.9894],[78.0925,29.0978],[78.0822,29.1429],[78.0206,29.1249],[77.9177,29.1971],[77.7943,29.215],[77.7736,29.2691],[77.7531,29.269],[77.6915,29.1967],[77.6811,29.2418],[77.5882,29.3227],[77.5057,29.3586]]],[[[77.702,29.1155],[77.7433,29.0615],[77.7228,29.0254],[77.6511,28.9801],[77.6101,28.98],[77.5994,29.0972],[77.6712,29.1245],[77.702,29.1155]]],[[[77.6195,29.2236],[77.6402,29.1876],[77.6093,29.1785],[77.548,29.1061],[77.4555,29.1148],[77.4757,29.169],[77.5269,29.2143],[77.568,29.2325],[77.6195,29.2236]]]]}},{"type":"Feature","properties":{"cell":265,"feature":2505,"phase":"Unclassified","min_bt_K":233.4,"area_km2":4968,"cold_core_km2":0,"speed_kmh":null,"heading_deg":null,"d_min_bt_30":null,"age_min":0,"family":5,"touches_missing":true,"lon":75.5941,"lat":30.8949,"merges_splits_so_far":2},"geometry":{"type":"MultiPolygon","coordinates":[[[[75.5032,31.1762],[75.4403,31.175],[75.3993,31.1382],[75.3354,31.173],[75.2515,31.1713],[75.2003,31.1251],[75.2024,31.053],[75.2464,30.9817],[75.1315,30.9703],[75.1224,30.925],[74.9285,30.7673],[74.8873,30.7483],[74.762,30.7453],[74.7525,30.718],[74.7954,30.6829],[74.7966,30.6469],[74.8287,30.6206],[75.0379,30.6074],[75.1309,30.6365],[75.1395,30.6998],[75.1609,30.6822],[75.2637,30.7385],[75.3895,30.723],[75.4303,30.7599],[75.5765,30.7626],[75.5863,30.7899],[75.6379,30.8179],[75.7633,30.82],[75.8895,30.786],[75.9218,30.7414],[75.9958,30.6975],[76.1214,30.6813],[76.1638,30.6458],[76.2264,30.6466],[76.2903,30.5753],[76.3737,30.5764],[76.4151,30.5949],[76.4559,30.6495],[76.5079,30.6591],[76.5066,30.7493],[76.5272,30.7676],[76.4951,30.8123],[76.4109,30.8474],[76.3064,30.8461],[76.2443,30.8093],[76.2026,30.8087],[76.1916,30.8356],[76.0324,30.9506],[75.9906,30.95],[75.9057,31.0028],[75.8006,31.0191],[75.6505,31.1609],[75.5246,31.1586],[75.5032,31.1762]]]]}}]}