{"type":"FeatureCollection","features":[{"type":"Feature","properties":{"cell":213,"feature":2575,"phase":"Developing","min_bt_K":230.0,"area_km2":11912,"cold_core_km2":0,"speed_kmh":25.0,"heading_deg":88,"d_min_bt_30":2.0,"age_min":240,"family":198,"touches_missing":true,"lon":74.1991,"lat":33.4445,"merges_splits_so_far":11},"geometry":{"type":"MultiPolygon","coordinates":[[[[74.386,34.0014],[74.2129,33.9966],[74.0848,33.9568],[74.0183,33.991],[73.9439,33.9617],[73.9256,33.8889],[73.8841,33.8516],[73.9073,33.8162],[73.8866,33.7975],[73.8908,33.7074],[73.8494,33.67],[73.851,33.634],[73.7571,33.5679],[73.6504,33.5464],[73.6419,33.501],[73.6006,33.4636],[73.5854,33.3367],[73.4844,33.207],[73.4871,33.153],[73.4666,33.1343],[73.4823,33.0355],[73.5473,33.0197],[73.7176,33.0433],[74.0323,33.1974],[74.1808,33.2378],[74.1903,33.2651],[74.2636,33.3123],[74.2769,33.2495],[74.2562,33.2309],[74.2504,33.1135],[74.3146,33.1152],[74.4188,33.1903],[74.5378,33.1663],[74.4749,33.1286],[74.4659,33.0832],[74.4017,33.0815],[74.3183,33.0251],[74.2483,32.9059],[74.5584,32.9052],[74.6212,32.9429],[74.6646,32.926],[74.7689,33.0007],[74.8966,33.0218],[74.9162,33.0764],[74.9792,33.1139],[75.022,33.1148],[75.0533,33.1426],[75.0301,33.1962],[75.1025,33.279],[75.2081,33.3354],[75.251,33.3363],[75.3562,33.4106],[75.4207,33.4118],[75.4622,33.4667],[75.5052,33.4676],[75.5472,33.5044],[75.6433,33.5332],[75.6193,33.623],[75.5863,33.6495],[75.5226,33.6122],[75.447,33.6198],[75.4886,33.6747],[75.497,33.7561],[75.3897,33.736],[75.356,33.7805],[75.2791,33.824],[75.1712,33.8218],[75.065,33.7654],[75.0428,33.7829],[74.9713,33.664],[74.9726,33.628],[74.8355,33.5436],[74.7735,33.47],[74.6986,33.4591],[74.6999,33.423],[74.7325,33.4148],[74.8798,33.5086],[74.924,33.4735],[74.967,33.4745],[74.9787,33.4477],[74.9056,33.3829],[74.7989,33.3623],[74.7273,33.2613],[74.6747,33.233],[74.6415,33.2592],[74.7026,33.3509],[74.6694,33.3772],[74.5835,33.375],[74.4739,33.4263],[74.4524,33.4257],[74.4324,33.3891],[74.3783,33.3967],[74.3761,33.4507],[74.4399,33.4705],[74.4377,33.5246],[74.5009,33.5623],[74.4994,33.5984],[74.6461,33.7104],[74.6225,33.764],[74.6406,33.8546],[74.5856,33.8803],[74.5222,33.8426],[74.479,33.8415],[74.456,33.877],[74.4128,33.8758],[74.3994,33.9386],[74.4195,33.9752],[74.386,34.0014]]]]}},{"type":"Feature","properties":{"cell":219,"feature":2572,"phase":"Developing","min_bt_K":234.1,"area_km2":17236,"cold_core_km2":0,"speed_kmh":78.7,"heading_deg":99,"d_min_bt_30":4.8,"age_min":210,"family":5,"touches_missing":true,"lon":76.5688,"lat":31.3238,"merges_splits_so_far":17},"geometry":{"type":"MultiPolygon","coordinates":[[[[75.8801,32.157],[75.8165,32.156],[75.6699,32.0813],[75.5207,32.1147],[75.4901,32.069],[75.5767,31.9985],[75.5776,31.9624],[75.5058,31.8799],[75.464,31.8611],[75.4212,31.8783],[75.3156,31.8762],[75.2641,31.83],[75.3727,31.724],[75.3732,31.7059],[75.3007,31.6594],[75.1731,31.6928],[75.1406,31.7192],[75.1179,31.7728],[75.1687,31.8371],[75.2213,31.8472],[75.2202,31.8832],[75.1872,31.9277],[75.102,31.9439],[75.0723,31.8801],[74.9695,31.7876],[75.014,31.7164],[74.9759,31.5893],[75.0942,31.5107],[75.1353,31.5477],[75.2616,31.5503],[75.3042,31.5332],[75.313,31.5965],[75.3644,31.6426],[75.4306,31.5357],[75.4727,31.5365],[75.5349,31.5737],[75.5963,31.647],[75.7017,31.6489],[75.7223,31.6673],[75.7757,31.6411],[75.7344,31.6043],[75.7881,31.5601],[75.9777,31.5632],[76.2502,31.6392],[76.3037,31.5948],[76.1262,31.5112],[76.0645,31.4382],[75.9808,31.4189],[75.9295,31.355],[75.9754,31.1753],[76.0288,31.131],[76.1336,31.1325],[76.2514,30.9988],[76.2752,30.8367],[76.2135,30.7818],[76.2244,30.7549],[76.4748,30.776],[76.5594,30.7048],[76.6223,30.6874],[76.684,30.7602],[76.8928,30.7621],[76.9551,30.7987],[77.0596,30.7995],[77.0802,30.8357],[77.2056,30.8365],[77.2678,30.9091],[77.4037,30.9188],[77.4244,30.9549],[77.4029,31.045],[77.5073,31.1176],[77.5278,31.2079],[77.5593,31.217],[77.601,31.2713],[77.664,31.2715],[77.7479,31.3258],[77.8949,31.344],[77.9264,31.3711],[77.9264,31.4072],[77.8948,31.4342],[77.8317,31.4522],[77.7686,31.434],[77.6632,31.506],[77.5156,31.5416],[77.4735,31.5414],[77.3687,31.4688],[77.2845,31.4684],[77.221,31.5222],[77.1154,31.5576],[77.0734,31.5392],[76.7994,31.5551],[76.7788,31.5188],[76.5891,31.535],[76.5147,31.5793],[76.5034,31.6242],[76.4613,31.6238],[76.4078,31.6682],[76.3861,31.7041],[76.4173,31.7315],[76.5645,31.7692],[76.67,31.7703],[76.7338,31.7349],[76.892,31.7453],[76.7967,31.7715],[76.7433,31.8162],[76.7214,31.8701],[76.615,31.9231],[76.6356,31.9594],[76.6035,31.9861],[76.498,31.967],[76.4566,31.9124],[76.372,31.9113],[76.3515,31.875],[76.2887,31.8381],[76.2257,31.8193],[76.1831,31.8367],[76.1416,31.8001],[76.0368,31.7625],[75.8762,31.8593],[75.875,31.9134],[76.0526,32.0153],[76.0623,32.0605],[76.0296,32.1052],[75.9448,32.1039],[75.8801,32.157]]]]}},{"type":"Feature","properties":{"cell":243,"feature":2574,"phase":"Developing","min_bt_K":228.0,"area_km2":10780,"cold_core_km2":0,"speed_kmh":105.8,"heading_deg":70,"d_min_bt_30":1.2,"age_min":150,"family":5,"touches_missing":true,"lon":76.0884,"lat":32.9323,"merges_splits_so_far":5},"geometry":{"type":"MultiPolygon","coordinates":[[[[76.8584,33.6122],[76.7621,33.5663],[76.7626,33.5302],[76.7097,33.4666],[76.6022,33.4655],[76.5386,33.4107],[76.4956,33.4102],[76.4318,33.3734],[76.3673,33.3726],[76.3042,33.2997],[76.2406,33.2627],[76.1977,33.2622],[76.0927,33.1525],[76.0292,33.1155],[75.9863,33.1148],[75.9351,33.0148],[75.7984,32.9134],[75.7557,32.9127],[75.6716,32.8571],[75.6498,32.8748],[75.6075,32.856],[75.5454,32.7827],[75.4184,32.7442],[75.1669,32.5948],[75.145,32.6123],[75.1139,32.5846],[75.1369,32.531],[75.084,32.5208],[75.0334,32.4385],[75.0994,32.3678],[75.1257,32.206],[75.1578,32.1977],[75.1991,32.2346],[75.284,32.2364],[75.3461,32.2917],[75.3885,32.2926],[75.4009,32.2297],[75.3388,32.1743],[75.3714,32.1479],[75.4567,32.1315],[75.4788,32.0959],[75.6469,32.1531],[75.655,32.2524],[75.6225,32.2789],[75.5055,32.2858],[75.6197,32.3871],[75.6622,32.3879],[75.6929,32.4335],[75.7558,32.4707],[75.7341,32.4883],[75.7328,32.5424],[75.7641,32.57],[75.9336,32.6089],[76.0599,32.6829],[76.2304,32.6853],[76.3787,32.7413],[76.4932,32.914],[76.5125,33.0405],[76.6292,33.1049],[76.6935,33.1056],[76.7355,33.1601],[76.7784,33.1605],[76.8422,33.1971],[76.8856,33.1614],[76.9284,33.1618],[76.9401,33.0807],[77.0261,33.0453],[77.0275,32.919],[77.1024,32.9105],[77.1124,32.9737],[77.1658,32.9831],[77.1869,33.0193],[77.2939,33.0199],[77.3154,33.002],[77.4006,33.0565],[77.5504,33.0751],[77.6357,33.1475],[77.8285,33.184],[77.8713,33.2201],[77.9357,33.2202],[77.9893,33.2473],[77.9785,33.2743],[77.6567,33.2558],[77.6352,33.2738],[77.4636,33.2733],[77.442,33.2912],[77.3142,33.1643],[77.2285,33.1639],[77.1648,33.0913],[77.122,33.091],[77.1204,33.2534],[77.0132,33.2526],[76.9278,33.2159],[76.8741,33.2245],[76.884,33.2877],[76.9269,33.2881],[76.9907,33.3427],[77.0658,33.3522],[77.0861,33.4606],[77.0315,33.5414],[76.9884,33.5411],[76.8584,33.6122]]],[[[75.2029,32.4602],[75.1931,32.4329],[75.0977,32.4219],[75.1075,32.4492],[75.2029,32.4602]]],[[[75.3284,32.535],[75.3186,32.5077],[75.2864,32.5161],[75.3284,32.535]]]]}},{"type":"Feature","properties":{"cell":256,"feature":2569,"phase":"Decaying","min_bt_K":222.1,"area_km2":26432,"cold_core_km2":0,"speed_kmh":36.6,"heading_deg":70,"d_min_bt_30":-8.9,"age_min":90,"family":5,"touches_missing":true,"lon":76.8337,"lat":29.99,"merges_splits_so_far":5},"geometry":{"type":"MultiPolygon","coordinates":[[[[77.3935,30.8736],[77.289,30.8731],[77.2683,30.8369],[77.2265,30.8367],[77.2163,30.8095],[77.1746,30.7912],[77.1751,30.7371],[77.2065,30.7283],[77.2171,30.7013],[77.1233,30.6917],[77.1131,30.6646],[76.9991,30.5826],[76.9781,30.6004],[76.9155,30.5999],[76.8521,30.6716],[76.8317,30.6353],[76.5811,30.6509],[76.5293,30.6233],[76.5507,30.5874],[76.531,30.5151],[76.5626,30.4883],[76.6256,30.4529],[76.6881,30.4536],[76.7087,30.4718],[76.7714,30.4544],[76.8658,30.3921],[76.8148,30.3104],[76.6474,30.381],[76.5642,30.3801],[76.5437,30.3618],[76.481,30.3792],[76.2729,30.3766],[76.2009,30.3306],[76.2434,30.277],[76.2243,30.1866],[76.131,30.1762],[76.1194,30.2392],[76.025,30.283],[75.9835,30.2823],[75.9721,30.3273],[75.9192,30.3715],[75.8988,30.3532],[75.8156,30.3518],[75.7944,30.3695],[75.774,30.3511],[75.7116,30.3501],[75.6067,30.3843],[75.5956,30.4112],[75.5004,30.4726],[75.4592,30.4537],[75.4161,30.507],[75.3328,30.5054],[75.2479,30.5578],[75.1646,30.556],[75.1432,30.5736],[75.1229,30.5551],[75.1015,30.5727],[75.094,30.4733],[75.0438,30.409],[75.0129,30.3993],[75.0151,30.3272],[74.9634,30.317],[74.933,30.2892],[74.9341,30.2532],[74.8825,30.2429],[74.8527,30.1971],[74.8746,30.1616],[74.9487,30.1182],[75.1147,30.1219],[75.1349,30.1404],[75.3015,30.1258],[75.4504,29.9845],[75.5448,29.9411],[75.5563,29.8962],[75.5977,29.897],[75.6087,29.8701],[75.6505,29.8528],[75.6513,29.8168],[75.6936,29.7814],[75.6952,29.7093],[75.7471,29.7011],[75.7685,29.6654],[75.8309,29.6484],[75.8512,29.6668],[75.9954,29.6871],[76.0361,29.7238],[76.0981,29.7247],[76.1614,29.6534],[76.2132,29.6451],[76.2138,29.609],[76.2872,29.5469],[76.4924,29.6215],[76.575,29.6224],[76.7205,29.5518],[76.7312,29.5248],[76.8456,29.4447],[77.0928,29.4646],[77.1343,29.4288],[77.4229,29.4304],[77.4122,29.4935],[77.3707,29.5294],[77.4011,29.6288],[77.4423,29.647],[77.4837,29.6291],[77.5869,29.6475],[77.7316,29.6118],[77.7728,29.6299],[77.9793,29.6301],[78.031,29.6752],[78.031,29.7113],[78.093,29.7474],[78.0931,29.8376],[78.1138,29.8556],[78.0518,29.8917],[78.0518,29.9098],[78.0932,29.9278],[78.0829,29.9729],[77.9586,29.9549],[77.9275,30.0],[77.8756,30.027],[77.8549,30.0089],[77.689,30.0267],[77.6473,30.0807],[77.5018,30.1344],[77.4287,30.2153],[77.4283,30.2874],[77.5008,30.3328],[77.5218,30.2968],[77.605,30.2971],[77.6258,30.2791],[77.896,30.2976],[77.9584,30.2616],[78.0208,30.2616],[78.1247,30.2976],[78.1664,30.3697],[78.2497,30.3696],[78.3122,30.4056],[78.3746,30.4054],[78.4165,30.4594],[78.4581,30.4593],[78.5203,30.4049],[78.6144,30.4677],[78.6146,30.5037],[78.5417,30.5131],[78.5208,30.4951],[78.4583,30.4953],[78.396,30.5316],[78.3857,30.5768],[78.3337,30.604],[78.1251,30.5863],[78.1042,30.5683],[78.0417,30.5683],[78.0208,30.5322],[77.9375,30.5322],[77.9167,30.5142],[77.7916,30.514],[77.7708,30.532],[77.604,30.5497],[77.5099,30.5945],[77.5097,30.6486],[77.4678,30.6665],[77.4881,30.7748],[77.3935,30.8736]]]]}},{"type":"Feature","properties":{"cell":264,"feature":2567,"phase":"Developing","min_bt_K":233.0,"area_km2":10196,"cold_core_km2":0,"speed_kmh":82.6,"heading_deg":294,"d_min_bt_30":-1.0,"age_min":30,"family":5,"touches_missing":true,"lon":77.0721,"lat":29.0952,"merges_splits_so_far":4},"geometry":{"type":"MultiPolygon","coordinates":[[[[76.575,29.6224],[76.4823,29.6124],[76.4833,29.5402],[76.3813,29.4668],[76.3819,29.4308],[76.3004,29.3756],[76.1999,29.2299],[76.2318,29.1672],[76.3346,29.1685],[76.376,29.151],[76.4492,29.0707],[76.45,29.0166],[76.4098,28.9619],[76.4514,28.9263],[76.4317,28.872],[76.5046,28.7916],[76.607,28.7927],[76.6689,28.7573],[76.7099,28.7577],[76.7912,28.8126],[76.9757,28.7961],[76.9966,28.7602],[77.0375,28.7605],[77.0788,28.7247],[77.1402,28.7251],[77.2019,28.6894],[77.2633,28.6898],[77.2836,28.7079],[77.3861,28.6904],[77.4061,28.7627],[77.488,28.763],[77.5086,28.745],[77.57,28.7633],[77.7338,28.7637],[77.7543,28.7457],[77.7747,28.7638],[78.0,28.764],[78.0615,28.8001],[78.1434,28.8],[78.1639,28.818],[78.3687,28.7996],[78.3789,28.7725],[78.43,28.7452],[78.5222,28.772],[78.5227,28.8622],[78.4409,28.9166],[78.4411,28.9527],[78.3797,29.0071],[78.4211,29.0791],[78.3904,29.1063],[78.3081,29.0885],[78.2672,29.1427],[78.2157,29.0977],[78.2156,29.0255],[78.2771,29.0073],[78.277,28.9532],[78.2462,28.9442],[78.1848,29.0165],[78.0821,29.0347],[78.0308,29.0978],[77.9897,29.1159],[77.9486,29.17],[78.0103,29.1881],[78.0,29.2151],[77.9383,29.2151],[77.8972,29.179],[77.8354,29.2511],[77.784,29.242],[77.7841,29.2059],[77.8252,29.1879],[77.815,29.1609],[77.7122,29.1607],[77.6507,29.1064],[77.5891,29.1062],[77.5482,29.052],[77.4663,29.0156],[77.4455,29.0516],[77.3223,29.051],[77.2808,29.1229],[77.1986,29.1225],[77.1881,29.1495],[77.1261,29.1852],[77.1154,29.2302],[76.9716,29.2111],[76.9509,29.229],[76.8066,29.2458],[76.795,29.363],[76.8356,29.4175],[76.8351,29.4536],[76.7624,29.498],[76.7205,29.5518],[76.575,29.6224]]]]}},{"type":"Feature","properties":{"cell":265,"feature":2571,"phase":"Unclassified","min_bt_K":230.0,"area_km2":2552,"cold_core_km2":0,"speed_kmh":45.0,"heading_deg":38,"d_min_bt_30":-3.3,"age_min":30,"family":5,"touches_missing":true,"lon":75.7379,"lat":31.0556,"merges_splits_so_far":3},"geometry":{"type":"MultiPolygon","coordinates":[[[[75.7747,31.2352],[75.6496,31.197],[75.5862,31.2139],[75.5232,31.2127],[75.5027,31.1943],[75.4388,31.2291],[75.3666,31.1826],[75.3261,31.1277],[75.3276,31.0736],[75.3949,30.9126],[75.4265,30.9041],[75.4698,30.8509],[75.5943,30.8893],[75.678,30.8907],[75.698,30.9272],[75.7604,30.9463],[75.8236,30.9293],[76.0328,30.9326],[76.2221,30.8811],[76.2743,30.8908],[76.2514,30.9988],[76.1336,31.1325],[76.0288,31.131],[75.9647,31.1841],[75.7965,31.1995],[75.7747,31.2352]]]]}}]}