{"type":"FeatureCollection","features":[{"type":"Feature","properties":{"cell":213,"feature":2626,"phase":"Developing","min_bt_K":233.4,"area_km2":8924,"cold_core_km2":0,"speed_kmh":47.7,"heading_deg":64,"d_min_bt_30":3.4,"age_min":270,"family":198,"touches_missing":true,"lon":74.4297,"lat":33.539,"merges_splits_so_far":11},"geometry":{"type":"MultiPolygon","coordinates":[[[[74.6672,34.0087],[74.2995,33.999],[74.2682,33.9711],[74.2712,33.899],[74.2296,33.8617],[74.2319,33.8077],[74.1495,33.7151],[74.1518,33.661],[74.1199,33.6511],[74.0585,33.5771],[74.0154,33.5758],[73.9756,33.5025],[73.9223,33.4918],[73.9239,33.4558],[73.8834,33.4004],[73.8859,33.3463],[73.7862,33.1808],[73.7545,33.1708],[73.7245,33.1247],[73.7801,33.0814],[74.0354,33.1253],[74.3279,33.3141],[74.4353,33.317],[74.4589,33.2635],[74.6083,33.2854],[74.6546,33.1964],[74.7183,33.216],[74.7384,33.2526],[74.7813,33.2536],[74.8229,33.2907],[74.9505,33.3298],[74.9652,33.2128],[74.9449,33.1763],[74.9137,33.1485],[74.8709,33.1475],[74.7248,33.0357],[74.6814,33.0527],[74.6503,33.0248],[74.706,32.9631],[74.8765,32.9852],[74.9602,33.0413],[75.022,33.1148],[75.139,33.1445],[75.1373,33.1986],[75.0938,33.2157],[75.1036,33.2429],[75.146,33.2619],[75.2109,33.2452],[75.2208,33.2725],[75.273,33.3187],[75.3369,33.338],[75.3783,33.393],[75.4212,33.3938],[75.4842,33.4491],[75.5912,33.4691],[75.6863,33.534],[75.7069,33.5704],[75.6954,33.5973],[75.5667,33.5769],[75.4816,33.5393],[75.4401,33.4844],[75.2576,33.4717],[75.2885,33.5175],[75.4375,33.5745],[75.4791,33.6295],[75.5221,33.6303],[75.6179,33.6771],[75.5738,33.7124],[75.626,33.7765],[75.7229,33.7872],[75.7431,33.8417],[75.7858,33.8604],[75.7522,33.905],[75.6874,33.9039],[75.4123,33.7004],[75.3477,33.6991],[75.22,33.6424],[75.1129,33.6221],[75.1146,33.568],[75.2333,33.5614],[75.1914,33.5245],[75.1931,33.4704],[75.2152,33.4528],[75.121,33.3696],[75.0363,33.3317],[74.9824,33.3395],[74.9811,33.3756],[75.0444,33.4131],[75.0536,33.4584],[75.1065,33.4866],[75.0943,33.5314],[75.0303,33.512],[74.7937,33.5065],[74.7631,33.4607],[74.7103,33.4323],[74.6764,33.4766],[74.7161,33.5678],[74.7794,33.6054],[74.8199,33.6786],[74.8362,33.8233],[74.9713,33.9798],[75.0899,33.9915],[74.8409,33.9949],[74.7472,33.8934],[74.7381,33.848],[74.725,33.9109],[74.7885,33.9485],[74.7872,33.9846],[74.6895,33.9912],[74.6672,34.0087]]],[[[74.5238,33.5268],[74.5252,33.4908],[74.4933,33.4809],[74.4808,33.5257],[74.5238,33.5268]]]]}},{"type":"Feature","properties":{"cell":219,"feature":2624,"phase":"Developing","min_bt_K":231.5,"area_km2":13360,"cold_core_km2":0,"speed_kmh":45.1,"heading_deg":141,"d_min_bt_30":-2.6,"age_min":240,"family":5,"touches_missing":true,"lon":76.7165,"lat":31.1648,"merges_splits_so_far":17},"geometry":{"type":"MultiPolygon","coordinates":[[[[76.4815,31.6781],[76.3874,31.6319],[76.3669,31.5956],[76.3883,31.5778],[76.3691,31.4693],[76.338,31.4419],[76.2749,31.4411],[76.2542,31.4228],[76.149,31.4213],[76.1276,31.4391],[75.9808,31.4189],[75.8879,31.3363],[75.8895,31.2641],[75.9773,31.0851],[76.0924,31.0958],[76.1247,31.0512],[75.9796,30.9769],[75.991,30.9319],[76.064,30.942],[76.0655,30.8699],[75.9833,30.7965],[75.9939,30.7877],[76.1197,30.7715],[76.183,30.7363],[76.2244,30.7549],[76.3498,30.7565],[76.4765,30.6678],[76.6641,30.6879],[76.7053,30.7243],[76.8724,30.7259],[76.8928,30.7621],[76.9555,30.7626],[76.9657,30.7898],[77.0178,30.7992],[77.0384,30.8354],[77.4357,30.8197],[77.4986,30.7658],[77.6031,30.7662],[77.6241,30.7301],[77.6763,30.7393],[77.655,30.8655],[77.5608,30.8743],[77.5502,30.9193],[77.5814,30.9465],[77.686,30.9648],[77.7173,31.01],[77.8009,31.0643],[77.8006,31.2266],[77.7057,31.3618],[77.6215,31.3976],[77.5374,31.3974],[77.5162,31.4334],[77.453,31.4511],[77.348,31.4146],[77.3269,31.4325],[77.2638,31.4322],[77.2214,31.468],[77.0318,31.4848],[76.9469,31.5563],[76.7784,31.5549],[76.7365,31.5365],[76.6939,31.5721],[76.5885,31.5711],[76.5346,31.6517],[76.4815,31.6781]]]]}},{"type":"Feature","properties":{"cell":243,"feature":2625,"phase":"Developing","min_bt_K":232.0,"area_km2":12928,"cold_core_km2":0,"speed_kmh":98.1,"heading_deg":75,"d_min_bt_30":4.0,"age_min":180,"family":5,"touches_missing":true,"lon":76.5963,"lat":33.0437,"merges_splits_so_far":5},"geometry":{"type":"MultiPolygon","coordinates":[[[[76.7923,33.7199],[76.664,33.6465],[76.6422,33.6644],[76.6318,33.6372],[76.5253,33.5639],[76.5474,33.528],[76.5262,33.5098],[76.5271,33.4557],[76.6243,33.4296],[76.6874,33.5205],[76.7304,33.5209],[76.773,33.5574],[76.8376,33.5579],[76.8919,33.5133],[76.839,33.4497],[76.7745,33.4491],[76.7322,33.3946],[76.6245,33.4116],[76.6153,33.3123],[76.4128,33.2288],[76.3505,33.1198],[76.2437,33.1004],[76.1802,33.0635],[76.1704,33.0182],[76.0226,32.9259],[76.0133,32.8626],[75.9073,32.8249],[75.8747,32.8515],[75.8625,32.9144],[75.7988,32.8954],[75.7574,32.8405],[75.7143,32.8579],[75.6307,32.7842],[75.5776,32.7743],[75.5791,32.7202],[75.6113,32.7117],[75.653,32.7485],[75.8437,32.8059],[75.8776,32.7252],[75.8358,32.6885],[75.8262,32.6432],[75.7392,32.714],[75.5805,32.6661],[75.5819,32.612],[75.5413,32.5391],[75.5848,32.5038],[75.564,32.4853],[75.5654,32.4312],[75.5238,32.3944],[75.5489,32.2505],[75.507,32.2317],[75.5079,32.1956],[75.467,32.1408],[75.4685,32.0867],[75.4901,32.069],[75.4084,31.9592],[75.4738,31.8883],[75.4429,31.8607],[75.3795,31.8594],[75.3073,31.7948],[75.3099,31.7047],[75.384,31.6971],[75.4492,31.6262],[75.4918,31.609],[75.6676,31.7475],[75.6456,31.7832],[75.6977,31.8112],[75.8456,31.8137],[75.8671,31.796],[75.9715,31.8517],[76.1198,31.8359],[76.2136,31.9003],[76.1921,31.918],[76.2126,31.9544],[76.2004,32.0354],[76.1369,32.0345],[76.1161,32.0162],[76.0084,32.1049],[75.9025,32.1032],[75.8298,32.0389],[75.8949,31.9678],[75.8638,31.9402],[75.7374,31.9201],[75.6546,31.8465],[75.6227,31.855],[75.6321,31.9002],[75.7059,31.9106],[75.6402,31.9996],[75.714,32.0099],[75.8074,32.0927],[75.7961,32.1195],[75.7326,32.1185],[75.6789,32.1446],[75.678,32.1807],[75.7191,32.2355],[75.6965,32.2893],[75.6324,32.3062],[75.631,32.3603],[75.7034,32.4427],[75.7671,32.4438],[75.8301,32.4809],[75.8522,32.4452],[75.8947,32.4459],[75.9573,32.501],[76.0424,32.5023],[76.0842,32.5389],[76.1899,32.5765],[76.2423,32.6223],[76.2412,32.6764],[76.2622,32.6947],[76.2402,32.7305],[76.3354,32.7768],[76.5061,32.7789],[76.5695,32.8156],[76.6549,32.8165],[76.6968,32.8711],[76.9312,32.9273],[77.0159,33.0001],[77.1229,33.0008],[77.1444,32.9829],[77.2297,33.0195],[77.2399,33.0827],[77.1969,33.1005],[77.2069,33.1818],[77.3569,33.1826],[77.3781,33.2188],[77.485,33.2733],[77.6138,33.2738],[77.6243,33.3189],[77.6672,33.3371],[77.667,33.3912],[77.7098,33.4274],[77.699,33.4544],[77.6559,33.4723],[77.4409,33.4716],[77.4192,33.4896],[77.3548,33.4712],[77.2574,33.5519],[77.2569,33.606],[77.2137,33.6238],[77.2025,33.6689],[77.0517,33.6679],[77.0305,33.6316],[76.9866,33.7035],[76.8141,33.7021],[76.7923,33.7199]]]]}},{"type":"Feature","properties":{"cell":256,"feature":2619,"phase":"Decaying","min_bt_K":230.0,"area_km2":14908,"cold_core_km2":0,"speed_kmh":148.9,"heading_deg":110,"d_min_bt_30":7.9,"age_min":120,"family":5,"touches_missing":true,"lon":77.557,"lat":29.7577,"merges_splits_so_far":9},"geometry":{"type":"MultiPolygon","coordinates":[[[[77.7916,30.514],[77.7604,30.5049],[77.771,30.4238],[77.6462,30.4055],[77.5419,30.4593],[77.5003,30.4411],[77.4797,30.4049],[77.3548,30.4044],[77.3446,30.3773],[77.2617,30.3227],[77.2827,30.3048],[77.2725,30.2776],[77.1478,30.2769],[77.1271,30.2587],[76.9815,30.2757],[76.9195,30.2392],[76.8786,30.1847],[76.7852,30.1748],[76.7857,30.1388],[76.8377,30.1302],[76.8484,30.1032],[76.9005,30.0766],[77.0041,30.0955],[77.0452,30.1319],[77.1075,30.1323],[77.1694,30.1688],[77.2836,30.1785],[77.2323,30.097],[77.1701,30.0966],[77.1187,30.0331],[77.0672,30.0057],[77.005,30.0053],[76.9741,29.978],[76.9747,29.9239],[76.8724,29.8148],[76.9246,29.7701],[77.0283,29.7348],[77.1118,29.6452],[77.2259,29.5828],[77.0827,29.4375],[77.0636,29.275],[77.0947,29.2481],[77.115,29.2843],[77.1973,29.2849],[77.2177,29.303],[77.29,29.2764],[77.2699,29.2041],[77.2187,29.1767],[77.1678,29.1133],[77.1682,29.0591],[77.2096,29.0233],[77.1695,28.8967],[77.2005,28.8698],[77.303,28.8704],[77.3439,28.8887],[77.385,28.8708],[77.4263,28.8169],[77.4673,28.8171],[77.549,28.8715],[77.713,28.872],[77.7746,28.836],[77.795,28.8541],[77.9385,28.8542],[78.0308,28.9174],[78.0616,28.9805],[78.1539,28.9895],[78.154,29.0436],[78.113,29.0617],[78.113,29.1158],[78.0411,29.1971],[77.9383,29.179],[77.8972,29.1249],[77.8356,29.1068],[77.7842,29.1157],[77.8047,29.1518],[77.8047,29.1879],[77.7634,29.2239],[77.7839,29.2781],[77.7221,29.296],[77.7219,29.3863],[77.6598,29.4583],[77.7113,29.4674],[77.7421,29.5306],[77.7936,29.5578],[77.8555,29.5759],[77.9587,29.558],[78.0516,29.6031],[78.093,29.6752],[77.969,29.7474],[78.0207,29.8106],[78.1862,29.8104],[78.2275,29.7743],[78.2585,29.7832],[78.2589,29.9095],[78.2071,29.9186],[78.1554,29.9638],[78.1348,30.0721],[78.0104,30.1263],[77.9896,30.1804],[77.9896,30.3789],[78.0104,30.415],[77.9896,30.4691],[77.8125,30.496],[77.7916,30.514]]]]}},{"type":"Feature","properties":{"cell":265,"feature":2623,"phase":"Unclassified","min_bt_K":233.0,"area_km2":4860,"cold_core_km2":0,"speed_kmh":68.5,"heading_deg":302,"d_min_bt_30":3.0,"age_min":60,"family":5,"touches_missing":true,"lon":75.4324,"lat":31.2177,"merges_splits_so_far":5},"geometry":{"type":"MultiPolygon","coordinates":[[[[75.5359,31.5377],[75.5045,31.5281],[75.5162,31.4832],[75.413,31.409],[75.3929,31.3726],[75.3304,31.3533],[75.3191,31.3801],[75.3812,31.4174],[75.3797,31.4715],[75.3258,31.5156],[75.2837,31.5147],[75.2745,31.4694],[75.296,31.4518],[75.2442,31.4237],[75.1175,31.439],[75.0765,31.4021],[75.0345,31.4011],[75.0146,31.3646],[74.9509,31.3812],[74.9305,31.3627],[74.8873,31.3978],[74.7948,31.3324],[74.8062,31.3056],[74.9124,31.2721],[75.0202,31.1843],[75.0729,31.1765],[75.074,31.1404],[74.9743,30.9758],[74.9754,30.9397],[74.9138,30.9022],[74.9279,30.7853],[75.0527,30.8062],[75.0602,30.9056],[75.1111,30.9518],[75.1744,30.9351],[75.2147,30.9901],[75.2995,30.9557],[75.4446,31.0127],[75.801,31.0011],[75.8137,30.9021],[75.8666,30.8759],[75.9385,30.9402],[75.9377,30.9762],[75.9061,30.9848],[75.895,31.0116],[75.9777,31.067],[75.9769,31.1031],[75.9338,31.1566],[75.8883,31.3182],[75.8356,31.3264],[75.7606,31.3883],[75.7808,31.4247],[75.7271,31.4689],[75.6644,31.4498],[75.5359,31.5377]]],[[[75.613,31.4038],[75.6344,31.3861],[75.583,31.3401],[75.5714,31.385],[75.613,31.4038]]]]}},{"type":"Feature","properties":{"cell":277,"feature":2622,"phase":"Unclassified","min_bt_K":233.0,"area_km2":3120,"cold_core_km2":0,"speed_kmh":null,"heading_deg":null,"d_min_bt_30":null,"age_min":0,"family":5,"touches_missing":false,"lon":78.5819,"lat":30.2629,"merges_splits_so_far":0},"geometry":{"type":"MultiPolygon","coordinates":[[[[78.8974,30.6735],[78.7096,30.6746],[78.6677,30.6568],[78.6361,30.6119],[78.5734,30.5761],[78.5627,30.531],[78.4585,30.5314],[78.4475,30.4142],[78.3433,30.3784],[78.343,30.2882],[78.3012,30.2162],[78.4049,30.1618],[78.4043,30.0355],[78.4353,30.0083],[78.5389,29.9899],[78.5801,29.9536],[78.6837,29.9531],[78.6944,29.9982],[78.7361,30.034],[78.7364,30.0701],[78.8304,30.1508],[78.9551,30.168],[78.9658,30.1949],[79.0387,30.2214],[79.0914,30.2842],[79.0607,30.3295],[78.9983,30.33],[78.8729,30.2587],[78.7797,30.3044],[78.7801,30.3585],[78.7595,30.3767],[78.7811,30.4848],[78.8544,30.5295],[78.8751,30.5113],[78.9169,30.529],[78.9695,30.5738],[78.9697,30.5918],[78.9074,30.6283],[78.8974,30.6735]]]]}},{"type":"Feature","properties":{"cell":278,"feature":2627,"phase":"Unclassified","min_bt_K":233.0,"area_km2":2320,"cold_core_km2":0,"speed_kmh":null,"heading_deg":null,"d_min_bt_30":null,"age_min":0,"family":278,"touches_missing":true,"lon":77.5288,"lat":33.6429,"merges_splits_so_far":0},"geometry":{"type":"MultiPolygon","coordinates":[[[[78.0433,33.996],[77.8269,33.9959],[77.8378,33.9688],[77.7624,33.8695],[77.6976,33.8694],[77.5036,33.7966],[77.4819,33.8146],[77.3955,33.8142],[77.3527,33.7599],[77.288,33.7596],[77.2775,33.7324],[77.2992,33.7145],[77.2134,33.6599],[77.2137,33.6238],[77.2569,33.606],[77.2574,33.5519],[77.3548,33.4712],[77.4192,33.4896],[77.4409,33.4716],[77.6559,33.4723],[77.6775,33.4544],[77.742,33.4545],[77.7741,33.4997],[77.8386,33.5358],[77.8385,33.59],[77.8062,33.5989],[77.7738,33.644],[77.8166,33.7523],[77.9676,33.8246],[77.9676,33.9509],[78.0432,33.9599],[78.0433,33.996]]]]}}]}