{"type":"FeatureCollection","features":[{"type":"Feature","properties":{"cell":219,"feature":2674,"phase":"Developing","min_bt_K":229.3,"area_km2":14040,"cold_core_km2":0,"speed_kmh":56.7,"heading_deg":289,"d_min_bt_30":-2.2,"age_min":270,"family":5,"touches_missing":true,"lon":76.4358,"lat":31.2488,"merges_splits_so_far":20},"geometry":{"type":"MultiPolygon","coordinates":[[[[76.1205,31.7998],[75.9746,31.7074],[75.8679,31.7599],[75.6573,31.7383],[75.5546,31.6282],[75.3228,31.6238],[75.3145,31.5424],[75.4316,31.4996],[75.5565,31.5561],[75.6102,31.512],[75.6111,31.4759],[75.4873,31.3834],[75.4271,31.274],[75.4808,31.2299],[75.6268,31.2687],[75.7318,31.2705],[75.7532,31.2529],[75.8792,31.2549],[75.922,31.2195],[75.9846,31.2385],[76.0483,31.2034],[76.0902,31.204],[76.1436,31.1597],[76.1133,31.0961],[75.9662,31.112],[75.8816,31.1467],[75.861,31.1284],[75.7772,31.127],[75.7677,31.0817],[75.8832,31.0746],[75.9164,30.9939],[76.1707,30.8353],[76.1611,30.7901],[76.2659,30.7735],[76.3507,30.7024],[76.4333,30.7575],[76.5795,30.7591],[76.706,30.6702],[76.8104,30.6712],[76.9557,30.7446],[76.9969,30.799],[77.0387,30.7993],[77.0489,30.8265],[77.1009,30.8539],[77.4563,30.8739],[77.477,30.91],[77.6861,30.9287],[77.707,30.9468],[78.0,30.9472],[78.1466,30.9832],[78.2093,30.947],[78.2407,30.956],[78.241,31.0642],[78.304,31.1001],[78.3041,31.1362],[78.2727,31.1634],[77.958,31.1636],[77.9371,31.1817],[77.7904,31.0733],[77.7276,31.0732],[77.6118,31.1901],[77.6536,31.2444],[77.5695,31.2802],[77.5377,31.3432],[77.4118,31.3067],[77.3278,31.3063],[77.244,31.2697],[77.16,31.2692],[77.0545,31.3226],[76.9494,31.3218],[76.8648,31.3753],[76.7386,31.3741],[76.6551,31.3372],[76.508,31.3357],[76.4867,31.3535],[76.3395,31.3517],[76.2758,31.387],[76.2338,31.3864],[76.2018,31.413],[76.2184,31.6478],[76.1741,31.7554],[76.1205,31.7998]]]]}},{"type":"Feature","properties":{"cell":243,"feature":2678,"phase":"Developing","min_bt_K":234.0,"area_km2":3032,"cold_core_km2":0,"speed_kmh":61.6,"heading_deg":63,"d_min_bt_30":2.0,"age_min":210,"family":5,"touches_missing":false,"lon":76.8893,"lat":33.1709,"merges_splits_so_far":5},"geometry":{"type":"MultiPolygon","coordinates":[[[[77.0517,33.6679],[77.0086,33.6676],[76.9874,33.6313],[76.9443,33.631],[76.8804,33.5763],[76.8052,33.5667],[76.8811,33.5222],[76.8922,33.4953],[76.7747,33.4311],[76.7325,33.3766],[76.6145,33.3664],[76.615,33.3303],[76.6697,33.2677],[76.702,33.259],[76.6824,33.1325],[76.5655,33.0682],[76.5438,33.086],[76.4905,33.0764],[76.4278,32.9854],[76.4284,32.9494],[76.3653,32.8945],[76.3771,32.8315],[76.5465,32.9236],[76.5895,32.9061],[76.7169,32.9615],[76.7378,32.9977],[76.9303,32.9994],[76.9519,32.9816],[77.1123,32.9917],[77.1109,33.1361],[77.1318,33.1903],[77.1745,33.2086],[77.1736,33.2988],[77.152,33.3167],[77.1508,33.443],[77.1076,33.4608],[77.1282,33.5511],[77.0959,33.5599],[77.0745,33.5417],[77.0204,33.5684],[77.0631,33.6048],[77.0517,33.6679]]],[[[76.8734,33.2786],[76.8632,33.2334],[76.7666,33.2416],[76.7769,33.2687],[76.8196,33.2872],[76.8734,33.2786]]]]}},{"type":"Feature","properties":{"cell":256,"feature":2670,"phase":"Decaying","min_bt_K":233.0,"area_km2":11968,"cold_core_km2":0,"speed_kmh":36.2,"heading_deg":93,"d_min_bt_30":3.0,"age_min":150,"family":5,"touches_missing":false,"lon":77.7438,"lat":29.749,"merges_splits_so_far":10},"geometry":{"type":"MultiPolygon","coordinates":[[[[77.7298,30.2794],[77.6883,30.2612],[77.6365,30.198],[77.647,30.1709],[77.7405,30.1621],[77.7096,30.0628],[77.6681,30.0627],[77.6268,30.0265],[77.5439,30.0263],[77.523,30.0442],[77.5128,30.0171],[77.4817,30.008],[77.4296,30.0709],[77.3984,30.0798],[77.3366,30.0074],[77.2537,30.0069],[77.2431,30.0339],[77.2844,30.0702],[77.2526,30.1512],[77.2113,30.133],[77.1599,30.0695],[77.1809,30.0335],[77.1616,29.871],[77.1824,29.8531],[77.1104,29.8076],[77.0483,29.8071],[77.0073,29.7707],[76.9041,29.7519],[76.8222,29.679],[76.7602,29.6784],[76.6679,29.6324],[76.6688,29.5603],[76.711,29.4885],[76.7031,29.299],[76.7644,29.3357],[76.8468,29.3364],[76.9297,29.283],[77.012,29.2836],[77.1352,29.3206],[77.1665,29.2757],[77.1674,29.1674],[77.3215,29.1773],[77.3833,29.1596],[77.3937,29.1325],[77.3531,29.0602],[77.4455,29.0516],[77.4965,29.133],[77.6092,29.2145],[77.6399,29.2597],[77.6603,29.3139],[77.6294,29.3229],[77.5776,29.3859],[77.6393,29.4402],[77.6905,29.5396],[77.7317,29.5577],[77.7937,29.5398],[77.9794,29.5399],[78.0206,29.5038],[78.1856,29.4857],[78.4647,29.6383],[78.465,29.7105],[78.5066,29.7464],[78.4861,29.7826],[78.5069,29.8186],[78.4038,29.8911],[78.4041,29.9813],[78.3109,29.9906],[78.1867,30.063],[78.1764,30.1262],[78.1246,30.1533],[78.0623,30.2255],[77.9792,30.2436],[77.8961,30.2074],[77.7298,30.2794]]],[[[77.4537,29.4395],[77.4745,29.4035],[77.4644,29.3764],[77.3716,29.385],[77.3816,29.4302],[77.4228,29.4484],[77.4537,29.4395]]]]}},{"type":"Feature","properties":{"cell":277,"feature":2671,"phase":"Developing","min_bt_K":233.0,"area_km2":3788,"cold_core_km2":0,"speed_kmh":27.7,"heading_deg":261,"d_min_bt_30":-0.0,"age_min":30,"family":5,"touches_missing":true,"lon":78.4397,"lat":30.2424,"merges_splits_so_far":2},"geometry":{"type":"MultiPolygon","coordinates":[[[[78.7294,30.5302],[78.6669,30.5305],[78.5622,30.4408],[78.4793,30.5314],[78.4375,30.4954],[78.4167,30.5135],[78.3542,30.5137],[78.2706,30.4057],[78.0625,30.4961],[78.0312,30.451],[77.9688,30.415],[78.0104,30.3608],[77.9896,30.2526],[78.0623,30.2255],[78.1142,30.1623],[78.1764,30.1262],[78.1763,30.0721],[78.3109,29.9906],[78.4353,29.9903],[78.4766,29.9721],[78.5487,29.8906],[78.5278,29.8546],[78.5587,29.8274],[78.6416,29.8451],[78.756,29.9257],[78.757,30.052],[78.7364,30.0701],[78.7575,30.1241],[78.7369,30.1423],[78.7384,30.3407],[78.7177,30.3589],[78.7388,30.3949],[78.7294,30.5302]]]]}},{"type":"Feature","properties":{"cell":278,"feature":2679,"phase":"Unclassified","min_bt_K":234.2,"area_km2":9692,"cold_core_km2":0,"speed_kmh":52.2,"heading_deg":141,"d_min_bt_30":1.2,"age_min":30,"family":278,"touches_missing":false,"lon":77.7066,"lat":33.4609,"merges_splits_so_far":0},"geometry":{"type":"MultiPolygon","coordinates":[[[[78.6922,33.9942],[78.4759,33.9952],[78.4109,33.9773],[78.3458,33.9234],[78.0432,33.9058],[78.0,33.8877],[77.9784,33.8517],[77.8704,33.8516],[77.7843,33.7432],[77.7411,33.7432],[77.6766,33.7069],[77.655,33.7069],[77.644,33.752],[77.59,33.7789],[77.3958,33.7781],[77.3529,33.7418],[77.2453,33.7052],[77.2132,33.6779],[77.2135,33.6419],[77.1065,33.569],[77.1391,33.5422],[77.2037,33.5426],[77.2148,33.4975],[77.1508,33.443],[77.1745,33.2086],[77.1318,33.1903],[77.1109,33.1361],[77.1123,32.9917],[77.0697,32.9734],[77.07,32.9373],[77.1024,32.9105],[77.1879,32.911],[77.2091,32.9292],[77.2306,32.9113],[77.3161,32.9118],[77.3586,32.9481],[77.5938,32.949],[77.6471,32.9762],[77.7858,33.1118],[77.85,33.148],[77.9143,33.148],[77.9464,33.1751],[77.9464,33.2112],[77.9786,33.2202],[78.0215,33.2743],[78.0858,33.2923],[78.1933,33.3644],[78.2363,33.3643],[78.2902,33.4274],[78.398,33.4993],[78.4523,33.5983],[78.5599,33.5979],[78.5924,33.6248],[78.5925,33.6429],[78.5281,33.6792],[78.507,33.7515],[78.5937,33.8233],[78.5941,33.8774],[78.6807,33.895],[78.6922,33.9942]]]]}}]}