{"type":"FeatureCollection","features":[{"type":"Feature","properties":{"cell":219,"feature":2717,"phase":"Developing","min_bt_K":231.1,"area_km2":48656,"cold_core_km2":0,"speed_kmh":156.8,"heading_deg":106,"d_min_bt_30":1.8,"age_min":300,"family":5,"touches_missing":true,"lon":77.2236,"lat":31.046,"merges_splits_so_far":27},"geometry":{"type":"MultiPolygon","coordinates":[[[[76.612,32.8341],[76.5374,32.8243],[76.4856,32.7245],[76.3997,32.7596],[76.3682,32.7321],[76.3695,32.66],[76.3485,32.6417],[76.3504,32.5335],[76.3828,32.5068],[76.4466,32.5076],[76.5003,32.4811],[76.5233,32.3731],[76.3869,32.2723],[76.3232,32.2716],[76.2289,32.2072],[76.2522,32.0993],[76.1789,32.0532],[76.1366,32.0526],[76.1057,32.007],[76.0222,31.9517],[76.0245,31.8435],[76.046,31.8258],[76.026,31.7714],[75.891,31.6701],[75.8063,31.6867],[75.7964,31.6595],[75.7133,31.604],[75.7146,31.5499],[75.673,31.5311],[75.6541,31.4406],[75.5611,31.3758],[75.5102,31.3117],[75.5629,31.3036],[75.6241,31.3769],[75.7082,31.3784],[75.7511,31.343],[75.8352,31.3444],[75.8443,31.4077],[75.7803,31.4428],[75.7902,31.47],[75.8744,31.4714],[75.9383,31.4363],[75.9804,31.4369],[75.9811,31.4009],[75.9391,31.4002],[75.8665,31.354],[75.9307,31.3009],[75.9105,31.2645],[75.8582,31.2546],[75.8068,31.2087],[75.8606,31.1464],[75.9132,31.1382],[75.9034,31.111],[75.8614,31.1103],[75.8306,31.0828],[75.8528,31.029],[75.9594,30.9405],[75.9814,30.8867],[76.1087,30.7984],[76.1303,30.7626],[76.1101,30.7262],[76.1423,30.6816],[76.2669,30.7193],[76.3092,30.6838],[76.435,30.6493],[76.4548,30.7217],[76.528,30.7135],[76.5288,30.6594],[76.4873,30.6409],[76.4882,30.5867],[76.4365,30.5591],[76.3854,30.4953],[76.4083,30.3693],[76.4505,30.3337],[76.4103,30.243],[76.4729,30.2257],[76.4118,30.1528],[76.4646,30.0903],[76.5269,30.091],[76.5584,30.0643],[76.5279,30.0189],[76.4354,29.9727],[76.4362,29.9186],[76.3951,29.9001],[76.4268,29.8553],[76.4475,29.8556],[76.4677,29.8919],[76.4784,29.865],[76.5096,29.8563],[76.6326,29.9478],[76.7155,29.9487],[76.7359,29.9669],[76.7569,29.9491],[76.8398,29.9498],[76.8603,29.968],[76.8812,29.9502],[76.9434,29.9507],[77.0257,30.0054],[77.1086,30.006],[77.1705,30.0425],[77.212,30.0428],[77.2227,29.9977],[77.1923,29.9163],[77.1096,29.8978],[77.0066,29.8429],[76.8826,29.8239],[76.8314,29.7783],[76.9041,29.7519],[77.0695,29.7532],[77.2549,29.8445],[77.3793,29.8091],[77.5138,29.8006],[77.5139,29.7826],[77.4727,29.7644],[77.4629,29.6651],[77.3596,29.6647],[77.318,29.7005],[77.256,29.7002],[77.2045,29.6728],[77.2258,29.6008],[77.195,29.5735],[77.1022,29.5639],[77.0825,29.4555],[77.1551,29.4109],[77.2375,29.4114],[77.2476,29.4385],[77.2887,29.4568],[77.3088,29.5291],[77.4222,29.5567],[77.463,29.629],[77.5044,29.6112],[77.7313,29.702],[77.7727,29.7021],[77.8761,29.612],[77.9174,29.6301],[78.0,29.594],[78.1447,29.7203],[78.2067,29.7202],[78.2685,29.6479],[78.3098,29.6478],[78.351,29.6116],[78.4749,29.6112],[78.485,29.5661],[78.5159,29.5569],[78.6196,29.6287],[78.6609,29.6285],[78.7231,29.6642],[78.7544,29.7092],[78.9418,29.8523],[78.9219,29.9427],[78.9842,29.9603],[78.9849,30.0324],[79.0059,30.0503],[78.9853,30.0685],[79.0165,30.0773],[79.0376,30.1132],[79.1406,30.0402],[79.2235,30.0394],[79.2447,30.0753],[79.3281,30.1106],[79.3904,30.11],[79.4117,30.1458],[79.4526,30.1093],[79.5356,30.1084],[79.6406,30.1793],[79.7029,30.1785],[79.7853,30.1413],[79.8489,30.2126],[79.869,30.1762],[80.0143,30.1741],[80.0472,30.2548],[80.1001,30.2991],[80.204,30.2974],[80.257,30.3416],[80.2587,30.4137],[80.2281,30.4413],[80.0835,30.4978],[80.0414,30.4804],[80.0316,30.5076],[79.9391,30.5722],[79.8557,30.5734],[79.8147,30.61],[79.5852,30.6129],[79.5444,30.6676],[79.4609,30.6685],[79.4398,30.6507],[79.2731,30.6704],[79.1892,30.6351],[79.127,30.6718],[79.1065,30.708],[79.064,30.6362],[79.0226,30.6726],[78.9599,30.655],[78.9069,30.5742],[78.8546,30.5475],[78.7301,30.6204],[78.6882,30.6026],[78.6671,30.5666],[78.5837,30.567],[78.4684,30.4322],[78.4683,30.3961],[78.3953,30.3693],[78.2909,30.2432],[78.1454,30.2074],[78.0415,30.0812],[77.9793,30.0812],[77.9378,30.0451],[77.7926,30.0449],[77.7199,30.108],[77.7405,30.1441],[77.6675,30.2431],[77.6468,30.2431],[77.6054,30.1889],[77.5223,30.1886],[77.5018,30.1524],[77.3983,30.0979],[77.2323,30.097],[77.1907,30.1148],[77.1593,30.1417],[77.159,30.1777],[77.2002,30.2141],[77.1999,30.2502],[77.1478,30.2769],[77.1065,30.2405],[77.0753,30.2494],[77.0749,30.2854],[77.137,30.3219],[77.1367,30.358],[77.1052,30.3849],[77.0636,30.3846],[76.9796,30.4561],[76.8749,30.5094],[76.7904,30.5989],[76.759,30.6076],[76.7586,30.6437],[76.6957,30.6611],[76.695,30.7152],[76.6427,30.7237],[76.6105,30.7865],[76.6306,30.8409],[76.5674,30.8763],[76.5983,30.9037],[76.6402,30.9041],[76.6618,30.8502],[76.7666,30.8332],[76.7976,30.8605],[76.776,30.9144],[76.8282,30.9239],[76.8494,30.9061],[76.954,30.9069],[76.9755,30.853],[77.1635,30.8724],[77.2895,30.8009],[77.331,30.8372],[77.4354,30.8558],[77.5188,30.9102],[77.6234,30.9105],[77.7488,30.983],[77.7801,31.0282],[77.6858,31.0189],[77.6228,31.0729],[77.5809,31.0728],[77.5493,31.0997],[77.5806,31.1269],[77.7274,31.1453],[77.7902,31.1996],[77.8741,31.1997],[77.937,31.2538],[78.0945,31.2989],[78.042,31.3621],[77.958,31.3621],[77.8738,31.3981],[77.8108,31.398],[77.6632,31.4879],[77.6526,31.515],[77.7052,31.5241],[77.7262,31.5602],[77.8526,31.5604],[77.8524,31.6506],[77.9157,31.6687],[78.1054,31.6687],[78.1794,31.7498],[78.1372,31.7859],[78.1268,31.8491],[78.0211,31.8491],[77.9894,31.8943],[77.9366,31.9213],[77.8308,31.9212],[77.7043,31.8127],[77.6198,31.8125],[77.5778,31.7763],[77.5356,31.7762],[77.4719,31.8301],[77.4084,31.8478],[77.1549,31.8465],[77.1339,31.8283],[77.0706,31.8279],[77.0063,31.9176],[76.9008,31.8987],[76.8687,31.9255],[76.8681,31.9796],[76.8251,32.0334],[76.8246,32.0695],[76.7604,32.123],[76.7599,32.1591],[76.9059,32.3588],[77.0323,32.468],[77.0319,32.5041],[76.9999,32.5129],[76.9577,32.4765],[76.8514,32.4756],[76.7871,32.5111],[76.7445,32.5107],[76.6794,32.6003],[76.5522,32.5629],[76.5613,32.6622],[76.6247,32.699],[76.612,32.8341]]],[[[78.8809,29.9971],[78.8703,29.9701],[78.8602,29.9972],[78.8809,29.9971]]],[[[78.3008,30.0899],[78.3734,30.0807],[78.4044,30.0535],[78.4043,30.0174],[78.3524,30.0086],[78.3317,30.0266],[78.197,30.0359],[78.2075,30.081],[78.3008,30.0899]]],[[[78.5925,30.2873],[78.6652,30.278],[78.7168,30.2326],[78.6848,30.1155],[78.6746,30.1426],[78.5816,30.2062],[78.5401,30.2064],[78.4468,30.2518],[78.5198,30.2967],[78.5925,30.2873]]],[[[77.125,31.6569],[77.241,31.6485],[77.3154,31.5678],[77.284,31.5405],[77.1789,31.5219],[77.0311,31.557],[76.9565,31.6376],[77.125,31.6569]]],[[[76.6917,32.4831],[76.6395,32.4195],[76.5859,32.446],[76.6171,32.4914],[76.6917,32.4831]]]]}}]}