{"type":"FeatureCollection","features":[{"type":"Feature","properties":{"cell":219,"feature":2762,"phase":"Developing","min_bt_K":234.1,"area_km2":29676,"cold_core_km2":0,"speed_kmh":55.3,"heading_deg":265,"d_min_bt_30":3.0,"age_min":330,"family":5,"touches_missing":false,"lon":76.9352,"lat":31.024,"merges_splits_so_far":29},"geometry":{"type":"MultiPolygon","coordinates":[[[[76.7528,31.8974],[76.6054,31.8599],[76.5639,31.8053],[76.3864,31.686],[76.377,31.6228],[76.3556,31.6405],[76.3141,31.6039],[76.1876,31.6023],[76.1669,31.584],[76.0605,31.6366],[75.9344,31.6166],[75.8827,31.5707],[75.8839,31.5166],[75.9054,31.4989],[75.8434,31.4438],[75.8459,31.3356],[75.7421,31.2797],[75.7438,31.2076],[75.7237,31.1712],[75.6616,31.134],[75.6835,31.0983],[75.6424,31.0615],[75.7382,31.0],[75.8429,31.0018],[75.8856,30.9664],[75.9902,30.968],[76.1172,30.8977],[76.2234,30.809],[76.307,30.8101],[76.3276,30.8284],[76.3906,30.8111],[76.4645,30.7669],[76.518,30.6863],[76.5597,30.6868],[76.6231,30.6333],[76.6648,30.6337],[76.6761,30.5707],[76.6032,30.5609],[76.5713,30.6057],[76.519,30.6142],[76.4976,30.65],[76.3933,30.6488],[76.351,30.6843],[76.2672,30.7013],[76.2456,30.7371],[76.2145,30.7277],[76.2045,30.7005],[76.1628,30.6999],[76.0991,30.7531],[76.0365,30.7522],[75.973,30.7873],[75.9001,30.7772],[75.9537,30.7149],[76.1228,30.6091],[76.1429,30.6455],[76.1847,30.6461],[76.2062,30.6103],[76.2479,30.6108],[76.2694,30.575],[76.3951,30.5405],[76.5426,30.434],[76.6259,30.4349],[76.6464,30.4531],[76.7508,30.4361],[76.8034,30.3915],[76.8255,30.2835],[76.8677,30.2297],[76.8685,30.1575],[76.962,30.1493],[76.9829,30.1314],[77.045,30.1499],[77.0867,30.1322],[77.1181,30.1053],[77.1184,30.0692],[77.1809,30.0335],[77.1811,30.0155],[77.1398,29.9972],[77.1508,29.9161],[77.2337,29.9166],[77.2956,29.953],[77.337,29.9532],[77.3783,29.9715],[77.3988,30.0077],[77.4816,30.0441],[77.5438,30.0443],[77.5851,30.0805],[77.7926,30.0449],[77.8653,29.9999],[77.855,29.9187],[77.7722,29.9186],[77.7515,29.9005],[77.6687,29.9004],[77.5446,29.8639],[77.4934,29.7464],[77.4316,29.7101],[77.4527,29.638],[77.4218,29.6108],[77.36,29.5925],[77.3185,29.6284],[77.2565,29.628],[77.2054,29.5646],[77.2987,29.502],[77.5049,29.5209],[77.6491,29.5755],[77.6593,29.6207],[77.752,29.684],[77.8553,29.7022],[77.938,29.7564],[78.0621,29.7925],[78.0828,29.8286],[78.2277,29.8464],[78.2692,29.8825],[78.3727,29.8822],[78.4559,29.9722],[78.5802,29.9717],[78.5904,29.9446],[78.6421,29.9173],[78.87,29.934],[78.8901,29.8617],[78.9522,29.8613],[78.9726,29.825],[79.076,29.8242],[79.1075,29.8691],[79.1085,29.9593],[79.1506,30.013],[79.1406,30.0402],[79.0783,30.0407],[79.0572,30.0048],[78.9743,30.0054],[78.9539,30.0417],[78.8295,30.0425],[78.8091,30.0787],[78.7468,30.0791],[78.7057,30.1334],[78.6433,30.1157],[78.4566,30.1165],[78.4152,30.1527],[78.3529,30.1529],[78.2075,30.1171],[78.1246,30.1533],[78.1038,30.1172],[78.0623,30.1173],[78.0519,30.1443],[78.0208,30.1534],[77.9689,30.1082],[77.9689,30.018],[77.9171,30.009],[77.9067,30.0361],[77.9482,30.0541],[77.9481,30.1082],[77.8547,30.1172],[77.8236,30.1442],[77.813,30.2434],[77.7091,30.2252],[77.6883,30.2612],[77.5635,30.2789],[77.5322,30.3059],[77.5111,30.3599],[77.5731,30.4503],[77.5521,30.5044],[77.4999,30.5132],[77.4584,30.495],[77.3644,30.5217],[77.364,30.5938],[77.4051,30.6842],[77.3529,30.693],[77.3423,30.72],[77.1742,30.8454],[77.1737,30.8995],[77.2678,30.9091],[77.2882,30.9813],[77.351,30.9816],[77.3721,30.9457],[77.4977,30.9462],[77.5399,30.8742],[77.6445,30.8745],[77.6653,30.9107],[77.7699,30.9109],[77.8221,30.938],[77.8221,30.9741],[77.8534,31.0012],[77.9476,31.0283],[77.9476,31.0824],[77.9895,31.1005],[78.0315,31.1546],[78.0315,31.1907],[78.1364,31.2267],[78.1576,31.3169],[78.1051,31.326],[78.0946,31.353],[78.042,31.3801],[77.9159,31.3801],[77.8949,31.362],[77.8528,31.38],[77.8002,31.4251],[77.8,31.5333],[77.7472,31.5603],[77.6841,31.5601],[77.6,31.5058],[77.5156,31.5416],[77.3683,31.5229],[77.326,31.5588],[77.2839,31.5586],[77.2096,31.6213],[77.2093,31.6574],[77.1776,31.6662],[77.1349,31.7201],[77.0927,31.7198],[77.0287,31.7915],[76.8809,31.7903],[76.7528,31.8974]]],[[[77.4275,30.4318],[77.4172,30.4047],[77.3651,30.4134],[77.3754,30.4405],[77.4275,30.4318]]],[[[76.1656,31.1059],[76.2394,31.0798],[76.3139,31.0176],[76.283,30.9902],[76.1992,30.9891],[76.0938,31.0237],[75.8942,31.0477],[75.9453,31.1117],[76.1656,31.1059]]],[[[77.8218,31.1004],[77.7905,31.0552],[77.759,31.0642],[77.7904,31.1094],[77.8218,31.1004]]]]}},{"type":"Feature","properties":{"cell":292,"feature":2764,"phase":"Unclassified","min_bt_K":230.4,"area_km2":6844,"cold_core_km2":0,"speed_kmh":null,"heading_deg":null,"d_min_bt_30":null,"age_min":0,"family":5,"touches_missing":true,"lon":76.844,"lat":32.0345,"merges_splits_so_far":2},"geometry":{"type":"MultiPolygon","coordinates":[[[[77.2142,32.3339],[77.1717,32.3337],[77.1508,32.2974],[77.0871,32.297],[77.0231,32.3326],[77.002,32.3144],[76.9171,32.3138],[76.8538,32.2772],[76.7902,32.2766],[76.7472,32.3123],[76.7048,32.3119],[76.6102,32.2478],[76.6,32.2206],[76.536,32.238],[76.4942,32.2014],[76.3882,32.2002],[76.378,32.173],[76.2001,32.0535],[76.1276,31.9713],[76.171,31.9178],[76.1717,31.8817],[76.1198,31.8359],[75.9715,31.8517],[75.95,31.8694],[75.877,31.8232],[75.9519,31.7793],[76.0153,31.7802],[76.0475,31.7536],[76.0287,31.6451],[76.1241,31.6194],[76.1351,31.5925],[76.1669,31.584],[76.1876,31.6023],[76.3141,31.6039],[76.3556,31.6405],[76.377,31.6228],[76.3864,31.686],[76.5324,31.796],[76.5318,31.832],[76.5631,31.8594],[76.5845,31.8416],[76.7105,31.897],[76.8162,31.898],[76.879,31.9527],[76.9636,31.9534],[76.9849,31.9355],[77.1962,31.955],[77.26,31.9193],[77.3445,31.9197],[77.3658,31.9018],[77.5348,31.9205],[77.5668,31.8755],[77.5985,31.8666],[77.7778,32.0023],[77.714,32.1104],[77.6291,32.1463],[77.6501,32.2005],[77.5755,32.2814],[77.4906,32.2811],[77.363,32.3167],[77.3419,32.2985],[77.257,32.2981],[77.2142,32.3339]]],[[[77.5872,32.0379],[77.5556,31.9927],[77.5239,32.0016],[77.5554,32.0468],[77.5872,32.0379]]]]}}]}