{"type":"FeatureCollection","features":[{"type":"Feature","properties":{"cell":219,"feature":2803,"phase":"Developing","min_bt_K":234.0,"area_km2":13160,"cold_core_km2":0,"speed_kmh":20.8,"heading_deg":194,"d_min_bt_30":-0.1,"age_min":360,"family":5,"touches_missing":true,"lon":76.9082,"lat":30.933,"merges_splits_so_far":30},"geometry":{"type":"MultiPolygon","coordinates":[[[[76.1648,31.6922],[76.1123,31.6824],[76.113,31.6463],[76.0509,31.5913],[76.0516,31.5553],[76.0834,31.5467],[76.1251,31.5653],[76.1676,31.5479],[76.1787,31.521],[76.1476,31.4935],[76.1051,31.5109],[76.0634,31.4923],[76.0416,31.528],[76.0206,31.5277],[75.9697,31.4458],[75.9712,31.3736],[75.9506,31.3553],[75.9941,31.2838],[75.9544,31.1749],[75.9773,31.0851],[75.9164,30.9939],[75.951,30.8411],[76.1385,30.88],[76.1999,30.953],[76.2417,30.9535],[76.2842,30.918],[76.347,30.9188],[76.3676,30.9371],[76.5155,30.8486],[76.5266,30.8037],[76.7482,30.6346],[76.8732,30.6537],[76.9362,30.6182],[76.9779,30.6185],[76.9888,30.5735],[76.9578,30.5462],[76.8534,30.5633],[76.8113,30.5991],[76.7489,30.5804],[76.6864,30.5798],[76.6653,30.5977],[76.5924,30.5879],[76.6555,30.5525],[76.6668,30.4894],[76.6768,30.5166],[76.708,30.5259],[76.7503,30.4722],[76.8233,30.4639],[76.8448,30.4099],[76.908,30.3383],[76.9708,30.3027],[77.0026,30.2398],[77.1273,30.2407],[77.2721,30.3318],[77.3138,30.314],[77.3553,30.3322],[77.3762,30.3143],[77.4594,30.3146],[77.5219,30.2788],[77.6051,30.2791],[77.6259,30.2611],[77.7714,30.2614],[77.8752,30.3518],[77.9584,30.3698],[77.9792,30.4059],[78.052,30.433],[78.0521,30.4691],[77.9792,30.4781],[77.9375,30.5502],[77.8332,30.5502],[77.7501,30.4418],[77.6877,30.4416],[77.667,30.4055],[77.6254,30.4054],[77.5839,30.3692],[77.5215,30.369],[77.5109,30.396],[77.4692,30.4139],[77.4689,30.468],[77.5209,30.4772],[77.5416,30.5134],[77.6562,30.5228],[77.6976,30.595],[77.6765,30.6852],[77.7599,30.7214],[77.7596,30.8297],[77.9058,30.9201],[77.9058,30.9742],[77.9477,30.9922],[77.9162,31.0373],[77.8115,31.0372],[77.7485,31.0732],[77.7173,30.992],[77.686,30.9829],[77.6651,30.9467],[77.6233,30.9466],[77.5812,31.0006],[77.5184,31.0004],[77.4134,31.0361],[77.2668,31.0353],[77.2456,31.0713],[77.1827,31.0709],[77.1406,31.0887],[77.1194,31.1246],[77.0774,31.1244],[77.0351,31.1601],[76.9722,31.1597],[76.9087,31.2133],[76.8667,31.2129],[76.8033,31.2484],[76.7403,31.2479],[76.7188,31.2837],[76.6133,31.3188],[76.5925,31.3005],[76.3615,31.2978],[76.3408,31.2796],[76.2658,31.3598],[76.3487,31.433],[76.3477,31.4871],[76.4099,31.542],[76.409,31.5961],[76.3556,31.6405],[76.3141,31.6039],[76.2508,31.6031],[76.1977,31.6295],[76.1648,31.6922]]],[[[76.3947,31.199],[76.4582,31.1637],[76.4588,31.1276],[76.4906,31.1009],[76.5326,31.1014],[76.5856,31.0569],[76.5758,31.0117],[76.3667,30.9912],[76.3348,31.0179],[76.3133,31.0537],[76.3545,31.0903],[76.3117,31.1439],[76.311,31.18],[76.342,31.2074],[76.3947,31.199]]]]}},{"type":"Feature","properties":{"cell":292,"feature":2805,"phase":"Unclassified","min_bt_K":233.0,"area_km2":4076,"cold_core_km2":0,"speed_kmh":44.3,"heading_deg":30,"d_min_bt_30":2.7,"age_min":30,"family":5,"touches_missing":true,"lon":76.9599,"lat":32.2082,"merges_splits_so_far":2},"geometry":{"type":"MultiPolygon","coordinates":[[[[77.3611,32.5873],[77.2655,32.5597],[77.2879,32.4155],[77.2562,32.3883],[77.2133,32.4421],[77.1281,32.4597],[77.085,32.5135],[77.0007,32.4407],[76.8105,32.349],[76.7687,32.2945],[76.716,32.2669],[76.7167,32.2128],[76.6851,32.2035],[76.6225,32.1307],[76.3689,32.0917],[76.2549,31.955],[76.2871,31.9283],[76.4348,31.9482],[76.4777,31.9126],[76.5623,31.9135],[76.6479,31.8423],[76.6687,31.8605],[76.7326,31.8251],[76.7426,31.8703],[76.7742,31.8796],[76.8262,31.9432],[76.8255,31.9973],[76.8569,32.0246],[76.9416,32.0253],[76.9622,32.0796],[77.0889,32.1166],[77.1518,32.1892],[77.2371,32.1356],[77.2581,32.1538],[77.3006,32.136],[77.3638,32.1904],[77.4275,32.1907],[77.4701,32.1548],[77.5017,32.182],[77.5015,32.218],[77.6284,32.3086],[77.6707,32.3629],[77.6706,32.399],[77.6173,32.4259],[77.4899,32.4074],[77.4365,32.4523],[77.4574,32.5065],[77.4359,32.5425],[77.3611,32.5873]]]]}},{"type":"Feature","properties":{"cell":296,"feature":2806,"phase":"Unclassified","min_bt_K":233.0,"area_km2":10952,"cold_core_km2":0,"speed_kmh":null,"heading_deg":null,"d_min_bt_30":null,"age_min":0,"family":5,"touches_missing":false,"lon":77.9093,"lat":31.9451,"merges_splits_so_far":1},"geometry":{"type":"MultiPolygon","coordinates":[[[[78.1489,32.4624],[78.1063,32.4444],[77.8937,32.4444],[77.8087,32.4082],[77.6812,32.408],[77.6284,32.3086],[77.5015,32.218],[77.5017,32.182],[77.4701,32.1548],[77.4275,32.1907],[77.3638,32.1904],[77.2796,32.1178],[77.2157,32.1535],[77.1525,32.117],[77.1106,32.0627],[77.0682,32.0624],[77.0371,31.999],[77.0693,31.9541],[77.1116,31.9544],[77.2603,31.8832],[77.3669,31.7394],[77.62,31.7764],[77.7047,31.6865],[77.7469,31.6866],[77.7788,31.5874],[77.8421,31.5153],[77.8422,31.4792],[77.9685,31.3531],[78.0105,31.2809],[78.0105,31.2087],[78.042,31.1997],[78.0629,31.1636],[78.1259,31.1636],[78.1889,31.1996],[78.2938,31.1994],[78.3566,31.1632],[78.3777,31.1992],[78.4826,31.1988],[78.5458,31.2347],[78.5878,31.2345],[78.63,31.2704],[78.777,31.2696],[78.7877,31.2966],[78.7362,31.4322],[78.526,31.4512],[78.5158,31.5144],[78.4843,31.5236],[78.4634,31.5597],[78.3791,31.56],[78.253,31.6505],[78.1476,31.6687],[78.1265,31.6326],[78.0949,31.6417],[78.0949,31.6958],[78.1266,31.7409],[78.19,31.7588],[78.2323,31.8129],[78.2957,31.8127],[78.3909,31.8576],[78.3699,31.8937],[78.3701,31.9479],[78.3913,31.9658],[78.3597,31.993],[78.3174,31.9931],[78.2224,32.0745],[78.2542,32.1015],[78.3602,32.1193],[78.3815,32.1553],[78.4452,32.1731],[78.5199,32.254],[78.5202,32.3082],[78.5415,32.3261],[78.4673,32.3534],[78.4035,32.3356],[78.3505,32.3628],[78.3401,32.408],[78.2551,32.4081],[78.1489,32.4624]]]]}}]}