{"type":"FeatureCollection","features":[{"type":"Feature","properties":{"cell":296,"feature":2840,"phase":"Unclassified","min_bt_K":234.1,"area_km2":36356,"cold_core_km2":0,"speed_kmh":75.7,"heading_deg":213,"d_min_bt_30":1.1,"age_min":30,"family":5,"touches_missing":true,"lon":77.6933,"lat":31.6577,"merges_splits_so_far":4},"geometry":{"type":"MultiPolygon","coordinates":[[[[77.8933,32.7691],[77.8293,32.7691],[77.7868,32.6969],[77.6803,32.6606],[77.6164,32.6604],[77.5949,32.6964],[77.5311,32.6601],[77.4672,32.6599],[77.4567,32.6328],[77.3718,32.5783],[77.3721,32.5422],[77.3298,32.5059],[77.33,32.4698],[77.2876,32.4516],[77.2668,32.3973],[77.2137,32.388],[77.1821,32.3608],[77.1824,32.3247],[77.1087,32.2611],[76.96,32.278],[76.949,32.305],[76.8956,32.3316],[76.7902,32.2766],[76.7587,32.2493],[76.7592,32.2132],[76.6646,32.1491],[76.4736,32.1651],[76.4318,32.1286],[76.2946,32.0998],[76.3271,32.0551],[76.4756,32.0389],[76.54,31.9855],[76.6238,32.0405],[76.7205,31.9422],[76.6267,31.8421],[76.5628,31.8775],[76.4997,31.8587],[76.4476,31.813],[76.4271,31.7767],[76.4491,31.7228],[76.4072,31.7043],[76.4292,31.6505],[76.409,31.5961],[76.4408,31.5874],[76.4624,31.5516],[76.5891,31.535],[76.6317,31.4994],[76.758,31.5006],[76.7793,31.4827],[76.8212,31.5012],[76.8743,31.4565],[76.9282,31.3397],[76.9705,31.322],[77.0123,31.3404],[77.0649,31.3317],[77.0547,31.3046],[76.9707,31.304],[76.929,31.2676],[76.8451,31.2669],[76.7495,31.3472],[76.7488,31.4013],[76.632,31.4813],[76.5688,31.4806],[76.5481,31.4624],[76.4636,31.4795],[76.4325,31.452],[76.4124,31.3977],[76.4774,31.2722],[76.3624,31.2437],[76.3527,31.1985],[76.4053,31.1901],[76.447,31.2087],[76.5527,31.1557],[76.5628,31.1829],[76.6356,31.2288],[76.7519,31.1668],[76.7313,31.1305],[76.7952,31.0589],[76.7434,31.0134],[76.4708,31.0285],[76.4195,30.9648],[76.6301,30.8769],[76.5785,30.8313],[76.4848,30.8032],[76.5166,30.7765],[76.6837,30.7783],[76.8097,30.7253],[76.9141,30.7262],[76.976,30.7989],[77.0178,30.7992],[77.0285,30.7722],[77.1126,30.7187],[77.1445,30.6557],[77.2176,30.6472],[77.218,30.5931],[77.2391,30.5571],[77.281,30.5393],[77.2812,30.5032],[77.3127,30.4763],[77.396,30.4767],[77.4275,30.4318],[77.4797,30.4049],[77.6252,30.4415],[77.677,30.5408],[77.7186,30.559],[77.7183,30.6492],[77.76,30.6854],[77.7599,30.7214],[77.6868,30.7303],[77.6762,30.7573],[77.8642,30.7757],[77.8537,30.8388],[77.6759,30.8475],[77.6758,30.9017],[77.7071,30.9108],[77.7279,30.9469],[77.8116,30.947],[77.8326,30.911],[77.8954,30.911],[77.9164,30.8028],[78.0418,30.8028],[78.0523,30.866],[78.115,30.884],[78.157,30.938],[78.157,30.9741],[78.2409,31.0281],[78.241,31.0642],[78.2725,31.0912],[78.3563,31.073],[78.5141,31.1897],[78.4933,31.2259],[78.5146,31.2979],[78.4098,31.3524],[78.4099,31.3705],[78.452,31.3884],[78.4523,31.4425],[78.4945,31.4604],[78.4947,31.5145],[78.4527,31.5327],[78.4529,31.5688],[78.348,31.6773],[78.3485,31.8216],[78.3698,31.8757],[78.4652,31.9205],[78.4967,31.8933],[78.4965,31.8572],[78.4539,31.7852],[78.5276,31.7399],[78.612,31.7395],[78.6758,31.8114],[78.8238,31.8286],[78.9937,31.9176],[79.2054,31.9339],[79.2377,31.9787],[79.238,31.9967],[79.1749,32.0334],[79.1549,32.1238],[79.0714,32.2327],[79.072,32.2868],[79.1147,32.3045],[79.1151,32.3406],[79.2218,32.3757],[79.2437,32.4296],[79.2234,32.502],[79.1495,32.5478],[79.0103,32.4677],[79.0099,32.4316],[78.9346,32.351],[78.807,32.3338],[78.7436,32.3702],[78.7332,32.3973],[78.7973,32.4331],[78.7977,32.4872],[78.8624,32.577],[78.7881,32.6045],[78.7242,32.6049],[78.5956,32.4792],[78.5105,32.4796],[78.4894,32.5157],[78.468,32.4797],[78.2766,32.5163],[78.2659,32.4713],[78.3083,32.4351],[78.2338,32.3901],[78.0638,32.4084],[78.0531,32.3813],[78.0212,32.3723],[77.9575,32.4445],[77.8724,32.4444],[77.8513,32.3722],[77.7452,32.3179],[77.7027,32.3179],[77.6074,32.2545],[77.5971,32.1913],[77.5335,32.1911],[77.4909,32.227],[77.4485,32.2268],[77.4375,32.2899],[77.5326,32.3715],[77.6176,32.3718],[77.7024,32.4261],[77.8299,32.4444],[77.8617,32.4715],[77.8617,32.5075],[77.9255,32.5437],[77.9467,32.6158],[77.8827,32.688],[77.904,32.7241],[77.8933,32.7691]]],[[[76.6013,31.4179],[76.654,31.4094],[76.7075,31.3468],[76.5923,31.3185],[76.4547,31.3801],[76.5276,31.4261],[76.6013,31.4179]]],[[[76.9758,31.8001],[76.9971,31.7822],[76.9977,31.7281],[77.1041,31.6387],[77.0727,31.6114],[76.925,31.6283],[76.8411,31.5915],[76.8205,31.5553],[76.7784,31.5549],[76.704,31.5993],[76.7246,31.6356],[76.6815,31.7073],[76.7545,31.7712],[76.8602,31.7541],[76.944,31.8089],[76.9758,31.8001]]],[[[77.0779,32.1617],[77.0996,32.1077],[77.0576,32.0713],[77.0478,31.9901],[76.9638,31.9353],[76.8157,31.9341],[76.7837,31.9609],[76.7832,31.9969],[76.7404,32.0326],[76.7397,32.0867],[76.7916,32.1684],[77.0779,32.1617]]],[[[77.1415,32.1621],[77.1523,32.1351],[77.1204,32.1439],[77.1203,32.1619],[77.1415,32.1621]]],[[[77.9045,32.255],[77.8939,32.2279],[77.8409,32.2369],[77.8514,32.264],[77.9045,32.255]]]]}}]}