{"type":"FeatureCollection","features":[{"type":"Feature","properties":{"cell":296,"feature":2877,"phase":"Unclassified","min_bt_K":237.0,"area_km2":32740,"cold_core_km2":0,"speed_kmh":100.6,"heading_deg":80,"d_min_bt_30":2.9,"age_min":60,"family":5,"touches_missing":false,"lon":78.2163,"lat":31.734,"merges_splits_so_far":4},"geometry":{"type":"MultiPolygon","coordinates":[[[[78.4493,33.003],[78.3209,33.0033],[78.2566,32.9674],[78.1925,32.9675],[78.0107,32.8323],[77.9467,32.7602],[77.9467,32.7241],[77.9041,32.688],[77.8191,32.5255],[77.766,32.4803],[77.7129,32.4712],[77.6708,32.3448],[77.6924,32.2367],[77.6396,32.1734],[77.4914,32.1368],[77.4597,32.1096],[77.4601,32.0555],[77.439,32.0374],[77.4603,32.0194],[77.4606,31.9653],[77.3871,31.8838],[77.2393,31.865],[77.1754,31.9188],[77.112,31.9183],[77.101,31.9634],[77.1956,32.0271],[77.2379,32.0274],[77.3012,32.0638],[77.3116,32.0909],[77.2584,32.1177],[77.2163,32.0814],[77.174,32.0811],[77.1311,32.135],[77.1101,32.1168],[77.0463,32.1344],[76.9517,32.0705],[76.9521,32.0344],[76.889,31.9979],[76.9108,31.9439],[76.8485,31.8532],[76.9016,31.8266],[77.0915,31.846],[77.1767,31.7744],[77.2295,31.7657],[77.2193,31.7206],[77.1557,31.7563],[77.103,31.7469],[77.1454,31.7291],[77.167,31.6752],[77.2832,31.6488],[77.3363,31.5859],[77.3366,31.5498],[77.3052,31.5226],[77.2631,31.5224],[77.1898,31.4769],[77.2333,31.2967],[77.1812,31.2513],[76.8559,31.2399],[76.8877,31.2131],[76.9718,31.1957],[77.0145,31.1239],[77.0882,31.0974],[77.0362,31.0519],[76.9526,31.0332],[76.9424,31.0061],[76.9952,30.9614],[77.058,30.9619],[77.0996,30.9982],[77.2252,30.999],[77.2672,30.9812],[77.2884,30.9452],[77.3617,30.9366],[77.3413,30.8643],[77.3728,30.8374],[77.6655,30.8385],[77.6865,30.8025],[77.7492,30.8026],[77.7597,30.7756],[77.8016,30.7576],[77.8226,30.6674],[77.8539,30.6584],[77.8748,30.6224],[77.9374,30.6224],[78.0417,30.6765],[78.0626,30.7307],[78.1149,30.7396],[78.1152,31.0102],[78.1571,31.0282],[78.1571,31.0463],[78.0524,31.1005],[78.063,31.1997],[78.1889,31.1996],[78.1993,31.1725],[78.2412,31.1544],[78.262,31.1002],[78.3354,31.0911],[78.3562,31.0549],[78.4821,31.0906],[78.5244,31.1626],[78.5454,31.1625],[78.5661,31.1263],[78.7339,31.1255],[78.7551,31.1615],[78.9229,31.1604],[78.9651,31.1782],[78.9968,31.205],[78.9981,31.3313],[79.0297,31.34],[79.0618,31.3849],[79.0632,31.5112],[79.0008,31.5838],[79.0224,31.6378],[78.9601,31.7284],[78.8652,31.7381],[78.8549,31.7652],[78.9078,31.7739],[78.9294,31.8279],[79.0562,31.8269],[79.0777,31.8628],[79.1622,31.8621],[79.1724,31.835],[79.2458,31.7892],[79.3513,31.7882],[79.3636,31.9053],[79.3427,31.9236],[79.3971,32.0222],[79.5241,32.0208],[79.652,32.0734],[79.6937,32.0368],[79.7891,32.0446],[79.7902,32.0987],[79.7296,32.2619],[79.646,32.3351],[79.6892,32.3706],[79.4886,32.4542],[79.3939,32.5184],[79.3627,32.5638],[79.2569,32.6189],[79.1504,32.6199],[79.1074,32.5842],[79.0013,32.6211],[78.9691,32.5943],[78.9683,32.5221],[78.8934,32.4776],[78.8189,32.469],[78.8184,32.4149],[78.7757,32.3971],[78.7747,32.2708],[78.8489,32.2614],[78.8804,32.2341],[78.8801,32.198],[78.9223,32.1797],[78.9216,32.1075],[78.8681,32.0448],[78.8045,32.0452],[78.7416,32.1177],[78.6992,32.1179],[78.6676,32.1451],[78.6679,32.1812],[78.6256,32.1995],[78.6262,32.2897],[78.5522,32.3351],[78.5203,32.3262],[78.52,32.2721],[78.4669,32.2632],[78.4566,32.3264],[78.4993,32.3804],[78.5211,32.4705],[78.4254,32.4799],[78.3724,32.5071],[78.4364,32.543],[78.4152,32.5791],[78.4367,32.6151],[78.4158,32.7054],[78.4586,32.7413],[78.4589,32.7955],[78.3415,32.8048],[78.3094,32.7598],[78.3305,32.7056],[78.2772,32.6967],[78.2558,32.6607],[78.2238,32.6698],[78.2239,32.7239],[78.1814,32.76],[78.2029,32.8502],[78.235,32.8592],[78.2564,32.8952],[78.2992,32.9132],[78.3846,32.8949],[78.4811,32.9577],[78.4493,33.003]]],[[[77.4662,30.9731],[77.4559,30.946],[77.4035,30.9548],[77.4138,30.9819],[77.4662,30.9731]]],[[[77.5491,31.1539],[77.5492,31.1178],[77.497,31.0905],[77.4444,31.1174],[77.4757,31.1446],[77.5491,31.1539]]],[[[77.7354,32.0203],[77.7779,31.9662],[77.7569,31.894],[77.6407,31.8847],[77.5774,31.8485],[77.5875,31.9658],[77.7036,32.0292],[77.7354,32.0203]]],[[[78.117,32.5076],[78.1064,32.4805],[78.0106,32.4896],[78.0213,32.5166],[78.117,32.5076]]],[[[78.2023,32.5796],[78.2129,32.5525],[78.2555,32.5525],[78.3085,32.5072],[78.2765,32.4803],[78.2127,32.4804],[78.2021,32.5075],[78.1596,32.5256],[78.1597,32.5797],[78.2023,32.5796]]]]}},{"type":"Feature","properties":{"cell":297,"feature":2884,"phase":"Unclassified","min_bt_K":234.0,"area_km2":1592,"cold_core_km2":0,"speed_kmh":null,"heading_deg":null,"d_min_bt_30":null,"age_min":0,"family":297,"touches_missing":true,"lon":72.1244,"lat":31.1864,"merges_splits_so_far":0},"geometry":{"type":"MultiPolygon","coordinates":[[[[72.1633,31.5225],[72.0848,31.4288],[71.9919,31.3976],[72.0099,31.1096],[71.9901,31.0907],[72.0179,30.8122],[72.075,30.905],[72.1576,30.9267],[72.216,31.0015],[72.2579,31.0033],[72.3872,31.1261],[72.2571,31.1927],[72.2539,31.2467],[72.1876,31.298],[72.1865,31.316],[72.2274,31.3358],[72.2441,31.4087],[72.326,31.4484],[72.3018,31.5015],[72.1855,31.5054],[72.1633,31.5225]]]]}},{"type":"Feature","properties":{"cell":298,"feature":2889,"phase":"Unclassified","min_bt_K":233.1,"area_km2":1912,"cold_core_km2":0,"speed_kmh":null,"heading_deg":null,"d_min_bt_30":null,"age_min":0,"family":298,"touches_missing":true,"lon":72.1038,"lat":33.566,"merges_splits_so_far":0},"geometry":{"type":"MultiPolygon","coordinates":[[[[72.0452,34.0081],[71.9918,33.9966],[72.0105,33.4018],[71.9903,33.3828],[72.0196,33.1044],[72.1053,33.1082],[72.1356,33.1366],[72.1095,33.2076],[72.159,33.273],[72.2673,33.2596],[72.3181,33.3069],[72.2955,33.324],[72.2909,33.396],[72.3281,33.4878],[72.3247,33.5418],[72.2918,33.5495],[72.2555,33.6111],[72.2113,33.6272],[72.1874,33.6623],[72.2054,33.7172],[72.1132,33.8035],[72.1071,33.8935],[72.1671,33.9683],[72.1329,33.9939],[72.068,33.991],[72.0452,34.0081]]]]}}]}