{"type":"FeatureCollection","features":[{"type":"Feature","properties":{"cell":296,"feature":2910,"phase":"Unclassified","min_bt_K":237.4,"area_km2":21412,"cold_core_km2":0,"speed_kmh":81.0,"heading_deg":84,"d_min_bt_30":0.4,"age_min":90,"family":5,"touches_missing":true,"lon":78.642,"lat":31.7686,"merges_splits_so_far":4},"geometry":{"type":"MultiPolygon","coordinates":[[[[78.3837,32.6784],[78.2984,32.6606],[78.2663,32.6336],[78.2447,32.5074],[78.1594,32.3812],[78.1168,32.3632],[78.1167,32.273],[78.0848,32.2099],[77.9788,32.1919],[77.9152,32.1558],[77.8941,32.1197],[77.8093,32.1377],[77.7455,32.2097],[77.6291,32.1463],[77.7034,32.1014],[77.7458,32.1015],[77.8413,32.0204],[77.8413,31.9663],[77.7991,31.9302],[77.7887,31.849],[77.6408,31.8667],[77.6198,31.8306],[77.5248,31.8212],[77.5779,31.7583],[77.6625,31.7044],[77.7047,31.7045],[77.7365,31.6414],[77.6944,31.6053],[77.6842,31.5241],[77.5999,31.5419],[77.5158,31.5055],[77.4212,31.4961],[77.4847,31.4242],[77.4849,31.3881],[77.5692,31.3343],[77.5589,31.2892],[77.4749,31.2889],[77.4646,31.2618],[77.4962,31.2348],[77.6431,31.2534],[77.7167,31.2084],[77.6854,31.1633],[77.6015,31.145],[77.5703,31.0998],[77.7486,31.0371],[77.8011,30.9741],[77.8117,30.9109],[78.1255,30.911],[78.1988,30.956],[78.2095,31.0552],[78.3352,31.055],[78.3455,30.9918],[78.3769,30.9827],[78.5135,31.0815],[78.5138,31.1356],[78.4824,31.1628],[78.4195,31.163],[78.4091,31.1901],[78.3672,31.2082],[78.3778,31.2353],[78.4408,31.2351],[78.462,31.2711],[78.567,31.2707],[78.6297,31.2343],[79.4274,31.2281],[79.4391,31.3092],[79.3973,31.3277],[79.3984,31.3998],[79.4413,31.4535],[79.494,31.4619],[79.5693,31.5603],[79.6331,31.5956],[79.6347,31.6858],[79.5824,31.7135],[79.4786,31.8229],[79.4257,31.8145],[79.4062,31.9229],[79.3641,31.9414],[79.3649,31.9955],[79.4287,32.0129],[79.4094,32.1393],[79.3354,32.1491],[79.3147,32.1854],[79.187,32.1505],[79.1243,32.2232],[78.9974,32.2603],[78.9132,32.3331],[78.8495,32.3335],[78.8074,32.3699],[78.7222,32.3523],[78.6272,32.434],[78.67,32.4698],[78.6708,32.5781],[78.6389,32.5873],[78.5755,32.6597],[78.4688,32.6421],[78.3837,32.6784]]],[[[77.9685,31.2268],[77.958,31.1997],[77.9475,31.2268],[77.9685,31.2268]]],[[[78.3045,31.2625],[78.2939,31.2355],[78.2624,31.2446],[78.273,31.2716],[78.3045,31.2625]]],[[[77.8422,31.4432],[77.8738,31.4161],[78.0421,31.4162],[78.0526,31.3891],[78.1156,31.353],[78.1156,31.3169],[78.063,31.3079],[78.042,31.2719],[77.979,31.2719],[77.958,31.308],[77.895,31.2718],[77.727,31.2716],[77.6954,31.3166],[77.7373,31.3348],[77.7581,31.425],[77.7896,31.4521],[77.8422,31.4432]]],[[[78.0316,31.6597],[78.0527,31.6056],[78.0948,31.5875],[78.0842,31.4883],[77.979,31.4884],[77.9474,31.5334],[77.9684,31.6597],[78.0316,31.6597]]],[[[77.947,32.0927],[78.0212,32.0656],[78.1482,32.0655],[78.1588,32.0385],[78.2222,32.0023],[78.2009,31.9302],[78.0845,31.8491],[77.9789,31.8491],[77.9472,31.8942],[77.9471,32.0205],[77.9047,32.0385],[77.9047,32.0927],[77.947,32.0927]]],[[[78.4566,32.3264],[78.4988,32.2722],[78.5411,32.2539],[78.5301,32.1909],[78.4241,32.1912],[78.3391,32.1374],[78.2014,32.1647],[78.1803,32.2188],[78.2228,32.2549],[78.2335,32.2999],[78.4566,32.3264]]]]}},{"type":"Feature","properties":{"cell":297,"feature":2917,"phase":"Developing","min_bt_K":231.4,"area_km2":3092,"cold_core_km2":0,"speed_kmh":13.9,"heading_deg":90,"d_min_bt_30":-2.6,"age_min":30,"family":297,"touches_missing":true,"lon":72.1974,"lat":31.186,"merges_splits_so_far":0},"geometry":{"type":"MultiPolygon","coordinates":[[[[72.0679,31.6988],[71.9946,31.6865],[72.0099,31.1096],[72.0706,31.1484],[72.0772,31.2119],[72.1092,31.2043],[72.1114,31.1683],[71.9912,31.0727],[71.9946,31.0187],[72.0265,31.0111],[72.0387,30.9846],[71.9979,30.9647],[72.0025,30.7213],[72.0443,30.7232],[72.0827,30.779],[72.207,30.8026],[72.2137,30.866],[72.2633,30.9133],[72.4295,30.9384],[72.4793,30.9856],[72.5748,31.152],[72.5628,31.1786],[72.4689,31.1657],[72.4868,31.2205],[72.4548,31.2282],[72.4207,31.2719],[72.4517,31.2822],[72.5005,31.3474],[72.5164,31.4383],[72.4833,31.464],[72.3991,31.4605],[72.3802,31.4236],[72.2783,31.3651],[72.2153,31.3624],[72.1136,31.3038],[72.0605,31.3104],[72.0583,31.3464],[72.1191,31.3852],[72.0958,31.4203],[72.1511,31.5491],[72.1489,31.5851],[72.1057,31.6012],[72.1223,31.6741],[72.0679,31.6988]]]]}},{"type":"Feature","properties":{"cell":298,"feature":2920,"phase":"Unclassified","min_bt_K":233.3,"area_km2":3112,"cold_core_km2":0,"speed_kmh":26.9,"heading_deg":58,"d_min_bt_30":0.2,"age_min":30,"family":298,"touches_missing":true,"lon":72.2273,"lat":33.6297,"merges_splits_so_far":0},"geometry":{"type":"MultiPolygon","coordinates":[[[[72.0452,34.0081],[71.9918,33.9966],[72.0102,33.7267],[71.9923,33.6717],[72.0862,33.721],[72.1024,33.6405],[72.0528,33.5752],[71.9996,33.5638],[71.9963,33.2928],[72.1601,33.255],[72.3171,33.1535],[72.4039,33.1391],[72.4332,33.1854],[72.387,33.2376],[72.4062,33.2745],[72.3599,33.3267],[72.3576,33.3627],[72.3983,33.4006],[72.3949,33.4546],[72.4254,33.4829],[72.5759,33.4891],[72.5985,33.472],[72.6281,33.5183],[72.5953,33.526],[72.5818,33.5706],[72.4923,33.6211],[72.4878,33.6931],[72.4413,33.7453],[72.4606,33.7822],[72.4004,33.879],[72.4005,33.7075],[72.3574,33.7057],[72.3482,33.8497],[72.3891,33.8875],[72.3605,33.9946],[72.068,33.991],[72.0452,34.0081]]],[[[72.3847,33.6166],[72.3858,33.5986],[72.3439,33.5788],[72.3473,33.5248],[72.2726,33.5125],[72.2421,33.4842],[72.2355,33.4207],[72.1573,33.4624],[72.1335,33.4975],[72.1538,33.5164],[72.1502,33.5704],[72.1807,33.5988],[72.3847,33.6166]]]]}}]}