{"type":"FeatureCollection","features":[{"type":"Feature","properties":{},"geometry":{"type":"MultiLineString","coordinates":[[[73.8991,32.3453],[73.8582,32.3079],[73.6442,32.3372],[73.4965,32.3142],[73.3921,32.2746],[73.1597,32.2483],[73.0363,32.1715],[72.9293,32.1856],[72.8586,32.1197],[72.8515,32.0563],[72.788,32.0538],[72.6048,31.9202],[72.4902,31.8884],[72.4332,31.7777],[72.5619,31.747],[72.4606,31.6706],[72.4628,31.6346],[72.5812,31.5944],[72.6213,31.6321],[73.2545,31.6382],[73.3159,31.6764],[73.5057,31.683],[73.5462,31.7204],[73.7352,31.7447],[74.2213,31.7413],[74.3247,31.7984],[74.4254,31.9274],[74.4888,31.9291],[74.5331,31.8761],[74.5965,31.8778],[74.6401,31.8428],[74.7662,31.864],[74.8169,31.9283],[74.8048,31.9731],[74.7202,31.9711],[74.6336,32.0231],[74.5053,32.0558],[74.3359,32.0513],[74.1364,32.2621],[73.8991,32.3453]],[[75.0518,32.1954],[74.9143,32.1832],[74.9928,32.0497],[75.0449,32.0779],[75.0214,32.1496],[75.0518,32.1954]],[[73.181,32.0415],[73.1719,32.0141],[73.1176,32.0392],[73.181,32.0415]]]}}]}