{"type":"FeatureCollection","features":[{"type":"Feature","properties":{},"geometry":{"type":"MultiLineString","coordinates":[[[73.6552,32.103],[73.507,32.098],[73.4681,32.0245],[73.3623,32.0209],[73.2179,31.9436],[73.1857,31.9515],[73.2031,32.0243],[73.1065,32.0478],[73.0137,31.9993],[73.0175,31.9272],[72.944,31.9154],[72.7839,31.7468],[72.7317,31.7358],[72.7337,31.6997],[72.6735,31.6432],[72.7287,31.6003],[72.834,31.6044],[73.0283,31.5216],[73.1757,31.5271],[73.237,31.5654],[73.3845,31.5706],[73.5285,31.6477],[73.9087,31.6419],[74.0133,31.6631],[74.054,31.7004],[74.1812,31.6861],[74.222,31.7233],[74.4132,31.6925],[74.5167,31.7494],[74.8766,31.7223],[74.9599,31.7603],[75.0659,31.7446],[75.1379,31.8093],[75.0397,31.9064],[74.9986,31.8694],[74.9117,31.9396],[74.8483,31.9381],[74.6766,32.0061],[74.5496,32.0029],[74.4841,32.0553],[74.3578,32.0338],[74.271,32.0856],[73.9118,32.057],[73.8678,32.0917],[73.7204,32.069],[73.6552,32.103]],[[73.7811,31.8995],[73.7937,31.8548],[73.7193,31.8615],[73.749,31.9075],[73.7811,31.8995]]]}}]}