{"type":"FeatureCollection","features":[{"type":"Feature","properties":{},"geometry":{"type":"MultiLineString","coordinates":[[[73.7831,32.089],[73.6687,32.0403],[73.6721,31.9682],[73.8523,31.9649],[73.8648,31.9202],[73.9298,31.8861],[73.9204,31.8588],[73.8578,31.8388],[73.818,31.7834],[73.628,31.7773],[73.6204,31.7139],[73.5698,31.6671],[73.2536,31.6562],[73.2032,31.6093],[73.2361,31.5834],[73.4687,31.5735],[73.5765,31.523],[74.0818,31.5388],[74.227,31.5972],[74.3187,31.6809],[74.2431,31.7239],[74.1594,31.7035],[74.1245,31.7837],[74.238,31.8501],[74.3232,31.8344],[74.343,31.871],[74.3894,31.7641],[74.5391,31.7139],[74.5915,31.7243],[74.5876,31.8324],[74.4173,31.864],[74.4998,31.9204],[74.4875,31.9651],[74.1703,31.9564],[74.1257,32.0092],[73.9329,32.0576],[73.8271,32.0543],[73.7831,32.089]],[[75.6973,31.8292],[75.6236,31.8189],[75.6564,31.7744],[75.7085,31.8024],[75.6973,31.8292]]]}}]}