{"type":"FeatureCollection","features":[{"type":"Feature","properties":{},"geometry":{"type":"MultiLineString","coordinates":[[[72.533,32.4225],[72.4501,32.383],[72.3842,32.4163],[72.1953,32.3721],[72.1897,32.2907],[72.288,32.2498],[72.3728,32.2534],[72.3919,32.2903],[72.4767,32.2939],[72.7374,32.3856],[72.7252,32.4122],[72.533,32.4225]],[[73.1098,32.7878],[73.0487,32.7314],[72.9411,32.7454],[72.9117,32.6992],[72.9907,32.621],[73.1001,32.5709],[73.162,32.6093],[73.2278,32.5755],[73.2907,32.5958],[73.3139,32.5606],[73.4176,32.6183],[73.5028,32.6212],[73.5471,32.5866],[73.6212,32.5981],[73.5854,32.6781],[73.199,32.7189],[73.1098,32.7878]],[[72.6373,32.8238],[72.5541,32.7843],[72.5259,32.72],[72.5595,32.6943],[72.6,32.7321],[72.6447,32.6978],[72.7523,32.684],[72.803,32.7311],[72.7786,32.7843],[72.6373,32.8238]]]}}]}