{"type":"FeatureCollection","features":[{"type":"Feature","properties":{},"geometry":{"type":"MultiLineString","coordinates":[[[73.1077,32.4268],[73.0672,32.3892],[72.6423,32.3728],[72.6142,32.3085],[72.6688,32.2837],[73.1347,32.3195],[73.1632,32.3837],[73.1077,32.4268]],[[72.9932,32.964],[72.7815,32.9198],[72.6282,32.7964],[72.6133,32.6875],[72.7362,32.5931],[73.2491,32.5763],[73.2898,32.6138],[73.4806,32.6385],[73.4553,32.5023],[73.5107,32.4591],[73.5745,32.4612],[73.5873,32.4165],[73.6629,32.3919],[73.691,32.474],[73.8137,32.5862],[73.8112,32.6403],[73.8956,32.6609],[73.429,32.8172],[73.3613,32.887],[73.2768,32.866],[73.2535,32.9013],[73.1448,32.9335],[73.0817,32.9131],[72.9932,32.964]],[[73.2565,32.4322],[73.1835,32.4025],[73.2796,32.3969],[73.2565,32.4322]],[[73.9469,32.7076],[73.9153,32.6976],[73.9272,32.6709],[73.9588,32.6809],[73.9469,32.7076]]]}}]}