{"type":"FeatureCollection","features":[{"type":"Feature","properties":{},"geometry":{"type":"MultiLineString","coordinates":[[[73.4376,33.0701],[73.3539,33.0311],[73.1614,33.0243],[73.0777,32.9851],[72.9912,33.0],[72.8863,32.9599],[72.8151,32.894],[72.7786,32.7843],[72.737,32.7646],[72.7442,32.6386],[72.8112,32.587],[72.8133,32.551],[73.1909,32.4659],[73.2103,32.5027],[73.3166,32.5065],[73.3786,32.5448],[73.7175,32.5922],[73.731,32.5295],[73.674,32.3833],[73.4744,32.3315],[73.4982,32.2782],[73.6239,32.3185],[73.7945,32.3059],[73.8558,32.362],[74.1729,32.4075],[74.2425,32.5268],[74.2961,32.5193],[74.3475,32.5658],[74.335,32.6106],[74.2057,32.6431],[73.8972,32.6249],[74.0093,32.7456],[74.1357,32.7854],[74.1872,32.832],[74.1525,32.8941],[73.9175,32.8872],[73.8732,32.9219],[73.7655,32.9366],[73.7202,32.9892],[73.5678,33.0384],[73.4823,33.0355],[73.4376,33.0701]]]}}]}