{"type":"FeatureCollection","features":[{"type":"Feature","properties":{},"geometry":{"type":"MultiLineString","coordinates":[[[74.7629,32.5675],[74.6352,32.5644],[74.5946,32.5092],[74.5308,32.5076],[74.4869,32.5425],[74.3592,32.5391],[74.2792,32.4106],[74.1311,32.3883],[74.1217,32.361],[74.2615,32.3199],[74.5163,32.3268],[74.5993,32.383],[74.7055,32.3857],[74.7673,32.4413],[74.8099,32.4424],[74.8815,32.5253],[74.7629,32.5675]],[[73.6722,33.096],[73.4581,33.0889],[73.3548,33.0131],[73.2274,32.9906],[73.1885,32.917],[73.0928,32.9045],[73.054,32.8309],[72.871,32.6615],[72.8731,32.6255],[73.0633,32.4613],[73.1503,32.4284],[73.3601,32.49],[73.5125,32.423],[73.6187,32.4266],[73.6153,32.4986],[73.6383,32.4633],[73.7217,32.5021],[73.9139,32.4901],[74.0164,32.5834],[74.0818,32.5492],[74.1669,32.5517],[74.2807,32.6361],[74.3094,32.7181],[74.5198,32.796],[74.6692,32.7998],[74.8485,32.8673],[74.8472,32.9033],[74.7928,32.9291],[74.6232,32.8888],[74.3846,32.9728],[73.9602,32.8885],[73.8296,32.9386],[73.727,33.0707],[73.6722,33.096]],[[72.8405,33.0123],[72.7458,32.9815],[72.749,32.9275],[72.806,32.8666],[72.8914,32.8699],[72.9515,32.9443],[73.0044,32.9554],[72.9912,33.0],[72.9281,32.9795],[72.8405,33.0123]]]}}]}