{"type":"FeatureCollection","features":[{"type":"Feature","properties":{},"geometry":{"type":"MultiLineString","coordinates":[[[73.8452,33.0654],[73.6954,33.0606],[73.509,32.9282],[73.3817,32.9058],[73.3102,32.8401],[73.3176,32.696],[73.2787,32.6225],[73.3481,32.5166],[73.4664,32.4936],[73.578,32.3891],[73.7267,32.394],[73.7217,32.5021],[73.8076,32.4868],[73.7777,32.4407],[73.8533,32.416],[73.8926,32.4894],[74.1912,32.4802],[74.2307,32.5535],[74.3049,32.5646],[74.2961,32.7809],[74.2306,32.8152],[74.2284,32.8692],[74.1082,32.9289],[73.9594,32.9065],[73.9365,32.9419],[73.851,32.9392],[73.816,33.0013],[73.8452,33.0654]],[[73.6681,32.5094],[73.6698,32.4733],[73.6383,32.4633],[73.6264,32.49],[73.6681,32.5094]],[[74.548,32.6163],[74.379,32.5757],[74.3702,32.5303],[74.5507,32.5442],[74.5816,32.572],[74.548,32.6163]],[[75.2642,32.9035],[74.8155,32.8936],[74.6679,32.8358],[74.6376,32.79],[74.6706,32.7637],[74.7113,32.8189],[75.0955,32.8278],[75.1371,32.8648],[75.3304,32.8327],[75.3616,32.8604],[75.3502,32.8872],[75.2642,32.9035]],[[73.61,32.8323],[73.581,32.7682],[73.5059,32.7747],[73.5144,32.8201],[73.61,32.8323]],[[73.7594,32.8371],[73.75,32.8097],[73.7176,32.8177],[73.727,32.8451],[73.7594,32.8371]],[[75.4774,32.9258],[75.4033,32.8973],[75.4575,32.8713],[75.4774,32.9258]],[[72.8292,33.2104],[72.7434,33.207],[72.6925,33.1599],[72.8568,33.1031],[72.8486,33.0577],[72.9932,32.964],[73.1671,32.9162],[73.274,32.9201],[73.3669,32.9865],[73.3325,33.0304],[73.2785,33.0375],[73.2208,33.1167],[73.1789,33.0971],[73.1117,33.1488],[73.0261,33.1457],[72.8292,33.2104]],[[82.9712,33.8677],[82.9383,33.8599],[82.9476,33.8325],[82.9805,33.8403],[82.9712,33.8677]]]}}]}