{"type":"FeatureCollection","features":[{"type":"Feature","properties":{},"geometry":{"type":"MultiLineString","coordinates":[[[74.3726,32.7379],[74.3086,32.7362],[74.2572,32.6896],[74.2623,32.5635],[74.3159,32.5559],[74.3606,32.503],[74.5946,32.5092],[74.6565,32.5649],[74.7732,32.5768],[74.7713,32.6309],[74.7178,32.6386],[74.6945,32.6922],[74.6519,32.6911],[74.6319,32.6545],[74.5439,32.7244],[74.3726,32.7379]],[[73.7158,32.6282],[73.6519,32.6261],[73.6434,32.5808],[73.7429,32.5028],[73.749,32.6022],[73.7158,32.6282]],[[74.2248,32.6977],[74.1521,32.6505],[74.1654,32.5878],[74.2395,32.5989],[74.2248,32.6977]],[[74.109,32.9109],[73.9397,32.8698],[73.8165,32.7577],[73.7303,32.773],[73.7226,32.7096],[73.7669,32.675],[73.7465,32.6563],[73.8641,32.6509],[73.8838,32.6876],[73.969,32.6902],[74.082,32.7928],[74.1216,32.8662],[74.109,32.9109]],[[73.4714,33.2517],[73.2141,33.2428],[73.0874,33.2021],[73.0373,33.137],[73.1332,33.1496],[73.1667,33.1237],[73.1103,32.9773],[73.1894,32.899],[73.3594,32.9231],[73.4476,32.872],[73.5766,32.8582],[73.6663,32.771],[73.709,32.7723],[73.7184,32.7997],[73.6509,32.8697],[73.6919,32.9071],[73.6654,33.0145],[73.6954,33.0606],[73.8015,33.0821],[73.8101,33.1274],[73.5179,33.1811],[73.4714,33.2517]],[[83.2983,33.9093],[83.1903,33.9135],[83.0442,33.8198],[83.1387,33.7711],[83.3134,33.8004],[83.3485,33.8441],[83.2983,33.9093]]]}}]}