{"type":"FeatureCollection","features":[{"type":"Feature","properties":{},"geometry":{"type":"MultiLineString","coordinates":[[[74.3028,32.8803],[74.1887,32.7959],[74.202,32.7332],[74.2844,32.8077],[74.3374,32.8181],[74.3028,32.8803]],[[73.6653,33.2401],[73.5282,33.1905],[73.5822,33.1833],[73.5839,33.1472],[73.434,33.1422],[73.3046,32.9482],[73.4912,32.8554],[73.6825,32.8798],[73.7935,32.7931],[74.048,32.837],[74.1376,32.993],[73.9847,33.0606],[74.0243,33.134],[73.9688,33.1774],[73.9267,33.1581],[73.8822,33.1928],[73.7965,33.1902],[73.6653,33.2401]],[[73.1001,32.9679],[73.0064,32.9193],[73.0409,32.8755],[73.105,32.8779],[73.1773,32.9256],[73.1001,32.9679]],[[74.2259,33.1849],[74.1307,33.1552],[74.2274,33.1489],[74.2259,33.1849]],[[73.5401,33.5969],[73.4755,33.5948],[73.4053,33.4931],[73.653,33.4924],[73.6616,33.5378],[73.5401,33.5969]],[[74.9368,33.7264],[74.8617,33.7156],[74.9165,33.6899],[74.9368,33.7264]]]}}]}