{"type":"FeatureCollection","features":[{"type":"Feature","properties":{},"geometry":{"type":"MultiLineString","coordinates":[[[73.9028,33.2115],[73.8188,33.1728],[73.7116,33.1694],[73.6517,33.0773],[73.3967,33.0326],[73.3567,32.9771],[73.312,33.0116],[73.1837,33.0071],[73.0919,32.9225],[73.2573,32.8292],[73.3213,32.8315],[73.3408,32.8683],[73.6193,32.8597],[73.6603,32.8971],[73.7244,32.8992],[73.9445,32.7617],[74.1167,32.7307],[74.2439,32.7524],[74.4737,32.885],[74.6666,32.8719],[74.7598,32.9554],[74.6503,33.0248],[74.5716,33.1221],[74.3796,33.099],[74.3131,33.1513],[74.2274,33.1489],[74.1831,33.1837],[74.0767,33.1626],[73.9028,33.2115]],[[75.7672,33.3098],[75.7353,33.3002],[75.7467,33.2734],[75.8001,33.2833],[75.7672,33.3098]],[[75.0548,33.4223],[75.002,33.3941],[75.0137,33.3673],[75.0671,33.3775],[75.0548,33.4223]],[[75.1385,33.4963],[75.1071,33.4686],[75.1205,33.3877],[75.1942,33.4343],[75.1385,33.4963]],[[73.902,33.6987],[73.8373,33.6967],[73.7959,33.6593],[73.558,33.6697],[73.4737,33.6308],[73.4428,33.6027],[73.4886,33.5501],[73.4922,33.478],[73.6574,33.4023],[73.9582,33.4117],[73.9996,33.449],[74.1278,33.4709],[74.1773,33.5715],[74.1438,33.5976],[74.1231,33.579],[74.0776,33.6318],[74.0353,33.6125],[73.902,33.6987]],[[74.9019,33.491],[74.8608,33.4359],[74.9142,33.4462],[74.9019,33.491]],[[75.0416,33.819],[74.9343,33.7985],[74.8408,33.6971],[74.9178,33.6538],[75.1117,33.6581],[75.163,33.7404],[75.1297,33.7668],[75.1088,33.7483],[75.0416,33.819]],[[72.0452,34.0081],[71.9918,33.9966],[72.0191,33.7542],[72.1911,33.9332],[72.1545,33.9948],[72.0452,34.0081]]]}}]}