{"type":"FeatureCollection","features":[{"type":"Feature","properties":{},"geometry":{"type":"MultiLineString","coordinates":[[[74.5896,33.2128],[74.1188,33.1819],[74.0775,33.1446],[74.0124,33.1607],[73.7999,33.1181],[73.7587,33.0807],[73.6731,33.078],[73.6534,33.0412],[73.5866,33.0932],[73.46,33.0528],[73.393,33.1047],[73.3855,33.0413],[73.2016,32.8724],[73.2573,32.8292],[73.4263,32.8712],[73.5144,32.8201],[73.7278,32.8271],[73.8165,32.7577],[74.2829,32.8437],[74.2954,32.7989],[74.3932,32.7565],[74.4992,32.7774],[74.5398,32.8326],[74.6252,32.8348],[74.6452,32.8714],[74.6893,32.8364],[74.7507,32.91],[74.8563,32.9487],[74.9437,32.8966],[75.0823,32.9087],[75.1025,32.9452],[75.0464,33.0252],[74.9186,33.0042],[74.8066,33.146],[74.7209,33.1439],[74.5896,33.2128]],[[72.0529,32.9254],[72.0001,32.914],[71.9894,32.751],[72.0232,32.7255],[72.2364,32.7349],[72.2667,32.7633],[72.2374,32.8883],[72.0529,32.9254]],[[74.1952,33.9059],[74.1304,33.904],[74.0057,33.7921],[73.897,33.8069],[73.8771,33.7701],[73.7476,33.7661],[73.7278,33.7294],[73.6209,33.7079],[73.5908,33.6618],[73.5962,33.5537],[73.6445,33.447],[73.7666,33.3697],[73.9615,33.3396],[74.0712,33.2888],[74.1118,33.3441],[74.1961,33.3826],[74.6008,33.4837],[74.7781,33.3438],[74.8204,33.3628],[74.8646,33.3278],[75.0363,33.3317],[75.0694,33.3053],[75.0491,33.2688],[75.1257,33.2254],[75.3401,33.2298],[75.4139,33.2764],[75.4343,33.3129],[75.3882,33.4202],[75.2797,33.4541],[75.3415,33.5456],[75.2526,33.634],[75.3924,33.6458],[75.4239,33.6735],[75.4097,33.7905],[75.2371,33.7871],[75.1274,33.8389],[74.988,33.8088],[75.0557,33.7201],[75.0826,33.5582],[75.2593,33.4176],[75.1849,33.389],[75.0734,33.5129],[74.9658,33.5105],[74.8113,33.6152],[74.7043,33.5946],[74.5911,33.7361],[74.2654,33.7815],[74.1952,33.9059]],[[75.8075,33.4187],[75.6146,33.3974],[75.628,33.2984],[75.7905,33.238],[75.8977,33.2398],[75.9398,33.2765],[76.026,33.2598],[76.0791,33.2876],[76.0451,33.3683],[75.8729,33.3837],[75.8075,33.4187]],[[72.0452,34.0081],[71.9918,33.9966],[72.0049,33.6452],[72.1893,33.7978],[72.4538,33.8902],[72.3742,33.9501],[72.2229,33.9436],[72.1545,33.9948],[72.0452,34.0081]],[[74.8428,33.9408],[74.5542,33.8524],[74.6092,33.8268],[74.7604,33.8305],[74.8016,33.8857],[74.8985,33.897],[74.8428,33.9408]],[[72.653,33.9976],[72.579,33.9675],[72.6142,33.9238],[72.6871,33.9719],[72.653,33.9976]]]}}]}