{"type":"FeatureCollection","features":[{"type":"Feature","properties":{},"geometry":{"type":"MultiLineString","coordinates":[[[72.0244,32.7075],[71.9942,32.6791],[72.0504,32.6365],[72.0581,32.6819],[72.0244,32.7075]],[[72.7237,32.8092],[72.6282,32.7964],[72.6863,32.7175],[72.7502,32.72],[72.7796,32.7663],[72.7237,32.8092]],[[74.2274,33.1489],[74.1203,33.1458],[74.0378,33.0712],[73.972,33.1053],[73.8221,33.1007],[73.6937,32.8711],[73.7935,32.7931],[73.9002,32.7964],[74.0061,32.8177],[74.0884,32.8923],[74.3006,32.9344],[74.3507,33.017],[74.325,33.1246],[74.2274,33.1489]],[[76.1404,32.9186],[76.0549,32.9174],[76.0448,32.8902],[76.1415,32.8645],[76.1404,32.9186]],[[74.8079,33.1099],[74.765,33.1089],[74.6924,33.0439],[74.7475,33.0002],[74.8551,32.9847],[74.8642,33.03],[74.8079,33.1099]],[[74.1929,33.96],[73.9625,33.7908],[73.8546,33.7875],[73.846,33.7421],[73.783,33.7041],[73.8063,33.6687],[73.7433,33.6306],[73.7924,33.5058],[73.8371,33.4711],[73.7967,33.4157],[73.8508,33.4084],[73.9631,33.3036],[74.6056,33.3575],[74.7579,33.3072],[74.8431,33.3273],[74.9302,33.2932],[75.0375,33.2956],[75.3851,33.1585],[75.4494,33.1598],[75.5975,33.2347],[75.9835,33.2411],[76.0576,33.2873],[76.001,33.4218],[75.8926,33.4562],[75.7746,33.4452],[75.836,33.5726],[75.7816,33.5987],[75.7174,33.5796],[75.6624,33.6238],[75.7041,33.6786],[75.6485,33.7408],[75.4544,33.7373],[75.4339,33.7008],[75.3045,33.6982],[75.2603,33.7334],[75.174,33.7316],[75.0965,33.7931],[75.0818,33.9101],[74.996,33.8902],[74.9732,33.9257],[74.8645,33.9413],[74.7584,33.8846],[74.4783,33.8595],[74.345,33.9462],[74.1929,33.96]],[[76.1751,33.316],[76.0787,33.3056],[76.0588,33.2332],[76.0915,33.2066],[76.1449,33.2163],[76.1867,33.271],[76.1751,33.316]],[[76.324,33.3901],[76.2282,33.3438],[76.2838,33.2453],[76.3373,33.255],[76.324,33.3901]],[[82.3022,33.4577],[82.2678,33.4137],[82.3408,33.3662],[82.3537,33.4109],[82.3022,33.4577]],[[72.0452,34.0081],[71.9918,33.9966],[72.0098,33.5732],[72.1952,33.7078],[72.4073,33.771],[72.4902,33.8285],[72.5992,33.8149],[72.7336,33.9196],[72.5039,33.9555],[72.4573,34.0077],[72.0452,34.0081]],[[75.6226,33.9027],[75.4392,33.8903],[75.6049,33.7581],[75.6226,33.9027]],[[73.3893,34.0069],[73.2709,33.9938],[73.3273,33.9506],[73.3922,33.9529],[73.3893,34.0069]]]}}]}