{"type":"FeatureCollection","features":[{"type":"Feature","properties":{},"geometry":{"type":"MultiLineString","coordinates":[[[72.4055,27.9955],[72.3349,27.9834],[72.389,27.9226],[72.4384,27.9517],[72.4055,27.9955]],[[72.1383,28.038],[72.1297,28.0105],[72.1606,28.0029],[72.1383,28.038]],[[72.0459,28.2324],[71.9955,28.2211],[72.0123,28.1045],[72.1013,28.1537],[72.0459,28.2324]],[[72.1519,30.6738],[72.0267,30.6682],[71.9971,30.6398],[72.0059,30.1529],[72.0387,30.1273],[72.0802,30.1292],[72.0988,30.1661],[72.2233,30.1716],[72.3832,30.2868],[72.7039,30.3271],[72.603,30.4584],[72.4552,30.4883],[72.3021,30.6082],[72.1519,30.6738]],[[72.1125,30.9789],[72.0002,30.9287],[72.0069,30.8207],[72.0399,30.7952],[72.1641,30.8187],[72.2324,30.9029],[72.1125,30.9789]],[[72.4036,32.7961],[72.3217,32.7385],[72.105,32.7833],[72.0196,32.7795],[71.9894,32.751],[72.003,32.3817],[72.0856,32.4215],[72.1123,32.5039],[72.1638,32.5332],[72.3776,32.5243],[72.4504,32.5545],[72.4472,32.6085],[72.5269,32.702],[72.5024,32.7551],[72.4036,32.7961]],[[73.1592,32.6633],[73.0657,32.6148],[73.1426,32.5725],[73.1732,32.6006],[73.1592,32.6633]],[[73.3491,32.7061],[73.3176,32.696],[73.3732,32.6528],[73.4038,32.681],[73.3491,32.7061]],[[73.246,33.0454],[73.2265,33.0086],[73.1735,32.9977],[73.2239,32.8551],[73.1413,32.798],[73.1786,32.7001],[73.2731,32.7305],[73.2675,32.8386],[73.2991,32.8488],[73.3223,32.8135],[73.3408,32.8683],[73.5553,32.8575],[73.569,32.7948],[73.6894,32.7356],[73.732,32.737],[73.7935,32.7931],[73.8592,32.759],[73.931,32.8244],[73.9183,32.8691],[73.8543,32.8672],[73.7927,32.8111],[73.7278,32.8271],[73.715,32.8718],[73.5731,32.9303],[73.4609,33.0348],[73.3967,33.0326],[73.3557,32.9951],[73.2693,33.0101],[73.246,33.0454]],[[76.0086,33.0791],[75.7434,32.9756],[75.8843,32.8967],[76.0121,32.9168],[76.0145,32.8085],[76.0564,32.8452],[76.1429,32.7923],[76.2923,32.7943],[76.3449,32.8401],[76.3439,32.8942],[76.2577,32.9292],[76.2023,33.0277],[76.116,33.0626],[76.0522,33.0436],[76.0086,33.0791]],[[73.931,34.0064],[73.5313,33.9846],[73.6741,33.9442],[73.8029,33.9664],[73.8375,33.9223],[73.7744,33.8843],[73.7873,33.8395],[74.0016,33.8822],[74.1216,33.8587],[74.1032,33.7859],[73.9986,33.7107],[74.0744,33.7039],[74.1079,33.6778],[74.0664,33.6405],[74.1215,33.615],[74.183,33.689],[74.2261,33.6902],[74.2388,33.6455],[74.1238,33.561],[74.0378,33.5584],[73.9111,33.5005],[73.8636,33.3637],[73.8987,33.3016],[73.9854,33.2862],[74.0521,33.2341],[74.2244,33.221],[74.1957,33.139],[74.3161,33.0792],[74.3832,33.0089],[74.5764,32.9959],[74.5612,32.8331],[74.8155,32.8936],[74.8214,33.029],[74.6827,33.0166],[74.4638,33.1373],[74.356,33.1525],[74.2998,33.2141],[74.3731,33.2612],[74.4803,33.2641],[74.6492,33.3406],[74.7351,33.3427],[74.7794,33.3077],[75.0602,33.26],[75.2131,33.1731],[75.2994,33.1568],[75.428,33.1594],[75.4484,33.1958],[75.6203,33.181],[75.7052,33.2185],[75.9423,33.1683],[76.028,33.1696],[76.134,33.2252],[76.392,33.1925],[76.4877,33.2387],[76.4215,33.3462],[76.4202,33.4183],[76.3551,33.4536],[76.3534,33.5438],[76.1911,33.5868],[76.1246,33.6761],[76.0823,33.6395],[76.0172,33.6566],[75.8744,33.7716],[75.8946,33.8261],[75.8616,33.8526],[75.7109,33.8321],[75.6663,33.8855],[75.4708,33.918],[75.4065,33.8987],[75.2968,33.9507],[75.0596,33.9277],[74.9497,33.9793],[74.7983,33.9758],[74.778,33.9392],[74.6679,33.9907],[74.6253,33.9716],[74.5807,34.0065],[74.1264,33.9942],[74.0848,33.9568],[73.9767,33.9536],[73.931,34.0064]],[[72.7455,33.171],[72.5875,33.1196],[72.6347,33.0493],[72.6683,33.0236],[72.7722,33.0818],[72.8171,33.0475],[72.8812,33.0499],[72.8894,33.0954],[72.7455,33.171]],[[74.8908,33.4998],[74.9351,33.4647],[74.894,33.4096],[74.9376,33.3926],[74.9505,33.3298],[74.8835,33.4004],[74.8418,33.3633],[74.808,33.4076],[74.8178,33.4349],[74.8406,33.3994],[74.8725,33.4091],[74.9136,33.4642],[74.87,33.4813],[74.8908,33.4998]],[[72.0933,33.938],[71.9991,33.8887],[71.9898,33.7077],[71.9951,33.3108],[72.0934,33.2881],[72.1792,33.2919],[72.2944,33.342],[72.2062,33.3743],[72.2015,33.4463],[72.106,33.5865],[72.1353,33.6329],[72.3903,33.698],[72.4516,33.7547],[72.581,33.76],[72.691,33.7284],[72.9198,33.8816],[72.9867,33.8481],[73.0401,33.8591],[73.0052,33.9029],[72.8745,33.916],[72.855,33.8792],[72.747,33.875],[72.6629,33.8355],[72.4857,33.9006],[72.3356,33.8762],[72.2673,33.9275],[72.0933,33.938]],[[75.4413,33.8182],[75.4318,33.7729],[75.356,33.7805],[75.4413,33.8182]]]}}]}