{"type":"FeatureCollection","features":[{"type":"Feature","properties":{},"geometry":{"type":"MultiLineString","coordinates":[[[72.9291,27.2584],[72.9308,27.2224],[72.9808,27.2333],[72.9291,27.2584]],[[73.3718,27.3108],[73.3314,27.3094],[73.3224,27.282],[73.3531,27.2741],[73.3718,27.3108]],[[73.4511,27.3497],[73.4107,27.3483],[73.4017,27.3209],[73.4937,27.297],[73.4511,27.3497]],[[73.6062,27.5175],[73.5567,27.4887],[73.6914,27.412],[73.699,27.4754],[73.6062,27.5175]],[[73.4622,27.5668],[73.3731,27.5185],[73.3859,27.4558],[73.4975,27.4506],[73.4622,27.5668]],[[72.0274,27.8344],[71.9975,27.824],[72.0122,27.7435],[72.0411,27.7719],[72.0274,27.8344]],[[72.2835,28.3693],[72.0311,28.313],[72.0596,28.1699],[71.9996,28.1491],[72.0097,27.969],[72.061,27.9623],[72.118,28.0371],[72.2797,28.0623],[72.3939,28.0221],[72.3774,27.9491],[72.4102,27.9054],[72.5321,27.9105],[72.6373,27.8426],[72.7961,27.9212],[72.859,28.0952],[72.6589,28.2226],[72.4978,28.1799],[72.4405,28.1053],[72.3979,28.1396],[72.3378,28.1189],[72.3243,28.1816],[72.3728,28.2288],[72.3941,28.2116],[72.4019,28.2571],[72.3486,28.2999],[72.2777,28.2878],[72.3165,28.3256],[72.2835,28.3693]],[[72.4301,28.3034],[72.4,28.2931],[72.433,28.2494],[72.4301,28.3034]],[[72.3447,28.372],[72.3146,28.3617],[72.3466,28.336],[72.3447,28.372]],[[72.1364,30.5829],[72.0015,30.5678],[72.0015,30.0535],[72.1663,30.0789],[72.2669,30.1374],[72.4122,30.1437],[72.5109,30.238],[72.6158,30.2243],[72.7018,30.1736],[72.8688,30.1621],[73.0529,30.2233],[73.1026,30.2703],[73.0773,30.3595],[72.8718,30.5051],[72.7884,30.5019],[72.6179,30.5672],[72.5554,30.5647],[72.5365,30.5278],[72.3699,30.5208],[72.2625,30.5704],[72.1364,30.5829]],[[73.1443,30.4793],[73.0945,30.4324],[73.1271,30.4065],[73.1687,30.408],[73.2337,30.3562],[73.3269,30.3686],[73.2702,30.4658],[73.1443,30.4793]],[[72.8225,30.6476],[72.8154,30.5841],[72.8471,30.5764],[72.8761,30.6226],[72.8225,30.6476]],[[72.0031,32.7065],[72.0023,32.2282],[72.0771,32.2225],[72.079,32.358],[72.2165,32.3731],[72.2355,32.41],[72.2578,32.3929],[72.2634,32.4744],[72.2198,32.4905],[72.2376,32.5454],[72.0965,32.5844],[72.0031,32.7065]],[[73.6928,33.1147],[73.5643,33.1105],[73.4804,33.0716],[73.2674,33.0461],[73.2367,33.018],[73.2832,32.9475],[73.3594,32.9231],[73.4049,32.8705],[73.5673,32.8309],[73.5383,32.7667],[73.3241,32.7775],[73.2842,32.7219],[73.1786,32.7001],[73.1379,32.6625],[72.8822,32.653],[72.8173,32.6685],[72.7716,32.7208],[72.601,32.714],[72.5616,32.6583],[72.4158,32.5981],[72.3295,32.6125],[72.2802,32.5473],[72.4872,32.4748],[72.5063,32.5117],[72.6552,32.5177],[72.7434,32.4671],[72.867,32.5441],[72.9531,32.5293],[73.0769,32.6061],[73.1658,32.5372],[73.4044,32.4554],[73.5754,32.4432],[73.7106,32.5108],[73.6638,32.5995],[73.6715,32.6629],[73.9682,32.7083],[73.9753,32.7897],[74.048,32.837],[74.2299,32.8332],[74.1075,32.947],[73.98,32.9251],[73.9135,32.9773],[73.7835,33.0093],[73.6928,33.1147]],[[74.0175,34.009],[73.6498,33.9976],[73.6403,33.9702],[73.675,33.9262],[73.8936,33.8789],[74.0264,33.8108],[74.0904,33.8307],[74.1144,33.7772],[74.1991,33.8158],[74.3941,33.8031],[74.4499,33.7595],[74.1869,33.5989],[74.0752,33.4423],[74.1412,33.4081],[74.1006,33.3528],[74.126,33.2633],[74.2244,33.221],[74.3464,33.1251],[74.3478,33.0891],[74.535,32.9588],[74.6853,32.9445],[74.7695,32.9827],[74.7941,32.8931],[74.9009,32.8956],[74.984,32.9697],[75.0713,32.9175],[75.1025,32.9452],[75.0776,33.0529],[74.9033,33.1392],[74.9339,33.185],[75.1911,33.1907],[75.2774,33.1744],[75.279,33.1203],[75.3856,33.1405],[75.4693,33.2143],[75.707,33.1464],[75.899,33.1856],[75.9645,33.1325],[76.104,33.1256],[75.8709,33.0138],[75.8743,32.8695],[75.9069,32.843],[76.0778,32.8455],[76.228,32.8115],[76.313,32.8307],[76.485,32.7606],[76.5584,32.8426],[76.5353,32.9506],[76.5775,32.9871],[76.5767,33.0412],[76.7572,33.1423],[76.8856,33.1614],[76.96,33.2071],[76.9378,33.2791],[76.9799,33.3516],[76.8829,33.3779],[76.7955,33.4854],[76.7312,33.4668],[76.7092,33.5026],[76.6447,33.502],[76.5026,33.6358],[76.5229,33.7082],[76.4685,33.7347],[76.2093,33.7495],[76.1439,33.7847],[75.9717,33.7641],[75.8625,33.8166],[75.777,33.7791],[75.7637,33.8781],[75.7306,33.9046],[75.5799,33.8839],[75.4703,33.936],[75.4281,33.8991],[75.3949,33.9256],[75.4466,34.0078],[75.2303,34.0035],[75.1881,33.9665],[75.0572,33.9998],[74.0175,34.009]],[[73.844,32.8578],[73.931,32.8244],[73.8797,32.7777],[73.837,32.7764],[73.7919,32.8291],[73.7167,32.8358],[73.844,32.8578]],[[72.0196,33.1044],[71.9893,33.0759],[71.9977,32.95],[72.1372,32.9471],[72.1426,33.0286],[72.0196,33.1044]],[[72.919,33.1416],[72.8139,33.1015],[72.8058,33.0561],[72.924,33.0516],[72.9536,33.0978],[72.919,33.1416]],[[74.9744,33.5739],[75.0438,33.4311],[75.048,33.3049],[74.9958,33.2586],[75.0223,33.4306],[74.9787,33.4477],[74.9744,33.5739]],[[72.0659,33.7021],[71.9947,33.6357],[71.9951,33.3108],[72.1792,33.2919],[72.2378,33.3847],[72.3124,33.3969],[72.3406,33.4613],[72.4469,33.4838],[72.4742,33.5662],[72.1748,33.6888],[72.0659,33.7021]],[[74.045,33.3963],[74.0131,33.3863],[74.0251,33.3596],[74.045,33.3963]]]}}]}