{"type":"FeatureCollection","features":[{"type":"Feature","properties":{},"geometry":{"type":"MultiLineString","coordinates":[[[73.8874,27.5807],[73.7485,27.5041],[73.6914,27.412],[73.5514,27.3712],[73.5326,27.3345],[73.4316,27.331],[73.3531,27.2741],[73.3015,27.2993],[73.2886,27.3621],[73.1488,27.3209],[73.1253,27.1665],[73.1955,27.1781],[73.2793,27.1089],[73.3988,27.1493],[73.5026,27.0806],[73.5803,27.1555],[73.7445,27.0887],[73.8627,27.1647],[73.9831,27.1865],[74.0912,27.271],[74.088,27.3612],[74.1682,27.3816],[74.0658,27.4147],[74.0834,27.4874],[74.0103,27.5484],[73.9293,27.5459],[73.8874,27.5807]],[[72.3047,27.594],[72.2757,27.5656],[72.3075,27.5399],[72.3047,27.594]],[[73.7407,27.7024],[73.6911,27.6737],[73.7421,27.6664],[73.7407,27.7024]],[[73.714,27.864],[73.5335,27.8039],[73.4667,27.7023],[73.5177,27.695],[73.6364,27.7712],[73.798,27.7945],[73.8274,27.8226],[73.714,27.864]],[[72.0132,28.4476],[71.9903,28.3112],[72.0061,27.8515],[72.1482,27.8579],[72.1975,27.8872],[72.2052,27.9326],[72.3097,27.883],[72.3706,27.8857],[72.4074,27.9594],[72.5487,27.9834],[72.6036,27.9044],[72.6973,27.8631],[72.7414,27.7927],[72.8031,27.7771],[73.1756,27.8544],[73.1642,28.1068],[73.0892,28.1852],[72.9051,28.1963],[72.7546,28.1452],[72.7944,28.1649],[72.79,28.2549],[72.8582,28.3208],[72.9398,28.324],[72.9372,28.378],[72.8139,28.3913],[72.7704,28.4437],[72.6683,28.4396],[72.5478,28.3986],[72.4894,28.342],[72.3874,28.3377],[72.3233,28.3891],[72.1407,28.3631],[72.0367,28.3945],[72.0132,28.4476]],[[72.4649,28.2236],[72.5075,28.1893],[72.5103,28.1353],[72.4715,28.0976],[72.5353,28.0461],[72.4878,27.9809],[72.4947,28.0444],[72.3873,28.1481],[72.3951,28.1936],[72.4339,28.2314],[72.4649,28.2236]],[[72.4562,28.1962],[72.4261,28.1859],[72.4396,28.1233],[72.4562,28.1962]],[[72.6854,28.3049],[72.6969,28.2783],[72.6066,28.2476],[72.634,28.3119],[72.6854,28.3049]],[[72.2016,30.8926],[72.0046,30.8567],[72.0037,30.0175],[72.0877,30.0032],[72.1881,30.0618],[72.2306,30.0456],[72.5307,30.2569],[72.7206,30.2105],[72.9707,30.2022],[73.0772,30.152],[73.1693,30.1825],[73.1649,30.2725],[73.2454,30.3296],[73.1696,30.39],[72.8159,30.3766],[72.6238,30.4592],[72.5911,30.4849],[72.606,30.5938],[72.5732,30.6196],[72.5533,30.6007],[72.5295,30.6539],[72.3584,30.7189],[72.2958,30.7162],[72.241,30.7589],[72.2576,30.8318],[72.2016,30.8926]],[[73.5682,30.3318],[73.5058,30.3297],[73.4966,30.3023],[73.613,30.2611],[73.6429,30.2891],[73.5682,30.3318]],[[73.3161,30.3772],[73.297,30.3405],[73.3278,30.3506],[73.3161,30.3772]],[[72.5514,30.4472],[72.5544,30.3932],[72.4851,30.3272],[72.389,30.3683],[72.4375,30.4335],[72.5514,30.4472]],[[74.4105,31.7646],[74.305,31.7617],[74.2955,31.7344],[74.3928,31.6739],[74.4432,31.7384],[74.4105,31.7646]],[[72.1533,33.6879],[72.0455,33.6831],[71.9947,33.6357],[72.0069,32.1562],[72.104,32.1335],[72.3136,32.1787],[72.499,32.2767],[72.5637,32.2614],[72.6142,32.3085],[72.4894,32.4388],[72.449,32.401],[72.2802,32.5473],[72.2903,32.7282],[72.224,32.7614],[72.2172,32.8694],[72.3397,32.9649],[72.3374,33.0009],[72.3036,33.0265],[72.2013,32.9499],[72.1675,32.9755],[72.1854,33.0305],[72.1118,33.1716],[72.3847,33.1022],[72.4051,33.2925],[72.3373,33.3438],[72.3485,33.5068],[72.2578,33.5751],[72.2543,33.6291],[72.1533,33.6879]],[[74.0175,34.009],[73.9646,33.9804],[74.088,33.8848],[74.1296,33.9221],[74.208,33.8611],[74.2438,33.7809],[74.4075,33.7403],[74.368,33.649],[74.4133,33.5961],[74.3954,33.5054],[74.2502,33.3751],[74.3042,33.3676],[74.3457,33.4048],[74.422,33.3798],[74.4292,33.1996],[74.3331,33.1879],[74.3198,33.2507],[74.2643,33.2943],[74.1911,33.2471],[74.1926,33.2111],[74.2244,33.221],[74.2799,33.1774],[74.3375,33.0798],[74.3803,33.081],[74.5447,32.9861],[74.5474,32.914],[74.4537,32.8484],[74.3462,32.8635],[74.2785,32.9518],[74.1044,33.0191],[74.041,32.9991],[73.93,33.086],[73.8238,33.0647],[73.715,33.0974],[73.6098,33.0578],[73.5438,33.0917],[73.4367,33.0881],[73.406,33.06],[73.4404,33.0161],[73.6774,32.9879],[73.7544,32.9452],[73.6586,32.9331],[73.6074,32.8863],[73.61,32.8323],[73.4966,32.7473],[73.3899,32.7437],[73.2657,32.6671],[73.2574,32.6217],[73.2157,32.6022],[73.2186,32.5481],[73.2759,32.469],[73.3619,32.454],[73.5151,32.369],[73.6646,32.3559],[73.7088,32.3212],[73.8157,32.3066],[73.8566,32.344],[74.2594,32.3739],[74.3737,32.4402],[74.3687,32.5664],[74.2697,32.6449],[74.1624,32.6599],[74.0954,32.7301],[73.9548,32.771],[73.9318,32.8064],[74.0473,32.855],[74.2181,32.8599],[74.4765,32.8129],[74.4035,32.7658],[74.438,32.7036],[74.5116,32.7326],[74.5391,32.8506],[74.6279,32.7627],[74.7333,32.8014],[74.7992,32.7488],[74.8626,32.7684],[74.9918,32.7353],[75.0303,32.8624],[75.2647,32.8855],[75.2735,32.9488],[75.3366,32.9862],[75.3345,33.0583],[75.4285,33.1413],[75.5142,33.143],[75.8167,33.04],[76.051,33.0977],[76.0627,33.0528],[75.9993,33.0158],[76.0436,32.9443],[75.9593,32.8889],[75.9605,32.8348],[76.0149,32.7905],[76.0568,32.8272],[76.337,32.6867],[76.636,32.654],[76.7423,32.6731],[76.8161,32.7369],[76.8152,32.809],[76.7504,32.8626],[76.771,32.9169],[76.7059,32.9884],[76.8119,33.0616],[76.8217,33.1248],[76.8754,33.1162],[76.8551,33.0259],[76.9519,32.9816],[77.0049,33.0271],[77.0149,33.0903],[77.1006,33.0909],[77.1429,33.1453],[77.25,33.1459],[77.3461,33.1915],[77.3236,33.3358],[77.2805,33.3536],[77.2583,33.4437],[77.0742,33.5778],[76.7943,33.5756],[76.7304,33.5209],[76.5795,33.5374],[76.4601,33.5992],[76.4373,33.6711],[76.3388,33.7511],[76.1655,33.785],[76.0144,33.7828],[75.9839,33.7012],[75.8879,33.6546],[75.6078,33.6499],[75.5091,33.7112],[75.4749,33.7737],[75.4328,33.7368],[75.3134,33.7616],[75.3234,33.7888],[75.4529,33.7914],[75.4734,33.8278],[75.6029,33.8302],[75.777,33.7791],[75.9361,33.8989],[75.9243,33.9438],[75.7936,33.9778],[75.5115,34.009],[74.6895,33.9912],[74.0175,34.009]],[[72.7539,33.027],[72.5646,32.9652],[72.4835,32.8897],[72.3745,32.9213],[72.3475,32.8389],[72.5722,32.8392],[72.6737,32.9335],[72.81,32.984],[72.7539,33.027]],[[72.9618,33.1432],[72.8884,33.1134],[72.8823,33.0319],[72.9454,33.0524],[73.0777,32.9851],[73.1939,33.0164],[73.2003,33.0979],[73.0719,33.0932],[72.9618,33.1432]],[[72.4309,33.05],[72.3993,33.0396],[72.4117,33.0131],[72.4432,33.0234],[72.4309,33.05]],[[76.2532,33.1637],[76.2434,33.1185],[76.1896,33.1268],[76.2532,33.1637]],[[75.192,33.5065],[75.3044,33.3464],[75.3055,33.3103],[75.2213,33.2545],[75.2565,33.156],[75.2126,33.1911],[75.1923,33.1546],[75.1598,33.163],[75.2626,33.3094],[75.2609,33.3635],[75.1948,33.4163],[75.192,33.5065]],[[82.7857,33.6398],[82.6996,33.6429],[82.6864,33.5982],[82.7613,33.5865],[82.7857,33.6398]],[[72.0464,33.9901],[71.9942,33.9606],[72.0065,33.7807],[72.0802,33.811],[72.1689,33.7788],[72.1983,33.8252],[72.1071,33.8935],[72.1479,33.9313],[72.1137,33.9569],[72.0933,33.938],[72.0464,33.9901]]]}}]}