{"type":"FeatureCollection","features":[{"type":"Feature","properties":{},"geometry":{"type":"MultiLineString","coordinates":[[[74.2906,27.6469],[74.2096,27.6446],[74.171,27.5893],[74.0704,27.5683],[74.0521,27.5136],[73.8902,27.5086],[73.6719,27.3933],[73.6113,27.3913],[73.4743,27.2783],[73.3733,27.2748],[73.2852,27.2085],[73.2906,27.0823],[73.4048,27.005],[73.7869,27.0359],[73.8487,27.0017],[73.9696,27.0055],[74.0527,26.9358],[74.2919,27.015],[74.4501,27.1096],[74.5573,27.2299],[74.4939,27.3185],[74.5112,27.4092],[74.591,27.4474],[74.5794,27.4922],[74.4568,27.5251],[74.4348,27.5786],[74.2906,27.6469]],[[72.1501,28.562],[72.0035,28.4381],[71.9904,27.9501],[72.0212,27.5814],[72.0839,27.5481],[72.2256,27.5544],[72.2825,27.6291],[72.3529,27.6412],[72.3395,27.7038],[72.2912,27.6566],[72.2883,27.7106],[72.3279,27.7304],[72.3232,27.8204],[72.2806,27.8547],[72.3106,27.865],[72.3637,27.8222],[72.3472,27.7493],[72.3781,27.7416],[72.4053,27.8059],[72.3717,28.0572],[72.4793,28.143],[72.6971,28.0707],[72.7016,27.9806],[72.6434,27.9241],[72.6964,27.8811],[72.9163,27.962],[72.932,27.8453],[72.984,27.8202],[72.9912,27.8837],[73.0213,27.8938],[73.0335,27.8492],[73.1488,27.7722],[73.2892,27.8134],[73.3771,27.8978],[73.352,28.0052],[73.3204,28.0312],[73.2187,28.0275],[73.165,28.0887],[73.2016,28.1803],[73.1006,28.1586],[73.1682,28.2423],[73.2187,28.2532],[73.1641,28.3324],[73.1029,28.3301],[73.0842,28.2933],[72.8804,28.2856],[72.8068,28.3278],[72.7722,28.4077],[72.6702,28.4036],[72.5737,28.2913],[72.533,28.2897],[72.5264,28.4158],[72.4884,28.36],[72.3865,28.3557],[72.3087,28.4697],[72.2164,28.4747],[72.1501,28.562]],[[73.669,27.9709],[73.6186,27.9602],[73.6034,27.8333],[73.635,27.8073],[73.8274,27.8226],[73.8295,27.7685],[73.7596,27.7392],[73.7114,27.6744],[73.7128,27.6383],[73.7638,27.631],[73.912,27.7349],[73.9485,27.8444],[73.8155,27.8673],[73.669,27.9709]],[[74.1017,27.8219],[74.0526,27.7753],[74.0638,27.7486],[74.1142,27.7591],[74.1017,27.8219]],[[73.4681,27.91],[73.4493,27.8732],[73.4997,27.884],[73.4681,27.91]],[[72.4693,27.944],[72.4393,27.9337],[72.4518,27.8891],[72.563,27.9028],[72.5515,27.9294],[72.4693,27.944]],[[73.0591,28.1751],[73.0624,28.103],[73.0128,28.074],[73.0006,28.1187],[73.0591,28.1751]],[[72.6071,28.4371],[72.577,28.4269],[72.5886,28.4003],[72.6071,28.4371]],[[72.2059,30.8206],[72.0388,30.8132],[71.9904,30.7478],[72.0256,30.5148],[71.9906,30.4049],[71.9905,29.7191],[72.0448,29.6764],[72.1362,29.7076],[72.4162,30.0716],[72.7273,30.0844],[72.7777,30.1135],[72.7343,30.1478],[72.7532,30.1847],[72.9146,30.2812],[72.8188,30.3226],[72.6099,30.3323],[72.6079,30.3683],[72.7119,30.3725],[72.7923,30.4298],[73.0393,30.4935],[73.2268,30.5004],[73.3066,30.5754],[73.37,30.5596],[73.3992,30.6057],[73.3875,30.6324],[73.2423,30.6092],[73.2197,30.6445],[73.1145,30.6587],[72.9212,30.7597],[72.8547,30.8293],[72.8129,30.8277],[72.774,30.772],[72.6079,30.7473],[72.5423,30.7987],[72.5005,30.797],[72.3783,30.7378],[72.2937,30.7522],[72.2059,30.8206]],[[72.2392,30.434],[72.2096,30.4056],[72.1154,30.4105],[72.1242,30.438],[72.2392,30.434]],[[72.3186,31.042],[72.2877,31.0317],[72.3008,30.9871],[72.3186,31.042]],[[72.0254,31.0291],[71.9946,31.0187],[72.0067,30.9922],[72.0254,31.0291]],[[74.7693,31.7738],[74.7079,31.7182],[74.5806,31.733],[74.518,31.7134],[74.4778,31.6582],[74.3942,31.6379],[74.3874,31.5385],[74.4628,31.4954],[74.5463,31.5156],[74.6739,31.4828],[74.8591,31.6136],[74.9964,31.6078],[74.92,31.6872],[74.8784,31.6682],[74.7693,31.7738]],[[74.944,31.5975],[74.8922,31.5693],[74.9247,31.543],[74.956,31.5527],[74.944,31.5975]],[[72.0778,33.847],[72.0053,33.7987],[71.9898,33.7077],[71.9904,32.0833],[71.9962,31.9933],[72.0296,31.9678],[72.1988,31.9752],[72.3414,32.0716],[72.5732,32.0993],[72.7598,32.179],[72.8294,32.2629],[72.8254,32.3349],[72.8659,32.3726],[72.8193,32.443],[72.8366,32.5158],[72.9177,32.5911],[72.869,32.6976],[72.7157,32.7638],[72.7562,32.8015],[72.7094,32.8718],[72.6758,32.8975],[72.6128,32.8769],[72.5433,32.9644],[72.3126,33.054],[72.3227,33.2349],[72.3633,33.2727],[72.2265,33.3932],[72.3203,33.4424],[72.5241,33.6314],[72.5569,33.6237],[72.5514,33.7137],[72.4027,33.843],[72.2324,33.7996],[72.1233,33.8129],[72.0778,33.847]],[[77.3428,32.1722],[77.2688,32.1448],[77.322,32.118],[77.3428,32.1722]],[[74.0306,32.7462],[73.9682,32.7083],[73.8173,32.7397],[73.6049,32.7148],[73.5854,32.6781],[73.3963,32.6176],[73.3897,32.5361],[73.6867,32.3386],[73.8999,32.3273],[73.9651,32.2932],[74.2842,32.2844],[74.3924,32.2332],[74.8567,32.3172],[74.8221,32.3976],[74.853,32.4253],[74.9593,32.4278],[75.0322,32.4746],[74.9776,32.5184],[74.8925,32.5165],[74.719,32.6025],[74.4862,32.5605],[74.4202,32.6129],[74.0764,32.6754],[74.0306,32.7462]],[[74.6672,34.0087],[74.5158,34.0048],[74.5514,33.9246],[74.4574,33.8409],[74.2773,33.7548],[74.4869,33.6432],[74.8525,33.6703],[74.9203,33.5817],[75.0919,33.6036],[75.1687,33.5601],[75.1373,33.5324],[75.0082,33.5295],[74.7755,33.4159],[74.711,33.4143],[74.6653,33.4853],[74.5148,33.4815],[74.4732,33.4443],[74.4087,33.4426],[74.3643,33.4775],[74.3642,33.2158],[74.4777,33.0565],[74.5433,33.0221],[74.4819,32.9483],[74.5915,32.879],[74.5729,32.8064],[74.6699,32.7818],[74.7326,32.8194],[74.8851,32.7328],[75.0569,32.7006],[75.103,32.5934],[75.1652,32.6489],[75.3138,32.67],[75.3762,32.7253],[75.5032,32.7639],[75.5866,32.8376],[75.7784,32.8589],[75.8403,32.9502],[76.0541,32.9535],[76.0961,32.9901],[76.0864,32.9449],[75.9392,32.8345],[75.9726,32.7718],[76.0576,32.7911],[76.1657,32.7205],[76.2724,32.7219],[76.359,32.6509],[76.5084,32.6346],[76.5519,32.5809],[76.5945,32.5814],[76.6152,32.6177],[76.807,32.6195],[76.859,32.7192],[76.7835,32.7817],[76.6768,32.7807],[76.5909,32.8159],[76.3853,32.9669],[76.5028,32.9773],[76.5248,32.9414],[76.6744,32.943],[76.7167,32.9795],[76.8873,33.0171],[76.9509,33.0718],[77.047,33.0995],[77.0667,33.262],[77.1844,33.2899],[77.3232,33.3899],[77.2905,33.4529],[77.183,33.4522],[77.1611,33.4882],[77.0966,33.4878],[77.0532,33.5236],[76.8595,33.522],[76.8385,33.4858],[76.7525,33.485],[76.7304,33.5209],[76.5795,33.5374],[76.4701,33.6445],[76.4054,33.6437],[76.3398,33.697],[76.1242,33.6942],[76.0607,33.6391],[75.8677,33.6001],[75.7573,33.7066],[75.6159,33.7492],[75.7982,33.7975],[76.0787,33.8018],[76.1211,33.8385],[76.3158,33.823],[76.3042,33.868],[76.1393,34.0011],[74.6672,34.0087]],[[73.4554,33.1429],[73.2776,33.0555],[73.3474,32.9497],[73.3511,32.8776],[73.4058,32.8525],[73.6185,32.8777],[73.7065,32.8264],[73.715,32.8718],[73.6492,32.9057],[73.7219,32.9532],[73.9397,32.8698],[73.98,32.9251],[74.1384,32.9749],[74.1028,33.0551],[73.9752,33.0333],[73.8435,33.1014],[73.4554,33.1429]],[[75.0897,33.3419],[75.117,33.162],[75.161,33.1269],[75.1187,33.1079],[75.1632,33.0548],[75.1539,33.0095],[75.1216,33.0178],[75.1198,33.0719],[75.0533,33.1426],[74.9884,33.1592],[75.0196,33.187],[75.0863,33.1163],[75.1181,33.126],[75.0926,33.2517],[75.0491,33.2688],[75.0909,33.3058],[75.0468,33.3409],[75.0897,33.3419]],[[76.8305,33.2782],[76.8738,33.2425],[76.8862,33.1073],[76.8747,33.1704],[76.8316,33.188],[76.8309,33.2422],[76.7875,33.2778],[76.8305,33.2782]],[[76.8505,33.3867],[76.9154,33.3511],[76.8618,33.3416],[76.7861,33.3861],[76.8505,33.3867]],[[74.6361,33.4034],[74.6264,33.3761],[74.5938,33.3843],[74.6036,33.4116],[74.6361,33.4034]],[[82.3558,33.6725],[82.3015,33.6653],[82.3092,33.6019],[82.4083,33.6437],[82.3558,33.6725]],[[72.5516,33.8852],[72.5084,33.8834],[72.4993,33.856],[72.5765,33.8321],[72.5516,33.8852]],[[72.0452,34.0081],[71.9918,33.9966],[72.0118,33.8621],[72.1263,33.9304],[72.1011,33.9835],[72.0452,34.0081]]]}}]}