{"type":"FeatureCollection","features":[{"type":"Feature","properties":{},"geometry":{"type":"MultiLineString","coordinates":[[[74.6948,27.6937],[74.4921,27.6885],[74.3115,27.6294],[74.2925,27.5928],[74.171,27.5893],[74.0912,27.5508],[74.0423,27.5042],[74.0371,27.3687],[73.8983,27.2922],[73.8378,27.2903],[73.796,27.3251],[73.7772,27.2884],[73.7166,27.2864],[73.6081,27.2196],[73.5504,27.1455],[73.5548,27.0373],[73.6264,27.0126],[73.6897,26.9425],[73.8306,26.947],[73.9949,26.8618],[74.1546,26.9027],[74.1973,26.8317],[74.5789,26.8603],[74.6774,26.935],[74.7971,26.9741],[74.8054,27.0375],[74.8844,27.0936],[74.8829,27.1477],[74.9227,27.1667],[74.9187,27.311],[74.857,27.3457],[74.8954,27.4188],[74.7719,27.4881],[74.7911,27.5246],[74.6685,27.5577],[74.6773,27.603],[74.7474,27.6319],[74.7463,27.668],[74.6948,27.6937]],[[72.2768,28.1163],[72.1983,28.0587],[72.0967,28.0542],[72.09,27.9907],[72.0184,27.9965],[71.9904,27.9501],[71.9983,27.4449],[72.0493,27.4382],[72.0927,27.386],[72.2746,27.394],[72.3499,27.5056],[72.4685,27.5648],[72.5173,27.8016],[72.5422,27.7124],[72.6012,27.7509],[72.6629,27.7354],[72.7114,27.7824],[72.6893,27.8177],[72.7264,27.8914],[72.6088,28.004],[72.484,28.0529],[72.362,28.0478],[72.2768,28.1163]],[[72.5265,27.6214],[72.4966,27.6112],[72.5081,27.5846],[72.538,27.5948],[72.5265,27.6214]],[[74.1816,27.8604],[74.0919,27.8126],[74.1043,27.7498],[74.1744,27.7789],[74.1816,27.8604]],[[72.8041,28.5894],[72.6006,28.5632],[72.5723,28.5169],[72.6071,28.4371],[72.4847,28.4321],[72.3593,28.4809],[72.2437,28.3495],[72.2116,28.3752],[72.3292,28.4706],[72.2747,28.5314],[72.0112,28.4836],[71.9975,28.1851],[72.2069,28.2757],[72.3311,28.245],[72.3776,28.1387],[72.6431,28.1317],[72.8041,28.1743],[72.8112,28.2377],[72.7696,28.2541],[72.7785,28.2816],[72.9513,28.2973],[72.9372,28.378],[72.8139,28.3913],[72.7793,28.4711],[72.7171,28.4867],[72.725,28.5322],[72.8156,28.5628],[72.8041,28.5894]],[[73.4284,28.3599],[73.1437,28.3316],[73.0638,28.2926],[73.0362,28.2284],[73.1308,28.1687],[73.2733,28.1739],[73.4217,28.2784],[73.4284,28.3599]],[[72.3051,30.9151],[72.0376,30.8311],[71.9904,30.7478],[72.0013,29.7106],[72.084,29.7143],[72.2017,29.8278],[72.2234,29.8107],[72.2421,29.8476],[72.3041,29.8503],[72.3839,29.9078],[72.6501,29.973],[72.8508,30.1073],[73.0159,30.1317],[73.0222,30.2131],[73.0619,30.2507],[73.0719,30.4676],[72.9352,30.4895],[72.9007,30.5514],[72.9812,30.6086],[72.9993,30.6634],[72.9102,30.7683],[72.9511,30.7879],[72.9492,30.8239],[72.8537,30.8473],[72.8139,30.8097],[72.7303,30.8064],[72.5183,30.8519],[72.4954,30.887],[72.3051,30.9151]],[[73.6201,30.5681],[73.5476,30.5566],[73.6033,30.4773],[73.79,30.5014],[73.8201,30.5294],[73.8085,30.5561],[73.6201,30.5681]],[[73.2571,30.736],[73.1844,30.7244],[73.1907,30.5983],[73.2476,30.5011],[73.4225,30.5524],[73.2571,30.736]],[[72.0629,31.103],[71.9901,31.0907],[71.9935,31.0367],[72.0486,30.9941],[72.1742,30.9996],[72.2866,31.0497],[72.1268,31.0878],[72.086,31.0679],[72.0629,31.103]],[[72.3772,31.1167],[72.3584,31.0798],[72.3065,31.0686],[72.3186,31.042],[72.4751,31.0576],[72.3772,31.1167]],[[74.9628,31.6701],[74.9206,31.6692],[74.7352,31.5384],[74.6407,31.5271],[74.7846,31.3232],[74.997,31.256],[75.0389,31.2569],[75.1003,31.3124],[75.2069,31.2605],[75.2699,31.2618],[75.434,31.4095],[75.5073,31.4199],[75.5265,31.4924],[75.4737,31.5004],[75.4115,31.4631],[75.3012,31.6414],[75.1747,31.6387],[75.0915,31.6009],[74.9628,31.6701]],[[72.2355,33.4207],[72.1495,33.417],[72.0875,33.3781],[71.9903,33.3828],[71.9917,33.0399],[72.0244,33.0324],[72.1231,33.1631],[72.2326,33.1318],[72.2675,33.0882],[72.1718,33.075],[72.1212,33.0277],[72.1461,32.9746],[72.0013,32.896],[72.0103,31.6059],[72.1012,31.6732],[72.1489,31.7565],[72.2544,31.7611],[72.4157,31.8943],[72.5203,31.9167],[72.7447,32.0701],[73.019,32.0987],[73.1008,32.1559],[73.2178,32.1511],[73.0628,32.2718],[73.0792,32.3626],[73.1725,32.4111],[73.201,32.4753],[73.1131,32.5263],[73.1267,32.6711],[73.0701,32.7322],[72.9441,32.6914],[72.8843,32.8064],[73.0002,32.8379],[73.0064,32.9193],[72.7967,33.0286],[72.7283,33.0981],[72.6662,33.0596],[72.61,33.1024],[72.6679,33.213],[72.6319,33.2748],[72.544,33.3073],[72.4977,33.3596],[72.2355,33.4207]],[[73.6015,32.7869],[73.5512,32.7221],[73.5973,32.6514],[73.5675,32.6053],[73.3601,32.49],[73.2223,32.4761],[73.4895,32.4583],[73.5355,32.3877],[73.6213,32.3725],[73.6765,32.3292],[73.6459,32.3011],[73.5797,32.3531],[73.5177,32.3149],[73.5229,32.2068],[73.9282,32.1657],[73.9627,32.1036],[74.0168,32.0782],[74.0804,32.0801],[74.2886,32.1763],[74.3288,32.2315],[74.4123,32.2699],[74.5184,32.2727],[74.5595,32.3098],[74.6669,32.2765],[74.9216,32.2826],[75.136,32.2152],[75.3057,32.2188],[75.3248,32.2913],[75.4103,32.275],[75.6102,32.3419],[75.4052,32.4553],[75.3627,32.4545],[75.2912,32.3538],[75.2176,32.3252],[75.1087,32.4131],[74.8767,32.3537],[74.6372,32.5103],[74.574,32.4906],[74.5301,32.5256],[74.3805,32.5397],[74.0725,32.7655],[73.9051,32.6883],[73.6919,32.6816],[73.6374,32.7069],[73.6578,32.7256],[73.6015,32.7869]],[[75.5115,34.009],[75.0788,34.0003],[75.0911,33.9554],[74.9429,33.8619],[74.8186,33.7146],[74.9523,33.5914],[74.9,33.5451],[74.8126,33.5792],[74.7924,33.5426],[74.7279,33.541],[74.6613,33.5935],[74.587,33.5646],[74.6314,33.5296],[74.571,33.4198],[74.616,33.3668],[74.5765,33.2756],[74.6422,33.2412],[74.6034,33.1319],[74.7358,33.027],[74.695,32.9718],[74.857,32.9306],[74.9241,32.842],[75.0321,32.8083],[75.1439,32.6484],[75.4006,32.6176],[75.464,32.6368],[75.5052,32.6917],[75.6118,32.6937],[75.7197,32.6415],[75.8672,32.7161],[76.0797,32.7554],[76.3819,32.5609],[76.5945,32.5814],[76.6152,32.6177],[76.7648,32.5831],[76.8702,32.6742],[76.9875,32.6661],[76.9439,32.756],[76.8039,32.854],[76.7612,32.8536],[76.7607,32.8897],[76.9314,32.9092],[77.0589,32.9824],[77.3154,33.002],[77.3899,33.0655],[77.3994,33.2369],[77.2923,33.2183],[77.1632,33.2717],[77.1414,33.3077],[76.9584,33.3515],[76.9686,33.3966],[77.0654,33.3883],[77.0538,33.4694],[76.9032,33.4683],[76.9044,33.3781],[76.754,33.3768],[76.733,33.3405],[76.5601,33.4109],[76.5477,33.51],[76.6226,33.5379],[76.6542,33.5833],[76.5554,33.6995],[76.4473,33.7164],[76.3484,33.8144],[76.3803,33.8419],[76.4882,33.8431],[76.7489,33.7376],[76.77,33.7738],[76.921,33.7751],[76.9204,33.8293],[76.8556,33.8287],[76.7901,33.8823],[76.7253,33.8817],[76.6829,33.8271],[76.6397,33.8267],[76.6069,33.8534],[76.6164,33.9347],[76.5515,33.934],[76.4858,33.9874],[76.3989,34.0045],[75.5115,34.009]],[[74.4452,33.0647],[74.1456,33.0563],[74.0624,32.9998],[73.8896,33.0307],[73.881,32.9853],[73.9459,32.9692],[73.9381,32.9058],[73.8748,32.8858],[73.7868,32.9372],[73.68,32.9338],[73.5535,32.8936],[73.5442,32.8662],[73.6219,32.8056],[73.814,32.8118],[73.9232,32.761],[74.0164,32.827],[74.0457,32.891],[74.1113,32.8569],[74.2601,32.8792],[74.3042,32.8443],[74.5157,32.9041],[74.6018,32.8883],[74.5881,32.9691],[74.4452,33.0647]],[[76.4935,32.896],[76.4832,32.8688],[76.451,32.8775],[76.4613,32.9046],[76.4935,32.896]],[[72.197,32.8505],[72.2419,32.8163],[72.233,32.7889],[72.2093,32.8239],[72.1026,32.8193],[72.0724,32.7909],[72.1217,32.8562],[72.197,32.8505]],[[73.2469,33.0274],[73.1939,33.0164],[73.207,32.9718],[73.26,32.9827],[73.2469,33.0274]],[[73.0719,33.0932],[73.0188,33.0822],[73.0544,33.0204],[73.1064,33.0494],[73.0719,33.0932]],[[76.243,33.6868],[76.3617,33.6793],[76.373,33.6523],[76.3302,33.6338],[76.3203,33.5885],[76.2338,33.6055],[76.2028,33.5419],[76.0224,33.4221],[75.9454,33.5021],[75.9437,33.5743],[76.1046,33.6037],[76.1677,33.6767],[76.243,33.6868]],[[75.4896,33.6387],[75.5026,33.5577],[75.4375,33.5745],[75.4176,33.52],[75.2251,33.4801],[75.1821,33.4792],[75.0384,33.5934],[75.1129,33.6221],[75.458,33.611],[75.4896,33.6387]],[[75.7477,33.6613],[75.8352,33.6086],[75.6954,33.5973],[75.683,33.6602],[75.7477,33.6613]]]}}]}