{"type":"FeatureCollection","features":[{"type":"Feature","properties":{},"geometry":{"type":"MultiLineString","coordinates":[[[74.6283,27.8726],[74.405,27.8667],[74.3969,27.8033],[74.4978,27.824],[74.5407,27.753],[74.6646,27.684],[74.668,27.5757],[74.5991,27.5108],[74.4985,27.4901],[74.4402,27.4163],[74.3587,27.4321],[74.279,27.3938],[74.2607,27.3391],[74.1192,27.335],[74.1114,27.2716],[74.0124,27.2145],[74.015,27.1423],[73.935,27.1218],[73.9585,27.0323],[74.0209,26.98],[73.9832,26.9066],[74.015,26.8624],[74.115,26.8835],[74.2589,26.7974],[74.2979,26.8346],[74.3784,26.8368],[74.5622,26.7515],[74.6203,26.8252],[74.76,26.8649],[74.7688,26.9102],[74.8384,26.939],[74.8895,26.9131],[74.8704,26.8766],[74.9637,26.7794],[75.0525,26.8447],[75.0486,26.989],[75.1175,27.0537],[75.2285,27.0471],[75.2464,27.1378],[75.2155,27.1642],[75.1559,27.1268],[75.1052,27.1347],[75.1423,27.2619],[75.1014,27.2791],[75.069,27.3596],[75.03,27.3046],[74.9601,27.2759],[74.9522,27.1945],[74.9109,27.2296],[74.7897,27.2267],[74.7587,27.253],[74.7876,27.2989],[74.8876,27.3374],[74.9886,27.3397],[75.0073,27.3943],[75.0976,27.4234],[75.1154,27.5141],[74.9183,27.6811],[74.8164,27.6967],[74.7748,27.7318],[74.6531,27.7288],[74.6283,27.8726]],[[73.7166,27.2864],[73.5752,27.2817],[73.4892,27.1614],[73.6235,27.0847],[73.6826,27.1228],[73.8238,27.1274],[73.8711,27.2101],[73.7166,27.2864]],[[72.1721,28.1659],[72.0016,28.1131],[72.0023,27.3729],[72.0437,27.3567],[72.0611,27.2221],[72.1419,27.2257],[72.2601,27.2851],[72.4024,27.2731],[72.4488,27.3564],[72.5172,27.4044],[72.5999,27.3717],[72.6068,27.4352],[72.5655,27.4515],[72.6419,27.5449],[72.6559,27.6719],[72.6815,27.5646],[72.6428,27.5269],[72.6552,27.4823],[72.7396,27.6211],[72.8198,27.6423],[72.7961,27.7136],[72.8349,27.7512],[72.8323,27.8053],[72.7405,27.8107],[72.729,27.8373],[72.8076,27.8946],[72.8413,28.0403],[72.9421,28.0623],[72.8873,28.1414],[72.7245,28.135],[72.6953,28.1068],[72.7378,28.0724],[72.6874,28.0613],[72.5201,28.1447],[72.3165,28.1361],[72.1721,28.1659]],[[73.0652,27.8233],[73.0043,27.821],[72.976,27.7748],[73.0482,27.7504],[73.0652,27.8233]],[[72.6851,28.5125],[72.6238,28.51],[72.6062,28.4551],[72.2796,28.4414],[72.2728,28.3779],[72.3476,28.3179],[72.4088,28.3206],[72.4875,28.378],[72.6915,28.3864],[72.7411,28.4155],[72.7384,28.4695],[72.6851,28.5125]],[[72.9545,30.9234],[72.8727,30.8841],[72.7682,30.88],[72.802,30.8363],[72.7313,30.7884],[72.6686,30.7858],[72.599,30.7199],[72.6546,30.659],[72.8206,30.6836],[72.895,30.6594],[72.8192,30.5121],[72.6456,30.442],[72.6089,30.3503],[72.3188,30.3201],[72.2191,30.2436],[72.0114,30.2344],[72.0069,29.9635],[72.2566,29.9565],[72.3571,30.015],[72.7104,30.0115],[72.7499,30.0492],[73.1664,30.029],[73.2467,30.086],[73.4558,30.0573],[73.6062,30.1797],[73.5765,30.3772],[73.6726,30.5608],[73.6454,30.7042],[73.506,30.7808],[73.4441,30.7606],[73.3589,30.7938],[73.3145,30.8463],[73.1864,30.8959],[73.04,30.8905],[72.9545,30.9234]],[[72.3584,30.7189],[72.2958,30.7162],[72.2463,30.6689],[72.2714,30.5978],[72.347,30.556],[72.4758,30.6787],[72.4638,30.7053],[72.3584,30.7189]],[[72.1257,31.1058],[72.0629,31.103],[72.0761,31.0585],[71.9946,31.0187],[72.1543,30.9807],[72.183,31.0271],[72.14,31.0433],[72.1257,31.1058]],[[75.3109,31.2988],[75.0798,31.2939],[75.0287,31.2477],[75.0304,31.1936],[75.1487,31.0969],[75.3359,31.1549],[75.4622,31.1394],[75.4929,31.167],[75.4696,31.2568],[75.4164,31.2828],[75.3349,31.191],[75.3431,31.2724],[75.3109,31.2988]],[[72.7345,31.1133],[72.5778,31.098],[72.6746,31.0568],[72.8003,31.0618],[72.8303,31.09],[72.7345,31.1133]],[[72.4637,33.2138],[72.3565,33.2093],[72.2945,33.1705],[72.122,33.1811],[72.0172,33.1404],[71.9893,33.0759],[72.0008,31.9213],[72.1088,31.8901],[72.0043,31.8674],[71.9901,31.7584],[72.0176,31.1551],[72.0772,31.2119],[72.182,31.2165],[72.2837,31.2751],[72.4107,31.2625],[72.6125,31.4152],[72.6546,31.4169],[72.8029,31.5942],[72.8009,31.6302],[72.8622,31.6687],[72.8543,31.8127],[73.1131,31.9218],[73.1176,32.0392],[73.3164,32.0915],[73.3957,32.2025],[73.4593,32.2047],[73.5467,32.1535],[73.6086,32.1917],[73.7196,32.087],[73.7603,32.1244],[73.8239,32.1264],[74.1287,31.9371],[74.3401,31.9431],[74.381,31.9803],[74.6349,31.987],[74.8054,31.9551],[74.8991,32.0024],[74.8543,32.0736],[74.8846,32.1194],[74.9064,32.1018],[74.9893,32.1579],[75.1165,32.1607],[75.1997,32.2166],[75.2845,32.2183],[75.3041,32.2729],[75.3777,32.3014],[75.3766,32.3375],[75.2792,32.3986],[75.1953,32.3608],[75.0885,32.3766],[75.0,32.4829],[74.8937,32.4804],[74.6751,32.6375],[74.5473,32.6343],[74.3726,32.7379],[74.2873,32.7356],[74.1895,32.7779],[74.2394,32.8605],[74.4103,32.8652],[74.4406,32.9112],[74.4074,32.9373],[74.1288,32.9476],[74.056,32.9003],[74.0797,32.8469],[73.9864,32.781],[73.9437,32.7797],[73.8772,32.8318],[73.7943,32.7751],[73.7295,32.7911],[73.6041,32.7328],[73.5682,32.8129],[73.6193,32.8597],[73.8115,32.8658],[73.9863,33.0246],[73.8221,33.1007],[73.7648,33.1801],[73.7108,33.1874],[73.6876,33.2228],[73.4303,33.2142],[73.3474,33.1572],[73.2198,33.1347],[73.0962,33.04],[73.0402,33.083],[73.0261,33.1457],[72.8761,33.14],[72.7445,33.189],[72.6181,33.1479],[72.4637,33.2138]],[[76.2175,32.2521],[76.1646,32.2424],[76.1973,32.1977],[76.2502,32.2075],[76.2175,32.2521]],[[73.4439,32.3034],[73.4364,32.24],[73.4023,32.2839],[73.4439,32.3034]],[[73.5023,32.4137],[73.5253,32.3783],[73.4947,32.3503],[73.4505,32.3848],[73.3775,32.3553],[73.4487,32.4209],[73.5023,32.4137]],[[75.5115,34.009],[75.3384,34.0057],[75.3323,33.8522],[75.3992,33.7813],[75.4013,33.7092],[75.4344,33.6827],[75.477,33.7016],[75.5116,33.621],[75.5777,33.5681],[75.4591,33.5749],[75.374,33.5372],[75.2874,33.5535],[75.2135,33.5069],[75.1419,33.3881],[75.0345,33.3858],[75.0032,33.358],[75.0932,33.2337],[75.0753,33.125],[74.9816,33.0418],[74.896,33.0398],[74.8026,32.9564],[74.8271,32.8668],[75.0563,32.7187],[75.3144,32.6519],[75.3663,32.6981],[75.3643,32.7702],[75.2778,32.8046],[75.2324,32.8938],[75.2636,32.9215],[75.3491,32.9233],[75.4366,32.8528],[75.5871,32.8195],[75.6979,32.6591],[75.8914,32.5902],[75.9862,32.6367],[76.0374,32.7367],[76.295,32.65],[76.4016,32.6514],[76.3901,32.6963],[76.4856,32.7245],[76.561,32.6802],[76.5939,32.6175],[76.7212,32.6548],[76.8904,32.7646],[76.9544,32.7651],[76.9748,32.8555],[76.8675,32.8907],[76.6731,33.0332],[76.5122,33.0586],[76.4893,33.1485],[76.3808,33.2194],[76.3468,33.3182],[76.1292,33.4597],[76.0869,33.423],[75.9791,33.4395],[75.8804,33.5191],[75.9116,33.5647],[76.0842,33.5493],[76.1265,33.586],[76.2988,33.5883],[76.362,33.6612],[76.5126,33.681],[76.5551,33.7176],[76.5876,33.7089],[76.5884,33.6548],[76.6427,33.6283],[76.8366,33.6301],[76.9224,33.6669],[76.9753,33.7485],[76.9315,33.8023],[76.8558,33.8107],[76.7682,33.9001],[76.6607,33.863],[76.4431,33.9509],[76.4889,33.8071],[76.4341,33.8515],[76.4331,33.9056],[76.3896,33.9232],[76.4322,33.9598],[76.3989,34.0045],[75.5115,34.009]],[[73.7653,32.711],[73.7772,32.6843],[73.703,32.6729],[73.7329,32.719],[73.7653,32.711]],[[77.1215,33.1452],[76.9609,33.135],[76.9625,32.9907],[77.0489,32.9191],[77.0283,32.8468],[77.0606,32.82],[77.2741,32.8213],[77.3268,32.9028],[77.1761,33.0282],[77.197,33.0825],[77.1215,33.1452]],[[75.8465,33.1397],[75.8478,33.0856],[75.8054,33.0669],[75.8495,33.0135],[75.7552,32.9307],[75.7439,32.9576],[75.8067,33.0128],[75.8041,33.121],[75.8465,33.1397]],[[72.0982,33.5411],[72.0033,33.5098],[72.01,33.2483],[72.1566,33.309],[72.1859,33.3554],[72.18,33.4454],[72.0982,33.5411]],[[82.6265,33.483],[82.5499,33.4585],[82.6246,33.4469],[82.6265,33.483]]]}}]}