{"type":"FeatureCollection","features":[{"type":"Feature","properties":{},"geometry":{"type":"MultiLineString","coordinates":[[[73.8734,27.4178],[73.7841,27.3698],[73.7869,27.2977],[73.7577,27.2697],[73.6463,27.2751],[73.7111,27.1689],[74.0092,27.0248],[74.2327,26.9772],[74.2949,26.9248],[74.4749,26.9659],[74.5065,26.9216],[74.4893,26.8308],[74.541,26.787],[74.741,26.8283],[74.9024,26.8141],[74.9843,26.7619],[75.0034,26.7984],[75.1325,26.8645],[75.1287,27.0089],[75.1788,27.019],[75.2178,27.074],[75.3378,27.1126],[75.3863,27.1948],[75.2221,27.2997],[75.2311,27.3451],[75.1301,27.3429],[75.1108,27.3064],[75.0502,27.305],[74.8907,27.2291],[74.8285,27.2818],[74.6266,27.2768],[74.5851,27.3118],[74.5245,27.3102],[74.4003,27.3972],[74.2398,27.3566],[74.1167,27.4072],[73.8734,27.4178]],[[74.3621,27.026],[74.3529,26.9986],[74.2815,27.0237],[74.3621,27.026]],[[72.5155,27.8376],[72.3444,27.8033],[72.3472,27.7493],[72.3086,27.7115],[72.3595,27.5151],[72.3247,27.4052],[72.2852,27.3855],[72.2899,27.2954],[72.4089,27.147],[72.5886,27.1907],[72.6202,27.1649],[72.6018,27.128],[72.6544,27.085],[72.7324,27.1423],[72.8131,27.1455],[72.8395,27.2278],[72.9363,27.3219],[72.9321,27.412],[72.8714,27.4096],[72.8637,27.5718],[72.9034,27.5914],[72.856,27.734],[72.8931,27.8077],[72.5155,27.8376]],[[75.3246,27.6539],[75.203,27.6514],[75.1436,27.5959],[75.0621,27.6122],[74.9722,27.565],[75.0241,27.5211],[75.1036,27.577],[75.1559,27.515],[75.1573,27.4608],[75.2081,27.4529],[75.2274,27.4894],[75.3776,27.5557],[75.3246,27.6539]],[[74.6199,27.4933],[74.5592,27.4917],[74.5499,27.4644],[74.621,27.4572],[74.6199,27.4933]],[[74.5448,27.9426],[74.4856,27.8869],[74.3951,27.8574],[74.4479,27.7956],[74.51,27.7612],[74.6103,27.7999],[74.6021,27.7365],[74.6542,27.6927],[74.7556,27.6953],[74.8455,27.7426],[74.7298,27.8751],[74.5865,27.9076],[74.5448,27.9426]],[[72.9249,27.7818],[72.8949,27.7716],[72.9063,27.745],[72.9363,27.7552],[72.9249,27.7818]],[[72.2236,27.9696],[72.1936,27.9592],[72.1955,27.9232],[72.2691,27.8813],[72.2768,27.9268],[72.2236,27.9696]],[[73.0485,28.1837],[72.8856,28.1775],[72.8687,28.1046],[72.7873,28.1014],[72.6989,28.0347],[72.7219,27.9815],[72.8165,27.922],[73.0602,27.9314],[73.1089,27.9783],[73.0485,28.1837]],[[73.9256,28.1776],[73.7936,28.1645],[73.8989,28.0775],[73.9122,27.9967],[73.9803,28.08],[73.9256,28.1776]],[[72.0346,28.0695],[72.0057,28.0411],[72.0793,27.9993],[72.088,28.0267],[72.0346,28.0695]],[[72.595,28.2742],[72.5543,28.2725],[72.5455,28.2451],[72.6182,28.221],[72.6474,28.2492],[72.595,28.2742]],[[74.1934,30.3151],[74.1633,30.2872],[74.1754,30.2424],[74.28,30.2274],[74.3102,30.2553],[74.1934,30.3151]],[[73.7976,30.8084],[73.7141,30.8057],[73.6036,30.7029],[73.766,30.5728],[73.9443,30.5513],[73.9674,30.4979],[73.9124,30.3158],[74.0071,30.2916],[74.0242,30.3823],[74.1282,30.3854],[74.2181,30.4873],[74.1837,30.5675],[74.1218,30.5476],[74.0679,30.5912],[74.2024,30.6221],[74.2118,30.6495],[74.1579,30.693],[74.0751,30.6726],[74.0621,30.7353],[73.9656,30.7956],[73.7976,30.8084]],[[72.1698,33.4359],[72.0409,33.4302],[71.9903,33.3828],[72.0031,31.8854],[72.1199,31.8815],[72.2033,31.9033],[72.2222,31.9402],[72.2544,31.9325],[72.1844,31.8663],[72.141,31.8825],[72.1221,31.8456],[72.0066,31.8314],[71.9896,31.4336],[72.0682,31.3559],[72.1633,31.3511],[72.1545,31.3236],[72.0705,31.3199],[72.0251,31.372],[71.9941,31.3616],[72.011,31.0916],[72.0893,31.0139],[72.1973,30.9646],[72.2788,31.0042],[72.4285,30.9564],[72.575,30.9625],[72.7355,31.0953],[72.9232,31.1207],[72.9604,31.2123],[73.2469,31.3672],[73.3476,31.461],[73.473,31.4834],[73.5218,31.5662],[73.4314,31.6895],[73.4464,31.8163],[73.4979,31.8451],[73.5622,31.8292],[73.634,31.8767],[73.6298,31.9668],[73.6712,31.9862],[73.6476,32.0396],[73.6772,32.0856],[73.7204,32.069],[73.7611,32.1064],[73.8906,32.0563],[73.9753,32.0589],[74.0373,32.0968],[74.179,32.0018],[74.1185,31.9278],[74.1732,31.8843],[74.3225,31.8524],[74.4063,31.8728],[74.4882,31.9471],[74.5011,31.8843],[74.7277,31.7548],[74.8537,31.7759],[75.0831,31.8713],[75.5058,31.8799],[75.5043,31.934],[75.5885,31.9536],[75.7654,32.0739],[75.7646,32.11],[75.6356,32.1799],[75.655,32.2524],[75.5999,32.3326],[75.5362,32.3315],[75.2989,32.4532],[75.2356,32.4338],[75.0489,32.6193],[75.0027,32.7265],[74.8089,32.7761],[74.8186,32.8034],[74.9467,32.8064],[74.9235,32.86],[74.8595,32.8585],[74.7721,32.9106],[74.7093,32.8729],[74.5805,32.8878],[74.5033,32.9489],[74.4991,33.0571],[74.3131,33.1513],[74.2053,33.1663],[74.1172,33.2179],[74.0545,33.18],[73.8377,33.2275],[73.4285,33.2503],[73.3446,33.2113],[73.2998,33.2458],[73.2141,33.2428],[73.1449,33.3305],[72.6942,33.3134],[72.6276,33.3468],[72.5203,33.3424],[72.3429,33.4253],[72.1698,33.4359]],[[72.1257,31.2772],[72.2119,31.2449],[72.1721,31.2071],[72.2162,31.1729],[72.1864,31.1446],[72.1302,31.2052],[72.1257,31.2772]],[[75.5489,32.2505],[75.5183,32.2049],[75.465,32.2129],[75.4956,32.2586],[75.5489,32.2505]],[[76.5936,34.0067],[76.4638,34.0052],[76.4764,33.9061],[76.3793,33.896],[76.359,33.8236],[76.2287,33.858],[76.1192,33.9287],[76.0552,33.8917],[76.0213,33.9543],[76.1184,33.9648],[76.1177,34.0008],[75.9013,33.9976],[75.8912,33.9704],[75.9789,33.9176],[76.0026,33.8277],[76.1775,33.722],[76.0513,33.5759],[76.0525,33.5218],[76.1178,33.4866],[76.0861,33.4591],[76.042,33.5126],[75.9116,33.5647],[75.7609,33.5623],[75.7302,33.4986],[75.6452,33.4611],[75.6471,33.3889],[75.6905,33.3716],[75.6961,33.1552],[75.7398,33.1199],[75.7193,33.0835],[75.7635,33.0301],[75.7211,33.0113],[75.7225,32.9572],[75.6175,32.8832],[75.6212,32.739],[75.934,32.5908],[75.9758,32.6275],[76.1253,32.6117],[76.2091,32.685],[76.3796,32.6872],[76.4442,32.6519],[76.5067,32.7428],[76.6344,32.7622],[76.7295,32.8263],[76.5567,32.9508],[76.5558,33.0049],[76.6409,33.0419],[76.6398,33.1141],[76.5312,33.2031],[76.5289,33.3474],[76.4106,33.3551],[76.3663,33.4267],[76.2367,33.4612],[76.2254,33.4881],[76.3763,33.4719],[76.3411,33.6249],[76.5787,33.5915],[76.6425,33.6463],[77.0734,33.65],[77.1053,33.6953],[77.0402,33.7309],[77.0289,33.776],[76.8995,33.775],[76.8667,33.8018],[76.9311,33.8384],[76.9193,33.9195],[76.8107,33.9546],[76.6818,33.8993],[76.5936,34.0067]],[[77.104,32.7481],[76.9762,32.7292],[76.9662,32.666],[77.0198,32.6393],[77.1262,32.6581],[77.1577,32.7034],[77.104,32.7481]],[[74.6425,33.5209],[74.6223,33.4843],[74.6542,33.4941],[74.6425,33.5209]],[[72.1162,33.596],[72.0235,33.5287],[72.0373,33.4842],[72.2386,33.5382],[72.2034,33.5818],[72.1162,33.596]],[[74.2995,33.999],[74.1481,33.9948],[74.1168,33.9668],[74.1952,33.9059],[74.4128,33.8758],[74.5193,33.9147],[74.6817,33.9098],[74.5604,33.9699],[74.2995,33.999]],[[72.0464,33.9901],[71.9942,33.9606],[72.0142,33.8262],[72.0855,33.8925],[72.0807,33.9645],[72.0464,33.9901]]]}}]}