{"type":"FeatureCollection","features":[{"type":"Feature","properties":{},"geometry":{"type":"MultiLineString","coordinates":[[[74.9421,26.8331],[74.8817,26.8317],[74.8724,26.8044],[74.9431,26.797],[74.9421,26.8331]],[[74.4777,27.5076],[74.439,27.4524],[74.3783,27.4507],[74.3593,27.4141],[73.9152,27.383],[73.9276,27.3202],[73.858,27.2909],[73.8294,27.2449],[73.8523,27.1734],[73.8836,27.1473],[73.9434,27.1672],[74.21,27.0488],[74.2693,27.0866],[74.4116,27.0544],[74.4513,27.0736],[74.5342,27.0036],[74.6142,27.0237],[74.6774,26.935],[74.8565,27.0117],[74.8451,27.0565],[74.9429,27.1672],[74.8203,27.2184],[74.8586,27.2916],[74.7762,27.3437],[74.856,27.3818],[74.8544,27.4359],[74.7828,27.4612],[74.6839,27.3866],[74.603,27.3845],[74.5707,27.4469],[74.4777,27.5076]],[[75.1784,27.037],[75.1179,27.0357],[75.109,26.9904],[75.1994,27.0014],[75.1784,27.037]],[[75.3928,27.3484],[75.3124,27.3287],[75.2643,27.2284],[75.2047,27.191],[75.2872,27.1206],[75.289,27.0484],[75.3405,27.0043],[75.4009,27.0055],[75.4395,27.0785],[75.5098,27.0888],[75.5082,27.161],[75.5588,27.153],[75.6083,27.199],[75.5663,27.2705],[75.5754,27.3158],[75.5148,27.3146],[75.4753,27.2778],[75.3928,27.3484]],[[74.6616,27.1242],[74.6523,27.0969],[74.6016,27.1046],[74.6109,27.1319],[74.6616,27.1242]],[[72.9805,27.459],[72.9005,27.4379],[72.8424,27.3814],[72.6587,27.4102],[72.6324,27.3279],[72.664,27.3021],[72.7843,27.325],[72.9098,27.2396],[72.9703,27.2419],[72.9833,27.1792],[73.0551,27.1549],[73.043,27.1995],[73.1213,27.2566],[73.0575,27.3265],[73.0946,27.4001],[72.9805,27.459]],[[73.6582,27.2303],[73.6401,27.1756],[73.6902,27.1862],[73.6582,27.2303]],[[73.0838,27.8601],[73.0449,27.8225],[72.9037,27.7991],[72.7846,27.7402],[72.7555,27.712],[72.7987,27.6595],[72.6692,27.6092],[72.6613,27.5638],[72.7739,27.5412],[72.8338,27.5616],[72.9182,27.4927],[73.0809,27.4808],[73.1602,27.5199],[73.2177,27.5942],[73.2792,27.5784],[73.3263,27.6613],[73.255,27.6678],[73.2421,27.7305],[73.0838,27.8601]],[[75.3664,27.6006],[75.3165,27.5725],[75.4082,27.5473],[75.3664,27.6006]],[[73.4141,27.7456],[73.3653,27.6988],[73.3766,27.6721],[73.4261,27.7009],[73.4141,27.7456]],[[72.3252,27.974],[72.2439,27.9705],[72.2362,27.925],[72.3097,27.883],[72.3706,27.8857],[72.3987,27.932],[72.3252,27.974]],[[74.2285,28.2589],[74.1983,28.249],[74.1916,28.1495],[74.0858,28.2547],[74.0451,28.2535],[73.9579,28.1335],[74.0735,28.0377],[74.1345,28.0395],[74.1929,28.1134],[74.315,28.1169],[74.3483,28.0366],[74.4198,28.0295],[74.3668,28.0913],[74.4464,28.1476],[74.3545,28.1541],[74.2285,28.2589]],[[72.0875,29.2993],[71.9955,29.2861],[72.0057,28.9346],[72.2703,28.9825],[72.3504,29.022],[72.5986,28.9963],[72.6065,29.0418],[72.6466,29.0615],[72.6653,29.0983],[72.6116,29.1413],[72.5088,29.137],[72.4237,29.1876],[72.362,29.185],[72.2943,29.2904],[72.1935,29.2499],[72.1709,29.285],[72.0875,29.2993]],[[72.0462,30.0014],[71.9949,29.99],[72.0145,29.8375],[72.2685,29.93],[72.1934,29.9718],[72.0691,29.9663],[72.0462,30.0014]],[[72.5296,33.5414],[72.4221,33.5369],[72.2073,33.3563],[72.1995,33.3108],[72.0493,33.3042],[71.9975,33.2748],[71.9894,32.751],[72.1905,32.6156],[72.1224,32.5133],[72.0172,32.4906],[71.9894,32.4262],[72.0088,31.1276],[72.1973,30.9646],[72.4086,30.9375],[72.6238,30.8382],[72.6686,30.7858],[72.7531,30.7712],[72.8139,30.8097],[73.0437,30.8184],[73.1664,30.8771],[73.4682,31.1404],[73.6577,31.1287],[73.8091,31.2689],[73.9063,31.4523],[73.9032,31.5244],[73.9968,31.5543],[74.0577,31.6103],[74.1522,31.6221],[74.1282,31.6936],[74.04,31.7812],[74.1841,31.8756],[74.1827,31.9116],[74.117,31.9639],[74.1469,32.0098],[74.2738,32.0135],[74.3606,31.9617],[74.4445,31.9821],[74.5093,31.9477],[74.699,31.9706],[74.7214,31.935],[74.8906,31.9391],[74.9587,31.7963],[75.1504,31.7465],[75.2369,31.6761],[75.3428,31.6602],[75.3865,31.607],[75.4923,31.591],[75.5963,31.647],[75.8071,31.6507],[75.9006,31.7153],[75.7296,31.8027],[75.6951,31.9194],[75.6326,31.8822],[75.6105,31.9179],[75.5151,31.9252],[75.5457,31.9708],[75.6091,31.972],[75.6524,31.9367],[75.8211,31.9576],[75.8306,32.0028],[75.669,32.1174],[75.5197,32.1508],[75.4966,32.2225],[75.4118,32.2209],[75.3575,32.2649],[75.3124,32.3542],[75.3533,32.4092],[75.331,32.4448],[75.3839,32.4549],[75.3933,32.5002],[75.2962,32.5433],[75.2406,32.6234],[75.1318,32.6933],[75.1832,32.7575],[75.333,32.7425],[75.3424,32.7878],[75.1163,32.8463],[75.0834,32.8726],[75.1019,32.9632],[74.9174,33.0403],[74.7852,33.1454],[74.6352,33.1417],[74.591,33.1767],[74.3102,33.2234],[74.1562,33.3093],[74.0712,33.2888],[74.0044,33.3409],[73.9408,33.3209],[73.8104,33.353],[73.5697,33.4355],[73.4586,33.5039],[73.2005,33.4949],[73.0745,33.4362],[72.964,33.4862],[72.8156,33.4445],[72.748,33.496],[72.7049,33.4943],[72.6856,33.4574],[72.5588,33.4162],[72.5239,33.4599],[72.585,33.5165],[72.5296,33.5414]],[[75.7906,31.4519],[75.7177,31.4237],[75.7503,31.3791],[75.8138,31.3621],[75.8657,31.39],[75.7906,31.4519]],[[72.5301,31.5652],[72.5422,31.5386],[72.6164,31.5326],[72.5053,31.4469],[72.5353,31.4752],[72.5301,31.5652]],[[74.9815,31.7427],[74.8254,31.6759],[74.9218,31.6331],[75.014,31.7164],[74.9815,31.7427]],[[76.0549,31.9071],[75.9396,31.8603],[75.9404,31.8242],[76.0153,31.7802],[76.0997,31.7815],[76.1309,31.809],[76.1301,31.845],[76.0549,31.9071]],[[72.5144,31.8352],[72.5809,31.7838],[72.5951,31.7213],[72.5266,31.8087],[72.0967,31.7452],[72.1466,31.7925],[72.3366,31.8007],[72.3767,31.8385],[72.5144,31.8352]],[[75.4377,32.8167],[75.3846,32.8067],[75.3866,32.7346],[75.4194,32.7081],[75.5492,32.6384],[75.6657,32.6676],[75.6099,32.7658],[75.4377,32.8167]],[[75.1956,33.0464],[75.1227,32.9817],[75.1556,32.9554],[75.2296,32.984],[75.1956,33.0464]],[[75.6767,33.4887],[75.6122,33.4876],[75.5597,33.4415],[75.5611,33.3874],[75.638,33.3256],[75.7243,33.3091],[75.7549,33.3727],[75.7115,33.3901],[75.6767,33.4887]],[[75.4218,33.3758],[75.3688,33.3477],[75.4228,33.3397],[75.4218,33.3758]],[[76.5807,33.4653],[76.5486,33.4559],[76.5821,33.3751],[76.7001,33.3853],[76.6887,33.4303],[76.5807,33.4653]],[[75.2874,33.5535],[75.2559,33.5258],[75.2593,33.4176],[75.3568,33.3925],[75.3882,33.4202],[75.342,33.5276],[75.2874,33.5535]],[[72.0934,33.6131],[72.0187,33.6007],[72.017,33.4653],[72.0881,33.5316],[72.0934,33.6131]]]}}]}