{"type":"FeatureCollection","features":[{"type":"Feature","properties":{},"geometry":{"type":"MultiLineString","coordinates":[[[75.0412,26.8895],[75.0113,26.8798],[75.022,26.853],[75.0412,26.8895]],[[74.5372,27.5453],[74.4574,27.507],[74.3961,27.5234],[74.3477,27.4589],[74.4298,27.4251],[74.3195,27.3949],[74.2013,27.3013],[74.1212,27.2809],[74.0788,27.3338],[73.9569,27.3482],[73.9303,27.2481],[74.0638,27.1889],[74.1647,27.1919],[74.1568,27.1285],[74.2503,27.0499],[74.4116,27.0544],[74.5112,27.0932],[74.7542,27.0633],[74.8519,27.174],[74.9326,27.176],[74.9616,27.2218],[74.7751,27.3798],[74.8549,27.4179],[74.844,27.4447],[74.7626,27.4607],[74.72,27.5319],[74.6193,27.5113],[74.5372,27.5453]],[[75.6329,27.4612],[75.552,27.4597],[75.5223,27.4321],[75.5235,27.378],[75.575,27.3338],[75.7054,27.3813],[75.6329,27.4612]],[[75.7745,27.4637],[75.7245,27.4358],[75.7367,27.3367],[75.8274,27.3472],[75.7745,27.4637]],[[74.6959,27.6577],[74.6252,27.6469],[74.697,27.6216],[74.6959,27.6577]],[[72.5651,29.6267],[72.5238,29.625],[72.3048,29.4713],[72.1997,29.5028],[72.026,29.468],[71.9901,29.3761],[72.0078,28.8986],[72.2343,28.8907],[72.3388,28.8591],[72.5437,28.8677],[72.7049,28.9284],[72.8913,28.8997],[72.91,28.9365],[73.0527,28.96],[73.1125,28.9983],[73.2356,29.0028],[73.3054,29.0504],[73.3416,29.16],[73.1309,29.2607],[73.1283,29.3147],[73.0863,29.3312],[73.0828,29.4033],[73.039,29.4558],[73.0471,29.5012],[73.0059,29.4997],[72.9189,29.5866],[72.8776,29.585],[72.8588,29.5482],[72.735,29.5433],[72.6909,29.5957],[72.6299,29.5752],[72.5651,29.6267]],[[73.4737,33.6308],[73.4325,33.5933],[73.3875,33.6278],[73.0215,33.6147],[72.9589,33.5763],[72.8718,33.591],[72.5974,33.49],[72.5971,33.3185],[72.7483,33.3065],[72.6984,33.2413],[72.4739,33.2232],[72.4816,33.0972],[72.5469,33.0818],[72.577,32.9387],[72.5241,32.9275],[72.4644,32.8528],[72.4014,32.8322],[72.1882,32.6516],[72.1169,32.4319],[72.0443,32.4016],[71.9953,32.3362],[71.9975,31.3076],[72.2106,31.0915],[72.3793,31.0807],[72.5551,30.9436],[72.7692,30.862],[72.9991,30.8709],[73.0591,30.9273],[73.2674,30.9529],[73.291,30.8996],[73.4173,30.886],[73.4617,30.8334],[73.7077,30.9499],[73.9154,30.9925],[73.979,30.9764],[74.0822,31.0156],[74.0894,31.097],[74.1805,31.1808],[74.4728,31.225],[74.5949,31.3365],[74.6681,31.3473],[74.6662,31.4014],[74.5381,31.4523],[74.524,31.5511],[74.4411,31.5129],[74.3881,31.5204],[74.4384,31.585],[74.5839,31.6429],[74.6446,31.7166],[74.7761,31.5755],[74.8808,31.5961],[74.9343,31.5703],[74.9469,31.5074],[75.0089,31.5449],[75.1148,31.5292],[75.166,31.5754],[75.1644,31.6295],[75.0968,31.7724],[75.0426,31.8163],[74.9165,31.7954],[74.8628,31.8212],[74.8924,31.885],[75.0831,31.8713],[75.2181,31.9554],[75.1405,32.071],[74.9923,32.0677],[74.9802,32.1126],[74.8931,32.1827],[74.924,32.2105],[75.136,32.2152],[75.2389,32.3257],[75.3238,32.3274],[75.3652,32.3643],[75.5989,32.3687],[75.6296,32.4144],[75.6056,32.5222],[75.5611,32.5935],[75.4744,32.6461],[75.5587,32.6837],[75.5776,32.7743],[75.6298,32.8203],[75.7365,32.8222],[75.7888,32.8681],[75.7452,32.9035],[75.7652,32.958],[75.6879,33.0559],[75.43,33.0872],[75.2615,32.9937],[75.1545,32.9914],[75.066,33.0797],[75.0232,33.0788],[74.9131,33.1665],[74.7423,33.1444],[74.6871,33.1882],[74.6851,33.2422],[74.6298,33.286],[74.5004,33.3007],[74.388,33.424],[74.1508,33.4354],[74.0028,33.377],[73.8525,33.3724],[73.6849,33.5024],[73.6253,33.6178],[73.4737,33.6308]],[[74.8206,31.5044],[74.7485,31.4576],[74.8867,31.4158],[74.9162,31.4796],[74.8206,31.5044]],[[72.7848,31.5394],[72.8949,31.4534],[72.8428,31.4424],[72.7988,31.4767],[72.7937,31.3773],[72.7627,31.3671],[72.7237,31.5008],[72.7848,31.5394]],[[72.7136,31.6809],[72.7046,31.6535],[72.5049,31.6363],[72.555,31.6835],[72.7136,31.6809]],[[76.3415,33.6068],[76.256,33.5697],[76.1911,33.5868],[76.1597,33.5413],[76.2035,33.5058],[76.0869,33.423],[76.0439,33.4224],[75.9997,33.4759],[75.9369,33.4027],[75.8834,33.3929],[75.8422,33.3201],[75.8859,33.2847],[75.8881,33.1945],[76.0191,33.0882],[75.9888,33.0066],[76.1483,33.054],[76.1472,33.1081],[76.0502,33.1338],[76.0389,33.1607],[76.2518,33.2358],[76.2075,33.3074],[76.2807,33.4076],[76.4209,33.3823],[76.3581,33.2913],[76.4135,33.1927],[76.4563,33.1932],[76.5301,33.2753],[76.4868,33.2928],[76.4638,33.3828],[76.634,33.4929],[76.5795,33.5374],[76.4289,33.5357],[76.3415,33.6068]],[[72.3712,33.3182],[72.256,33.2682],[72.2326,33.1318],[72.3374,33.1724],[72.3655,33.2367],[72.4276,33.2754],[72.3712,33.3182]],[[75.7941,33.9598],[75.784,33.9326],[75.8166,33.9241],[75.7941,33.9598]]]}}]}