{"type":"FeatureCollection","features":[{"type":"Feature","properties":{},"geometry":{"type":"MultiLineString","coordinates":[[[74.2741,27.5381],[74.2244,27.5096],[74.1871,27.4182],[74.2784,27.4118],[74.3305,27.3682],[74.3329,27.296],[74.3947,27.2616],[74.3971,27.1895],[74.4899,27.1288],[74.5902,27.1495],[74.7727,27.118],[74.811,27.1911],[74.9709,27.2491],[74.9995,27.3129],[75.0591,27.3504],[75.0571,27.4225],[74.9846,27.4841],[74.9239,27.4827],[74.8212,27.5344],[74.7003,27.5134],[74.691,27.486],[74.7325,27.451],[74.703,27.4232],[74.5615,27.4195],[74.5199,27.4545],[74.3391,27.4135],[74.2741,27.5381]],[[74.9188,27.6631],[74.8996,27.6265],[74.95,27.6367],[74.9188,27.6631]],[[73.5597,28.6351],[73.4787,28.6143],[73.4402,28.5588],[73.2555,28.5704],[73.2097,28.4514],[73.2824,28.4269],[73.4033,28.4673],[73.4221,28.5041],[73.6044,28.5464],[73.6135,28.5737],[73.5597,28.6351]],[[72.0029,28.6276],[72.0081,28.5376],[72.0566,28.5849],[72.0029,28.6276]],[[73.1398,29.7212],[73.0374,29.6994],[72.9978,29.6618],[72.8946,29.6578],[72.8101,29.6906],[72.7913,29.6538],[72.6674,29.6489],[72.6448,29.6841],[72.5425,29.6618],[72.4452,29.5495],[72.3941,29.5383],[72.3471,29.4551],[72.3059,29.4533],[72.1873,29.3579],[72.1158,29.3457],[72.1015,29.2368],[72.1966,29.1959],[72.2367,29.2157],[72.2505,29.1531],[72.1842,29.0509],[72.1216,29.0662],[72.1128,29.0387],[72.1872,28.9969],[72.2673,29.0365],[72.2606,28.973],[72.3798,28.8608],[72.4822,28.8652],[72.6285,28.8171],[72.771,28.8408],[72.8752,28.8088],[73.3431,28.8984],[73.3825,28.9359],[73.6066,28.9796],[73.6454,29.035],[73.8111,29.0043],[73.8158,29.1398],[73.7619,29.2012],[73.6887,29.226],[73.6659,29.2793],[73.6827,29.3701],[73.7941,29.4188],[73.8025,29.4642],[73.6444,29.5403],[73.5413,29.5369],[73.3903,29.6761],[73.2035,29.6875],[73.1398,29.7212]],[[73.7597,33.5138],[73.5661,33.5076],[73.6248,33.4102],[73.5733,33.3634],[73.4874,33.3605],[73.3838,33.2848],[73.3185,33.3006],[73.2989,33.2638],[73.256,33.2623],[73.2009,33.2874],[73.198,33.3414],[73.1214,33.3657],[72.9986,33.2529],[72.8516,33.1932],[72.7508,33.081],[72.6978,33.0699],[72.6389,32.9773],[72.6859,32.907],[72.6303,32.7603],[72.4977,32.6557],[72.4136,32.6341],[72.3541,32.5594],[72.269,32.5558],[72.1795,32.4527],[72.1897,32.2907],[72.1496,32.2528],[72.1654,32.0009],[72.2099,31.9667],[72.1933,31.8938],[72.111,31.8541],[72.1167,31.7641],[72.0756,31.7442],[72.1102,31.5292],[72.1766,31.478],[72.1799,31.424],[72.4669,31.2017],[72.4259,31.1819],[72.4751,31.0576],[72.5839,30.9899],[72.5969,30.9454],[72.6388,30.9471],[72.8119,30.8457],[73.2927,30.8636],[73.5035,30.8348],[73.8998,30.8657],[73.9805,30.9404],[74.0433,30.9423],[74.1869,31.0186],[74.3537,31.0414],[74.4146,31.0972],[74.4774,31.0988],[74.5593,31.1551],[74.7906,31.1429],[75.0384,31.2749],[75.208,31.2245],[75.3749,31.264],[75.3621,31.3449],[75.255,31.4149],[75.2842,31.4967],[75.1574,31.5121],[75.0926,31.5648],[75.0521,31.5098],[74.9992,31.5176],[75.0078,31.581],[75.1336,31.6018],[75.1536,31.6383],[75.1958,31.6392],[75.2822,31.5688],[75.3875,31.5709],[75.4516,31.5361],[75.5139,31.5733],[75.5981,31.5749],[75.6075,31.6202],[75.6703,31.6393],[75.6263,31.7107],[75.6465,31.7471],[75.541,31.7452],[75.5156,31.9071],[75.4296,31.9596],[75.4216,32.2481],[75.4636,32.267],[75.4606,32.3752],[75.3953,32.428],[75.4373,32.4469],[75.4353,32.519],[75.4764,32.5739],[75.4521,32.6817],[75.3778,32.6713],[75.3237,32.6972],[75.3226,32.7333],[75.3538,32.761],[75.4819,32.7635],[75.5042,32.7278],[75.5468,32.7286],[75.5672,32.765],[75.9509,32.7895],[76.0564,32.8452],[76.2497,32.7938],[76.3442,32.8762],[76.2469,32.9381],[76.0549,32.9174],[76.0129,32.8807],[75.8403,32.9502],[75.6265,32.9465],[75.5847,32.9097],[75.4987,32.9262],[75.3924,32.9061],[75.3507,32.8692],[75.1804,32.8476],[75.0286,32.9165],[74.9644,32.9151],[74.9718,33.0145],[75.0874,33.0802],[75.2368,33.1014],[75.3506,33.239],[75.3165,33.3015],[75.2092,33.2993],[75.0566,33.3682],[74.8842,33.3824],[74.8399,33.4174],[74.7351,33.3427],[74.6492,33.3406],[74.5495,33.4192],[74.537,33.464],[74.388,33.424],[74.2575,33.4565],[74.1938,33.4367],[74.1477,33.5075],[73.8268,33.4618],[73.7597,33.5138]],[[72.0196,33.1044],[71.9893,33.0759],[72.003,33.0314],[72.0333,33.0599],[72.0196,33.1044]],[[75.386,33.8622],[75.3544,33.8346],[75.4092,33.8086],[75.386,33.8622]],[[74.0175,34.009],[73.9854,33.999],[74.0303,33.9643],[73.9663,33.9443],[73.9688,33.8902],[73.9272,33.8529],[74.0696,33.812],[74.3502,33.82],[74.4142,33.8398],[74.4433,33.9217],[74.4858,33.9409],[74.4725,34.0037],[74.0175,34.009]]]}}]}