{"type":"FeatureCollection","features":[{"type":"Feature","properties":{},"geometry":{"type":"MultiLineString","coordinates":[[[74.9811,27.6104],[74.7698,27.5602],[74.8549,27.4179],[74.8161,27.3628],[74.8389,27.273],[74.9502,27.2666],[74.9714,27.231],[75.131,27.3068],[75.1803,27.353],[75.1785,27.4252],[75.2382,27.4626],[75.1658,27.5242],[75.0236,27.5391],[74.9811,27.6104]],[[73.7307,28.4603],[73.6014,28.3748],[73.6542,28.3314],[73.7639,28.3982],[73.7307,28.4603]],[[73.9913,28.5948],[73.961,28.5848],[73.9729,28.5401],[74.0032,28.55],[73.9913,28.5948]],[[73.3837,29.8202],[73.1174,29.7565],[73.0284,29.672],[73.0203,29.6265],[72.9377,29.6234],[72.7566,29.5261],[72.7378,29.4893],[72.563,29.4732],[72.6119,29.3308],[72.5363,29.2013],[72.5607,29.1301],[72.501,29.0916],[72.5459,29.0212],[72.5175,28.9749],[72.6425,28.944],[72.786,28.9497],[72.8047,28.9866],[72.8458,28.9882],[72.869,28.9349],[72.9724,28.9209],[73.0365,28.8691],[73.2611,28.8955],[73.2726,28.8688],[73.2128,28.8305],[73.3054,28.8248],[73.3661,28.845],[73.4243,28.9193],[73.5269,28.9228],[73.5497,28.8694],[73.6719,28.8915],[73.8279,29.0951],[74.2368,29.1615],[74.3065,29.2266],[74.2627,29.2976],[74.2774,29.4604],[74.2455,29.4866],[74.163,29.4842],[74.0364,29.5527],[73.9126,29.5489],[73.5341,29.699],[73.4101,29.6948],[73.3572,29.72],[73.4168,29.7762],[73.3837,29.8202]],[[73.6263,29.2419],[73.6385,29.1972],[73.5456,29.2032],[73.5539,29.2486],[73.6263,29.2419]],[[73.8605,33.6614],[73.7545,33.6219],[73.715,33.5485],[73.6401,33.5371],[73.6522,33.5104],[73.7597,33.5138],[73.7829,33.4785],[73.8259,33.4798],[73.8078,33.4071],[73.7236,33.3683],[73.5518,33.3627],[73.5071,33.3973],[73.4211,33.3944],[73.38,33.3569],[73.2474,33.4244],[73.1961,33.3775],[73.2307,33.3336],[73.3073,33.3092],[73.3091,33.2732],[73.1853,33.1786],[73.1492,33.0509],[72.9952,32.9279],[72.6971,32.8984],[72.6667,32.8701],[72.6901,32.8349],[72.6485,32.8152],[72.6175,32.6155],[72.5388,32.504],[72.5908,32.3437],[72.578,32.1988],[72.56,32.1439],[72.4774,32.1044],[72.4806,32.0504],[72.4203,31.9937],[72.4046,31.9029],[72.4553,31.7606],[72.4374,31.7057],[72.5343,31.4932],[72.4795,31.3466],[72.6996,31.1751],[72.7504,31.0147],[73.1055,30.8388],[73.3162,30.8103],[73.4233,30.7599],[73.6321,30.767],[73.8565,30.9005],[74.2957,30.9135],[74.3774,30.9699],[74.6051,31.048],[74.6889,31.0502],[74.8541,31.1264],[75.2305,31.1708],[75.2924,31.2082],[75.4608,31.1935],[75.4911,31.2392],[75.4252,31.3461],[75.4433,31.4547],[75.4002,31.49],[75.4947,31.5008],[75.5354,31.5557],[75.6819,31.5944],[75.669,31.6934],[75.8547,31.877],[75.8539,31.913],[75.768,31.9657],[75.7348,32.0283],[75.6177,32.0533],[75.6591,32.0901],[75.6577,32.1442],[75.5287,32.2141],[75.4833,32.3215],[75.5673,32.3591],[75.5413,32.5391],[75.5833,32.5579],[75.6018,32.6664],[75.6435,32.7033],[75.5781,32.7562],[75.598,32.8107],[75.3939,32.852],[75.2674,32.7953],[75.2127,32.8393],[75.2428,32.9031],[75.3804,32.951],[75.431,33.0512],[75.6023,33.0544],[75.6742,33.1729],[75.5336,33.2155],[75.3626,33.1942],[75.3176,33.2655],[75.1988,33.2901],[75.283,33.3459],[75.2488,33.4084],[74.9689,33.4204],[74.9228,33.5096],[74.8146,33.5251],[74.7305,33.4689],[74.5807,33.4471],[74.3398,33.549],[74.2983,33.5118],[74.1692,33.5081],[74.1078,33.4342],[74.0219,33.4317],[73.9223,33.4918],[73.986,33.5118],[74.0034,33.6025],[73.9061,33.6086],[73.8605,33.6614]],[[72.2616,33.3496],[72.1601,33.255],[72.0529,33.2503],[72.0023,33.2029],[72.003,33.0314],[72.0458,33.0333],[72.1053,33.1082],[72.2618,33.1782],[72.2978,33.288],[72.2616,33.3496]],[[74.6455,34.0082],[74.3643,34.0008],[74.3226,33.9636],[74.2577,33.9618],[74.1016,33.822],[74.0616,33.7486],[74.1167,33.7232],[74.1583,33.7605],[74.3963,33.749],[74.6322,33.7913],[74.6622,33.8552],[74.5744,33.8891],[74.6455,34.0082]],[[75.187,34.0026],[74.9707,33.9979],[74.9503,33.9613],[74.8206,33.9583],[74.7682,33.9119],[74.7702,33.8578],[74.8258,33.814],[75.0201,33.8185],[75.0824,33.8921],[75.1992,33.9577],[75.187,34.0026]]]}}]}