{"type":"FeatureCollection","features":[{"type":"Feature","properties":{},"geometry":{"type":"MultiLineString","coordinates":[[[73.6176,29.6838],[73.2664,29.6717],[73.1433,29.6492],[73.1046,29.5936],[72.9179,29.6046],[72.7359,29.5253],[72.7064,29.497],[72.7102,29.425],[72.6296,29.3856],[72.553,29.2742],[72.6166,29.2407],[72.6293,29.1961],[72.7447,29.1556],[72.7386,29.0742],[72.8011,29.0586],[72.8403,29.0963],[72.8939,29.0532],[72.8154,28.978],[72.8172,28.9419],[73.0946,28.9435],[73.1134,28.9803],[73.2767,29.0043],[73.3563,29.0613],[73.7009,29.1812],[73.7993,29.2927],[73.9199,29.3686],[73.8353,29.4201],[73.6903,29.4335],[73.5329,29.4915],[73.5107,29.5268],[73.6413,29.6124],[73.7048,29.5784],[73.7759,29.6077],[73.7637,29.6525],[73.6176,29.6838]],[[73.0368,29.0767],[73.0278,29.0493],[72.9555,29.0556],[72.9645,29.083],[73.0368,29.0767]],[[74.8463,29.4121],[74.8051,29.4111],[74.6744,29.3086],[74.6756,29.2725],[74.8124,29.1767],[74.9036,29.2239],[74.8608,29.2771],[74.8786,29.3677],[74.8463,29.4121]],[[75.2951,34.0048],[74.8409,33.9949],[74.7361,33.9021],[74.52,33.8967],[74.2654,33.7815],[74.2326,33.7896],[74.2392,33.8891],[74.1536,33.8686],[74.1336,33.8319],[73.9409,33.7901],[73.9107,33.7441],[73.9339,33.7087],[73.8925,33.6714],[74.0018,33.6386],[73.9852,33.5298],[73.8689,33.4812],[73.8242,33.5159],[73.8379,33.4531],[73.6447,33.2214],[73.475,33.1797],[73.2776,33.0555],[73.3037,32.9662],[73.2443,32.8739],[73.3121,32.8041],[73.2963,32.6953],[73.0918,32.5255],[73.1014,32.3454],[73.0426,32.253],[72.8798,32.1205],[72.8414,32.0468],[72.8877,31.9764],[72.8504,31.8848],[72.7256,31.8438],[72.7357,31.6637],[72.8833,31.6695],[72.8118,31.4321],[72.8567,31.3798],[72.8396,31.3069],[72.9914,31.2225],[73.0051,31.1599],[73.1546,31.1113],[73.212,31.0141],[73.3328,30.9011],[73.4608,30.8514],[73.4842,30.7981],[73.6088,30.8203],[73.6421,30.7763],[73.602,30.7389],[73.742,30.6442],[73.8255,30.6469],[73.8649,30.7023],[73.97,30.6875],[74.0002,30.7154],[73.9029,30.7937],[73.8294,30.8004],[73.8139,30.9172],[73.8666,30.9098],[73.923,30.8123],[74.0059,30.8329],[74.0282,30.7975],[74.1745,30.8018],[74.1968,30.7663],[74.3012,30.7693],[74.3309,30.8152],[74.202,30.9018],[74.2734,30.9489],[74.5645,31.0109],[74.6292,30.9585],[74.7338,30.9611],[74.8786,31.0187],[75.088,31.0234],[75.2014,31.089],[75.2515,31.1713],[75.3778,31.1558],[75.5027,31.1943],[75.9117,31.2104],[75.8879,31.3363],[75.8447,31.3897],[75.8645,31.4441],[76.0095,31.5546],[75.9834,31.7888],[76.0222,31.9517],[75.968,32.014],[75.9257,32.0134],[75.8634,31.9583],[75.8,31.9572],[75.7805,31.8848],[75.7369,31.9381],[75.5889,31.9355],[75.5687,31.8991],[75.5053,31.8979],[75.493,31.9608],[75.5349,31.9797],[75.5325,32.0698],[75.468,32.1047],[75.4655,32.1948],[75.3569,32.2829],[75.4947,32.2946],[75.631,32.3603],[75.6726,32.3971],[75.6491,32.4869],[75.6998,32.587],[75.7858,32.5524],[75.8918,32.5721],[75.9967,32.6459],[76.1032,32.6475],[76.1549,32.7294],[76.0358,32.8089],[75.9939,32.7721],[75.9718,32.8079],[75.8211,32.8596],[75.6716,32.8571],[75.6388,32.8836],[75.6488,32.9108],[75.9053,32.9151],[75.9363,32.9607],[75.8386,33.0223],[75.7207,33.0294],[75.676,33.1008],[75.7179,33.1376],[75.7061,33.1825],[75.5565,33.1618],[75.4578,33.2411],[75.4987,33.3141],[75.4647,33.3766],[75.4443,33.3401],[75.2307,33.2998],[75.1756,33.3437],[75.2483,33.4264],[75.3227,33.455],[75.246,33.4986],[75.0339,33.4038],[74.9449,33.492],[74.7957,33.4524],[74.7755,33.4159],[74.7305,33.4689],[74.5384,33.428],[74.4266,33.5333],[74.3621,33.5316],[74.2879,33.5025],[74.2798,33.4391],[74.1842,33.4093],[74.1819,33.4634],[74.2768,33.5112],[74.2856,33.5565],[74.3799,33.6223],[74.5703,33.7175],[74.7219,33.7033],[74.7748,33.7316],[74.8251,33.8321],[75.0836,33.856],[75.2951,34.0048]],[[75.0505,30.8783],[74.968,30.8403],[74.8635,30.8379],[74.8545,30.7926],[74.9076,30.7668],[75.1374,30.7719],[75.1888,30.8001],[75.1771,30.8449],[75.0505,30.8783]],[[75.7087,32.2263],[75.6564,32.1983],[75.6893,32.1538],[75.7209,32.1634],[75.7087,32.2263]],[[72.0528,33.5752],[72.002,33.5278],[71.9903,33.3828],[72.0172,32.4906],[72.0887,32.5389],[72.1007,32.6838],[72.1623,32.7226],[72.1566,32.8126],[72.1092,32.8827],[72.1698,32.9395],[72.1663,32.9935],[72.2777,33.0976],[72.4264,33.122],[72.4772,33.1692],[72.4524,33.2223],[72.5134,33.279],[72.5112,33.315],[72.6561,33.4111],[72.6528,33.4651],[72.7141,33.5217],[72.6598,33.5286],[72.3248,33.3704],[72.1925,33.4188],[72.1311,33.5335],[72.0528,33.5752]],[[72.7103,33.4042],[72.6582,33.3751],[72.6931,33.3314],[72.7248,33.3416],[72.7103,33.4042]],[[72.7716,33.4608],[72.7194,33.4317],[72.7318,33.4051],[72.785,33.4162],[72.7716,33.4608]]]}}]}