{"type":"FeatureCollection","features":[{"type":"Feature","properties":{},"geometry":{"type":"MultiLineString","coordinates":[[[73.4093,29.7128],[73.244,29.707],[73.0813,29.6469],[73.0427,29.5913],[72.9808,29.589],[72.9108,29.5412],[72.8723,29.4855],[72.9171,29.4151],[72.8159,29.375],[72.8402,29.3038],[72.8027,29.2301],[72.9404,29.1543],[73.0834,29.1777],[73.133,28.9991],[73.2151,29.0021],[73.2783,28.9683],[73.5238,28.9949],[73.6241,29.0524],[73.7465,29.0744],[73.8052,29.1485],[73.9483,29.171],[74.0278,29.2456],[74.1505,29.2673],[74.2103,29.3232],[74.4261,29.3382],[74.423,29.4283],[74.3053,29.5424],[74.0983,29.5545],[74.0343,29.6067],[73.8271,29.6184],[73.7629,29.6705],[73.7224,29.6511],[73.6168,29.7018],[73.4944,29.6616],[73.4093,29.7128]],[[72.9565,29.6602],[72.926,29.65],[72.9377,29.6234],[72.9682,29.6336],[72.9565,29.6602]],[[72.8657,29.8191],[72.8351,29.8089],[72.8379,29.7549],[72.9116,29.7307],[72.9206,29.7581],[72.8657,29.8191]],[[75.4466,34.0078],[75.2303,34.0035],[75.0164,33.9267],[74.7003,33.7027],[74.5731,33.6454],[74.5167,33.7071],[74.5584,33.7443],[74.5466,33.771],[74.3755,33.7304],[74.2603,33.6461],[74.3049,33.6112],[74.2864,33.5385],[74.1834,33.4273],[74.2494,33.3931],[74.2509,33.3571],[74.1555,33.3273],[74.0529,33.216],[73.9028,33.2115],[73.8101,33.1274],[73.8135,33.0554],[73.5895,32.8136],[73.5743,32.6867],[73.6255,32.508],[73.5244,32.3964],[73.5474,32.361],[73.4447,32.2854],[73.4059,32.2119],[73.3874,32.1571],[73.4165,31.9957],[73.3263,31.8933],[73.2565,32.0172],[73.2261,31.989],[73.2298,31.917],[73.1481,31.8599],[73.2252,31.7995],[73.2674,31.801],[73.3272,31.8753],[73.4033,31.8329],[73.3308,31.8033],[73.2802,31.7564],[73.2829,31.7023],[73.1803,31.6445],[73.1281,31.4261],[73.1848,31.3469],[73.31,31.3695],[73.4283,31.536],[73.5336,31.5396],[73.5546,31.3147],[73.4925,31.2946],[73.4967,31.2045],[73.5395,31.1879],[73.5864,31.0812],[73.6634,31.0026],[73.7898,30.9886],[73.8123,30.9532],[73.8968,30.9378],[73.9038,31.0192],[73.9341,31.0472],[74.0179,31.0498],[74.0519,30.9876],[74.1479,30.9453],[74.1659,31.018],[74.4172,31.0251],[74.5403,31.1005],[74.6362,31.0579],[74.6704,30.9775],[74.7332,30.9791],[74.7739,31.0162],[75.0252,31.022],[75.045,31.0586],[75.1294,31.0424],[75.1702,31.0793],[75.2852,31.0908],[75.2735,31.1356],[75.1896,31.1339],[75.1676,31.1695],[74.9788,31.1653],[74.9675,31.1921],[75.0293,31.2296],[74.9964,31.274],[74.9334,31.2725],[74.9112,31.3081],[74.7852,31.3051],[74.7203,31.3577],[74.5968,31.2824],[74.2181,31.2902],[74.0104,31.23],[73.9459,31.2641],[73.8627,31.2435],[73.8511,31.2702],[73.9849,31.3375],[73.9935,31.3828],[74.0862,31.4307],[74.2139,31.3983],[74.3603,31.4205],[74.4038,31.3856],[74.6968,31.4292],[74.7605,31.4128],[74.8832,31.524],[75.2611,31.5684],[75.3644,31.6426],[75.4487,31.6443],[75.4576,31.7076],[75.3938,31.7244],[75.435,31.7613],[75.4335,31.8154],[75.3475,31.8678],[75.5443,32.0249],[75.6078,32.0261],[75.7425,32.1457],[75.6992,32.1811],[75.6974,32.2532],[75.6433,32.2973],[75.3673,32.2922],[75.3124,32.3542],[75.3855,32.4008],[75.4512,32.3299],[75.4937,32.3307],[75.511,32.4753],[75.5748,32.4765],[75.6581,32.5502],[75.7849,32.5884],[75.8054,32.6248],[75.8906,32.6262],[75.8998,32.6895],[75.9529,32.6994],[75.9835,32.763],[76.0366,32.7728],[76.0572,32.8092],[76.1853,32.811],[76.3656,32.8764],[76.3538,32.9394],[75.9468,32.9699],[75.9137,33.0145],[76.0195,33.0702],[75.9863,33.1148],[75.7302,33.0746],[75.6327,33.118],[75.759,33.2104],[75.7576,33.2645],[75.8216,33.2836],[75.8198,33.3558],[75.8724,33.4017],[75.9689,33.4123],[75.9555,33.5293],[75.8268,33.5093],[75.7206,33.4534],[75.5917,33.4511],[75.5036,33.5217],[75.4197,33.4479],[75.3321,33.5003],[75.2251,33.4801],[75.1809,33.5152],[75.2537,33.598],[75.2416,33.6428],[75.1769,33.6415],[75.1565,33.6049],[75.0285,33.5661],[74.9873,33.511],[74.8159,33.489],[74.6479,33.3766],[74.5502,33.4012],[74.5807,33.4471],[74.7298,33.4869],[74.8551,33.5982],[74.9836,33.6192],[75.0021,33.7098],[75.1303,33.7487],[75.4466,34.0078]],[[72.5946,31.3603],[72.4627,31.2737],[72.5817,31.2154],[72.6656,31.2188],[72.6726,31.2823],[72.5946,31.3603]],[[73.8003,31.4671],[73.791,31.4397],[73.738,31.4471],[73.8003,31.4671]],[[75.7197,31.7755],[75.5935,31.7552],[75.5851,31.6739],[75.6802,31.6666],[75.7318,31.7125],[75.7197,31.7755]],[[75.5499,31.8085],[75.4767,31.7801],[75.4679,31.7168],[75.5312,31.718],[75.5828,31.764],[75.5499,31.8085]],[[72.3368,33.8582],[72.1893,33.7978],[72.1521,33.7059],[72.0431,33.7191],[71.9923,33.6717],[72.0025,32.878],[72.098,32.8913],[72.1554,32.8306],[72.0072,32.806],[72.009,32.6166],[72.0883,32.7103],[72.2622,32.6638],[72.5306,32.8195],[72.5353,32.9189],[72.4184,32.9051],[72.4049,32.9496],[72.6507,33.1402],[72.6475,33.1942],[72.7564,33.3519],[72.9875,33.451],[73.0563,33.5709],[73.1815,33.6477],[73.1447,33.7275],[73.0801,33.7252],[72.9117,33.6467],[72.8471,33.6442],[72.7783,33.7137],[72.7157,33.6752],[72.6435,33.7987],[72.4516,33.7547],[72.3744,33.7786],[72.3368,33.8582]],[[75.5771,32.7923],[75.5255,32.7282],[75.4293,32.7354],[75.4382,32.7987],[75.5771,32.7923]],[[75.94,32.7984],[75.9299,32.7712],[75.8337,32.7787],[75.8437,32.8059],[75.94,32.7984]],[[75.3471,33.7171],[75.2614,33.6974],[75.252,33.6521],[75.3493,33.645],[75.3471,33.7171]],[[74.0175,34.009],[73.4551,33.9911],[73.4532,33.8196],[73.411,33.8001],[73.3932,33.7273],[73.426,33.7194],[73.549,33.8499],[73.6551,33.8895],[73.6957,33.9449],[73.847,33.9497],[73.9567,33.917],[74.0944,33.9842],[74.0175,34.009]],[[72.3551,33.7417],[72.3688,33.6971],[72.2065,33.6992],[72.2575,33.7466],[72.3551,33.7417]]]}}]}