{"type":"FeatureCollection","features":[{"type":"Feature","properties":{},"geometry":{"type":"MultiLineString","coordinates":[[[76.0029,28.2435],[75.9725,28.2341],[75.9738,28.1619],[76.0456,28.1359],[76.0873,28.0824],[76.0753,28.1815],[76.0029,28.2435]],[[75.7164,28.293],[75.666,28.2651],[75.6772,28.2202],[75.748,28.2485],[75.7164,28.293]],[[73.257,29.8699],[73.0708,29.863],[73.0024,29.7793],[73.1218,29.6664],[73.278,29.645],[73.2805,29.591],[73.2022,29.4979],[73.2946,29.5103],[73.3696,29.4498],[73.3721,29.3957],[73.3424,29.3676],[73.2798,29.3834],[73.2519,29.3192],[73.1918,29.281],[73.1935,29.2449],[73.2363,29.2104],[73.2413,29.1023],[73.3128,29.1139],[73.4204,29.0094],[73.4827,28.9935],[73.6043,29.0337],[73.6872,29.0184],[73.7927,28.9496],[73.8748,28.9522],[74.1586,29.051],[74.3171,29.2179],[74.3881,29.2469],[74.3856,29.319],[74.1272,29.3388],[74.0946,29.383],[74.2248,29.486],[74.451,29.5103],[74.5305,29.6026],[74.6024,29.6135],[74.5274,29.6928],[74.3407,29.7058],[74.2354,29.757],[73.9039,29.7652],[73.7714,29.7159],[73.7751,29.6258],[73.7262,29.561],[73.6016,29.575],[73.5008,29.5175],[73.3977,29.5139],[73.3407,29.6292],[73.4598,29.7416],[73.4565,29.8137],[73.257,29.8699]],[[73.416,29.7943],[73.3672,29.7294],[73.3746,29.7928],[73.416,29.7943]],[[74.8184,30.2955],[74.756,30.294],[74.7465,30.2667],[74.8196,30.2595],[74.8184,30.2955]],[[74.7275,30.5279],[74.5198,30.5046],[74.4895,30.4767],[74.5129,30.4051],[74.4403,30.3942],[74.392,30.2936],[74.4442,30.286],[74.5665,30.3614],[74.6931,30.3105],[74.7234,30.3383],[74.7002,30.4099],[74.7305,30.4378],[74.7935,30.4212],[74.8583,30.3506],[75.1079,30.3563],[75.2525,30.3955],[75.2931,30.4324],[75.4393,30.4173],[75.4906,30.4453],[75.4791,30.4902],[75.3749,30.4882],[75.3342,30.4513],[75.1052,30.4465],[75.0625,30.4816],[74.8959,30.4778],[74.7275,30.5279]],[[74.3974,30.4291],[74.335,30.4274],[74.3061,30.3634],[74.3786,30.3745],[74.3974,30.4291]],[[74.7387,30.8168],[74.7077,30.8071],[74.7399,30.7808],[74.7387,30.8168]],[[73.4455,31.1757],[73.2987,31.1706],[73.2485,31.1237],[73.4331,30.9948],[73.5051,31.0244],[73.4398,31.0763],[73.4455,31.1757]],[[74.6388,31.2835],[74.4931,31.2436],[74.443,31.1791],[74.5606,31.1191],[74.7068,31.1408],[74.7996,31.1882],[74.7876,31.233],[74.7247,31.2315],[74.6388,31.2835]],[[76.1878,33.7492],[76.0811,33.6936],[75.9729,33.71],[75.7371,33.6521],[75.6203,33.5869],[75.6112,33.5236],[75.3751,33.5012],[75.3562,33.4106],[74.9934,33.3307],[74.6995,33.1434],[74.6767,33.1789],[74.5246,33.2291],[74.432,33.1275],[74.4659,33.0832],[74.3146,33.1152],[74.2106,33.0402],[74.1796,33.0122],[74.2246,32.9594],[74.3212,32.953],[74.333,32.9263],[74.2799,32.9158],[74.2196,32.8239],[74.1975,32.8413],[74.063,32.7382],[74.0227,32.6828],[74.0258,32.6107],[73.8816,32.4981],[73.8832,32.4621],[73.781,32.3686],[73.7868,32.2425],[73.9054,32.2011],[73.918,32.1564],[73.8694,32.0557],[73.7534,32.043],[73.8922,32.0203],[73.969,31.9595],[73.9705,31.9234],[73.9408,31.8774],[73.8985,31.8761],[73.8327,31.9282],[73.71,31.8341],[73.6263,31.8133],[73.5149,31.7104],[73.4973,31.6376],[73.5647,31.5496],[73.5673,31.4956],[73.643,31.453],[73.7465,31.4924],[73.7964,31.5572],[73.7916,31.6653],[73.8313,31.7207],[73.8618,31.7487],[73.9462,31.7513],[73.9861,31.8066],[74.0698,31.8272],[74.0837,31.7464],[74.0103,31.7352],[74.0009,31.7078],[74.2132,31.678],[74.1987,31.5152],[74.1558,31.532],[74.1754,31.5686],[74.1224,31.5761],[73.9679,31.4903],[74.0231,31.4288],[74.0761,31.4214],[74.0674,31.376],[74.1493,31.4325],[74.1196,31.3866],[74.1964,31.3076],[74.2797,31.328],[74.4071,31.2954],[74.847,31.3427],[75.0333,31.4372],[75.3704,31.4263],[75.4624,31.5273],[75.4614,31.5633],[75.6676,31.7475],[75.6564,31.7744],[75.4861,31.8254],[75.3835,31.7152],[75.2996,31.6954],[75.1725,31.7108],[75.1314,31.6739],[74.9838,31.6706],[74.8796,31.6321],[74.867,31.695],[75.0009,31.7973],[75.2548,31.7847],[75.4016,31.8238],[75.5053,31.8979],[75.5485,31.8626],[75.6757,31.8469],[75.7684,31.9477],[75.7676,31.9838],[75.6821,32.0184],[75.678,32.1807],[75.7195,32.2175],[75.7173,32.3076],[75.6939,32.3975],[75.6396,32.4416],[75.4685,32.4745],[75.3819,32.527],[75.1484,32.5042],[75.092,32.6022],[75.2597,32.6959],[75.2794,32.7505],[75.3216,32.7694],[75.3184,32.8776],[75.3705,32.9237],[75.6469,32.983],[75.7621,33.0842],[75.7503,33.1291],[75.5789,33.1261],[75.5675,33.153],[75.6851,33.1641],[75.7485,33.2012],[75.8316,33.3109],[75.9487,33.3578],[75.9778,33.4936],[76.1696,33.5866],[76.2342,33.5874],[76.2871,33.6332],[76.2642,33.7051],[76.1878,33.7492]],[[74.2737,31.7518],[74.2649,31.7065],[74.2118,31.714],[74.2737,31.7518]],[[73.8493,31.7934],[73.861,31.7667],[73.8289,31.7747],[73.8493,31.7934]],[[72.826,34.0044],[72.7611,34.0019],[72.6801,33.9084],[72.5959,33.8689],[72.2563,33.7646],[72.2316,33.6462],[72.1467,33.6244],[72.0929,33.4596],[71.9903,33.3828],[72.0207,32.4366],[72.166,32.4972],[72.3048,32.6656],[72.4698,32.7628],[72.5338,32.7655],[72.6047,32.8315],[72.5973,32.9575],[72.531,32.9909],[72.5277,33.0449],[72.6518,33.1222],[72.5832,33.1916],[72.6882,33.2319],[72.7462,33.3425],[72.7124,33.3682],[72.5621,33.3622],[72.4955,33.3956],[72.4322,33.3749],[72.3757,33.4176],[72.4571,33.4933],[72.4096,33.5635],[72.5478,33.5963],[72.6069,33.6889],[72.6716,33.6915],[72.7432,33.7575],[72.826,34.0044]],[[76.0335,32.9171],[75.9053,32.9151],[75.8416,32.8961],[75.8106,32.8505],[75.9919,32.8623],[76.0335,32.9171]],[[72.3915,33.1656],[72.4354,33.1494],[72.4838,33.0612],[72.4128,32.9951],[72.2282,33.0323],[72.3588,33.1733],[72.3915,33.1656]],[[74.717,33.252],[74.6851,33.2422],[74.6968,33.2155],[74.717,33.252]],[[76.0654,33.4227],[75.9697,33.3762],[76.0451,33.3683],[76.0654,33.4227]],[[74.9184,33.6358],[74.844,33.607],[74.8563,33.5621],[74.9301,33.609],[74.9184,33.6358]],[[72.0647,33.7201],[71.9935,33.6537],[72.0122,33.5372],[72.0857,33.5676],[72.0647,33.7201]],[[75.1094,33.7302],[75.0453,33.7108],[74.9935,33.6465],[75.1123,33.6401],[75.1437,33.6678],[75.1094,33.7302]],[[75.9879,33.9989],[75.685,33.9941],[75.6427,33.9572],[75.6206,33.9749],[75.6125,33.8755],[75.5588,33.8655],[75.5382,33.829],[75.4734,33.8278],[75.4107,33.7545],[75.3676,33.7536],[75.3587,33.6903],[75.5843,33.7216],[75.6265,33.7585],[75.7564,33.7427],[75.873,33.8258],[75.8828,33.871],[75.9789,33.9176],[75.9879,33.9989]],[[74.0175,34.009],[73.4551,33.9911],[73.4063,33.8902],[73.4532,33.8196],[73.306,33.7423],[73.4053,33.7006],[73.5715,33.8326],[73.6407,33.7446],[73.8348,33.7508],[73.7821,33.7221],[73.7942,33.6954],[74.1175,33.7052],[74.1799,33.7611],[74.3316,33.7473],[74.4463,33.8496],[74.4441,33.9037],[74.5179,33.9508],[74.7655,33.984],[74.6672,34.0087],[74.0175,34.009]],[[73.2016,33.874],[73.1368,33.8716],[73.1275,33.8442],[73.2261,33.8207],[73.2016,33.874]]]}}]}