{"type":"FeatureCollection","features":[{"type":"Feature","properties":{},"geometry":{"type":"MultiLineString","coordinates":[[[73.9238,29.7838],[73.8219,29.7445],[73.5118,29.7344],[73.4019,29.6494],[73.406,29.5593],[73.3259,29.5024],[73.3498,29.431],[73.251,29.3373],[73.3153,29.2854],[73.2774,29.2119],[73.4377,29.0822],[73.5191,29.103],[73.5625,29.0503],[73.6667,29.0177],[73.8719,29.0243],[74.0594,28.9578],[74.0892,28.9858],[74.0468,29.0206],[74.056,29.0479],[74.0984,29.0131],[74.201,29.0161],[74.2202,29.0527],[74.4044,29.0759],[74.5452,29.1699],[74.5739,29.2338],[74.6344,29.2715],[74.6285,29.4518],[74.6685,29.4889],[74.5417,29.5759],[74.5298,29.6207],[74.446,29.6545],[74.322,29.6511],[74.1747,29.7191],[74.0721,29.6981],[74.0073,29.7683],[73.9238,29.7838]],[[75.6752,29.2308],[75.5522,29.2105],[75.5019,29.1644],[75.6155,29.1395],[75.6974,29.159],[75.6752,29.2308]],[[74.7742,29.7351],[74.6915,29.7331],[74.6826,29.6877],[74.7552,29.6805],[74.7742,29.7351]],[[73.5013,29.9686],[73.3365,29.9449],[73.2505,29.7884],[73.3862,29.7661],[73.4433,29.8764],[73.5261,29.8792],[73.5559,29.9073],[73.5013,29.9686]],[[74.9995,30.4982],[74.9161,30.4963],[74.8655,30.45],[74.8672,30.3959],[74.7555,30.3121],[74.6723,30.31],[74.6295,30.345],[74.4436,30.3041],[74.4342,30.2767],[74.4984,30.2243],[74.4789,30.1877],[74.5966,30.0916],[74.7441,30.0231],[74.9907,30.1011],[74.9768,30.2181],[75.0173,30.2551],[75.0337,30.3998],[75.0743,30.4368],[74.9995,30.4982]],[[75.1147,30.1219],[75.0631,30.1117],[75.1157,30.0858],[75.1147,30.1219]],[[75.8949,30.5335],[75.7907,30.5318],[75.7295,30.4767],[75.6258,30.4568],[75.6063,30.4023],[75.5429,30.4373],[75.4402,30.3812],[75.4481,30.4806],[75.3953,30.5066],[75.1698,30.3757],[75.1606,30.3304],[75.4416,30.3271],[75.836,30.3702],[75.9283,30.4348],[75.9476,30.5073],[75.8949,30.5335]],[[75.034,30.7336],[74.9296,30.7312],[74.8992,30.7034],[74.9218,30.6498],[74.9855,30.6152],[74.9978,30.5523],[75.0395,30.5533],[75.1309,30.6365],[75.034,30.7336]],[[75.3319,31.2992],[75.2699,31.2618],[75.1439,31.2592],[75.0616,31.2033],[74.9465,31.1917],[75.0638,31.1312],[75.2326,31.0987],[75.3671,31.1646],[75.3856,31.2552],[75.3319,31.2992]],[[75.2791,31.677],[75.026,31.6716],[74.9229,31.5971],[74.8796,31.6321],[74.7531,31.6291],[74.7333,31.5925],[74.6076,31.5713],[74.5572,31.5069],[74.5815,31.4173],[74.5204,31.3616],[74.6172,31.3009],[74.6993,31.3571],[74.9311,31.3447],[75.0163,31.3105],[75.3514,31.3537],[75.5265,31.4924],[75.4619,31.5453],[75.46,31.6174],[75.4276,31.6439],[75.3433,31.6422],[75.2791,31.677]],[[74.2241,31.6693],[74.1529,31.6041],[74.1863,31.5599],[74.2916,31.5629],[74.3004,31.6082],[74.2241,31.6693]],[[74.5213,31.6232],[74.4907,31.5954],[74.5233,31.5692],[74.5539,31.597],[74.5213,31.6232]],[[75.6113,32.7117],[75.3559,32.6889],[75.3357,32.6524],[75.126,32.5398],[74.9563,32.518],[74.8512,32.4794],[74.8311,32.4429],[74.6611,32.4387],[74.4739,32.3256],[74.3875,32.3594],[74.2821,32.3385],[74.3054,32.285],[74.4013,32.2786],[74.3083,32.2129],[74.1584,32.2447],[74.1144,32.2796],[74.0508,32.2777],[74.0413,32.2503],[74.29,32.1402],[74.4274,32.153],[74.4322,32.0268],[74.581,32.0127],[74.585,31.9045],[74.5242,31.8308],[74.5358,31.804],[74.6202,31.8062],[74.7233,31.881],[74.829,31.8835],[74.8007,31.7836],[74.6976,31.7089],[74.8158,31.6487],[74.8977,31.7228],[75.034,31.7529],[75.0506,31.8976],[75.1644,31.9813],[75.5024,32.0061],[75.5226,32.0426],[75.7646,32.11],[75.8048,32.2009],[75.801,32.3632],[75.7264,32.3709],[75.65,32.4508],[75.6694,32.5233],[75.644,32.6852],[75.6113,32.7117]],[[74.3147,32.0507],[74.2512,32.0489],[74.1593,31.9651],[74.1717,31.9204],[74.0434,31.9527],[73.8758,31.9115],[73.8461,31.8655],[73.9619,31.8781],[73.9947,31.852],[73.9899,31.7165],[74.0321,31.7178],[74.0924,31.7917],[74.2416,31.76],[74.2722,31.7879],[74.1849,31.8576],[74.1834,31.8936],[74.3204,31.9065],[74.3852,31.8722],[74.3722,31.935],[74.4336,31.9908],[74.422,32.0175],[74.3592,31.9978],[74.3147,32.0507]],[[74.6997,32.2502],[74.6913,32.1869],[74.5956,32.1935],[74.6039,32.2568],[74.6997,32.2502]],[[74.1311,32.3883],[74.0595,32.323],[74.0925,32.297],[74.1656,32.3261],[74.1311,32.3883]],[[74.2132,32.4628],[74.1186,32.433],[74.1524,32.3889],[74.2257,32.4181],[74.2132,32.4628]],[[75.7476,33.2373],[75.6618,33.2358],[75.5984,33.1986],[75.5127,33.1971],[75.4902,33.2327],[75.4055,33.195],[75.383,33.2307],[75.3187,33.2294],[75.0,33.1324],[74.9596,33.0593],[74.852,33.0749],[74.6432,32.9254],[74.6005,32.9243],[74.5398,32.8326],[74.4758,32.8309],[74.4242,32.7844],[74.4263,32.7303],[74.2814,32.6181],[74.3269,32.5472],[74.2851,32.528],[74.3107,32.4205],[74.3436,32.3943],[74.3854,32.4135],[74.561,32.5535],[74.4951,32.6059],[74.535,32.6791],[74.5212,32.7599],[74.6906,32.8003],[74.7572,32.7298],[74.8851,32.7328],[74.9266,32.7699],[75.0119,32.7718],[75.1163,32.8463],[75.2023,32.8301],[75.308,32.8683],[75.3914,32.9421],[75.6669,33.0375],[75.8671,33.1761],[75.8553,33.221],[75.7476,33.2373]],[[74.6732,32.6916],[74.5789,32.6441],[74.5706,32.5808],[74.7068,32.6473],[74.6732,32.6916]],[[72.2719,33.1876],[72.1029,33.1442],[71.9917,33.0399],[72.0148,32.5266],[72.11,32.5398],[72.0829,32.6289],[72.1825,32.7416],[72.1802,32.7776],[72.2958,32.8096],[72.3149,32.8465],[72.4127,32.8236],[72.4294,32.725],[72.5653,32.7758],[72.5284,32.8555],[72.4104,32.8596],[72.5118,32.954],[72.4545,33.0148],[72.3363,33.0189],[72.3441,33.0644],[72.4095,33.0491],[72.4174,33.0945],[72.2719,33.1876]],[[74.3057,32.8083],[74.2748,32.7803],[74.2873,32.7356],[74.3403,32.7461],[74.3057,32.8083]],[[75.44,33.1145],[75.43,33.0872],[75.3976,33.0956],[75.4076,33.1229],[75.44,33.1145]],[[72.5715,33.5611],[72.3134,33.5504],[72.1179,33.4066],[72.1215,33.3526],[72.2616,33.3496],[72.3497,33.3173],[72.4525,33.3938],[72.561,33.3802],[72.5861,33.4985],[72.627,33.5363],[72.5715,33.5611]],[[74.0175,34.009],[73.6282,33.9969],[73.6025,33.8607],[73.6699,33.8087],[73.6752,33.7006],[73.7313,33.6573],[73.7951,33.6774],[73.8312,33.5973],[73.9078,33.5726],[74.0146,33.5939],[74.2038,33.7076],[74.4632,33.6967],[74.4966,33.6705],[74.4564,33.5973],[74.5127,33.5356],[74.5654,33.564],[74.5243,33.7885],[74.6322,33.7913],[74.674,33.8284],[74.7394,33.812],[74.8441,33.9047],[74.909,33.9062],[74.9935,33.9623],[75.2846,33.9956],[74.0175,34.009]]]}}]}