{"type":"FeatureCollection","features":[{"type":"Feature","properties":{},"geometry":{"type":"MultiLineString","coordinates":[[[74.3671,30.1215],[74.3155,30.1111],[74.5073,29.9719],[74.4778,29.926],[74.3115,29.9396],[74.3355,29.85],[74.2928,29.8849],[74.2307,29.8831],[74.1913,29.8279],[73.9837,29.8398],[73.9031,29.7832],[73.8411,29.7812],[73.6811,29.6498],[73.6589,29.6852],[73.6176,29.6838],[73.6107,29.6024],[73.6551,29.5316],[73.4331,29.4159],[73.5056,29.4093],[73.582,29.3127],[73.5851,29.2406],[73.5281,29.1304],[73.6834,29.1085],[73.7153,29.0824],[73.7183,29.0103],[73.7927,28.9496],[73.896,28.9348],[73.9802,28.8832],[74.1032,28.8869],[74.2044,28.926],[74.4101,28.9137],[74.4896,28.988],[74.5705,29.0262],[74.6122,29.0092],[74.733,29.0845],[74.7958,29.0499],[74.8019,29.1854],[74.8719,29.2503],[74.9637,29.2795],[74.9615,29.3516],[74.8563,29.4213],[74.8329,29.511],[74.9461,29.5227],[74.9656,29.5592],[75.1196,29.5897],[75.01,29.8038],[74.9782,29.8302],[74.8328,29.8448],[74.8406,29.9262],[74.8086,29.9525],[74.7264,29.9324],[74.5551,30.0905],[74.3671,30.1215]],[[76.1267,29.2921],[75.9126,29.1896],[75.9141,29.1174],[75.9667,29.0551],[76.0903,29.0389],[76.2217,29.158],[76.2205,29.2302],[76.1267,29.2921]],[[72.076,29.4973],[72.0141,29.4945],[72.0065,29.4491],[72.0575,29.4604],[72.076,29.4973]],[[76.5891,30.0917],[76.2782,30.07],[76.1959,30.0328],[76.0916,30.0674],[75.8427,30.0636],[75.5946,30.0232],[75.5131,29.9676],[75.3883,29.9832],[75.223,29.9618],[75.1927,29.9341],[75.3497,29.8742],[75.4932,29.9311],[75.6175,29.9334],[75.7852,29.8461],[75.9715,29.8491],[75.9904,29.9396],[76.4464,29.9277],[76.6545,29.8578],[76.8293,29.9587],[76.8492,30.0311],[76.8178,30.0579],[76.6518,30.0563],[76.5891,30.0917]],[[74.9083,30.0812],[74.7424,30.0772],[74.7329,30.0499],[74.7649,30.0236],[74.8478,30.0256],[74.9083,30.0812]],[[75.6179,30.7814],[75.2881,30.6127],[75.2037,30.6471],[74.9956,30.6245],[74.8479,30.6752],[74.6834,30.599],[74.6208,30.5974],[74.4951,30.6122],[74.409,30.682],[74.3033,30.7152],[74.2615,30.714],[74.232,30.6681],[74.3309,30.5355],[74.5639,30.4335],[74.6472,30.4357],[74.9004,30.3336],[75.0673,30.3193],[75.0993,30.293],[75.0588,30.256],[75.0817,30.1843],[75.2195,30.0881],[75.4873,30.1656],[75.6742,30.169],[75.9211,30.2814],[76.0673,30.2475],[76.1392,30.2936],[76.1177,30.3294],[76.1484,30.3569],[76.2422,30.3492],[76.2825,30.4219],[76.271,30.4849],[76.1259,30.4468],[75.9593,30.4443],[75.948,30.4893],[76.0295,30.5807],[75.9764,30.625],[75.8513,30.623],[75.8599,30.7044],[75.828,30.7309],[75.7445,30.7295],[75.7228,30.7652],[75.6179,30.7814]],[[75.4121,30.2634],[75.3932,30.1908],[75.3623,30.1812],[75.329,30.2617],[75.4121,30.2634]],[[75.2458,30.26],[75.2159,30.2143],[75.1845,30.2226],[75.1936,30.2679],[75.2458,30.26]],[[75.743,30.3416],[75.7332,30.3144],[75.7018,30.3228],[75.743,30.3416]],[[75.5223,31.2488],[75.4281,31.2379],[75.5023,31.2123],[75.5223,31.2488]],[[74.0925,32.297],[74.0311,32.241],[73.947,32.2204],[73.9188,32.1384],[73.8169,32.045],[73.8193,31.9909],[73.7778,31.9716],[73.7803,31.9175],[73.7193,31.8615],[73.775,31.8001],[73.8273,31.8108],[73.8327,31.9282],[74.0003,31.9694],[74.0928,32.0353],[74.0255,32.1236],[74.1686,32.2541],[74.0925,32.297]],[[74.7755,32.207],[74.64,32.1405],[74.665,32.0329],[74.7298,31.9984],[74.6253,31.9597],[74.6586,31.9154],[74.7631,31.9541],[74.7824,32.0087],[74.8676,31.9927],[74.919,32.039],[74.8761,32.056],[74.7755,32.207]],[[75.6136,32.6216],[75.3798,32.5991],[75.2133,32.4695],[75.042,32.5018],[75.0184,32.5735],[74.8061,32.5505],[74.7758,32.5047],[74.9156,32.4629],[75.0041,32.3567],[75.0679,32.3581],[75.4457,32.5282],[75.6368,32.5498],[75.7441,32.5156],[75.9031,32.5452],[75.8488,32.5895],[75.6136,32.6216]],[[75.1663,32.6128],[75.0811,32.611],[75.0725,32.5476],[75.1685,32.5407],[75.1663,32.6128]],[[75.0362,32.6821],[74.9509,32.6802],[74.8998,32.6159],[74.9326,32.5896],[75.0178,32.5915],[75.0696,32.6378],[75.0362,32.6821]],[[75.0961,32.8098],[74.9894,32.8074],[74.9601,32.7255],[75.0356,32.7002],[75.0984,32.7376],[75.0961,32.8098]],[[75.2978,33.2109],[75.0863,33.1163],[74.9504,33.014],[75.1441,32.9822],[75.1821,32.7936],[75.2461,32.7949],[75.3184,32.8776],[75.2895,33.1296],[75.3307,33.1845],[75.2978,33.2109]],[[74.8765,32.9852],[74.7812,32.9559],[74.8369,32.8941],[74.9113,32.9048],[74.8765,32.9852]],[[73.9457,33.2128],[73.8385,33.2095],[73.811,33.1094],[73.8863,33.1027],[73.9457,33.2128]],[[72.7663,33.5508],[72.6233,33.4188],[72.5803,33.4171],[72.5112,33.315],[72.536,33.2619],[72.4739,33.2232],[72.4794,33.1332],[72.5132,33.1075],[72.7027,33.1693],[72.8567,33.2926],[72.8442,33.5087],[72.7663,33.5508]],[[74.0068,33.2868],[73.9425,33.2849],[73.9329,33.2575],[74.0084,33.2508],[74.0068,33.2868]],[[74.0175,34.009],[73.9222,33.961],[73.9289,33.8169],[73.8874,33.7795],[73.9322,33.7448],[73.9148,33.654],[73.9604,33.6012],[73.8681,33.4992],[73.7821,33.4965],[73.666,33.4477],[73.6498,33.3389],[73.6841,33.2949],[73.7451,33.369],[73.819,33.3984],[73.8689,33.4812],[73.9781,33.4484],[74.0402,33.5044],[74.0832,33.5056],[74.1063,33.4702],[74.1907,33.5088],[74.2568,33.4745],[74.4431,33.6601],[74.5515,33.6449],[74.5932,33.682],[74.7441,33.6858],[74.8696,33.797],[74.9658,33.8263],[74.9213,33.8614],[74.9312,33.8887],[74.9855,33.8809],[74.9874,33.8268],[75.0311,33.8097],[75.0435,33.7649],[75.1082,33.7663],[75.1502,33.8033],[75.3881,33.7901],[75.4513,33.8455],[75.6663,33.8855],[75.7292,33.9587],[75.8157,33.9602],[75.8488,33.9336],[75.8065,33.8969],[75.8828,33.871],[76.0548,33.9097],[76.1936,33.9929],[75.1437,34.0017],[75.1233,33.9651],[74.8638,33.9593],[74.8409,33.9949],[74.6672,34.0087],[74.0175,34.009]]]}}]}