{"type":"FeatureCollection","features":[{"type":"Feature","properties":{},"geometry":{"type":"MultiLineString","coordinates":[[[76.7487,28.9385],[76.6977,28.911],[76.6984,28.8568],[76.7502,28.8122],[76.8526,28.8131],[76.8208,28.9121],[76.7487,28.9385]],[[74.8075,29.9885],[74.5795,29.9828],[74.5406,29.9097],[74.1265,29.8982],[74.0629,29.9324],[74.075,29.8876],[73.9951,29.8131],[73.9987,29.7229],[73.9282,29.6757],[73.8555,29.6824],[73.9005,29.5936],[73.7797,29.5176],[73.7315,29.4349],[73.688,29.4876],[73.6574,29.4776],[73.6605,29.4055],[73.6216,29.3501],[73.7147,29.3441],[73.7482,29.282],[73.8114,29.2479],[73.8136,29.1939],[73.7542,29.1378],[73.7861,29.1118],[73.8668,29.1504],[73.9703,29.1356],[74.0878,29.0218],[74.1223,28.9236],[74.2454,28.9271],[74.3088,28.8748],[74.4318,28.8782],[74.4511,28.9148],[74.6966,28.9392],[74.7564,28.9948],[74.818,28.9963],[74.8574,29.0514],[74.9795,29.0904],[75.0391,29.1639],[75.1203,29.2018],[75.1494,29.2656],[75.0771,29.273],[75.0233,29.353],[74.8552,29.4574],[74.853,29.5295],[75.0074,29.5421],[75.0683,29.5796],[75.3165,29.5668],[75.3467,29.5945],[75.2838,29.6293],[75.3434,29.7207],[75.3415,29.7929],[75.1629,29.8884],[75.0588,29.9042],[75.0163,29.9393],[74.8921,29.9364],[74.8075,29.9885]],[[76.3317,29.3489],[76.0852,29.3095],[76.035,29.2456],[76.0364,29.1735],[75.9754,29.1364],[75.9559,29.082],[76.0899,29.057],[76.1304,29.0936],[76.3972,29.1152],[76.3853,29.2143],[76.4457,29.3052],[76.3317,29.3489]],[[73.5833,29.5202],[73.5123,29.4908],[73.6063,29.4669],[73.5833,29.5202]],[[76.1729,30.1588],[75.986,30.1561],[75.9037,30.1187],[75.8329,30.0364],[75.8759,29.9649],[75.9279,29.9567],[76.0122,29.8858],[76.1361,29.9057],[76.1972,29.9607],[76.3008,29.962],[76.3639,29.9087],[76.4041,29.9814],[76.7362,29.9489],[76.819,29.9496],[76.8808,29.9862],[76.9639,29.9689],[77.0977,30.0691],[77.0246,30.1137],[76.9418,30.095],[76.6714,30.1467],[76.3808,30.1435],[76.2984,30.1063],[76.1729,30.1588]],[[75.3859,30.0734],[75.315,30.0088],[75.3897,29.9291],[75.4311,29.93],[75.4615,29.9576],[75.3984,29.9925],[75.4177,30.047],[75.3859,30.0734]],[[75.5744,30.0048],[75.5232,29.9768],[75.5342,29.95],[75.5854,29.978],[75.5744,30.0048]],[[75.1142,30.1399],[75.0312,30.1381],[75.0126,30.0655],[74.9902,30.1191],[74.8859,30.1348],[74.7613,30.1318],[74.711,30.0854],[74.8069,30.0066],[74.9307,30.0276],[74.994,29.9929],[75.2301,30.0793],[75.1142,30.1399]],[[75.6304,31.1244],[75.5363,31.1137],[75.5377,31.0596],[75.6023,30.9886],[75.6041,30.9165],[75.8244,30.8932],[75.8563,30.8667],[75.8469,30.8214],[75.7223,30.7833],[75.4507,30.7783],[75.4201,30.7507],[75.4123,30.6513],[75.3895,30.723],[75.2016,30.7192],[75.1614,30.6642],[75.0774,30.6804],[75.0549,30.734],[74.867,30.7297],[74.6834,30.599],[74.5576,30.6138],[74.5481,30.5865],[74.6656,30.5083],[74.7066,30.5274],[74.8542,30.4768],[74.9195,30.3882],[75.0241,30.3725],[75.1095,30.3022],[75.2342,30.3049],[75.3396,30.2529],[75.4564,30.156],[75.468,30.1111],[75.6137,30.0958],[75.6229,30.141],[75.6746,30.151],[75.8274,30.2889],[75.7952,30.3335],[75.7336,30.2963],[75.5881,30.2938],[75.5553,30.3563],[75.647,30.4392],[75.7928,30.4417],[75.8564,30.3886],[75.9798,30.4627],[76.1054,30.4285],[76.1774,30.4746],[76.1354,30.492],[76.1761,30.5467],[76.1741,30.655],[76.017,30.6798],[76.046,30.7975],[75.9199,30.8316],[75.9499,30.8952],[76.0229,30.9054],[76.0214,30.9775],[75.9468,31.0395],[75.8413,31.0739],[75.7369,31.0541],[75.6304,31.1244]],[[76.3353,30.3774],[76.2111,30.3397],[76.2016,30.2945],[76.2742,30.3045],[76.3353,30.3774]],[[75.2819,30.4592],[75.2723,30.432],[75.22,30.4399],[75.2296,30.4672],[75.2819,30.4592]],[[74.6146,30.7777],[74.4892,30.7744],[74.4804,30.7291],[74.6594,30.6886],[74.6677,30.7519],[74.6146,30.7777]],[[75.455,31.4099],[75.3211,31.308],[75.4383,31.2472],[75.6277,31.2326],[75.7339,31.1804],[75.8277,31.209],[75.7738,31.2713],[75.562,31.3397],[75.455,31.4099]],[[74.3868,32.3774],[74.1964,32.3541],[74.1035,32.2883],[74.1057,32.2342],[73.9839,32.1043],[73.9855,32.0682],[73.9549,32.0402],[73.9016,32.0476],[73.8875,31.8848],[73.922,31.8227],[74.0347,31.9073],[74.063,31.9894],[74.1265,31.9912],[74.1877,32.0471],[74.2936,32.0501],[74.3243,32.078],[74.3638,32.1513],[74.2886,32.1763],[74.2542,32.2385],[74.4204,32.3332],[74.3868,32.3774]],[[75.0925,32.2504],[74.9864,32.248],[74.8937,32.1647],[74.9917,32.0858],[75.0764,32.0876],[75.1268,32.1699],[75.0925,32.2504]],[[75.2078,32.6498],[75.1013,32.6475],[75.0702,32.6197],[75.1035,32.5754],[75.2978,32.4892],[75.3928,32.5182],[75.3798,32.5991],[75.2733,32.597],[75.2078,32.6498]],[[75.3914,32.9421],[75.3058,32.9404],[75.2116,32.8754],[75.2789,32.7685],[75.2051,32.7399],[75.2062,32.7039],[75.2914,32.7056],[75.3643,32.7702],[75.4049,32.8432],[75.3914,32.9421]],[[75.4514,33.0876],[75.4086,33.0868],[75.3569,33.0227],[75.4127,32.9426],[75.4649,32.9887],[75.4514,33.0876]],[[74.6672,34.0087],[74.0944,33.9842],[74.0536,33.9289],[74.1,33.858],[73.9546,33.7274],[74.0034,33.6025],[73.8673,33.5172],[73.8027,33.5152],[73.6927,33.3402],[73.8942,33.1661],[73.853,33.1288],[73.8863,33.1027],[73.9601,33.1321],[73.9536,33.2762],[74.0991,33.3888],[74.1907,33.5088],[74.2537,33.5466],[74.5328,33.5722],[74.6168,33.6285],[74.7663,33.6683],[74.8075,33.7234],[74.882,33.7522],[74.8546,33.914],[74.8107,33.931],[74.8088,33.9851],[74.6672,34.0087]],[[74.3213,33.4763],[74.1938,33.4367],[74.1045,33.2627],[74.041,33.2427],[74.045,33.1526],[74.0783,33.1266],[74.3554,33.4321],[74.3213,33.4763]],[[73.2355,33.2435],[73.1293,33.2216],[73.0781,33.1747],[73.0811,33.1206],[73.177,33.1331],[73.2477,33.2169],[73.2355,33.2435]],[[72.9569,33.6123],[72.7867,33.5697],[72.6539,33.4471],[72.6561,33.4111],[72.5552,33.2987],[72.6984,33.2413],[72.722,33.2062],[72.8506,33.2112],[72.9762,33.2701],[73.0478,33.336],[73.0408,33.462],[72.9722,33.5317],[72.9917,33.5685],[72.9569,33.6123]],[[73.6917,33.5838],[73.6065,33.563],[73.5979,33.5176],[73.6522,33.5104],[73.7038,33.5572],[73.6917,33.5838]],[[74.1957,33.6442],[74.1246,33.5429],[74.1111,33.6057],[74.163,33.6523],[74.1957,33.6442]],[[75.0836,33.856],[74.9972,33.8541],[74.9769,33.8175],[74.9232,33.8073],[74.9245,33.7712],[75.0009,33.7459],[75.0959,33.8112],[75.0836,33.856]],[[73.9617,33.8088],[73.909,33.7802],[73.9434,33.7361],[73.9953,33.7828],[73.9617,33.8088]],[[75.4898,34.0086],[75.3833,33.9524],[75.3528,33.8887],[75.2891,33.8513],[75.3234,33.7888],[75.4097,33.7905],[75.5145,33.9008],[75.5578,33.9016],[75.5698,33.8567],[75.6682,33.8133],[76.0422,33.9907],[75.5341,33.9733],[75.4898,34.0086]],[[76.5936,34.0067],[76.2042,34.002],[76.1723,33.9745],[76.2709,33.9127],[76.4209,33.9867],[76.5936,34.0067]]]}}]}