{"type":"FeatureCollection","features":[{"type":"Feature","properties":{},"geometry":{"type":"MultiLineString","coordinates":[[[76.975,28.8683],[76.9034,28.8587],[76.8737,28.7592],[77.0172,28.7423],[77.0682,28.7697],[76.975,28.8683]],[[76.7216,29.4616],[76.5567,29.4599],[76.4352,29.3141],[76.3735,29.3134],[76.2923,29.2402],[76.1689,29.2385],[76.1594,29.1933],[76.1907,29.1666],[76.3141,29.1683],[76.3749,29.2232],[76.4177,29.1154],[76.5204,29.1166],[76.5504,29.1801],[76.5387,29.2792],[76.7241,29.2631],[76.744,29.3174],[76.8162,29.3091],[76.8154,29.3812],[76.7432,29.3896],[76.7216,29.4616]],[[76.0691,30.1573],[75.8407,30.1538],[75.8642,30.0279],[75.5333,29.986],[75.369,29.9287],[75.0174,29.9032],[74.9883,29.8394],[74.9273,29.8019],[74.9127,29.6031],[74.9445,29.5768],[75.0477,29.5791],[75.2162,29.4565],[75.4623,29.5155],[75.5869,29.4818],[75.658,29.5282],[75.6673,29.5735],[75.811,29.612],[75.9128,29.6858],[76.1187,29.725],[76.0858,29.8238],[75.8974,29.9292],[75.9275,29.9747],[75.9897,29.9757],[76.0613,30.0219],[76.1014,30.0946],[76.0691,30.1573]],[[74.6708,29.7326],[74.62,29.7042],[74.6331,29.6233],[74.7039,29.6702],[74.6708,29.7326]],[[74.7009,30.0762],[74.6179,30.0741],[74.5582,30.0003],[74.4866,29.9714],[74.4891,29.8993],[74.5211,29.8731],[74.9558,29.8838],[74.9861,29.9115],[74.9845,29.9656],[74.8898,30.0086],[74.7045,29.968],[74.6932,29.9948],[74.7341,30.0138],[74.7009,30.0762]],[[75.7768,30.2249],[75.7459,30.2154],[75.7568,30.1885],[75.7878,30.198],[75.7768,30.2249]],[[76.7729,30.3281],[76.6384,30.2817],[76.7531,30.2557],[76.8047,30.2833],[76.7729,30.3281]],[[75.7292,31.3787],[75.4784,31.3201],[75.4271,31.274],[75.4808,31.2299],[75.5652,31.2135],[75.5768,31.1686],[75.6192,31.1513],[75.642,31.0795],[75.6228,31.007],[75.5716,30.961],[75.4041,30.9578],[75.1713,31.0433],[75.0258,31.004],[74.9556,30.9032],[75.0098,30.8413],[75.0624,30.8334],[75.0008,30.796],[75.034,30.7336],[75.2235,30.6836],[75.3905,30.6869],[75.4485,30.4625],[75.5017,30.4185],[75.7107,30.3862],[75.8454,30.4155],[75.8009,30.541],[75.7172,30.5577],[75.7261,30.621],[76.1224,30.6272],[76.3912,30.775],[76.5372,30.7948],[76.5472,30.8219],[76.4843,30.8393],[76.4622,30.9112],[76.5663,30.9484],[76.4283,31.0641],[76.3336,31.09],[76.333,31.1261],[76.3953,31.163],[76.3207,31.2252],[76.1304,31.2948],[76.1401,31.34],[76.108,31.3666],[75.8348,31.3625],[75.7726,31.3254],[75.7292,31.3787]],[[75.6516,30.6828],[75.601,30.6188],[75.4448,30.6068],[75.4545,30.6341],[75.6516,30.6828]],[[75.4947,31.5008],[75.4105,31.4992],[75.4012,31.4539],[75.5606,31.3938],[75.5704,31.421],[75.4947,31.5008]],[[74.8425,32.7318],[74.7371,32.6932],[74.5823,32.554],[74.4601,32.4065],[74.4622,32.3524],[74.3582,32.2955],[74.32,32.1862],[74.2893,32.1582],[74.1417,32.136],[74.1439,32.0819],[74.2476,32.139],[74.3359,32.0513],[74.3885,32.0617],[74.4472,32.1896],[74.6341,32.3027],[74.692,32.4666],[74.7661,32.4774],[74.8785,32.6154],[74.8425,32.7318]],[[75.5786,32.3323],[75.547,32.3227],[75.5583,32.2958],[75.5899,32.3054],[75.5786,32.3323]],[[75.2095,32.5957],[75.0817,32.5929],[75.0719,32.5657],[75.1685,32.5407],[75.2095,32.5957]],[[74.5835,33.9344],[74.52,33.8967],[74.4552,33.895],[74.4106,33.9299],[74.3383,33.8467],[74.3621,33.7932],[74.3309,33.7653],[74.0936,33.7586],[74.0114,33.6659],[73.9683,33.6646],[73.8958,33.5993],[73.9215,33.5098],[73.8611,33.4178],[73.8859,33.3463],[73.8463,33.2729],[73.9115,33.2569],[73.8711,33.2015],[73.93,33.086],[74.0584,33.0899],[74.0894,33.1179],[74.1291,33.1912],[74.1053,33.2446],[74.134,33.3267],[74.2643,33.2943],[74.3057,33.3315],[74.5938,33.3843],[74.5925,33.4203],[74.4815,33.5077],[74.4793,33.5618],[74.5842,33.6367],[74.5376,33.7257],[74.6642,33.8011],[74.6622,33.8552],[74.5835,33.9344]],[[73.366,33.212],[73.231,33.1261],[73.2441,33.0814],[73.2869,33.0829],[73.3791,33.1674],[73.366,33.212]],[[73.3575,33.7892],[73.1869,33.7471],[72.882,33.6004],[72.8258,33.4539],[72.8556,33.3106],[72.9006,33.2763],[72.8425,33.1658],[72.922,33.0876],[73.0495,33.1104],[73.241,33.343],[73.4465,33.5306],[73.484,33.6402],[73.3575,33.7892]],[[73.5062,33.4153],[73.4529,33.4045],[73.4883,33.3425],[73.5201,33.3526],[73.5062,33.4153]],[[72.6641,33.4565],[72.5916,33.4085],[72.6265,33.3648],[72.6775,33.412],[72.6641,33.4565]],[[74.9923,33.9983],[74.7544,33.9928],[74.8101,33.949],[74.7695,33.8759],[74.8461,33.8506],[75.004,33.9715],[74.9923,33.9983]],[[76.4205,34.0047],[76.3124,34.0034],[76.2595,33.9396],[76.357,33.9318],[76.4205,34.0047]]]}}]}