{"type":"FeatureCollection","features":[{"type":"Feature","properties":{},"geometry":{"type":"MultiLineString","coordinates":[[[77.3236,28.8525],[77.283,28.7981],[77.242,28.7979],[77.2211,28.8519],[77.1393,28.8334],[77.1093,28.752],[77.2427,28.7077],[77.4061,28.7627],[77.4162,28.7898],[77.3236,28.8525]],[[75.9386,29.4336],[75.9079,29.4241],[75.9191,29.3792],[75.97,29.407],[75.9386,29.4336]],[[77.0908,29.6811],[77.0495,29.6808],[76.9881,29.6263],[76.8231,29.6068],[76.7001,29.5335],[76.6904,29.4883],[76.846,29.4086],[76.928,29.4453],[77.0517,29.4463],[77.0926,29.4827],[77.1957,29.4833],[77.2053,29.5826],[77.0908,29.6811]],[[76.5258,30.1632],[76.4851,30.1086],[76.4021,30.1076],[76.3819,30.0713],[76.2374,30.0334],[75.5735,30.0409],[75.3492,29.8923],[75.2856,29.9451],[75.2568,29.8633],[75.4614,29.5516],[75.6071,29.5002],[75.8134,29.5038],[75.8749,29.5228],[75.9045,29.5865],[75.9759,29.6327],[76.244,29.6546],[76.3257,29.7097],[76.4291,29.711],[76.6243,29.7944],[76.6647,29.867],[76.6228,29.9026],[76.6219,29.9748],[76.5376,30.0641],[76.5573,30.1365],[76.5258,30.1632]],[[76.3593,31.4241],[76.2018,31.413],[76.2041,31.2868],[76.0703,31.1496],[75.9434,31.2018],[75.8602,31.1644],[75.7545,31.1988],[75.7327,31.2345],[75.6067,31.2323],[75.5139,31.1674],[75.5787,31.0964],[75.5283,31.0143],[75.4353,30.9675],[75.4586,30.8777],[75.5756,30.7987],[75.6374,30.8359],[75.7006,30.819],[75.7411,30.8738],[75.7629,30.8381],[76.4109,30.8474],[76.4533,30.8119],[76.5785,30.8313],[76.5999,30.7954],[76.6626,30.7961],[76.7243,30.8689],[76.8494,30.9061],[76.88,30.9695],[76.7956,31.0229],[76.7846,31.0679],[76.7003,31.1032],[76.5957,31.084],[76.574,31.1379],[76.3521,31.2346],[76.3082,31.3423],[76.3706,31.3791],[76.3593,31.4241]],[[75.3404,30.9927],[75.2883,30.9826],[75.3,30.9377],[75.3521,30.9478],[75.3404,30.9927]],[[75.8088,31.5785],[75.5775,31.5565],[75.5574,31.52],[75.4316,31.4996],[75.4115,31.4631],[75.2863,31.4246],[75.2765,31.3973],[75.3719,31.3722],[75.3919,31.4086],[75.8125,31.4162],[75.8558,31.3628],[75.9403,31.3461],[76.16,31.3944],[76.1483,31.4574],[76.0007,31.4733],[75.9356,31.5625],[75.8088,31.5785]],[[75.4535,33.0155],[75.3903,32.9782],[75.2834,32.9761],[75.222,32.8846],[75.1793,32.8837],[74.9814,32.726],[74.9211,32.6164],[74.8584,32.5788],[74.8603,32.5248],[74.7996,32.4331],[74.7042,32.4218],[74.6321,32.3568],[74.6888,32.259],[74.8991,32.3182],[74.9398,32.3732],[75.1386,32.4769],[75.1756,32.6581],[75.2717,32.6511],[75.3429,32.7698],[75.297,32.8771],[75.4659,32.9526],[75.4535,33.0155]],[[74.0624,32.9998],[74.0101,32.9712],[74.022,32.9444],[74.075,32.955],[74.0624,32.9998]],[[74.0806,33.0725],[74.0727,33.0091],[74.1265,33.0017],[74.1361,33.029],[74.0806,33.0725]],[[73.6957,33.9449],[73.503,33.9025],[73.441,33.8462],[73.3031,33.7964],[73.2628,33.7408],[73.248,33.6139],[73.2069,33.5764],[73.2313,33.5231],[73.1522,33.3939],[73.1561,33.3219],[73.1161,33.2663],[73.1385,33.2491],[72.9362,33.025],[72.9708,32.9812],[73.1409,33.0055],[73.2626,33.1362],[73.3688,33.158],[73.5442,33.2993],[73.6239,33.4282],[73.5953,33.5717],[73.7175,33.72],[73.8132,33.7501],[73.8849,33.8336],[73.8504,33.8776],[73.764,33.8749],[73.6957,33.9449]],[[73.7021,33.3676],[73.6274,33.3562],[73.5804,33.2193],[73.6962,33.2682],[73.7356,33.3416],[73.7021,33.3676]],[[74.6499,33.3226],[74.6181,33.3127],[74.6298,33.286],[74.6499,33.3226]],[[74.5417,33.8972],[74.4552,33.895],[74.342,33.7566],[74.3547,33.7118],[74.4089,33.7043],[74.3688,33.631],[74.3925,33.5775],[74.4578,33.5612],[74.46,33.5071],[74.5155,33.4635],[74.7298,33.4869],[74.8453,33.5709],[74.8858,33.644],[74.8081,33.7054],[74.7232,33.6672],[74.6231,33.7459],[74.6406,33.8546],[74.5417,33.8972]],[[73.6294,33.7533],[73.6433,33.6906],[73.5243,33.6957],[73.5319,33.7591],[73.6294,33.7533]]]}}]}