{"type":"FeatureCollection","features":[{"type":"Feature","properties":{},"geometry":{"type":"MultiLineString","coordinates":[[[77.4668,28.9073],[77.426,28.871],[77.3029,28.8885],[77.2726,28.8252],[77.324,28.7984],[77.5083,28.7992],[77.5389,28.8444],[77.4668,28.9073]],[[76.4341,29.3863],[76.2899,29.3845],[76.1996,29.248],[76.3144,29.1502],[76.528,29.3062],[76.4341,29.3863]],[[76.7752,30.1477],[76.3396,30.1249],[76.2987,30.0883],[76.1324,30.1041],[76.1123,30.0677],[76.0399,30.0577],[76.0409,30.0035],[76.0827,29.9861],[76.0529,29.9225],[75.9071,29.9564],[75.8755,29.9829],[75.8841,30.0643],[75.7609,30.0081],[75.7491,30.0711],[75.7178,30.0796],[75.6873,30.052],[75.6991,29.989],[75.6564,30.0424],[75.5651,29.9596],[75.5884,29.8517],[75.672,29.8171],[75.653,29.7446],[75.7057,29.7004],[75.7888,29.6838],[75.9117,29.7399],[75.9944,29.7412],[76.0571,29.7061],[76.1601,29.7256],[76.2224,29.7084],[76.3272,29.6195],[76.4305,29.6208],[76.5947,29.6948],[76.6776,29.6776],[76.7698,29.7417],[76.7894,29.8321],[76.7168,29.8404],[76.6141,29.7853],[76.5201,29.8474],[76.5196,29.8835],[76.571,29.9111],[76.7573,29.913],[76.8496,29.995],[76.8484,30.1032],[76.7752,30.1477]],[[76.3741,29.9178],[76.3642,29.8907],[76.3122,29.899],[76.3221,29.9262],[76.3741,29.9178]],[[75.491,30.0213],[75.4403,29.9752],[75.4725,29.9308],[75.491,30.0213]],[[75.5099,30.0938],[75.4583,30.0838],[75.4905,30.0394],[75.5214,30.049],[75.5099,30.0938]],[[75.6963,30.9993],[75.6028,30.9706],[75.657,30.8904],[75.7501,30.9371],[75.6963,30.9993]],[[76.2545,31.4047],[76.0863,31.4024],[76.0029,31.3651],[75.9723,31.3195],[76.0671,31.3119],[76.0678,31.2759],[75.9418,31.274],[75.9303,31.3189],[75.8776,31.3271],[75.8055,31.2628],[75.7866,31.1722],[75.8405,31.11],[75.9453,31.1117],[75.9861,31.1664],[76.113,31.1141],[76.1855,31.1603],[76.1842,31.2324],[76.2155,31.2418],[76.3114,31.1619],[76.323,31.0989],[76.4068,31.1],[76.4496,31.0463],[76.6169,31.0662],[76.7436,30.9953],[76.869,31.0145],[76.983,31.1327],[76.9184,31.2765],[76.8656,31.3031],[76.6343,31.319],[76.5915,31.3726],[76.5497,31.3542],[76.5071,31.3898],[76.2545,31.4047]],[[76.2601,31.0981],[76.1553,31.0967],[76.146,31.0334],[76.261,31.044],[76.2601,31.0981]],[[74.9847,32.3021],[74.8682,32.2904],[74.8713,32.2003],[74.904,32.174],[74.9979,32.2212],[74.9847,32.3021]],[[75.0012,32.4468],[74.9921,32.4015],[75.0242,32.3932],[75.0012,32.4468]],[[76.0268,33.2237],[75.92,33.204],[75.7936,33.1118],[75.7084,33.0923],[75.5305,32.9358],[75.5315,32.8997],[75.3846,32.8067],[75.3242,32.6792],[75.2712,32.6691],[75.2619,32.6238],[75.1375,32.513],[75.1184,32.4404],[75.1517,32.396],[75.2356,32.4338],[75.318,32.5257],[75.4244,32.5278],[75.5076,32.6016],[75.5715,32.6028],[75.6657,32.6676],[75.6398,32.8475],[75.8281,33.0131],[75.8797,33.0951],[76.0393,33.1427],[76.0268,33.2237]],[[73.8986,33.7708],[73.7925,33.7314],[73.7632,33.6673],[73.7097,33.6566],[73.6693,33.6012],[73.5841,33.5803],[73.4913,33.496],[73.494,33.442],[73.4127,33.349],[73.3492,33.3287],[73.2124,33.0713],[73.2702,32.9921],[73.3343,32.9944],[73.3958,33.0506],[73.6482,33.1493],[73.6996,33.1961],[73.7365,33.3236],[73.9677,33.4391],[73.9231,33.4738],[73.9604,33.6012],[73.8941,33.6353],[73.9538,33.7454],[73.8986,33.7708]]]}}]}