{"type":"FeatureCollection","features":[{"type":"Feature","properties":{},"geometry":{"type":"MultiLineString","coordinates":[[[76.7212,29.4976],[76.5883,29.4151],[76.5687,29.3427],[76.6208,29.2981],[76.6825,29.2988],[76.7334,29.3444],[76.7525,29.4709],[76.7212,29.4976]],[[77.176,29.375],[76.867,29.3727],[76.8574,29.3094],[77.0942,29.3022],[77.2071,29.3481],[77.176,29.375]],[[77.2331,29.9888],[77.1306,29.8618],[77.0682,29.8975],[76.9646,29.8967],[76.9861,29.8247],[76.8201,29.8594],[76.7484,29.7956],[76.7096,29.5968],[76.907,29.4813],[77.0713,29.5547],[77.1747,29.5373],[77.2569,29.5739],[77.2874,29.6372],[77.2147,29.7],[77.1113,29.6993],[77.0386,29.7439],[77.0483,29.8071],[77.1312,29.7897],[77.3274,29.8359],[77.2851,29.962],[77.2331,29.9888]],[[75.3189,31.0103],[74.9856,30.949],[74.9562,30.8852],[75.1342,30.8801],[75.175,30.9171],[75.2382,30.9004],[75.3311,30.9474],[75.3189,31.0103]],[[75.7339,31.1804],[75.5675,31.1233],[75.4407,31.157],[75.4105,31.1113],[75.4348,30.9855],[75.572,30.943],[75.6339,30.9802],[75.739,30.964],[75.8219,31.0014],[75.9898,30.986],[76.0618,31.0503],[76.0505,31.0952],[75.9022,31.1651],[75.861,31.1284],[75.7981,31.1273],[75.7339,31.1804]],[[76.2575,31.2424],[76.2261,31.233],[76.2065,31.1605],[76.3014,31.1347],[76.3107,31.198],[76.2575,31.2424]],[[75.8566,31.3267],[75.8261,31.2811],[75.9014,31.2012],[75.9109,31.2464],[75.8566,31.3267]],[[76.1938,31.2776],[76.0788,31.249],[76.1112,31.2043],[76.1742,31.2052],[76.1938,31.2776]],[[76.7955,33.4854],[76.7532,33.4309],[76.5389,33.3926],[76.4968,33.338],[76.4109,33.337],[76.326,33.2819],[76.2631,33.2089],[76.1137,33.1708],[76.0199,33.0522],[75.7888,32.8681],[75.7792,32.8229],[75.6094,32.7839],[75.5473,32.7106],[75.4734,32.6821],[75.4744,32.6461],[75.371,32.5358],[75.425,32.5098],[75.6766,32.6588],[75.9529,32.6994],[76.037,32.7547],[76.2357,32.965],[76.1911,33.0546],[76.243,33.1365],[76.3924,33.1745],[76.5189,33.3022],[76.6474,33.3216],[76.6376,33.2584],[76.6914,33.2499],[76.7974,33.3411],[76.851,33.3506],[76.8505,33.3867],[76.9145,33.4233],[76.7955,33.4854]],[[74.1567,33.7965],[74.1479,33.7511],[74.0736,33.7219],[74.0648,33.6765],[74.0018,33.6386],[74.025,33.6032],[73.962,33.5652],[73.9533,33.5198],[73.8648,33.5713],[73.7735,33.4511],[73.5666,33.282],[73.5505,33.1732],[73.6071,33.1119],[73.841,33.1555],[74.1038,33.2807],[74.1635,33.3907],[74.0975,33.4249],[74.1389,33.4622],[74.1358,33.5342],[74.1988,33.5721],[74.1757,33.6076],[74.2365,33.6995],[74.1567,33.7965]]]}}]}