{"type":"FeatureCollection","features":[{"type":"Feature","properties":{},"geometry":{"type":"MultiLineString","coordinates":[[[72.029,29.2425],[71.9986,29.2321],[72.0105,29.2056],[72.029,29.2425]],[[77.8338,30.2435],[77.6575,30.1439],[77.7509,30.1351],[77.803,30.0359],[77.6684,29.9906],[77.3783,29.9715],[77.3175,29.7727],[77.2657,29.7815],[77.275,29.9349],[77.2128,29.9345],[77.1614,29.8891],[77.2035,29.7991],[77.1217,29.6904],[77.1946,29.6277],[77.2772,29.6282],[77.3911,29.5656],[77.3605,29.5203],[77.2364,29.5558],[77.1853,29.4923],[77.2166,29.4474],[77.3196,29.466],[77.3606,29.5023],[77.4843,29.5028],[77.5876,29.4671],[77.8864,29.6391],[77.907,29.7113],[77.8553,29.7203],[77.7414,29.8193],[77.8033,29.9096],[77.8654,29.9278],[77.8651,30.1443],[77.9066,30.1623],[77.9065,30.2165],[77.8338,30.2435]],[[77.0498,29.6448],[76.8846,29.6435],[76.8335,29.5979],[76.8341,29.5438],[76.9477,29.5357],[76.9886,29.5721],[77.0304,29.5183],[77.0507,29.5545],[77.1332,29.5551],[77.1432,29.6003],[77.0498,29.6448]],[[78.2287,30.3155],[78.2182,30.2704],[78.1766,30.2525],[78.2181,30.1983],[78.1972,30.1442],[78.2905,30.0989],[78.3633,30.1619],[78.2597,30.2162],[78.2806,30.2703],[78.2287,30.3155]],[[78.4783,30.3149],[78.4052,30.2339],[78.4361,30.1887],[78.54,30.1883],[78.5715,30.2514],[78.4783,30.3149]],[[75.2048,31.3327],[75.1741,31.3049],[75.1982,31.1972],[75.3554,31.2095],[75.5055,31.0861],[75.6099,31.106],[75.6505,31.1609],[75.8392,31.1641],[75.8907,31.21],[75.8792,31.2549],[75.5428,31.2672],[75.4994,31.3205],[75.2484,31.2794],[75.2048,31.3327]],[[76.402,31.3885],[76.2558,31.3326],[76.0029,31.3651],[75.9937,31.3018],[75.9319,31.2468],[76.1112,31.2043],[76.2575,31.2424],[76.3001,31.2069],[76.5522,31.1918],[76.6449,31.3101],[76.5918,31.3546],[76.4656,31.3532],[76.402,31.3885]],[[77.2037,33.5426],[77.0749,33.5057],[77.0112,33.433],[76.7752,33.395],[76.6373,33.2764],[76.6167,33.2221],[76.4573,33.1391],[76.3521,33.0296],[76.3093,33.0291],[76.2676,32.9744],[76.1404,32.9186],[76.0762,32.9177],[76.0459,32.8361],[75.9726,32.7718],[75.8981,32.7617],[75.9207,32.7079],[76.1632,32.8468],[76.333,32.9031],[76.4399,32.9044],[76.5878,33.0143],[76.6734,33.0152],[76.758,33.0881],[76.8008,33.0885],[76.8962,33.1705],[76.8519,33.2784],[76.9475,33.3604],[77.0973,33.4156],[77.1076,33.4608],[77.2147,33.5156],[77.2037,33.5426]],[[74.1923,33.4727],[73.9917,33.3856],[73.9949,33.3136],[74.0283,33.2875],[74.0712,33.2888],[74.185,33.3913],[74.1923,33.4727]],[[74.2337,33.51],[74.2138,33.4733],[74.2456,33.4832],[74.2337,33.51]],[[77.5687,33.7247],[77.4608,33.7243],[77.4072,33.6789],[77.3972,33.5616],[77.5581,33.6795],[77.5687,33.7247]]]}}]}