{"type":"FeatureCollection","features":[{"type":"Feature","properties":{},"geometry":{"type":"MultiLineString","coordinates":[[[78.0207,29.9549],[77.9689,29.9459],[77.969,29.8015],[77.938,29.7745],[77.7725,29.7562],[77.7624,29.675],[77.7934,29.648],[77.9174,29.6662],[78.0826,29.594],[78.2684,29.6118],[78.3409,29.6748],[78.3205,29.7651],[78.238,29.8374],[78.2277,29.8825],[78.1553,29.8917],[78.145,29.9368],[78.0621,29.9188],[78.0207,29.9549]],[[78.0,30.1353],[77.9067,30.0361],[77.9171,29.9549],[77.9689,29.9639],[78.0,30.1353]],[[78.5409,30.3687],[78.4577,30.3691],[78.395,30.2971],[78.343,30.2882],[78.3012,30.2162],[78.4155,30.2249],[78.4361,30.1887],[78.5192,30.1884],[78.5923,30.2513],[78.5409,30.3687]],[[78.8533,30.4032],[78.8219,30.3763],[78.821,30.2681],[78.8937,30.2586],[78.9259,30.3756],[78.8533,30.4032]],[[79.0825,30.4196],[79.0408,30.4199],[79.03,30.3749],[79.1023,30.3292],[79.1342,30.3921],[79.0825,30.4196]],[[76.1216,31.7457],[76.0275,31.6992],[76.029,31.6271],[75.998,31.5996],[75.8084,31.5966],[75.8269,31.7051],[75.743,31.6857],[75.7021,31.6309],[75.6802,31.6666],[75.638,31.6658],[75.5448,31.601],[75.6295,31.5845],[75.6863,31.4141],[75.8966,31.4176],[75.9406,31.3281],[76.0881,31.3122],[76.1607,31.3584],[76.118,31.3938],[76.1159,31.5021],[76.073,31.5375],[76.0719,31.5916],[76.1555,31.6289],[76.1537,31.7191],[76.1216,31.7457]],[[76.3581,31.4963],[76.2739,31.4952],[76.2431,31.4497],[76.4325,31.452],[76.3581,31.4963]],[[76.6723,31.608],[76.5688,31.4806],[76.7164,31.4641],[76.8524,31.5285],[76.6939,31.5721],[76.6723,31.608]],[[77.115,31.5936],[76.9996,31.5477],[77.0108,31.4847],[77.1261,31.5306],[77.115,31.5936]],[[76.3339,31.6764],[76.2609,31.6303],[76.2927,31.6217],[76.3339,31.6764]],[[77.1199,33.3075],[77.0242,33.2257],[77.0352,33.1987],[77.1312,33.2444],[77.1199,33.3075]],[[77.2699,33.3445],[77.2162,33.3352],[77.2275,33.2721],[77.2811,33.2814],[77.2699,33.3445]]]}}]}