{"type":"FeatureCollection","features":[{"type":"Feature","properties":{},"geometry":{"type":"MultiLineString","coordinates":[[[72.6415,28.962],[72.614,28.8977],[72.7068,28.8924],[72.7147,28.9379],[72.6415,28.962]],[[76.7736,30.274],[76.7535,30.2197],[76.7846,30.229],[76.7736,30.274]],[[76.4759,32.0208],[76.4124,32.0201],[76.266,31.9281],[76.223,31.9636],[76.0972,31.9077],[76.0453,31.8618],[76.0883,31.8264],[76.0682,31.772],[75.9658,31.6261],[76.0605,31.6366],[76.1645,31.7102],[76.4809,31.7142],[76.5133,31.6695],[76.4512,31.5966],[76.4731,31.5427],[76.5896,31.4989],[76.6738,31.4998],[76.6941,31.5541],[76.7467,31.5636],[76.5343,31.6697],[76.5971,31.7065],[76.669,31.8425],[76.7324,31.8431],[76.8267,31.9071],[76.773,31.9698],[76.6262,31.8781],[76.4572,31.8763],[76.4667,31.9395],[76.5299,31.9583],[76.5293,31.9944],[76.4759,32.0208]],[[75.9496,31.8875],[75.8443,31.8678],[75.8348,31.8225],[75.9938,31.7979],[76.003,31.8612],[75.9496,31.8875]]]}}]}