{"type":"FeatureCollection","features":[{"type":"Feature","properties":{},"geometry":{"type":"MultiLineString","coordinates":[[[72.9393,28.7572],[72.8583,28.736],[72.8503,28.6905],[72.9019,28.6835],[72.9508,28.7305],[72.9393,28.7572]],[[73.0758,28.9067],[73.025,28.8958],[72.999,28.7955],[73.1104,28.8268],[73.0758,28.9067]],[[76.4671,31.263],[76.457,31.2359],[76.5099,31.2094],[76.52,31.2366],[76.4671,31.263]],[[76.8028,31.2845],[76.7608,31.2841],[76.7299,31.2387],[76.8035,31.2304],[76.8028,31.2845]],[[76.5489,31.4083],[76.5178,31.3809],[76.6133,31.3188],[76.6229,31.382],[76.5489,31.4083]],[[77.3692,31.3967],[77.2959,31.3512],[77.3694,31.3606],[77.3692,31.3967]],[[77.1965,31.9189],[77.1121,31.9003],[77.102,31.8551],[77.2081,31.8017],[77.2192,31.7386],[77.3036,31.7391],[77.3347,31.8204],[77.1965,31.9189]],[[76.6455,32.0046],[76.6032,32.0042],[76.5722,31.9587],[76.6249,31.9683],[76.6455,32.0046]],[[77.3851,32.1905],[77.1733,32.1533],[77.1101,32.1168],[76.8344,32.1327],[76.6871,32.0592],[76.6771,32.014],[76.772,32.0419],[76.8362,31.9884],[77.1323,32.0087],[77.2172,31.9731],[77.3222,32.0819],[77.3962,32.1094],[77.3851,32.1905]],[[76.3692,32.0737],[76.3167,32.046],[76.3281,32.001],[76.3802,32.0468],[76.3692,32.0737]],[[77.5337,32.155],[77.4597,32.1096],[77.4705,32.0826],[77.5233,32.1099],[77.5337,32.155]],[[76.4951,32.1473],[76.4748,32.093],[76.5064,32.1023],[76.4951,32.1473]]]}}]}