{"type":"FeatureCollection","features":[{"type":"Feature","properties":{},"geometry":{"type":"MultiLineString","coordinates":[[[76.9936,31.1237],[76.9307,31.1232],[76.9209,31.06],[77.0156,31.0157],[77.0253,31.0969],[76.9936,31.1237]],[[77.0547,31.3046],[77.0023,31.2952],[77.0134,31.2321],[77.0658,31.2415],[77.0547,31.3046]],[[77.0655,32.3329],[76.9381,32.332],[76.8536,32.2952],[76.8328,32.259],[76.7799,32.2495],[76.7599,32.1591],[76.8549,32.187],[76.94,32.1696],[77.0347,32.2335],[77.0766,32.2879],[77.0655,32.3329]],[[77.9787,32.3903],[77.9362,32.3903],[77.8832,32.3272],[77.9363,32.3001],[78.0425,32.3182],[78.0531,32.3633],[77.9787,32.3903]]]}}]}