{"type":"FeatureCollection","features":[{"type":"Feature","properties":{"cell":3,"feature":26,"phase":"Unclassified","min_bt_K":225.1,"area_km2":132984,"cold_core_km2":0,"speed_kmh":null,"heading_deg":null,"d_min_bt_30":null,"age_min":0,"family":3,"touches_missing":true,"lon":79.1526,"lat":29.1226,"merges_splits_so_far":0},"geometry":{"type":"MultiPolygon","coordinates":[[[[80.6351,31.6246],[80.422,31.5384],[80.3571,31.4674],[80.2312,31.4877],[80.1252,31.4533],[80.1034,31.4176],[80.0192,31.4189],[79.9764,31.3835],[79.8713,31.385],[79.8286,31.3495],[79.7655,31.3503],[79.7545,31.3234],[79.5737,31.1904],[79.4266,31.174],[79.3313,31.1119],[79.3412,31.0667],[79.5297,31.0646],[79.5289,31.0105],[79.4242,31.0117],[79.3818,30.976],[79.298,30.9769],[79.2785,31.0853],[79.2157,31.0859],[79.1733,31.0502],[79.0476,31.0513],[79.0364,30.9882],[78.9522,30.9347],[78.9516,30.8806],[78.8993,30.8719],[78.8779,30.818],[78.8359,30.8002],[78.7734,30.8186],[78.7313,30.7828],[78.6371,30.7562],[78.6777,30.5936],[78.6254,30.5668],[78.5834,30.5129],[78.5314,30.5221],[78.4901,30.6125],[78.5531,30.6844],[78.5534,30.7385],[78.4286,30.8472],[78.408,30.9195],[78.3349,30.9467],[78.2092,30.9109],[78.1464,30.8569],[78.0209,30.857],[77.9791,30.8209],[77.9373,30.8209],[77.9164,30.8569],[77.8745,30.8569],[77.7908,30.9109],[77.728,30.9108],[77.7176,30.8837],[77.6759,30.8656],[77.6762,30.7573],[77.6972,30.7213],[77.6451,30.6941],[77.6244,30.658],[77.5409,30.6577],[77.4368,30.6212],[77.4054,30.6482],[77.426,30.6843],[77.4047,30.7564],[77.3524,30.7652],[77.2903,30.6927],[77.1758,30.6469],[77.1769,30.5206],[77.219,30.4668],[77.2193,30.4307],[77.1988,30.3945],[77.1367,30.358],[77.137,30.3219],[77.1996,30.2862],[77.159,30.1777],[77.2734,30.1514],[77.2844,30.0702],[77.2431,30.0339],[77.2434,29.9978],[77.1918,29.9705],[77.12,29.8888],[77.1206,29.8167],[77.0794,29.7983],[77.0799,29.7442],[77.0594,29.726],[77.0809,29.636],[77.1432,29.6003],[77.1435,29.5642],[77.185,29.5284],[77.1859,29.4201],[77.1448,29.4018],[77.1659,29.3478],[77.1455,29.3296],[77.1464,29.2214],[77.1259,29.2032],[77.1474,29.0951],[77.2095,29.0413],[77.1893,28.9871],[77.2103,28.9331],[77.1899,28.9149],[77.3239,28.8164],[77.4262,28.8349],[77.4981,28.8082],[77.5187,28.7721],[77.4984,28.736],[77.5395,28.7],[77.5401,28.5737],[77.5811,28.5378],[77.5815,28.4475],[77.6635,28.3214],[77.6433,28.2853],[77.7454,28.2133],[77.7455,28.1411],[77.8678,28.0691],[77.8882,27.9789],[77.9289,27.9428],[77.9087,27.7984],[77.9797,27.7713],[78.0811,27.663],[78.2027,27.6629],[78.2633,27.6086],[78.3039,27.6266],[78.425,27.5179],[78.5667,27.5174],[78.5969,27.4902],[78.5765,27.4542],[78.6068,27.445],[78.6268,27.4088],[78.7278,27.3902],[78.7678,27.3359],[78.8689,27.3352],[78.9091,27.3169],[78.9392,27.2896],[78.9487,27.2264],[79.0702,27.2615],[79.1304,27.2249],[79.2717,27.2236],[79.3329,27.2772],[79.4539,27.2578],[79.5147,27.2752],[79.5661,27.3378],[79.6167,27.3462],[79.658,27.3999],[79.8004,27.4521],[79.8408,27.4516],[79.9003,27.3785],[79.9818,27.4134],[80.1578,27.6183],[80.2502,27.6799],[80.2713,27.7156],[80.3321,27.7146],[80.3842,27.7768],[80.4459,27.8118],[80.4674,27.8656],[80.4583,27.9109],[80.3368,27.9311],[80.3177,27.9856],[80.1347,27.9887],[80.0741,28.0077],[80.0117,27.9365],[80.0017,27.9457],[80.0227,27.9814],[80.0031,28.0178],[80.0279,28.2521],[80.1108,28.323],[80.1327,28.3948],[80.1639,28.4214],[80.1731,28.3761],[80.2239,28.3663],[80.4951,28.6141],[80.536,28.6133],[80.596,28.558],[80.6778,28.5563],[80.7305,28.6184],[80.6506,28.6923],[80.6919,28.7095],[80.6957,28.8538],[80.7691,28.9154],[80.7996,28.9057],[80.7162,28.8533],[80.7234,28.7359],[80.7443,28.7535],[80.7838,28.6985],[80.968,28.6945],[80.9874,28.658],[81.1101,28.6551],[81.1023,28.7365],[81.1233,28.7541],[81.1045,28.8087],[81.1255,28.8262],[81.1271,28.8803],[81.1909,28.951],[81.3251,28.9748],[81.3585,29.0551],[81.5177,29.2044],[81.6405,29.183],[81.7035,29.2173],[81.7154,29.2621],[81.7798,29.3325],[81.7811,29.3685],[81.7313,29.4151],[81.6894,29.3982],[81.5664,29.4196],[81.5246,29.4027],[81.3816,29.4425],[81.3185,29.408],[81.2685,29.4544],[81.2908,29.508],[81.2307,29.5636],[81.2731,29.5986],[81.2536,29.6352],[81.3168,29.6697],[81.3186,29.7238],[81.3398,29.7413],[81.2577,29.7614],[81.2181,29.8165],[81.2098,29.8799],[81.1258,29.8458],[81.0638,29.8472],[81.0134,29.8935],[81.0346,29.9111],[81.0256,29.9564],[81.0044,29.9388],[80.776,29.9258],[80.7548,29.9082],[80.7139,29.9271],[80.631,29.9287],[80.6098,29.9111],[80.5169,29.9219],[80.5178,29.958],[80.6551,30.0546],[80.7173,30.0533],[80.8225,30.1052],[80.9263,30.103],[80.9795,30.1469],[80.9295,30.2112],[80.8043,30.1958],[80.7739,30.2235],[80.8059,30.2499],[80.8895,30.2662],[80.9439,30.3462],[81.04,30.4252],[81.1024,30.4237],[81.1351,30.4681],[81.1047,30.4958],[81.0934,30.469],[81.0619,30.4608],[81.0112,30.507],[81.0123,30.5431],[81.0664,30.605],[81.098,30.6133],[81.0681,30.6591],[81.0055,30.6605],[80.8579,30.6097],[80.8167,30.6286],[80.7765,30.6836],[80.6619,30.6949],[80.6731,30.7218],[80.7465,30.7293],[80.748,30.7834],[80.6649,30.8031],[80.6654,30.8211],[80.7077,30.8383],[80.7112,30.9646],[80.7327,30.9822],[80.6719,31.0556],[80.6729,31.0916],[80.7674,31.0987],[80.8109,31.1519],[80.8529,31.151],[80.9282,31.2125],[80.9508,31.2661],[81.0365,31.3183],[81.0429,31.5167],[80.9894,31.4908],[80.8005,31.513],[80.7173,31.5508],[80.6351,31.6246]]],[[[79.6944,27.7875],[79.7144,27.7692],[79.7129,27.679],[79.6715,27.6253],[79.6307,27.6078],[79.6197,27.5448],[79.59,27.5903],[79.6313,27.6439],[79.6721,27.6614],[79.6741,27.7878],[79.6944,27.7875]]],[[[78.785,28.3015],[78.8255,28.2651],[78.8248,28.1749],[78.8043,28.157],[78.8242,28.1027],[78.7626,28.0309],[78.7321,28.022],[78.763,28.085],[78.8038,28.1028],[78.804,28.1209],[78.7634,28.1392],[78.7635,28.1572],[78.8044,28.175],[78.8051,28.2652],[78.7644,28.2835],[78.7646,28.3016],[78.785,28.3015]]],[[[81.3438,29.2359],[81.3838,29.1988],[81.2458,29.067],[81.2364,29.0943],[81.2675,29.1025],[81.3004,29.1649],[81.3421,29.1819],[81.3027,29.237],[81.3438,29.2359]]],[[[80.9799,29.4612],[80.9762,29.335],[80.9345,29.3179],[80.9103,29.1921],[80.8687,29.1749],[80.8671,29.1208],[80.8361,29.1125],[80.827,29.1578],[80.8692,29.193],[80.8707,29.2471],[80.9123,29.2642],[80.9139,29.3183],[80.935,29.3359],[80.9386,29.4621],[80.9799,29.4612]]],[[[80.2062,29.9275],[80.1937,29.8284],[80.1855,29.9278],[80.2062,29.9275]]],[[[80.2493,29.9989],[80.2484,29.9629],[80.2172,29.9544],[80.2078,29.9996],[80.2493,29.9989]]],[[[79.4329,30.8943],[79.4221,30.8674],[79.3908,30.8767],[79.4017,30.9037],[79.4329,30.8943]]]]}},{"type":"Feature","properties":{"cell":7,"feature":30,"phase":"Unclassified","min_bt_K":230.5,"area_km2":7216,"cold_core_km2":0,"speed_kmh":null,"heading_deg":null,"d_min_bt_30":null,"age_min":0,"family":3,"touches_missing":true,"lon":75.144,"lat":30.2264,"merges_splits_so_far":0},"geometry":{"type":"MultiPolygon","coordinates":[[[[74.8461,30.7292],[74.7543,30.6639],[74.7566,30.5918],[74.706,30.5454],[74.6613,30.6345],[74.5987,30.6329],[74.5583,30.5958],[74.5065,30.5854],[74.4901,30.4587],[74.4303,30.3849],[74.4537,30.3133],[74.4335,30.2948],[74.4394,30.1325],[74.4193,30.1139],[74.4633,30.0429],[74.4439,30.0063],[74.5167,29.9993],[74.567,30.0457],[74.5551,30.0905],[74.5148,30.0533],[74.5035,30.0801],[74.5444,30.0992],[74.5412,30.1894],[74.5822,30.2085],[74.5904,30.2718],[74.6023,30.227],[74.6652,30.2106],[74.66,30.0571],[74.7003,30.0942],[74.7827,30.1143],[74.9324,29.9735],[75.0572,29.9583],[75.1215,29.8875],[75.2038,29.9073],[75.2467,29.8541],[75.3916,29.857],[75.4339,29.8217],[75.496,29.8229],[75.5778,29.8605],[75.599,29.8429],[75.6902,29.9257],[75.6886,29.9979],[75.645,30.0873],[75.5823,30.1042],[75.6208,30.2312],[75.6186,30.3214],[75.5761,30.3567],[75.5744,30.4288],[75.5314,30.4822],[75.3943,30.5427],[75.2312,30.4131],[75.1575,30.4386],[75.1554,30.5107],[75.1127,30.5459],[75.1213,30.6092],[74.9539,30.6235],[74.9342,30.587],[74.9032,30.5772],[74.9668,30.5426],[74.9691,30.4705],[74.9089,30.3969],[74.8779,30.3872],[74.8661,30.432],[74.9066,30.469],[74.9037,30.5592],[74.8615,30.5762],[74.8461,30.7292]]]]}},{"type":"Feature","properties":{"cell":9,"feature":32,"phase":"Unclassified","min_bt_K":229.0,"area_km2":64612,"cold_core_km2":0,"speed_kmh":null,"heading_deg":null,"d_min_bt_30":null,"age_min":0,"family":3,"touches_missing":true,"lon":76.8082,"lat":32.6571,"merges_splits_so_far":0},"geometry":{"type":"MultiPolygon","coordinates":[[[[76.8316,34.009],[75.9879,33.9989],[75.9455,33.9622],[75.8916,33.9524],[75.8933,33.8802],[75.8308,33.789],[75.8316,33.7529],[75.7894,33.7161],[75.7907,33.662],[75.7486,33.6252],[75.7499,33.5711],[75.7825,33.5627],[75.8136,33.6083],[75.8774,33.6454],[75.8765,33.6815],[75.9086,33.691],[76.0034,33.7917],[76.0446,33.8825],[76.1192,33.9287],[76.1526,33.884],[76.1537,33.8299],[76.2412,33.777],[76.2203,33.7406],[76.2221,33.6504],[76.2656,33.6329],[76.2666,33.5788],[76.3206,33.5705],[76.3319,33.5436],[76.3111,33.5072],[76.2684,33.4886],[76.2694,33.4345],[76.2268,33.4159],[76.2279,33.3618],[76.1638,33.3429],[76.1649,33.2888],[76.09,33.2787],[76.0701,33.2063],[75.9843,33.205],[75.9528,33.1775],[75.9112,33.1227],[75.912,33.0866],[75.87,33.0499],[75.8713,32.9958],[75.8294,32.959],[75.8307,32.9049],[75.7888,32.8681],[75.8002,32.8413],[75.8969,32.8158],[75.9629,32.7266],[75.9432,32.6541],[76.0397,32.6285],[76.0722,32.6019],[76.0734,32.5478],[75.9778,32.5374],[75.9569,32.519],[75.8926,32.5361],[75.8301,32.4809],[75.7029,32.4608],[75.6835,32.3882],[75.5881,32.3775],[75.5697,32.269],[75.5282,32.2321],[75.5725,32.1608],[75.4985,32.1504],[75.4769,32.168],[75.4251,32.1219],[75.4261,32.0858],[75.3843,32.067],[75.4173,32.0225],[75.5452,31.9889],[75.5776,31.9624],[75.5786,31.9263],[75.6438,31.8553],[75.7292,31.8207],[75.7305,31.7666],[75.774,31.7133],[75.7327,31.6765],[75.7335,31.6404],[75.6098,31.53],[75.6107,31.4939],[75.5794,31.4843],[75.4154,31.3189],[75.3734,31.3181],[75.3426,31.2904],[75.3441,31.2363],[75.3236,31.2178],[75.3461,31.1642],[75.3052,31.1273],[75.3491,31.056],[75.3296,31.0015],[75.3725,30.9662],[75.353,30.9117],[75.3745,30.8941],[75.3764,30.822],[75.3565,30.7855],[75.389,30.741],[75.4308,30.7419],[75.4405,30.7691],[75.5125,30.8156],[75.6063,30.8263],[75.6259,30.8808],[75.5613,30.9518],[75.5707,30.9971],[75.6963,30.9993],[75.8018,30.965],[75.9483,30.9674],[75.991,30.9319],[76.0956,30.9335],[76.1381,30.898],[76.2105,30.9441],[76.168,30.9796],[76.2092,31.0163],[76.2078,31.0884],[76.1233,31.1233],[76.1436,31.1597],[76.1219,31.1955],[76.1425,31.2138],[76.1408,31.304],[76.1821,31.3406],[76.1604,31.3764],[76.1811,31.3947],[76.1793,31.4849],[76.2208,31.5215],[76.2201,31.5576],[76.2619,31.5762],[76.2395,31.6481],[76.2813,31.6667],[76.291,31.7119],[76.3751,31.731],[76.3968,31.6952],[76.4604,31.6779],[76.5653,31.7151],[76.6286,31.7158],[76.6598,31.7432],[76.6586,31.8334],[76.7105,31.897],[76.9849,31.9355],[77.0268,31.9719],[77.048,31.972],[77.08,31.9452],[77.0803,31.9091],[77.1441,31.8735],[77.1662,31.7654],[77.2612,31.7569],[77.3244,31.7753],[77.3873,31.8477],[77.4296,31.8479],[77.4611,31.8751],[77.4607,31.9473],[77.4394,31.9652],[77.4495,32.0465],[77.492,32.0286],[77.7036,32.0292],[77.767,32.1015],[77.8411,32.1106],[77.8728,32.1918],[78.3606,32.2275],[78.4245,32.2814],[78.5094,32.2811],[78.5203,32.3262],[78.3933,32.4168],[78.4361,32.4889],[78.4681,32.4978],[78.5644,32.5966],[78.5647,32.6507],[78.5222,32.6689],[78.5224,32.705],[78.4588,32.7774],[78.491,32.8044],[78.5337,32.8042],[78.5552,32.8402],[78.5766,32.8401],[78.5977,32.8039],[78.7044,32.8034],[78.7141,32.6681],[78.8312,32.6584],[78.8522,32.6221],[78.9161,32.6217],[78.9496,32.7748],[78.9929,32.8286],[79.0358,32.8464],[79.0364,32.9005],[79.0686,32.9092],[79.1228,32.9719],[79.1232,33.008],[79.0599,33.0807],[79.0065,33.0901],[78.9961,33.1173],[79.1354,33.1252],[79.1667,33.0618],[79.1446,33.0078],[79.1761,32.9625],[79.241,33.016],[79.3052,33.0154],[79.3914,33.0506],[79.435,33.1043],[79.5322,33.1483],[79.5331,33.2024],[79.4159,33.2488],[79.2014,33.2509],[79.1582,33.2332],[79.0731,33.2881],[79.0308,33.3425],[78.9878,33.3428],[78.9335,33.2801],[78.9333,33.262],[78.9973,33.2255],[78.9859,33.1624],[78.943,33.1628],[78.9219,33.199],[78.8149,33.2177],[78.7838,33.3352],[78.741,33.3535],[78.7413,33.3895],[78.6449,33.4351],[78.5588,33.4175],[78.5055,33.4989],[78.4519,33.5261],[78.3555,33.6257],[78.3557,33.6978],[78.302,33.7431],[78.2589,33.7432],[78.2158,33.7793],[78.0647,33.7795],[78.0432,33.8877],[77.9136,33.8877],[77.8704,33.8336],[77.8164,33.8606],[77.8163,33.9147],[77.7946,33.9327],[77.827,33.9598],[77.9135,33.9779],[77.9135,33.996],[76.8535,33.9911],[76.8316,34.009]]],[[[78.3097,32.85],[78.331,32.8319],[78.2987,32.7508],[78.1174,32.7782],[78.1281,32.8052],[78.1921,32.8051],[78.235,32.8592],[78.3097,32.85]]]]}}]}