{"type":"FeatureCollection","features":[{"type":"Feature","properties":{"cell":3,"feature":85,"phase":"Unclassified","min_bt_K":229.0,"area_km2":173940,"cold_core_km2":0,"speed_kmh":76.7,"heading_deg":42,"d_min_bt_30":3.9,"age_min":30,"family":3,"touches_missing":true,"lon":79.4171,"lat":29.3794,"merges_splits_so_far":4},"geometry":{"type":"MultiPolygon","coordinates":[[[[78.1494,32.8052],[78.064,32.8053],[78.0213,32.7692],[77.9787,32.7692],[77.9254,32.706],[77.8721,32.697],[77.8508,32.6609],[77.6376,32.6785],[77.6164,32.6604],[77.4885,32.66],[77.4036,32.6055],[77.329,32.6142],[77.3296,32.524],[77.3939,32.4521],[77.3515,32.4339],[77.3308,32.3616],[77.2041,32.2707],[77.2258,32.2167],[77.2049,32.1805],[77.2476,32.1447],[77.2267,32.1085],[77.2587,32.0816],[77.4281,32.0824],[77.3966,32.0372],[77.4289,31.9562],[77.4606,31.9653],[77.4707,32.0465],[77.5343,32.0287],[77.5665,31.9296],[77.5243,31.9114],[77.5141,31.8483],[77.356,31.7845],[77.3571,31.6221],[77.2946,31.5316],[77.3898,31.4689],[77.4423,31.4782],[77.4222,31.3157],[77.5487,31.226],[77.5497,31.0095],[77.5081,30.9553],[77.5085,30.8831],[77.5817,30.8743],[77.5923,30.8473],[77.6447,30.8204],[77.7492,30.8026],[77.7702,30.7666],[77.812,30.7666],[77.8328,30.8027],[77.8642,30.7937],[77.8642,30.7757],[77.8225,30.7576],[77.8228,30.5592],[77.9062,30.5412],[77.9063,30.3969],[77.9272,30.3789],[77.9272,30.3608],[77.8648,30.3247],[78.3119,30.3154],[78.3742,30.2972],[78.4673,30.1976],[78.5078,29.999],[78.5596,29.9898],[78.6935,29.8719],[78.6933,29.8358],[78.7344,29.7995],[78.7339,29.7273],[78.6299,29.6376],[78.6298,29.6196],[78.671,29.6014],[78.6605,29.5743],[78.5779,29.5747],[78.4746,29.5391],[78.4335,29.5753],[78.3715,29.5755],[78.3508,29.5575],[78.2891,29.6118],[78.2065,29.6119],[78.1962,29.657],[78.1137,29.7113],[78.1344,29.7473],[78.0517,29.8015],[78.0517,29.8376],[77.9793,29.8827],[77.9379,29.8827],[77.8239,29.9638],[77.8237,30.054],[77.8029,30.0901],[77.6677,30.189],[77.6574,30.1619],[77.616,30.1438],[77.6162,30.0716],[77.575,30.0174],[77.5336,29.9992],[77.5132,29.9269],[77.472,29.8907],[77.4931,29.8186],[77.4519,29.7824],[77.4522,29.7282],[77.4316,29.7101],[77.4733,29.6381],[77.4322,29.6018],[77.4326,29.5297],[77.4741,29.4938],[77.4752,29.2772],[77.4343,29.2229],[77.4347,29.1508],[77.3937,29.1325],[77.3735,29.0783],[77.3946,28.9882],[77.3536,28.9699],[77.3438,28.9067],[77.313,28.9156],[77.2818,28.9786],[77.1381,28.9777],[77.0968,29.0135],[77.0358,28.9409],[76.9847,28.9315],[76.9444,28.859],[77.0372,28.7966],[77.0683,28.7517],[77.048,28.7335],[77.0691,28.6615],[77.0284,28.6431],[77.029,28.5709],[76.9887,28.5165],[77.0503,28.4809],[77.0508,28.4267],[77.1022,28.382],[77.2046,28.3285],[77.2454,28.3287],[77.2661,28.2927],[77.3884,28.2934],[77.399,28.2122],[77.4297,28.1853],[77.4908,28.1855],[77.5317,28.1496],[77.5928,28.1498],[77.6032,28.0866],[77.6542,28.0416],[77.766,28.087],[77.776,28.1863],[77.8167,28.1864],[77.9389,28.1143],[78.0611,28.1143],[78.0712,28.0511],[78.1118,28.015],[78.1118,27.9428],[78.1523,27.8886],[78.132,27.8525],[78.1522,27.8344],[78.1521,27.7442],[78.1926,27.7261],[78.2431,27.6267],[78.3647,27.6264],[78.3848,27.5903],[78.4861,27.5899],[78.5062,27.5538],[78.5467,27.5536],[78.5671,27.5896],[78.628,27.6074],[78.6376,27.5261],[78.6882,27.5168],[78.7082,27.4806],[78.7284,27.4805],[78.7793,27.5253],[78.7796,27.5614],[78.81,27.5703],[78.83,27.5341],[78.8705,27.5338],[78.8804,27.5067],[78.9608,27.4519],[78.9603,27.3978],[78.9906,27.3885],[79.0906,27.2794],[79.131,27.2791],[79.1508,27.2428],[79.2118,27.2784],[79.2521,27.278],[79.3407,27.0875],[79.4711,27.041],[79.5122,27.0947],[79.6746,27.165],[79.757,27.2722],[79.7974,27.2717],[79.8574,27.2347],[79.9384,27.2516],[80.062,27.3761],[80.1637,27.4106],[80.1748,27.4555],[80.2259,27.4817],[80.2961,27.4535],[80.2751,27.4177],[80.2946,27.3813],[80.3247,27.3717],[80.5194,27.4855],[80.5203,27.5216],[80.5819,27.5565],[80.5832,27.6106],[80.6254,27.682],[80.6069,27.7546],[80.6686,27.7894],[80.6713,27.8977],[80.7427,27.9052],[80.866,27.9568],[80.9473,27.955],[80.9686,27.9906],[81.0301,28.0072],[81.0514,28.0428],[81.0921,28.0419],[81.1031,28.0687],[81.1861,28.1209],[81.2295,28.2101],[81.3028,28.2714],[81.354,28.2792],[81.3552,28.3152],[81.4187,28.3858],[81.4018,28.4945],[81.4234,28.5301],[81.4648,28.547],[81.4678,28.6372],[81.3761,28.6486],[81.3679,28.712],[81.3883,28.7115],[81.3977,28.6841],[81.4591,28.6825],[81.4807,28.7181],[81.5738,28.7427],[81.5756,28.7968],[81.6179,28.8317],[81.6627,28.9387],[81.705,28.9737],[81.7063,29.0097],[81.7811,29.0888],[81.8222,29.0876],[81.854,29.1138],[81.9637,29.291],[82.0055,29.3078],[81.9864,29.3444],[82.0532,29.4687],[81.9814,29.4799],[81.9181,29.4457],[81.8982,29.4644],[81.7951,29.4674],[81.7146,29.5238],[81.6933,29.5063],[81.6534,29.5435],[81.6121,29.5447],[81.5821,29.5726],[81.5834,29.6086],[81.6906,29.7139],[81.6606,29.7418],[81.5779,29.7441],[81.5691,29.7895],[81.5911,29.825],[81.5297,29.8446],[81.5316,29.8987],[81.563,29.9069],[81.5749,29.9517],[81.617,29.9686],[81.6183,30.0047],[81.5681,30.0511],[81.526,30.0342],[81.4242,30.091],[81.2997,30.0942],[81.1876,30.1601],[81.1911,30.2683],[81.2772,30.3564],[81.2784,30.3924],[81.3219,30.4455],[81.3237,30.4996],[81.2826,30.5186],[81.2851,30.5907],[81.4449,30.6859],[81.591,30.682],[81.6334,30.6989],[81.6462,30.7617],[81.5943,30.7722],[81.5304,30.7378],[81.4468,30.74],[81.4253,30.7225],[81.3424,30.7427],[81.2792,30.7262],[81.2147,30.6736],[81.1521,30.6752],[81.1307,30.6576],[80.8172,30.6466],[80.7867,30.6743],[80.8417,30.7724],[81.1269,30.8652],[81.1281,30.9012],[80.9442,31.0498],[80.9453,31.0859],[81.0206,31.1473],[81.1884,31.1434],[81.2208,31.1697],[81.2232,31.2418],[81.1728,31.3061],[81.1302,31.2891],[81.0263,31.3276],[81.0042,31.292],[80.9735,31.3198],[80.9951,31.3373],[80.9871,31.4187],[80.8609,31.4215],[80.8388,31.3859],[80.7968,31.3868],[80.7763,31.4052],[80.5665,31.4275],[80.5459,31.4459],[80.4394,31.3938],[80.1236,31.3812],[80.0808,31.3458],[80.0177,31.3467],[79.9429,31.2847],[79.9315,31.2398],[79.8475,31.241],[79.6996,31.1888],[79.657,31.1533],[79.5099,31.137],[79.3197,31.0308],[79.2569,31.0314],[79.2258,31.0588],[79.206,31.1491],[79.1647,31.2036],[79.1123,31.2131],[79.071,31.2676],[78.966,31.2684],[78.9236,31.2326],[78.8187,31.2333],[78.8089,31.3145],[78.9468,31.4489],[78.9994,31.4575],[79.0002,31.5297],[79.0857,31.6373],[79.0861,31.6733],[79.1498,31.7089],[79.1722,31.8169],[79.2251,31.8255],[79.3644,31.9594],[79.3226,31.9959],[79.2818,32.1046],[79.41,32.1754],[79.4334,32.3195],[79.4761,32.3371],[79.4776,32.4273],[79.4033,32.4371],[79.253,32.3303],[79.1898,32.367],[79.1149,32.3225],[79.1144,32.2865],[79.0716,32.2507],[79.0705,32.1605],[79.0279,32.1428],[79.0271,32.0707],[79.1114,32.0339],[79.1108,31.9798],[79.1317,31.9616],[79.0888,31.9078],[79.0036,31.8544],[78.9926,31.8094],[78.9078,31.7739],[78.8233,31.7744],[78.7924,31.8558],[78.8136,31.8737],[78.8144,31.9639],[78.7723,31.9822],[78.7727,32.0363],[78.8154,32.0722],[78.8264,32.1172],[78.9535,32.1163],[78.975,32.1523],[79.0281,32.1609],[79.0287,32.215],[78.9865,32.2334],[78.9871,32.2875],[79.0299,32.3232],[79.0303,32.3593],[78.988,32.3777],[78.9685,32.5402],[78.7452,32.5687],[78.6171,32.5152],[78.5323,32.5697],[78.4896,32.5518],[78.4578,32.579],[78.458,32.6151],[78.4048,32.6243],[78.2561,32.7689],[78.1707,32.7691],[78.1494,32.8052]]],[[[79.6297,27.5356],[79.6272,27.3732],[79.5865,27.3556],[79.5858,27.3015],[79.6057,27.2832],[79.575,27.2565],[79.5889,27.5181],[79.6297,27.5356]]],[[[80.182,27.8164],[80.1813,27.7803],[80.14,27.7449],[80.1389,27.6908],[80.1791,27.6721],[80.1485,27.6636],[80.0987,27.7095],[80.0994,27.7456],[80.1404,27.763],[80.1414,27.8171],[80.182,27.8164]]],[[[80.2897,28.1034],[80.259,28.0949],[80.2482,28.068],[80.328,27.9944],[80.287,27.9771],[80.3264,27.9223],[80.2958,27.9138],[80.2333,27.8427],[80.2237,27.8699],[80.2858,27.923],[80.2862,27.941],[80.2459,27.9598],[80.2877,28.0132],[80.2075,28.0687],[80.2593,28.113],[80.2897,28.1034]]],[[[79.556,28.0419],[79.5547,27.9517],[79.5138,27.9341],[79.5027,27.8711],[79.4935,27.9344],[79.514,27.9522],[79.5151,28.0244],[79.556,28.0419]]],[[[79.6214,28.3299],[79.6613,28.2753],[79.5994,28.2219],[79.5986,28.1678],[79.639,28.1492],[79.6081,28.1225],[79.5581,28.1863],[79.5586,28.2224],[79.641,28.2755],[79.6412,28.2936],[79.6007,28.3121],[79.601,28.3302],[79.6214,28.3299]]],[[[80.6478,28.584],[80.6464,28.5299],[80.6051,28.5127],[80.5312,28.4149],[80.5013,28.4425],[80.5843,28.495],[80.6069,28.5848],[80.6478,28.584]]],[[[81.882,29.3115],[81.8176,29.2411],[81.8156,29.1871],[81.7738,29.1702],[81.7612,29.1074],[81.732,29.1534],[81.7745,29.1882],[81.7764,29.2423],[81.8076,29.2505],[81.8721,29.3208],[81.882,29.3115]]],[[[80.8664,29.8246],[80.8659,29.8066],[80.824,29.7894],[80.8225,29.7353],[80.8623,29.6803],[80.8512,29.6535],[80.8416,29.6808],[80.8008,29.6997],[80.8033,29.7899],[80.8664,29.8246]]],[[[81.5134,29.9714],[81.5329,29.9348],[81.4895,29.8818],[81.4049,29.8299],[81.4244,29.7933],[81.3924,29.767],[81.3842,29.8304],[81.4594,29.9097],[81.4908,29.9179],[81.4927,29.9719],[81.5134,29.9714]]],[[[80.7492,30.0797],[80.7896,30.0428],[80.7881,29.9887],[80.8695,29.9328],[80.7735,29.8356],[80.7639,29.8629],[80.8058,29.88],[80.828,29.9337],[80.7674,29.9891],[80.7689,30.0432],[80.7279,30.0621],[80.7284,30.0801],[80.7492,30.0797]]],[[[81.0243,30.2541],[80.9795,30.1469],[80.9369,30.1117],[80.9364,30.0937],[80.9773,30.0748],[80.9236,30.0128],[80.914,30.0401],[80.9358,30.0757],[80.9162,30.1122],[80.9374,30.1298],[80.939,30.1839],[80.9811,30.201],[80.9827,30.2551],[81.0243,30.2541]]],[[[81.2225,30.5923],[81.1987,30.5026],[81.1565,30.4856],[81.1559,30.4676],[81.197,30.4485],[81.194,30.3584],[81.1625,30.3501],[81.1356,30.4861],[81.157,30.5036],[81.1588,30.5577],[81.2225,30.5923]]],[[[78.9227,32.2158],[78.9118,32.1888],[78.8801,32.198],[78.891,32.225],[78.9227,32.2158]]],[[[78.882,32.3964],[78.8708,32.3334],[78.8283,32.3337],[78.764,32.2619],[78.711,32.2712],[78.7114,32.3253],[78.7753,32.343],[78.7864,32.4061],[78.882,32.3964]]]]}},{"type":"Feature","properties":{"cell":7,"feature":87,"phase":"Unclassified","min_bt_K":232.0,"area_km2":12664,"cold_core_km2":0,"speed_kmh":90.4,"heading_deg":12,"d_min_bt_30":1.5,"age_min":30,"family":3,"touches_missing":true,"lon":75.2445,"lat":30.6247,"merges_splits_so_far":1},"geometry":{"type":"MultiPolygon","coordinates":[[[[75.4105,31.4992],[75.2847,31.4787],[75.2129,31.414],[75.235,31.3784],[75.1746,31.2869],[75.1331,31.268],[75.1375,31.1237],[75.1595,31.0881],[75.1186,31.0512],[75.2045,30.9808],[75.1444,30.8894],[75.147,30.7992],[75.1063,30.7622],[75.1497,30.709],[75.1208,30.6272],[75.079,30.6263],[75.0384,30.5893],[74.9133,30.5865],[74.8722,30.5675],[74.8395,30.6118],[74.8592,30.6484],[74.8371,30.6839],[74.833,30.8101],[74.7906,30.8271],[74.79,30.8452],[74.8313,30.8642],[74.8295,30.9183],[74.808,30.9358],[74.8271,30.9904],[74.7511,31.0697],[74.7092,31.0687],[74.68,31.0048],[74.6184,30.9672],[74.6272,30.7148],[74.5652,30.6952],[74.5867,30.6777],[74.5886,30.6236],[74.5481,30.5865],[74.5703,30.551],[74.5722,30.4969],[74.552,30.4783],[74.5747,30.4248],[74.5349,30.3696],[74.5576,30.3161],[74.5173,30.2789],[74.5614,30.2079],[74.5211,30.1708],[74.5425,30.1533],[74.5456,30.0632],[74.6097,30.0107],[74.6109,29.9746],[74.7482,29.8969],[74.8104,29.8984],[74.8501,29.9535],[74.9117,29.973],[75.0997,29.9231],[75.2033,29.9253],[75.2437,29.9623],[75.2851,29.9631],[75.3565,30.0097],[75.3353,30.0273],[75.3758,30.0642],[75.3744,30.1183],[75.3946,30.1367],[75.3724,30.1904],[75.4638,30.2734],[75.5262,30.2746],[75.5673,30.2934],[75.6076,30.3482],[75.9586,30.4804],[76.0503,30.581],[75.9446,30.6516],[75.9438,30.6877],[76.0057,30.7247],[76.0049,30.7608],[75.9734,30.7693],[75.8986,30.8493],[75.8978,30.8854],[75.7407,30.8918],[75.666,30.9537],[75.6651,30.9898],[75.6121,31.0159],[75.526,31.1045],[75.4841,31.1037],[75.4193,31.1746],[75.3666,31.1826],[75.3836,31.3273],[75.4672,31.3469],[75.4653,31.4191],[75.4223,31.4543],[75.4105,31.4992]]],[[[75.1127,30.5459],[75.1549,30.5287],[75.1581,30.4206],[75.1068,30.3924],[75.0647,30.4095],[75.0236,30.3905],[75.0534,30.4363],[75.0513,30.5084],[75.1127,30.5459]]]]}},{"type":"Feature","properties":{"cell":9,"feature":90,"phase":"Unclassified","min_bt_K":230.0,"area_km2":45732,"cold_core_km2":0,"speed_kmh":74.1,"heading_deg":348,"d_min_bt_30":1.0,"age_min":30,"family":3,"touches_missing":true,"lon":76.7269,"lat":32.9842,"merges_splits_so_far":3},"geometry":{"type":"MultiPolygon","coordinates":[[[[79.4713,34.006],[79.1684,34.009],[79.1465,33.9911],[78.0865,33.996],[78.0757,33.9509],[77.9676,33.8607],[77.946,33.8065],[77.8705,33.7975],[77.849,33.7614],[77.7842,33.7613],[77.7196,33.7251],[77.6338,33.6166],[77.4828,33.6522],[77.44,33.6159],[77.3107,33.6153],[77.267,33.6873],[77.0942,33.7223],[77.0398,33.767],[77.0176,33.821],[77.0378,33.9474],[77.0698,33.9928],[76.3773,34.0042],[76.3563,33.9679],[76.3131,33.9673],[76.2691,34.0029],[76.0528,33.9999],[76.0107,33.9452],[75.9026,33.9435],[75.8929,33.8982],[75.8506,33.8615],[75.8515,33.8254],[75.8092,33.7886],[75.8105,33.7345],[75.727,33.6249],[75.749,33.6072],[75.5816,33.4239],[75.5846,33.3156],[75.6499,33.2807],[75.6732,33.209],[75.7271,33.2009],[75.7362,33.2642],[75.84,33.4102],[75.8926,33.4562],[75.9356,33.4569],[75.9563,33.4933],[75.9888,33.4847],[75.9904,33.4126],[75.9478,33.3939],[75.9487,33.3578],[75.8956,33.3299],[75.8014,33.2292],[75.7822,33.1387],[75.8045,33.1029],[75.8478,33.0856],[75.8486,33.0495],[75.8927,32.9961],[75.8722,32.9597],[75.8743,32.8695],[76.0261,32.7636],[76.0924,32.6563],[75.977,32.5734],[75.8522,32.4452],[75.7246,32.4431],[75.7029,32.4608],[75.5536,32.4761],[75.5333,32.4397],[75.469,32.4565],[75.4378,32.4289],[75.4611,32.3571],[75.4211,32.2662],[75.4226,32.2121],[75.4443,32.1944],[75.4241,32.158],[75.4675,32.1227],[75.4699,32.0326],[75.5147,31.9432],[75.6006,31.8907],[75.6039,31.7644],[75.5832,31.746],[75.6052,31.7103],[75.4619,31.5453],[75.5148,31.5373],[75.5977,31.5929],[75.6609,31.5941],[75.8695,31.6878],[75.8787,31.7511],[75.9308,31.7789],[75.9846,31.7347],[76.0087,31.5907],[76.0302,31.573],[76.032,31.4828],[76.0745,31.4654],[76.0752,31.4293],[76.2111,31.4763],[76.3386,31.4058],[76.3502,31.3428],[76.4032,31.3164],[76.4343,31.3438],[76.3913,31.3974],[76.4115,31.4518],[76.3898,31.4876],[76.431,31.5422],[76.3248,31.5951],[76.3238,31.6492],[76.3855,31.7401],[76.3849,31.7762],[76.4265,31.8128],[76.4026,31.9749],[76.4446,31.9934],[76.4434,32.0655],[76.484,32.1743],[76.4622,32.2101],[76.5041,32.2466],[76.5035,32.2827],[76.5983,32.3289],[76.6083,32.3741],[76.64,32.3834],[76.6607,32.4197],[76.8308,32.4213],[76.8408,32.4665],[76.8829,32.5029],[76.8821,32.5751],[76.9244,32.5935],[77.019,32.7115],[77.1042,32.7301],[77.1685,32.6944],[77.2751,32.6951],[77.361,32.6053],[77.4036,32.6055],[77.4885,32.66],[77.7016,32.6787],[77.7226,32.7689],[77.9146,32.7692],[77.9466,32.8143],[77.9466,32.8684],[77.8718,32.8774],[77.861,32.9405],[77.7969,32.9585],[77.8716,33.0578],[77.893,33.0578],[77.9144,33.0217],[77.9572,33.0217],[77.9786,33.0578],[78.1927,33.0577],[78.2464,33.1388],[78.386,33.2196],[78.4723,33.3096],[78.6011,33.3091],[78.6442,33.3449],[78.7301,33.3445],[78.7414,33.4076],[78.7739,33.4345],[78.8384,33.4341],[78.8487,33.3889],[78.9019,33.3434],[78.9449,33.3432],[78.9565,33.4243],[78.9999,33.46],[79.0005,33.5141],[78.9146,33.5328],[78.894,33.6232],[78.991,33.6315],[79.0243,33.7124],[79.1437,33.7746],[79.3166,33.7911],[79.4686,33.8436],[79.5236,33.9061],[79.4713,34.006]]],[[[77.1753,33.1184],[77.1652,33.0552],[77.0795,33.0547],[77.0585,33.0184],[77.0263,33.0272],[77.0261,33.0453],[77.0687,33.0636],[77.0788,33.1268],[77.1753,33.1184]]]]}},{"type":"Feature","properties":{"cell":12,"feature":65,"phase":"Unclassified","min_bt_K":241.0,"area_km2":1212,"cold_core_km2":0,"speed_kmh":null,"heading_deg":null,"d_min_bt_30":null,"age_min":0,"family":12,"touches_missing":true,"lon":76.3558,"lat":27.7821,"merges_splits_so_far":0},"geometry":{"type":"MultiPolygon","coordinates":[[[[76.0273,28.0273],[75.9776,27.9634],[75.9783,27.9273],[76.0096,27.8827],[76.0496,27.9194],[76.0805,27.8927],[76.1015,27.8569],[76.0815,27.8386],[76.0825,27.7845],[76.1134,27.7578],[76.2354,27.7415],[76.2956,27.7784],[76.3473,27.7158],[76.4187,27.6896],[76.501,27.6003],[76.6223,27.6197],[76.6524,27.6471],[76.6403,27.8004],[76.4171,27.7979],[76.2836,27.8955],[76.2934,27.9227],[76.1089,28.0105],[76.0479,28.0096],[76.0273,28.0273]]]]}}]}