{"type":"FeatureCollection","features":[{"type":"Feature","properties":{"cell":3,"feature":138,"phase":"Unclassified","min_bt_K":229.3,"area_km2":159832,"cold_core_km2":0,"speed_kmh":46.2,"heading_deg":131,"d_min_bt_30":0.3,"age_min":60,"family":3,"touches_missing":true,"lon":79.5964,"lat":29.2428,"merges_splits_so_far":5},"geometry":{"type":"MultiPolygon","coordinates":[[[[78.8684,32.0808],[78.826,32.0811],[78.7726,32.0183],[78.7088,31.9826],[78.6977,31.9195],[78.6343,31.9198],[78.56,31.875],[78.5489,31.7759],[78.4539,31.7852],[78.4536,31.7131],[78.3688,31.6051],[78.3474,31.533],[78.4209,31.4877],[78.4841,31.4875],[78.4945,31.4604],[78.4313,31.4426],[78.4311,31.4065],[78.389,31.3886],[78.3677,31.3165],[78.2729,31.2536],[78.231,31.2717],[78.126,31.2718],[78.105,31.2358],[78.063,31.2358],[78.0524,31.1726],[78.0,31.1276],[77.9371,31.1456],[77.9057,31.1185],[77.8847,31.0824],[77.9057,31.0283],[77.8324,31.0192],[77.8221,30.9561],[77.7593,30.9379],[77.7595,30.8658],[77.7178,30.8296],[77.718,30.7755],[77.7911,30.7666],[77.8226,30.6674],[77.8644,30.6494],[77.8853,30.5953],[77.8646,30.5051],[77.9167,30.46],[77.9896,30.451],[77.9688,30.3969],[78.0312,30.3247],[78.0312,30.2526],[77.9688,30.2165],[77.9689,30.1624],[77.8963,30.0811],[77.834,30.0811],[77.7925,30.1171],[77.6784,30.1079],[77.658,29.9815],[77.6167,29.9634],[77.6169,29.8912],[77.5757,29.855],[77.6172,29.819],[77.6174,29.7829],[77.5761,29.7648],[77.5969,29.7288],[77.5767,29.6204],[77.5974,29.6025],[77.5563,29.5662],[77.5565,29.5121],[77.4539,29.4035],[77.4336,29.3492],[77.4028,29.3401],[77.3517,29.2767],[77.3519,29.2406],[77.3933,29.2047],[77.3319,29.1503],[77.3323,29.0961],[77.2605,29.0867],[77.2397,29.1227],[77.1575,29.1222],[77.1372,29.086],[77.0345,29.0853],[77.0248,29.0221],[77.1281,28.9506],[77.1287,28.8784],[77.1493,28.8605],[77.1501,28.7703],[77.1094,28.7339],[77.1302,28.698],[77.1311,28.5897],[77.1723,28.5539],[77.1933,28.4818],[77.2446,28.437],[77.4696,28.3659],[77.612,28.4566],[77.7141,28.4749],[77.8674,28.3579],[77.8675,28.2857],[77.8879,28.2677],[77.8676,28.2315],[77.8982,28.2045],[78.0,28.1865],[78.0916,28.1052],[78.0915,28.0511],[78.1322,28.033],[78.1321,27.9428],[78.1828,27.8976],[78.2234,27.8975],[78.2335,27.8704],[78.2741,27.8523],[78.2739,27.7981],[78.3145,27.78],[78.3243,27.6626],[78.6284,27.6796],[78.7087,27.5709],[78.8302,27.5702],[78.8406,27.5972],[78.871,27.606],[78.8809,27.5789],[79.0016,27.4877],[79.0111,27.4245],[79.1021,27.4147],[79.1015,27.3606],[79.1314,27.3152],[79.182,27.3238],[79.1927,27.3868],[79.2534,27.3863],[79.303,27.3046],[79.2817,27.2145],[79.4116,27.1139],[79.4519,27.1134],[79.5918,27.0215],[79.6321,27.021],[79.703,27.0472],[79.7655,27.1728],[79.8574,27.2347],[79.9372,27.1794],[80.0175,27.1601],[80.1006,27.2852],[80.1814,27.2839],[80.2431,27.337],[80.2835,27.3363],[80.3144,27.3629],[80.377,27.452],[80.3576,27.4885],[80.3885,27.515],[80.4385,27.487],[80.4377,27.4509],[80.4872,27.4049],[80.5277,27.4041],[80.569,27.4394],[80.6503,27.4558],[80.7227,27.5175],[80.7438,27.5532],[80.7475,27.6975],[80.7286,27.7521],[80.7696,27.7693],[80.7932,27.8951],[80.8244,27.9216],[80.8853,27.9202],[80.9061,27.9378],[81.1093,27.9332],[81.2141,28.039],[81.2653,28.0467],[81.2664,28.0828],[81.3494,28.1349],[81.3155,28.3523],[81.4612,28.4388],[81.4624,28.4749],[81.5249,28.5093],[81.5682,28.5804],[81.5918,28.67],[81.513,28.7623],[81.3597,28.7754],[81.3298,28.8032],[81.3316,28.8573],[81.3116,28.8758],[81.3345,28.9474],[81.3661,28.9737],[81.4693,28.9891],[81.5055,28.8438],[81.5464,28.8427],[81.5893,28.8956],[81.6912,28.8748],[81.8188,28.9975],[81.9235,29.0486],[82.1034,29.1784],[82.1467,29.2312],[82.1276,29.2679],[82.1702,29.3027],[82.1511,29.3394],[82.1769,29.4649],[81.9394,29.4631],[81.8583,29.5016],[81.6727,29.5069],[81.6427,29.5348],[81.7333,29.7488],[81.7026,29.7587],[81.6599,29.7238],[81.6186,29.725],[81.5691,29.7895],[81.6125,29.8424],[81.6545,29.8593],[81.6565,29.9134],[81.6985,29.9303],[81.6999,29.9663],[81.7427,30.0012],[81.7668,30.0907],[81.6323,30.1035],[81.5921,30.1407],[81.4688,30.1801],[81.4216,30.3166],[81.4253,30.4248],[81.4897,30.4772],[81.4695,30.4958],[81.4923,30.5493],[81.4727,30.5859],[81.5157,30.6209],[81.517,30.6569],[81.6348,30.735],[81.6462,30.7617],[81.6159,30.7896],[81.5741,30.7907],[81.5526,30.7733],[81.469,30.7755],[81.4259,30.7405],[81.2798,30.7442],[81.2368,30.7092],[80.966,30.7336],[80.9574,30.7969],[81.0224,30.8676],[81.0246,30.9397],[80.9731,30.968],[80.8685,30.9703],[80.8481,30.9887],[80.8164,30.9804],[80.8052,30.9536],[80.7424,30.9549],[80.7122,31.0006],[80.7235,31.0274],[80.7863,31.0261],[80.8502,31.0609],[81.0393,31.0747],[81.0609,31.0923],[81.1447,31.0903],[81.2261,31.0162],[81.3835,31.0213],[81.3746,31.0666],[81.2908,31.0687],[81.2297,31.1243],[81.1465,31.1444],[81.1159,31.1722],[81.117,31.2082],[81.0348,31.2643],[81.036,31.3003],[81.0786,31.3174],[81.0905,31.3622],[81.1223,31.3705],[81.1241,31.4246],[81.1884,31.4591],[81.168,31.4776],[81.1896,31.4952],[81.1806,31.5405],[81.0008,31.5176],[80.9991,31.4635],[81.0303,31.4538],[81.04,31.4265],[80.9553,31.4104],[80.9332,31.3748],[80.9508,31.2661],[80.9185,31.2398],[80.7296,31.2438],[80.6886,31.2807],[80.6364,31.2908],[80.6276,31.3541],[80.5641,31.3373],[80.5548,31.3826],[80.6286,31.3902],[80.6486,31.3537],[80.7747,31.3511],[80.8178,31.3863],[80.8809,31.385],[80.8933,31.4478],[80.937,31.501],[80.9279,31.5463],[80.8437,31.5481],[80.8232,31.5666],[80.5704,31.5717],[80.3996,31.4847],[80.2523,31.4873],[80.2308,31.4696],[80.1792,31.5156],[80.1602,31.6061],[80.1292,31.6337],[80.0871,31.6343],[80.0541,31.5717],[80.074,31.5173],[80.0422,31.5087],[80.0204,31.473],[79.9359,31.4562],[79.8072,31.3317],[79.6805,31.2973],[79.6166,31.244],[79.5536,31.2447],[79.4789,31.1644],[79.4783,31.1283],[79.4252,31.0838],[79.3624,31.0845],[79.3313,31.1119],[79.2503,31.3291],[79.272,31.383],[79.2196,31.3926],[79.1983,31.3747],[79.1782,31.4471],[79.094,31.4478],[79.0728,31.4299],[78.9788,31.4938],[78.9793,31.5479],[79.0006,31.5658],[78.9799,31.602],[79.1084,31.7814],[79.0877,31.8176],[79.1304,31.8534],[79.1308,31.8894],[78.9722,31.8817],[78.9513,31.8999],[78.8667,31.9004],[78.8684,32.0808]]],[[[79.8529,27.5688],[79.8526,27.5507],[79.8928,27.5321],[79.8514,27.4785],[79.8106,27.461],[79.8097,27.4069],[79.769,27.3894],[79.7787,27.3622],[79.8088,27.3527],[79.7977,27.2897],[79.7678,27.3172],[79.7488,27.3897],[79.8112,27.4971],[79.852,27.5146],[79.8124,27.5693],[79.8529,27.5688]]],[[[80.3472,27.94],[80.3663,27.8855],[80.3356,27.877],[80.3249,27.8501],[80.3647,27.8133],[80.3237,27.796],[80.3225,27.7418],[80.3623,27.705],[80.3214,27.6877],[80.3179,27.5253],[80.2873,27.5168],[80.2804,27.6704],[80.3221,27.7238],[80.282,27.7425],[80.2827,27.7786],[80.3245,27.8321],[80.2843,27.8508],[80.3257,27.8862],[80.3268,27.9403],[80.3472,27.94]]],[[[80.4996,28.3703],[80.5391,28.3154],[80.5083,28.307],[80.4766,28.2625],[80.4949,28.1719],[80.4737,28.1362],[80.4325,28.1189],[80.4313,28.0648],[80.3902,28.0475],[80.389,27.9934],[80.4292,27.9746],[80.4185,27.9477],[80.3687,27.9937],[80.3699,28.0478],[80.3906,28.0655],[80.3723,28.1561],[80.4226,28.1281],[80.4334,28.155],[80.4745,28.1723],[80.4758,28.2264],[80.4454,28.236],[80.4359,28.2632],[80.477,28.2805],[80.4983,28.3162],[80.4792,28.3707],[80.4996,28.3703]]],[[[79.4822,28.5842],[79.482,28.5662],[79.4408,28.5486],[79.4298,28.4855],[79.4103,28.5579],[79.3692,28.5403],[79.3386,28.5497],[79.3694,28.5584],[79.3903,28.5943],[79.4209,28.5849],[79.4307,28.5577],[79.4822,28.5842]]],[[[80.9406,28.8124],[80.9401,28.7944],[80.8986,28.7773],[80.8747,28.6515],[80.8437,28.6431],[80.8347,28.6884],[80.8766,28.7236],[80.8781,28.7777],[80.9406,28.8124]]],[[[81.0483,28.9905],[81.0467,28.9364],[81.0052,28.9193],[81.0225,28.8106],[80.991,28.7842],[80.9847,28.9197],[81.0068,28.9734],[81.0483,28.9905]]],[[[81.414,29.4868],[81.4128,29.4507],[81.3709,29.4338],[81.3692,29.3797],[81.4098,29.3606],[81.3986,29.3338],[81.3486,29.3802],[81.3503,29.4343],[81.3727,29.4879],[81.414,29.4868]]],[[[81.3038,29.9046],[81.302,29.8505],[81.2707,29.8423],[81.2595,29.8155],[81.3003,29.7964],[81.3398,29.7413],[81.2979,29.7243],[81.2867,29.6975],[81.2772,29.7248],[81.2991,29.7604],[81.2394,29.834],[81.2618,29.8876],[81.3038,29.9046]]],[[[80.8311,30.0419],[80.8306,30.0239],[80.7886,30.0067],[80.7871,29.9526],[80.7659,29.935],[80.8058,29.88],[80.7735,29.8356],[80.7649,29.8989],[80.7341,29.9086],[80.7245,29.9359],[80.7664,29.953],[80.7896,30.0428],[80.8311,30.0419]]],[[[80.3559,30.1234],[80.3537,30.0332],[80.3943,29.9964],[80.363,29.9879],[80.3415,29.9522],[80.3317,29.9795],[80.3533,30.0152],[80.3131,30.07],[80.3139,30.1061],[80.3559,30.1234]]],[[[80.0301,30.4355],[80.0279,30.3273],[80.1095,30.2538],[80.0989,30.245],[79.9863,30.3279],[79.9885,30.4361],[80.0301,30.4355]]],[[[81.3697,30.6247],[81.3421,30.4269],[81.2998,30.4099],[81.2766,30.3383],[81.2333,30.2853],[81.2018,30.277],[81.2344,30.3213],[81.2362,30.3754],[81.2677,30.3837],[81.3004,30.428],[81.3023,30.482],[81.3445,30.499],[81.3047,30.5542],[81.347,30.5711],[81.3488,30.6252],[81.3697,30.6247]]]]}},{"type":"Feature","properties":{"cell":7,"feature":139,"phase":"Developing","min_bt_K":231.2,"area_km2":20356,"cold_core_km2":0,"speed_kmh":119.5,"heading_deg":23,"d_min_bt_30":-0.8,"age_min":60,"family":3,"touches_missing":true,"lon":75.4894,"lat":31.1207,"merges_splits_so_far":3},"geometry":{"type":"MultiPolygon","coordinates":[[[[76.1359,32.0887],[76.0511,32.0874],[75.9792,31.9871],[75.8854,31.9225],[75.8012,31.9031],[75.7702,31.8756],[75.7714,31.8215],[75.678,31.7567],[75.6461,31.7652],[75.6447,31.8193],[75.548,31.8807],[75.4424,31.8787],[75.4311,31.9055],[75.3342,31.9668],[75.3249,31.9215],[75.2429,31.8296],[75.2456,31.7394],[75.2044,31.7025],[75.206,31.6484],[75.1855,31.6299],[75.2292,31.5767],[75.2098,31.5222],[75.2534,31.469],[75.2145,31.3599],[75.2586,31.2887],[75.2392,31.2342],[75.2407,31.1801],[75.2622,31.1625],[75.2234,31.0534],[75.2249,30.9993],[75.2464,30.9817],[75.226,30.9633],[75.2275,30.9092],[75.2495,30.8735],[75.2092,30.8186],[75.2408,30.8102],[75.2734,30.7658],[75.2541,30.7113],[75.2968,30.676],[75.2983,30.622],[75.2083,30.4848],[75.1336,30.5463],[75.1314,30.6184],[75.2128,30.6923],[75.2123,30.7104],[75.1486,30.7451],[75.1664,30.8537],[75.1133,30.8797],[75.1052,30.7983],[75.0747,30.7706],[74.9477,30.8218],[74.9279,30.7853],[74.9172,30.7941],[74.9364,30.8486],[74.8719,30.9012],[74.8713,30.9193],[74.9126,30.9383],[74.912,30.9563],[74.8696,30.9734],[74.8678,31.0274],[74.899,31.0372],[74.9086,31.0645],[74.8661,31.0815],[74.8626,31.1897],[74.778,31.2057],[74.7811,31.1156],[74.8032,31.08],[74.7619,31.061],[74.7637,31.0069],[74.7021,30.9693],[74.7046,30.8972],[74.6634,30.8781],[74.6475,30.7334],[74.6272,30.7148],[74.6309,30.6067],[74.6107,30.5881],[74.6126,30.534],[74.634,30.5165],[74.5936,30.4794],[74.5955,30.4253],[74.5545,30.4062],[74.557,30.3341],[74.5167,30.297],[74.5595,30.262],[74.562,30.1899],[74.5419,30.1713],[74.606,30.1189],[74.5865,30.0823],[74.6505,30.0298],[74.653,29.9577],[74.6849,29.9314],[74.7477,29.9149],[74.9542,29.9379],[74.9632,29.9832],[75.0036,30.0202],[75.0025,30.0563],[75.054,30.0664],[75.0945,30.1034],[75.1152,30.1039],[75.1689,30.0419],[75.1709,29.9698],[75.2023,29.9614],[75.2119,29.9887],[75.1906,30.0063],[75.2215,30.0159],[75.2716,30.0801],[75.2296,30.0973],[75.1861,30.1686],[75.2261,30.2235],[75.257,30.2332],[75.2894,30.1887],[75.2585,30.1791],[75.2286,30.1334],[75.26,30.125],[75.2817,30.0894],[75.3227,30.1082],[75.3531,30.1359],[75.3512,30.208],[75.474,30.2826],[75.5221,30.4369],[75.5332,30.41],[75.6071,30.3663],[75.7528,30.3688],[75.794,30.3876],[75.8258,30.361],[75.8054,30.3426],[75.8784,30.3348],[75.8999,30.2991],[75.9619,30.3181],[76.0126,30.382],[76.032,30.4545],[75.9794,30.4807],[75.9173,30.4617],[75.9059,30.5067],[75.9256,30.5611],[75.7993,30.6132],[75.9009,30.7411],[76.0042,30.7968],[76.0035,30.8329],[75.9609,30.8683],[75.959,30.9585],[76.0005,30.9772],[75.9997,31.0133],[76.0618,31.0503],[76.06,31.1404],[76.1005,31.2132],[76.0778,31.3031],[76.1191,31.3397],[76.0973,31.3755],[76.1387,31.4122],[76.1169,31.448],[76.1334,31.6827],[76.1852,31.7285],[76.3543,31.7127],[76.3846,31.7942],[76.4265,31.8128],[76.4045,31.8666],[76.4247,31.921],[76.4017,32.029],[76.1793,32.0351],[76.1359,32.0887]]],[[[75.7397,30.4859],[75.7099,30.4222],[75.6576,30.4303],[75.6878,30.476],[75.7397,30.4859]]]]}},{"type":"Feature","properties":{"cell":9,"feature":140,"phase":"Unclassified","min_bt_K":230.0,"area_km2":62680,"cold_core_km2":0,"speed_kmh":68.5,"heading_deg":120,"d_min_bt_30":0.0,"age_min":60,"family":3,"touches_missing":true,"lon":77.0444,"lat":32.8304,"merges_splits_so_far":4},"geometry":{"type":"MultiPolygon","coordinates":[[[[79.428,34.0064],[79.1684,34.009],[79.1465,33.9911],[76.8535,33.9911],[76.8316,34.009],[75.8797,33.9973],[75.8276,33.9152],[75.829,33.8611],[75.7867,33.8244],[75.7885,33.7522],[75.7463,33.7154],[75.7499,33.5711],[75.7934,33.5538],[75.8053,33.5089],[75.8914,33.5103],[76.0388,33.6569],[76.1238,33.7122],[76.1564,33.7037],[76.1575,33.6495],[76.0936,33.6126],[76.0944,33.5765],[75.9896,33.4487],[76.0115,33.4309],[76.0131,33.3588],[76.0568,33.3233],[76.0366,33.2689],[76.0693,33.2423],[76.1228,33.2521],[76.1243,33.18],[76.1032,33.1616],[76.2332,33.0913],[76.2121,33.0729],[76.2034,32.9736],[76.0545,32.9354],[76.0105,32.9889],[75.9367,32.9427],[75.9823,32.8171],[75.9082,32.7889],[75.8672,32.7161],[75.761,32.6963],[75.7383,32.75],[75.5398,32.5932],[75.4992,32.5202],[75.5016,32.4301],[75.4809,32.4116],[75.5055,32.2858],[75.701,32.1089],[75.6595,32.0721],[75.6816,32.0364],[75.5358,31.9436],[75.5372,31.8895],[75.6128,31.8277],[75.6766,31.8108],[75.6955,31.9014],[75.7805,31.8848],[75.8854,31.9225],[75.9792,31.9871],[76.0511,32.0874],[76.1359,32.0887],[76.1793,32.0351],[76.391,32.0379],[76.4134,31.966],[76.4345,31.9662],[76.5177,32.0574],[76.5812,32.0581],[76.6241,32.0224],[76.6557,32.0318],[76.6536,32.1761],[76.6955,32.2126],[76.6736,32.2665],[76.7142,32.3932],[76.6822,32.4019],[76.6712,32.4288],[76.7243,32.4384],[76.8098,32.4031],[76.9575,32.4945],[76.9995,32.549],[77.0739,32.5585],[77.0307,32.6123],[77.03,32.6845],[77.0721,32.7389],[77.0505,32.7568],[77.0715,32.793],[77.0492,32.8831],[77.113,32.9196],[77.1126,32.9557],[77.1552,32.974],[77.1328,33.0821],[77.0898,33.0998],[77.0892,33.154],[77.1314,33.2264],[77.13,33.3707],[77.1941,33.4072],[77.2043,33.4704],[77.3331,33.5072],[77.3971,33.5797],[77.4617,33.5799],[77.4947,33.4628],[77.4518,33.4446],[77.3667,33.3179],[77.3673,33.2277],[77.3247,33.1914],[77.3254,33.1012],[77.1989,32.866],[77.1994,32.8119],[77.2315,32.8031],[77.2532,32.7671],[77.2957,32.7854],[77.3168,32.8216],[77.4236,32.804],[77.4348,32.7229],[77.4029,32.7137],[77.3606,32.6594],[77.2967,32.6591],[77.2642,32.7221],[77.2215,32.7218],[77.1794,32.6674],[77.1797,32.6314],[77.2543,32.6228],[77.2652,32.5958],[77.1383,32.5048],[77.1389,32.4327],[77.1818,32.3969],[77.1821,32.3608],[77.0654,32.351],[77.0137,32.2153],[76.982,32.2061],[76.8877,32.1061],[76.9628,32.0255],[77.0263,32.026],[77.1103,32.0987],[77.1843,32.1082],[77.2154,32.1896],[77.2577,32.2079],[77.279,32.19],[77.3745,32.1814],[77.375,32.1093],[77.333,32.0549],[77.2064,32.0001],[77.249,31.9643],[77.228,31.9461],[77.2289,31.8379],[77.1875,31.7475],[77.2089,31.7115],[77.1885,31.6212],[77.2205,31.5763],[77.3048,31.5767],[77.3158,31.5137],[77.3687,31.4688],[77.4002,31.478],[77.4734,31.5595],[77.5474,31.4966],[77.5267,31.4424],[77.5691,31.3704],[77.5694,31.2982],[77.5068,31.2078],[77.5282,31.1357],[77.4864,31.0995],[77.5183,31.0184],[77.7906,31.0192],[77.8114,31.0553],[77.8743,31.0553],[77.9476,31.1546],[77.9475,31.2268],[78.042,31.2358],[78.063,31.2719],[78.1155,31.2808],[78.1156,31.371],[78.2209,31.4431],[78.2211,31.5152],[78.2948,31.5241],[78.4111,31.6411],[78.4536,31.7131],[78.4539,31.7852],[78.4963,31.8031],[78.4964,31.8392],[78.4648,31.8483],[78.4544,31.8754],[78.6131,31.9019],[78.6558,31.9738],[78.6981,31.9736],[78.7726,32.0183],[78.8154,32.0722],[78.7733,32.1085],[78.816,32.1443],[78.8163,32.1804],[78.859,32.2162],[78.8597,32.2884],[78.9023,32.3061],[78.9454,32.3599],[78.9457,32.396],[78.8406,32.523],[78.8408,32.541],[78.8835,32.5588],[78.8841,32.6129],[78.9268,32.6307],[78.8847,32.6851],[78.8851,32.7212],[78.8319,32.7305],[78.8109,32.7667],[78.662,32.8397],[78.6302,32.8669],[78.6305,32.921],[78.4921,33.0208],[78.4709,33.057],[78.3853,33.0573],[78.3638,33.0213],[78.214,33.0216],[78.1925,32.9855],[78.0856,32.9856],[78.0428,32.9496],[77.9786,32.9676],[77.9359,32.9315],[77.8824,32.9586],[77.9038,32.9766],[77.9037,33.0488],[77.8608,33.0668],[77.8607,33.157],[77.8071,33.184],[77.7,33.1657],[77.6677,33.1927],[77.6676,33.2108],[77.7319,33.247],[77.7315,33.3733],[77.6885,33.3912],[77.6881,33.4995],[77.8279,33.5088],[77.8708,33.5629],[77.9031,33.5539],[77.9032,33.5359],[77.785,33.4546],[77.7313,33.4454],[77.7314,33.3913],[77.7638,33.3463],[77.9141,33.3465],[77.9785,33.3645],[78.043,33.4187],[78.1934,33.4185],[78.3008,33.3822],[78.3867,33.382],[78.5376,33.4717],[78.6235,33.4533],[78.6345,33.4803],[78.6776,33.4981],[78.6779,33.5342],[78.7536,33.5789],[78.9262,33.6139],[79.111,33.7478],[79.058,33.8294],[79.1012,33.8291],[79.1124,33.8561],[79.2542,33.954],[79.4274,33.9704],[79.428,34.0064]]],[[[78.4769,32.146],[78.4662,32.1189],[78.4557,32.146],[78.4769,32.146]]],[[[76.4604,32.3183],[76.4826,32.2644],[76.4297,32.2548],[76.418,32.3178],[76.4604,32.3183]]],[[[77.2452,32.4333],[77.2348,32.4062],[77.2029,32.415],[77.2133,32.4421],[77.2452,32.4333]]],[[[78.3097,32.8681],[78.299,32.841],[78.267,32.8501],[78.2777,32.8771],[78.3097,32.8681]]],[[[78.1622,33.9508],[78.1513,33.9237],[78.0756,33.9148],[78.0756,33.8607],[78.054,33.8426],[78.0755,33.7344],[77.9892,33.6803],[77.9785,33.6352],[77.8708,33.6171],[77.8384,33.6441],[77.8597,33.8065],[78.0,33.8156],[78.0108,33.8426],[78.054,33.8607],[78.0757,33.9509],[78.1622,33.9508]]]]}},{"type":"Feature","properties":{"cell":12,"feature":128,"phase":"Unclassified","min_bt_K":241.3,"area_km2":1392,"cold_core_km2":0,"speed_kmh":12.5,"heading_deg":24,"d_min_bt_30":0.3,"age_min":30,"family":12,"touches_missing":true,"lon":76.3819,"lat":27.8336,"merges_splits_so_far":0},"geometry":{"type":"MultiPolygon","coordinates":[[[[76.2919,28.013],[76.1292,28.0108],[76.1199,27.9655],[76.0596,27.9285],[76.1536,27.7764],[76.2756,27.7601],[76.3376,27.6886],[76.3776,27.7252],[76.3982,27.7074],[76.4587,27.7262],[76.5203,27.6728],[76.6014,27.6737],[76.6918,27.7378],[76.6916,27.7558],[76.6508,27.7735],[76.6704,27.8278],[76.6196,27.8363],[76.5577,27.9078],[76.4561,27.9067],[76.4152,27.9243],[76.3532,27.9957],[76.2919,28.013]]]]}}]}