{"type":"FeatureCollection","features":[{"type":"Feature","properties":{"cell":3,"feature":189,"phase":"Unclassified","min_bt_K":232.0,"area_km2":121792,"cold_core_km2":0,"speed_kmh":91.5,"heading_deg":24,"d_min_bt_30":2.7,"age_min":90,"family":3,"touches_missing":true,"lon":79.787,"lat":29.6205,"merges_splits_so_far":6},"geometry":{"type":"MultiPolygon","coordinates":[[[[80.5626,32.059],[80.3396,32.036],[80.3166,31.9643],[80.2523,31.9293],[80.2497,31.8211],[80.1751,31.7953],[80.0143,31.6806],[80.0135,31.6445],[79.8417,31.4846],[79.8407,31.4305],[79.7982,31.413],[79.7972,31.3589],[79.7018,31.3151],[79.6802,31.2793],[79.6592,31.2796],[79.6388,31.3159],[79.5968,31.3164],[79.5749,31.2625],[79.4904,31.2274],[79.1965,31.2304],[79.1333,31.2129],[79.0907,31.1592],[79.0594,31.1684],[79.0604,31.2586],[79.134,31.267],[79.1448,31.294],[79.187,31.3117],[79.2096,31.4377],[79.5078,31.6692],[79.4876,31.7236],[79.5318,31.8494],[79.5747,31.8849],[79.5542,31.9213],[79.5971,31.9568],[79.5765,31.9932],[79.6201,32.0648],[79.5354,32.0658],[79.4053,31.8688],[79.3521,31.8423],[79.3091,31.7886],[79.2669,31.789],[79.2453,31.7531],[79.1187,31.7542],[79.1089,31.8175],[79.035,31.8271],[79.0031,31.8003],[79.0025,31.7462],[78.9599,31.7104],[78.9595,31.6743],[78.9911,31.6651],[79.0013,31.6379],[78.9275,31.6294],[78.906,31.5935],[78.8218,31.5941],[78.7892,31.477],[78.6411,31.3695],[78.6198,31.3155],[78.6391,31.0629],[78.5653,30.982],[78.492,30.9733],[78.4812,30.9102],[78.3975,30.9105],[78.3659,30.8655],[78.3136,30.8385],[78.2195,30.8297],[78.157,30.9741],[78.178,30.9921],[78.1781,31.0463],[78.1572,31.0643],[78.1887,31.1094],[78.2726,31.1453],[78.3463,31.2083],[78.3674,31.2443],[78.336,31.2715],[78.294,31.2716],[78.1259,31.1636],[78.1048,31.1275],[77.979,31.1276],[77.9266,31.1726],[77.9055,31.2628],[77.8319,31.3079],[77.8004,31.2988],[77.8006,31.2447],[77.7587,31.1905],[77.7594,30.9018],[77.7804,30.8838],[77.7596,30.8477],[77.7598,30.7395],[77.7808,30.7215],[77.7601,30.6493],[77.781,30.6313],[77.7812,30.523],[77.8021,30.505],[77.7814,30.4509],[77.8231,30.4148],[77.8025,30.3066],[77.8233,30.2885],[77.8234,30.2344],[77.8961,30.2255],[77.9585,30.1533],[78.0,30.1534],[78.0104,30.1083],[78.0933,30.0361],[78.0932,29.9639],[78.1554,29.9458],[78.1553,29.8917],[78.1966,29.8194],[78.1758,29.7834],[78.1963,29.6751],[78.2375,29.6389],[78.2371,29.4585],[78.2783,29.4404],[78.2369,29.3863],[78.2368,29.3502],[78.278,29.3321],[78.2779,29.3141],[78.2367,29.2961],[78.2366,29.242],[78.1954,29.242],[78.1853,29.3052],[78.1132,29.2963],[78.1132,29.2421],[78.144,29.2331],[78.1953,29.1699],[78.1541,29.1158],[78.1951,29.0616],[78.0616,29.0527],[78.0411,29.0888],[77.9486,29.0798],[77.9693,28.8452],[77.8873,28.8271],[77.8874,28.7369],[77.8669,28.7188],[77.8977,28.6918],[77.9795,28.6918],[78.0205,28.764],[78.0921,28.7549],[78.133,28.6466],[78.2351,28.5743],[78.2349,28.4841],[78.2757,28.4659],[78.2756,28.4479],[78.2348,28.4299],[78.2346,28.3758],[78.1938,28.3578],[78.1936,28.2676],[78.2344,28.2494],[78.2342,28.1592],[78.2748,28.1411],[78.2949,28.0508],[78.3254,28.0417],[78.3862,27.9693],[78.4471,27.9691],[78.4673,27.933],[78.508,27.9328],[78.5281,27.8966],[78.6296,27.8962],[78.6497,27.86],[78.7716,27.8593],[78.7819,27.8863],[78.8737,27.9309],[78.8943,27.9669],[78.9348,27.9485],[78.9453,27.9936],[78.9966,28.0383],[79.0475,28.047],[79.0482,28.1191],[79.0792,28.164],[79.1201,28.1817],[79.283,28.1802],[79.2938,28.2253],[79.3453,28.2699],[79.3861,28.2694],[79.4683,28.3227],[79.6111,28.321],[79.6429,28.4018],[79.6737,28.4105],[79.7154,28.4641],[79.7766,28.4633],[79.8768,28.3536],[79.9581,28.3344],[80.0186,28.2974],[80.0583,28.2426],[80.1305,28.2866],[80.1112,28.341],[80.2247,28.4023],[80.2647,28.3656],[80.3259,28.3645],[80.3888,28.4356],[80.4896,28.3796],[80.6346,28.467],[80.6755,28.4662],[80.7154,28.4292],[80.8279,28.4359],[80.8335,28.2643],[80.9145,28.2445],[80.9991,28.3509],[81.0603,28.3495],[81.1601,28.2749],[81.3633,28.2519],[81.4029,28.2147],[81.4757,28.258],[81.5201,28.3651],[81.6035,28.417],[81.6147,28.4437],[81.6759,28.4421],[81.6883,28.5049],[81.7298,28.5218],[81.7535,28.6113],[81.7238,28.6392],[81.6618,28.6229],[81.5421,28.7164],[81.4807,28.7181],[81.4311,28.7645],[81.4732,28.7995],[81.434,28.8547],[81.4862,28.8804],[81.5396,28.9421],[81.5203,28.9787],[81.6273,29.1021],[81.6087,29.1568],[81.6344,29.3005],[81.5533,29.3388],[81.5365,29.4475],[81.5783,29.4644],[81.5802,29.5185],[81.6221,29.5354],[81.666,29.6064],[81.7499,29.6401],[81.7526,29.7122],[81.7973,29.8011],[81.7787,29.8558],[81.8214,29.8907],[81.8021,29.9273],[81.9335,30.1039],[81.9249,30.1493],[81.8404,30.1157],[81.7575,30.1181],[81.7381,30.1547],[81.6456,30.1843],[81.647,30.2204],[81.6074,30.2756],[81.6496,30.2925],[81.6516,30.3466],[81.7154,30.3809],[81.6959,30.4175],[81.6993,30.5076],[81.7753,30.5867],[81.8817,30.6377],[81.8932,30.6645],[81.9789,30.7161],[82.002,30.7695],[81.9105,30.8354],[81.657,30.7704],[81.5943,30.7722],[81.5741,30.7907],[81.5526,30.7733],[81.5323,30.7919],[81.3025,30.7978],[81.1551,30.7653],[80.9879,30.7692],[80.9676,30.7877],[80.8626,30.7719],[80.854,30.8353],[80.8964,30.8524],[80.8771,30.9069],[80.9737,30.986],[81.0156,30.985],[81.0354,30.9485],[81.1818,30.9451],[81.407,31.0928],[81.3777,31.1567],[81.189,31.1614],[81.1704,31.234],[81.0853,31.1999],[81.0728,31.1371],[80.9991,31.1298],[80.977,31.0942],[80.8943,31.1321],[80.8857,31.1954],[80.8335,31.2056],[80.8136,31.2421],[80.7086,31.2442],[80.6656,31.209],[80.6446,31.2095],[80.6041,31.2644],[80.5621,31.2652],[80.5402,31.2295],[80.5299,31.2388],[80.5333,31.365],[80.5655,31.3914],[80.6286,31.3902],[80.6399,31.417],[80.7148,31.4606],[80.7779,31.4593],[80.8102,31.4857],[80.8113,31.5218],[80.8539,31.5389],[80.8577,31.6651],[80.8166,31.7021],[80.8388,31.7377],[80.7874,31.7839],[80.7241,31.7852],[80.7045,31.8397],[80.652,31.8498],[80.5916,31.9592],[80.6137,31.9949],[80.5626,32.059]]],[[[81.1099,28.989],[81.1898,28.9149],[81.115,28.8175],[81.0945,28.8179],[81.0851,28.8452],[81.1161,28.8535],[81.1693,28.9154],[81.0888,28.9715],[81.0894,28.9895],[81.1099,28.989]]],[[[81.4516,29.3775],[81.4503,29.3415],[81.4191,29.3333],[81.4079,29.3065],[81.4878,29.2322],[81.4567,29.224],[81.4237,29.1617],[81.3926,29.1535],[81.4473,29.2513],[81.4067,29.2704],[81.388,29.3251],[81.4104,29.3786],[81.4516,29.3775]]],[[[81.0417,29.4598],[81.0412,29.4418],[81.0818,29.4228],[81.0802,29.3687],[81.0591,29.3511],[81.0569,29.279],[81.0252,29.2527],[81.0179,29.3521],[81.0596,29.3692],[81.0607,29.4052],[81.0206,29.4422],[81.0317,29.469],[81.0417,29.4598]]],[[[80.9666,29.7141],[80.9433,29.6244],[80.9841,29.6055],[80.982,29.5333],[80.9286,29.4714],[80.9428,29.6064],[80.9026,29.6434],[80.9036,29.6794],[80.9666,29.7141]]],[[[81.2766,29.7068],[81.2731,29.5986],[81.3132,29.5615],[81.2714,29.5445],[81.2708,29.5265],[81.3003,29.4807],[81.2295,29.5275],[81.272,29.5626],[81.2725,29.5806],[81.2318,29.5996],[81.2353,29.7078],[81.2766,29.7068]]],[[[81.477,30.1167],[81.5153,30.0255],[81.5561,30.0063],[81.5529,29.9162],[81.3924,29.767],[81.383,29.7943],[81.4143,29.8026],[81.4902,29.8998],[81.5322,29.9168],[81.5341,29.9708],[81.4952,30.044],[81.4544,30.0632],[81.4562,30.1172],[81.477,30.1167]]],[[[80.3144,30.1241],[80.3139,30.1061],[80.355,30.0873],[80.3537,30.0332],[80.3943,29.9964],[80.3525,29.9791],[80.3398,29.8801],[80.3317,29.9795],[80.3533,30.0152],[80.2932,30.1064],[80.2936,30.1245],[80.3144,30.1241]]],[[[80.2566,30.3236],[80.2252,30.3151],[80.2142,30.2882],[80.2749,30.215],[80.2537,30.1973],[80.2525,30.1432],[80.2212,30.1347],[80.2122,30.198],[80.1711,30.2167],[80.2138,30.2702],[80.1726,30.2889],[80.2256,30.3331],[80.2566,30.3236]]],[[[80.9827,30.2551],[80.9817,30.219],[80.9076,30.1755],[80.9082,30.1936],[80.9396,30.2019],[80.9412,30.256],[80.9827,30.2551]]],[[[81.0063,30.3448],[80.9939,30.2819],[80.9855,30.3452],[81.0063,30.3448]]],[[[80.0945,30.5247],[80.1149,30.5063],[80.1134,30.4342],[80.1334,30.3978],[80.1746,30.3791],[80.1636,30.3522],[80.1428,30.3525],[80.113,30.4161],[80.0717,30.4348],[80.0736,30.525],[80.0945,30.5247]]]]}},{"type":"Feature","properties":{"cell":7,"feature":190,"phase":"Developing","min_bt_K":231.0,"area_km2":24040,"cold_core_km2":0,"speed_kmh":137.5,"heading_deg":20,"d_min_bt_30":-0.2,"age_min":90,"family":3,"touches_missing":true,"lon":75.7365,"lat":31.7036,"merges_splits_so_far":3},"geometry":{"type":"MultiPolygon","coordinates":[[[[76.5283,32.725],[76.2724,32.7219],[76.2622,32.6947],[76.199,32.6578],[76.1997,32.6217],[76.1683,32.5942],[76.0618,32.5927],[76.0079,32.619],[76.0068,32.6731],[75.9525,32.7174],[75.8672,32.7161],[75.7415,32.6238],[75.6141,32.6035],[75.5829,32.5759],[75.5739,32.5126],[75.5417,32.521],[75.5071,32.6196],[75.4328,32.6092],[75.4343,32.5551],[75.3923,32.5362],[75.3933,32.5002],[75.3326,32.3907],[75.3347,32.3186],[75.3564,32.301],[75.3368,32.2465],[75.3585,32.2289],[75.3832,32.1031],[75.3445,31.976],[75.3496,31.7957],[75.329,31.7772],[75.3938,31.7244],[75.3963,31.6342],[75.3762,31.5978],[75.4844,31.4916],[75.4643,31.4551],[75.4868,31.4014],[75.4662,31.383],[75.5312,31.3121],[75.5111,31.2756],[75.5349,31.1678],[75.4934,31.149],[75.4431,31.0668],[75.3803,31.0656],[75.274,31.1176],[75.1907,31.0978],[75.1272,31.1145],[75.0094,31.1931],[75.0077,31.2472],[74.943,31.2998],[74.9311,31.3447],[74.8794,31.3164],[74.8841,31.1722],[74.8434,31.1351],[74.8457,31.063],[74.7655,30.9528],[74.7685,30.8627],[74.7279,30.8256],[74.7322,30.6994],[74.7119,30.6809],[74.7352,30.6093],[74.6953,30.5542],[74.7174,30.5186],[74.6977,30.482],[74.7192,30.4645],[74.7216,30.3924],[74.7014,30.3739],[74.7234,30.3383],[74.7258,30.2662],[74.7056,30.2477],[74.7269,30.2302],[74.7299,30.14],[74.7749,30.0329],[74.8506,29.9355],[74.9329,29.9554],[74.9929,30.029],[75.0976,29.9952],[75.1072,30.0225],[75.1482,30.0414],[75.1264,30.0771],[75.1674,30.096],[75.1658,30.1501],[75.1861,30.1686],[75.1627,30.2583],[75.1936,30.2679],[75.2033,30.2952],[75.1718,30.3036],[75.118,30.3656],[75.094,30.4733],[75.133,30.5644],[75.1309,30.6365],[75.0887,30.6536],[75.0876,30.6897],[75.1497,30.709],[75.1481,30.7631],[75.2189,30.8458],[75.302,30.8656],[75.3423,30.9205],[75.4046,30.9398],[75.4781,30.9322],[75.4002,30.7142],[75.4012,30.6781],[75.4332,30.6517],[75.5157,30.6894],[75.5765,30.7626],[75.6179,30.7814],[75.6584,30.8363],[75.7206,30.8554],[75.7612,30.9102],[75.783,30.8745],[75.9301,30.8408],[75.9936,30.8057],[76.0789,30.7168],[76.1409,30.7537],[76.1505,30.799],[76.1919,30.8176],[76.1903,30.9077],[76.333,31.1261],[76.3117,31.1439],[76.332,31.1802],[76.3104,31.216],[76.3298,31.3065],[76.2872,31.342],[76.3075,31.3784],[76.3066,31.4325],[76.2852,31.4502],[76.3267,31.4868],[76.3027,31.6489],[76.3443,31.6855],[76.3228,31.7033],[76.343,31.7576],[76.2787,31.811],[76.276,31.9552],[76.2969,31.9736],[76.2717,32.1897],[76.3559,32.2269],[76.3974,32.2815],[76.4069,32.3447],[76.47,32.3816],[76.5128,32.364],[76.5547,32.4005],[76.629,32.4104],[76.6066,32.4823],[76.6473,32.609],[76.6036,32.6807],[76.5283,32.725]]],[[[75.5987,31.1329],[75.6206,31.0972],[75.5898,31.0696],[75.5577,31.0961],[75.5568,31.1321],[75.5987,31.1329]]]]}},{"type":"Feature","properties":{"cell":9,"feature":191,"phase":"Unclassified","min_bt_K":234.0,"area_km2":30964,"cold_core_km2":0,"speed_kmh":167.3,"heading_deg":107,"d_min_bt_30":4.0,"age_min":90,"family":3,"touches_missing":false,"lon":77.8958,"lat":32.6043,"merges_splits_so_far":7},"geometry":{"type":"MultiPolygon","coordinates":[[[[79.2982,34.0078],[79.1684,34.009],[79.1465,33.9911],[78.7139,33.9941],[78.7137,33.9761],[78.7461,33.9669],[78.7026,33.931],[78.7455,33.8947],[78.702,33.8588],[78.6797,33.7687],[78.5822,33.7061],[78.5175,33.7063],[78.485,33.6794],[78.4955,33.6342],[78.6354,33.6066],[78.5921,33.5707],[78.581,33.5256],[78.5167,33.562],[78.4305,33.5623],[78.4197,33.5353],[78.3873,33.5263],[78.3767,33.5534],[78.4198,33.5714],[78.4201,33.6255],[78.3879,33.6526],[78.3017,33.6529],[78.2802,33.6709],[78.2155,33.6711],[78.1616,33.6441],[78.1506,33.4907],[78.1075,33.4908],[78.0646,33.5449],[77.9354,33.5991],[77.8493,33.5809],[77.8063,33.5448],[77.6987,33.5266],[77.6238,33.4452],[77.6453,33.4272],[77.5812,33.3549],[77.5383,33.3367],[77.5386,33.2826],[77.4958,33.2644],[77.4751,33.138],[77.3788,33.1105],[77.2937,33.0379],[77.2509,33.0377],[77.2408,32.9745],[77.0921,32.8653],[77.0925,32.8292],[77.05,32.8109],[77.0505,32.7568],[77.0721,32.7389],[77.0511,32.7027],[77.0739,32.5585],[77.0528,32.5403],[77.033,32.3959],[77.0652,32.369],[77.2555,32.4785],[77.3088,32.4697],[77.2878,32.4335],[77.3092,32.4156],[77.2887,32.3073],[77.2464,32.289],[77.247,32.2168],[77.1843,32.1082],[77.2058,32.0723],[77.1638,32.0359],[77.1854,31.982],[77.1646,31.9457],[77.1862,31.8918],[77.1655,31.8375],[77.1868,31.8196],[77.1875,31.7475],[77.3786,31.5681],[77.3899,31.4509],[77.4951,31.4513],[77.5578,31.5237],[77.5791,31.4877],[77.6422,31.4879],[77.6632,31.506],[77.7264,31.4881],[77.8948,31.4883],[77.9579,31.5605],[78.0,31.5605],[78.0631,31.4883],[78.2736,31.4881],[78.3474,31.533],[78.3686,31.569],[78.3689,31.6231],[78.3478,31.6412],[78.37,31.9118],[78.4123,31.9297],[78.4126,31.9838],[78.455,32.0017],[78.4555,32.1099],[78.4344,32.1281],[78.456,32.2182],[78.435,32.2543],[78.4776,32.2903],[78.4782,32.3985],[78.5209,32.4344],[78.5211,32.4705],[78.5855,32.5604],[78.5538,32.6057],[78.4684,32.5699],[78.4582,32.6511],[78.3836,32.6604],[78.3731,32.6875],[78.4372,32.7234],[78.4374,32.7595],[78.5553,32.8582],[78.5981,32.8581],[78.6617,32.8036],[78.7685,32.8031],[78.898,32.9466],[78.9621,32.9461],[78.9945,32.9729],[79.0169,33.063],[79.0928,33.1436],[79.1467,33.1702],[79.0616,33.225],[79.0412,33.3154],[79.0629,33.3332],[79.0635,33.3874],[79.1069,33.4231],[79.0859,33.4594],[79.1733,33.5669],[79.1743,33.639],[79.1316,33.6755],[79.133,33.7837],[79.1764,33.8014],[79.1556,33.8557],[79.1992,33.8914],[79.1781,33.9277],[79.2328,33.9723],[79.2979,33.9897],[79.2982,34.0078]]],[[[78.8069,33.5155],[78.8067,33.4974],[78.8495,33.4791],[78.8483,33.3528],[78.7516,33.3444],[78.7299,33.3084],[78.6761,33.2997],[78.6757,33.2456],[78.5999,33.1287],[78.4286,33.1474],[78.3859,33.2016],[78.3324,33.2108],[78.3437,33.3821],[78.3759,33.373],[78.3864,33.3099],[78.4508,33.3096],[78.4939,33.3456],[78.5798,33.3452],[78.6015,33.3812],[78.623,33.3811],[78.6442,33.3449],[78.7301,33.3445],[78.7414,33.4076],[78.6448,33.4171],[78.6342,33.4442],[78.7747,33.5247],[78.8069,33.5155]]],[[[78.3764,33.4813],[78.387,33.4542],[78.4407,33.445],[78.4298,33.418],[78.3869,33.4181],[78.3762,33.4452],[78.3333,33.4633],[78.3442,33.4904],[78.3764,33.4813]]],[[[78.5484,33.4807],[78.5375,33.4537],[78.4838,33.4629],[78.4947,33.4899],[78.5484,33.4807]]],[[[78.8301,33.6957],[78.8514,33.6776],[78.808,33.6417],[78.7858,33.5697],[78.7534,33.5609],[78.7432,33.6241],[78.711,33.6333],[78.7004,33.6604],[78.7762,33.7051],[78.8301,33.6957]]]]}},{"type":"Feature","properties":{"cell":22,"feature":188,"phase":"Unclassified","min_bt_K":227.1,"area_km2":24728,"cold_core_km2":0,"speed_kmh":null,"heading_deg":null,"d_min_bt_30":null,"age_min":0,"family":3,"touches_missing":true,"lon":80.1269,"lat":27.8287,"merges_splits_so_far":1},"geometry":{"type":"MultiPolygon","coordinates":[[[[80.6755,28.4662],[80.5521,28.4325],[80.4896,28.3796],[80.3888,28.4356],[80.3259,28.3645],[80.2647,28.3656],[80.2247,28.4023],[80.1112,28.341],[80.1305,28.2866],[80.0583,28.2426],[80.0486,28.2698],[79.9581,28.3344],[79.8768,28.3536],[79.7766,28.4633],[79.7154,28.4641],[79.7047,28.4372],[79.6429,28.4018],[79.6111,28.321],[79.4683,28.3227],[79.4271,28.287],[79.3453,28.2699],[79.2938,28.2253],[79.283,28.1802],[79.1201,28.1817],[79.0792,28.164],[79.0482,28.1191],[79.0475,28.047],[78.9966,28.0383],[78.9453,27.9936],[78.9239,27.8674],[78.9644,27.849],[78.9639,27.7949],[79.0043,27.7765],[78.9827,27.6323],[79.013,27.623],[79.0334,27.6409],[79.0931,27.5321],[79.1336,27.5318],[79.1749,27.6036],[79.205,27.5763],[79.2234,27.4136],[79.2836,27.377],[79.2832,27.3409],[79.3729,27.2407],[79.4536,27.2398],[79.4733,27.2035],[79.6754,27.2191],[79.7252,27.1733],[79.7044,27.1375],[79.7033,27.0653],[79.7232,27.047],[79.6812,26.9392],[79.7107,26.8937],[79.751,26.8931],[79.7906,26.8565],[79.9113,26.8548],[79.942,26.8814],[79.9628,26.9172],[79.9445,27.0258],[79.9749,27.0344],[80.0777,27.1411],[80.1584,27.1398],[80.238,27.0844],[80.3391,27.1006],[80.351,27.1817],[80.4016,27.1898],[80.4531,27.234],[80.4642,27.2789],[80.6459,27.2754],[80.7276,27.3098],[80.7599,27.3904],[80.6692,27.4013],[80.6597,27.4286],[80.773,27.5075],[80.8747,27.5233],[80.9058,27.5497],[80.9492,27.6571],[81.0734,27.7445],[81.1171,27.8518],[81.1588,27.8869],[81.1406,27.9595],[81.1823,27.9946],[81.1834,28.0307],[81.3692,28.1163],[81.393,28.224],[81.3633,28.2519],[81.1601,28.2749],[81.0603,28.3495],[80.9991,28.3509],[80.9145,28.2445],[80.8131,28.2648],[80.7866,28.4187],[80.7154,28.4292],[80.6755,28.4662]]],[[[80.5672,27.7914],[80.6461,27.6996],[80.6052,27.6824],[80.5819,27.5565],[80.5409,27.5392],[80.5397,27.4851],[80.5091,27.4766],[80.5,27.522],[80.5414,27.5573],[80.5426,27.6114],[80.5836,27.6287],[80.5849,27.6828],[80.6056,27.7004],[80.5866,27.755],[80.5465,27.7738],[80.5469,27.7918],[80.5672,27.7914]]],[[[80.5733,28.044],[80.5728,28.026],[80.6131,28.0071],[80.5711,27.9538],[80.6907,27.8612],[80.6384,27.7991],[80.5888,27.8452],[80.6104,27.8989],[80.5508,27.9542],[80.572,27.9899],[80.5529,28.0444],[80.5733,28.044]]],[[[80.6795,28.2224],[80.6781,28.1683],[80.7084,28.1586],[80.7179,28.1314],[80.665,28.0512],[80.6564,28.1146],[80.6777,28.1503],[80.6578,28.1687],[80.6591,28.2228],[80.6795,28.2224]]]]}},{"type":"Feature","properties":{"cell":25,"feature":194,"phase":"Unclassified","min_bt_K":232.2,"area_km2":12968,"cold_core_km2":0,"speed_kmh":null,"heading_deg":null,"d_min_bt_30":null,"age_min":0,"family":3,"touches_missing":false,"lon":76.7276,"lat":33.3781,"merges_splits_so_far":1},"geometry":{"type":"MultiPolygon","coordinates":[[[[76.8316,34.009],[76.4638,34.0052],[76.4973,33.9425],[76.5631,33.8891],[76.5433,33.7806],[76.4691,33.6986],[76.4045,33.6978],[76.3405,33.661],[76.2974,33.6604],[76.1911,33.5868],[76.1171,33.5227],[76.1178,33.4866],[76.0549,33.4135],[75.9912,33.3765],[75.9924,33.3224],[76.0678,33.3145],[76.1005,33.2879],[76.0795,33.2696],[76.0911,33.2246],[76.1769,33.2258],[76.2848,33.1912],[76.3284,33.1556],[76.3927,33.1564],[76.5019,33.0314],[76.6092,33.0145],[76.6417,32.9878],[76.6425,32.9337],[76.5374,32.8243],[76.5391,32.7161],[76.6036,32.6807],[76.6473,32.609],[76.6072,32.4462],[76.629,32.4104],[76.6717,32.3927],[76.6529,32.2302],[76.6851,32.2035],[76.7801,32.2314],[76.779,32.3216],[76.8107,32.3309],[76.8315,32.3672],[76.874,32.3675],[76.8948,32.4038],[76.9268,32.395],[76.9381,32.332],[77.033,32.3959],[77.0528,32.5403],[77.0739,32.5585],[77.073,32.6487],[77.0515,32.6666],[77.0721,32.7389],[77.0505,32.7568],[77.05,32.8109],[77.0925,32.8292],[77.0921,32.8653],[77.2408,32.9745],[77.2403,33.0286],[77.2616,33.0468],[77.24,33.0647],[77.2392,33.1549],[77.164,33.1815],[77.1314,33.2264],[77.1949,33.317],[77.1946,33.3531],[77.2373,33.3894],[77.2156,33.4073],[77.2366,33.4616],[77.2139,33.6058],[77.2782,33.6422],[77.2993,33.6965],[77.277,33.7866],[77.2984,33.8047],[77.2979,33.8769],[77.3403,33.9854],[76.8535,33.9911],[76.8316,34.009]]]]}}]}