{"type":"FeatureCollection","features":[{"type":"Feature","properties":{"cell":3,"feature":252,"phase":"Unclassified","min_bt_K":233.0,"area_km2":79652,"cold_core_km2":0,"speed_kmh":65.3,"heading_deg":353,"d_min_bt_30":1.0,"age_min":120,"family":3,"touches_missing":true,"lon":79.7435,"lat":29.9126,"merges_splits_so_far":7},"geometry":{"type":"MultiPolygon","coordinates":[[[[80.0871,31.6343],[79.9817,31.6359],[79.9381,31.5644],[79.8749,31.5653],[79.8531,31.5296],[79.811,31.5301],[79.7893,31.4943],[79.7051,31.4955],[79.6834,31.4597],[79.6203,31.4604],[79.5998,31.4968],[79.4735,31.4982],[79.4312,31.4806],[79.3563,31.4003],[79.314,31.3826],[79.3135,31.3466],[79.2609,31.3381],[79.25,31.3111],[79.1866,31.2756],[79.1861,31.2395],[79.1017,31.2042],[79.0903,31.1231],[79.0484,31.1234],[79.027,31.0875],[78.9013,31.0884],[78.88,31.0525],[78.7962,31.053],[78.7749,31.0171],[78.7121,31.0174],[78.6909,30.9814],[78.6281,30.9817],[78.5127,30.9371],[78.4915,30.8831],[78.4903,30.6486],[78.4694,30.6306],[78.469,30.5585],[78.4169,30.5496],[78.3854,30.5046],[78.3851,30.4144],[78.3434,30.3965],[78.3639,30.3242],[78.3222,30.2883],[78.3429,30.2521],[78.3012,30.2162],[78.3011,30.162],[78.3425,30.1439],[78.3424,30.1078],[78.4043,30.0355],[78.3835,30.0175],[78.3831,29.8912],[78.4037,29.8731],[78.3829,29.8371],[78.3826,29.7649],[78.4032,29.7468],[78.3824,29.7288],[78.4029,29.6746],[78.3822,29.6566],[78.382,29.6025],[78.4232,29.5843],[78.4022,29.4942],[78.4846,29.4759],[78.4843,29.4217],[78.5152,29.4126],[78.5869,29.3311],[78.5863,29.2409],[78.6685,29.2225],[78.6682,29.1683],[78.6373,29.1595],[78.6165,29.1235],[78.596,29.1236],[78.5756,29.1597],[78.4934,29.1601],[78.4727,29.1241],[78.3801,29.1153],[78.3798,29.0251],[78.4208,29.0069],[78.4206,28.9528],[78.3792,28.8627],[78.4507,28.7993],[78.5223,28.79],[78.5222,28.772],[78.4812,28.7541],[78.481,28.7],[78.4399,28.6821],[78.4397,28.6279],[78.4805,28.6097],[78.4803,28.5556],[78.521,28.5193],[78.5205,28.4291],[78.5815,28.3747],[78.5608,28.3207],[78.6011,28.2302],[78.6316,28.2211],[78.6618,28.1758],[78.641,28.1037],[78.6714,28.0765],[78.8749,28.0753],[78.8958,28.1473],[78.9569,28.1469],[78.9776,28.1829],[79.1203,28.1998],[79.1615,28.2355],[79.2022,28.2351],[79.3047,28.2883],[79.3256,28.3242],[79.3868,28.3236],[79.428,28.3592],[79.4688,28.3588],[79.4998,28.3855],[79.5006,28.4396],[79.5427,28.5294],[79.5027,28.584],[79.5037,28.6562],[79.5558,28.7187],[79.6172,28.718],[79.6374,28.6997],[79.6786,28.7172],[79.8219,28.7153],[79.842,28.697],[79.8628,28.7148],[79.9242,28.7139],[80.005,28.6585],[80.0175,28.7756],[80.2467,28.9524],[80.2487,29.0426],[80.3329,29.1314],[80.3341,29.1855],[80.418,29.2561],[80.4193,29.3103],[80.5552,29.3889],[80.6376,29.3873],[80.6797,29.4225],[80.7415,29.4213],[80.8149,29.4648],[80.8793,29.5537],[80.8708,29.617],[80.8597,29.5902],[80.8391,29.5906],[80.8607,29.6262],[80.8623,29.6803],[80.8421,29.6988],[80.8638,29.7344],[80.8442,29.7709],[80.8553,29.7978],[80.8648,29.7705],[80.9157,29.7423],[80.9576,29.7594],[81.2678,29.7521],[81.2684,29.7702],[81.2376,29.7799],[81.2488,29.8067],[81.3085,29.7331],[81.5566,29.7266],[81.5885,29.7528],[81.5924,29.861],[81.6458,29.9047],[81.6979,29.9122],[81.6999,29.9663],[81.7634,30.0006],[81.7648,30.0367],[81.8526,30.1604],[81.8339,30.2151],[81.7931,30.2343],[81.7965,30.3245],[81.7657,30.3344],[81.7261,30.3896],[81.6946,30.3815],[81.6818,30.3187],[81.5571,30.3221],[81.5483,30.3674],[81.612,30.4018],[81.6576,30.5088],[81.7107,30.5344],[81.7545,30.5873],[81.9127,30.6278],[81.9148,30.6819],[81.9573,30.6987],[81.9688,30.7254],[82.1575,30.7376],[82.2542,30.7977],[82.2457,30.8431],[82.1629,30.8638],[82.1203,30.8471],[82.0762,30.7943],[82.0136,30.7962],[81.9696,30.7434],[81.9069,30.7453],[81.8004,30.6942],[81.6125,30.6995],[81.5721,30.7367],[81.5088,30.7203],[81.4994,30.7476],[81.5418,30.7645],[81.5431,30.8006],[81.6071,30.835],[81.5369,30.918],[81.3898,30.9038],[81.3258,30.8694],[81.2213,30.872],[81.2117,30.8992],[81.1597,30.9095],[81.14,30.9461],[81.0772,30.9475],[81.0682,30.9929],[80.9861,31.0489],[81.0388,31.0567],[81.0824,31.1098],[81.1357,31.1356],[81.1374,31.1897],[80.9804,31.2023],[80.9497,31.2301],[80.9536,31.3563],[80.8076,31.3955],[80.8092,31.4496],[80.8529,31.5028],[80.8442,31.5662],[80.7702,31.5587],[80.7687,31.5046],[80.705,31.4879],[80.704,31.4518],[80.6276,31.3541],[80.5856,31.3549],[80.5216,31.3201],[80.438,31.3397],[80.4161,31.304],[80.4067,31.3493],[80.4291,31.403],[80.3875,31.4218],[80.3884,31.4579],[80.3575,31.4855],[80.3047,31.4774],[80.3021,31.3692],[80.2699,31.3427],[80.2069,31.3437],[80.1867,31.3802],[80.1026,31.3815],[80.0823,31.4179],[79.9982,31.4192],[79.9764,31.3835],[79.9451,31.3929],[79.9569,31.4559],[80.041,31.4546],[80.0629,31.4904],[80.0946,31.4989],[80.1181,31.6068],[80.0871,31.6343]]],[[[80.1723,29.3146],[80.1487,29.1706],[80.1064,29.1171],[80.0754,29.1086],[80.0657,29.1358],[80.1072,29.1532],[80.109,29.2434],[80.1506,29.2608],[80.1517,29.3149],[80.1723,29.3146]]],[[[80.1319,29.3513],[80.121,29.3244],[80.1113,29.3516],[80.1319,29.3513]]],[[[80.2396,29.566],[80.2182,29.5303],[80.2162,29.4401],[80.257,29.4214],[80.1839,29.3775],[80.2158,29.4221],[80.1754,29.4589],[80.1769,29.531],[80.2396,29.566]]],[[[79.9506,29.5706],[79.8874,29.4994],[79.8864,29.4453],[79.8553,29.4367],[79.834,29.4009],[79.8458,29.4819],[79.8881,29.5354],[79.9506,29.5706]]],[[[80.3952,30.0324],[80.4358,29.9956],[80.3939,29.9783],[80.3926,29.9242],[80.4332,29.8874],[80.4208,29.8064],[80.39,29.816],[80.3922,29.9062],[80.3512,29.925],[80.352,29.9611],[80.3943,29.9964],[80.3948,30.0144],[80.3537,30.0332],[80.3952,30.0324]]],[[[79.8816,30.2933],[79.8601,30.2576],[79.8802,30.2212],[79.8792,30.1671],[79.8581,30.1493],[79.8782,30.113],[79.8673,30.0861],[79.8574,30.1133],[79.8163,30.1319],[79.8271,30.1588],[79.8584,30.1674],[79.8595,30.2215],[79.8285,30.2309],[79.8186,30.2581],[79.8816,30.2933]]],[[[80.0983,30.705],[80.0979,30.687],[80.1393,30.6683],[80.1365,30.5421],[80.1153,30.5244],[80.135,30.4699],[80.1134,30.4342],[79.9972,30.3548],[79.987,30.364],[80.1141,30.4703],[80.1145,30.4883],[80.0732,30.507],[80.0949,30.5427],[80.0976,30.669],[80.0775,30.7054],[80.0983,30.705]]],[[[81.4589,30.7848],[81.4684,30.7575],[81.4373,30.7673],[81.438,30.7853],[81.4589,30.7848]]]]}},{"type":"Feature","properties":{"cell":7,"feature":254,"phase":"Developing","min_bt_K":232.0,"area_km2":12040,"cold_core_km2":0,"speed_kmh":99.6,"heading_deg":15,"d_min_bt_30":1.0,"age_min":120,"family":3,"touches_missing":false,"lon":75.8727,"lat":32.1376,"merges_splits_so_far":6},"geometry":{"type":"MultiPolygon","coordinates":[[[[75.794,33.0937],[75.7084,33.0923],[75.6165,32.9193],[75.5206,32.9085],[75.4684,32.8624],[75.4486,32.8079],[75.4928,32.7546],[75.4938,32.7186],[75.4729,32.7002],[75.4744,32.6461],[75.4328,32.6092],[75.4561,32.5375],[75.4161,32.4465],[75.4241,32.158],[75.4675,32.1227],[75.4699,32.0326],[75.5024,32.0061],[75.5659,32.0073],[75.6199,31.9632],[75.5993,31.9448],[75.6218,31.891],[75.6052,31.7103],[75.6488,31.657],[75.651,31.5668],[75.6098,31.53],[75.6532,31.4767],[75.6331,31.4402],[75.6555,31.3865],[75.6353,31.35],[75.689,31.3059],[75.8356,31.3264],[75.8677,31.2999],[75.8685,31.2638],[75.9216,31.2376],[75.9295,31.355],[75.9811,31.4009],[76.0863,31.4024],[76.1683,31.5118],[76.2525,31.5129],[76.3163,31.4777],[76.3785,31.5326],[76.4417,31.5333],[76.4847,31.4797],[76.5483,31.4443],[76.6535,31.4455],[76.6847,31.4728],[76.6842,31.5089],[76.6192,31.6345],[76.6184,31.6886],[76.522,31.7868],[76.4586,31.7861],[76.4259,31.8489],[76.4253,31.8849],[76.4873,31.9759],[76.4637,32.1199],[76.3258,32.1273],[76.3043,32.145],[76.0924,32.1422],[76.0173,32.1862],[76.0165,32.2222],[75.9729,32.2757],[75.9922,32.3662],[76.0339,32.4029],[76.0122,32.4206],[76.0103,32.5108],[75.9778,32.5374],[75.9352,32.5367],[75.9023,32.5813],[75.9227,32.6177],[75.9002,32.6715],[75.9843,32.7269],[76.0044,32.7813],[75.9787,32.9794],[75.9351,33.0148],[75.9229,33.0778],[75.8159,33.0761],[75.794,33.0937]]]]}},{"type":"Feature","properties":{"cell":9,"feature":256,"phase":"Developing","min_bt_K":233.0,"area_km2":43188,"cold_core_km2":0,"speed_kmh":45.4,"heading_deg":264,"d_min_bt_30":-1.0,"age_min":120,"family":3,"touches_missing":false,"lon":77.6555,"lat":32.5821,"merges_splits_so_far":9},"geometry":{"type":"MultiPolygon","coordinates":[[[[78.411,33.9954],[78.1947,33.9959],[78.1514,33.9779],[78.1081,33.9238],[78.0648,33.9238],[78.054,33.8968],[78.0108,33.8787],[78.0108,33.7885],[78.0539,33.7163],[77.9892,33.6803],[77.9892,33.6442],[77.9569,33.6171],[77.903,33.6441],[77.8922,33.6892],[77.8275,33.6892],[77.7416,33.5988],[77.6555,33.5806],[77.6019,33.5173],[77.5376,33.481],[77.5485,33.454],[77.613,33.4542],[77.6239,33.4091],[77.5167,33.3727],[77.4961,33.2102],[77.432,33.1739],[77.4322,33.1378],[77.3256,33.0652],[77.3259,33.0291],[77.2833,33.0108],[77.284,32.9206],[77.1879,32.911],[77.0604,32.838],[77.039,32.8379],[77.0281,32.8649],[77.0702,32.9193],[77.0699,32.9554],[77.1331,33.046],[77.2396,33.1188],[77.2391,33.1729],[77.3027,33.2635],[77.3024,33.2996],[77.3451,33.3359],[77.3447,33.39],[77.3874,33.4263],[77.4085,33.4805],[77.3975,33.5255],[77.3332,33.4892],[77.312,33.453],[77.226,33.4525],[77.2048,33.4163],[77.1403,33.4159],[77.0966,33.4878],[76.9245,33.4865],[76.915,33.3872],[76.9588,33.3154],[76.9392,33.1528],[76.8968,33.1164],[76.8763,33.0441],[76.8022,32.9803],[76.7378,32.9977],[76.7061,32.9704],[76.7066,32.9343],[76.5906,32.8339],[76.5692,32.8337],[76.5257,32.8873],[76.3761,32.8856],[76.3327,32.9211],[76.29,32.9206],[76.149,33.0179],[76.2104,33.1631],[76.2529,33.1817],[76.0787,33.3056],[76.0658,33.4047],[75.9179,33.2942],[75.8329,33.2568],[75.7385,33.174],[75.7394,33.1379],[75.6974,33.1011],[75.9338,33.0689],[75.9351,33.0148],[75.9787,32.9794],[75.9811,32.8712],[76.0028,32.8535],[75.9843,32.7269],[76.0389,32.6646],[76.0816,32.6652],[76.0928,32.6383],[76.2116,32.5588],[76.3393,32.5604],[76.4463,32.5256],[76.574,32.527],[76.6371,32.5818],[76.6807,32.5101],[76.7448,32.4927],[76.7976,32.5202],[76.8393,32.5928],[76.8283,32.6197],[76.7323,32.6279],[76.7313,32.7],[76.7524,32.7183],[76.73,32.7902],[76.7725,32.8086],[76.7717,32.8628],[76.8459,32.9085],[76.8895,32.8367],[76.9857,32.8285],[76.923,32.7197],[76.8383,32.6649],[76.8388,32.6288],[76.8922,32.6203],[76.946,32.5756],[76.9251,32.5394],[76.9788,32.4947],[77.1173,32.4686],[77.1179,32.4145],[77.0968,32.3963],[77.1182,32.3784],[77.141,32.2162],[77.2052,32.1444],[77.1845,32.0902],[77.2485,32.0364],[77.2487,32.0004],[77.3125,31.9646],[77.3142,31.7301],[77.2932,31.712],[77.357,31.6401],[77.3156,31.5317],[77.3584,31.4417],[77.2329,31.3508],[77.2542,31.3149],[77.2336,31.2606],[77.2969,31.2249],[77.2975,31.1347],[77.4033,30.9909],[77.4036,30.9368],[77.4667,30.8829],[77.4671,30.8108],[77.5196,30.7478],[77.624,30.7662],[77.676,30.8295],[77.5712,30.9014],[77.6126,31.0097],[77.5913,31.0818],[77.5389,31.0907],[77.5282,31.1357],[77.4755,31.1806],[77.3915,31.1983],[77.3177,31.2431],[77.4221,31.3338],[77.4219,31.3698],[77.5794,31.4155],[77.611,31.3886],[77.5901,31.3705],[77.5903,31.3163],[77.6325,31.2804],[77.6432,31.2173],[77.7061,31.2535],[77.7901,31.2176],[77.8741,31.2357],[77.9266,31.1907],[77.9056,31.1726],[77.9266,31.1366],[77.8847,31.0824],[77.9057,31.0644],[77.9058,31.0103],[77.864,30.902],[77.9059,30.8299],[77.8642,30.7937],[77.906,30.7397],[77.8643,30.7216],[77.8644,30.6675],[77.8227,30.6133],[77.7813,30.4869],[77.7814,30.4328],[77.8336,30.3697],[77.8752,30.3698],[77.9375,30.424],[78.0104,30.451],[78.0313,30.5593],[78.0834,30.5863],[78.1043,30.6224],[78.146,30.6223],[78.1669,30.6584],[78.24,30.6673],[78.261,30.7214],[78.2614,30.8838],[78.3244,30.9558],[78.3245,30.9919],[78.2618,31.0281],[78.3041,31.1543],[78.3043,31.2084],[78.2624,31.2446],[78.2626,31.2987],[78.3046,31.3166],[78.3048,31.3527],[78.2001,31.5694],[78.2002,31.6235],[78.1581,31.6416],[78.1582,31.6957],[78.2004,31.7137],[78.2006,31.7859],[78.2958,31.8488],[78.3484,31.7856],[78.306,31.7496],[78.3689,31.6412],[78.4005,31.6321],[78.4534,31.677],[78.4536,31.7131],[78.5173,31.785],[78.5176,31.8391],[78.4548,31.9656],[78.4761,31.9836],[78.4767,32.1099],[78.4557,32.146],[78.5303,32.2269],[78.5834,32.2357],[78.5624,32.2719],[78.5844,32.3981],[78.6277,32.5061],[78.6917,32.5239],[78.7349,32.6138],[78.7139,32.65],[78.7152,32.8124],[78.6302,32.8669],[78.6949,32.9568],[78.6959,33.0831],[78.5892,33.1377],[78.6112,33.2278],[78.6652,33.2727],[78.7081,33.2725],[78.7407,33.3174],[78.7413,33.3895],[78.6986,33.4259],[78.6987,33.4439],[78.7419,33.4617],[78.7423,33.5158],[78.6994,33.5341],[78.6997,33.5702],[78.6676,33.5974],[78.603,33.5977],[78.528,33.6612],[78.5498,33.6972],[78.5503,33.7874],[78.486,33.8598],[78.5295,33.9138],[78.4539,33.9231],[78.411,33.9954]]],[[[77.3279,32.7585],[77.328,32.7404],[77.2643,32.704],[77.2648,32.6499],[77.2223,32.6316],[77.2226,32.5955],[77.1063,32.5136],[77.0737,32.5765],[77.0943,32.6489],[77.1473,32.6763],[77.2106,32.7488],[77.2532,32.7671],[77.3279,32.7585]]]]}},{"type":"Feature","properties":{"cell":22,"feature":250,"phase":"Unclassified","min_bt_K":233.0,"area_km2":12972,"cold_core_km2":0,"speed_kmh":59.9,"heading_deg":325,"d_min_bt_30":5.9,"age_min":30,"family":3,"touches_missing":true,"lon":79.9511,"lat":28.0493,"merges_splits_so_far":2},"geometry":{"type":"MultiPolygon","coordinates":[[[[79.9242,28.7139],[79.8628,28.7148],[79.842,28.697],[79.8219,28.7153],[79.6786,28.7172],[79.6578,28.6994],[79.5558,28.7187],[79.5037,28.6562],[79.5027,28.584],[79.543,28.5474],[79.4998,28.3855],[79.3868,28.3236],[79.3256,28.3242],[79.3047,28.2883],[79.2022,28.2351],[79.1615,28.2355],[79.1203,28.1998],[79.0592,28.2003],[79.0282,28.1554],[78.9668,28.1198],[78.9665,28.0837],[78.9255,28.0479],[78.9354,28.0207],[78.9761,28.0204],[79.0063,27.9931],[79.0058,27.939],[79.0359,27.8936],[79.3202,27.8911],[79.3403,27.8728],[79.4012,27.8722],[79.422,27.9081],[79.4829,27.9074],[79.5035,27.9252],[79.5739,27.8793],[79.5726,27.789],[79.6029,27.7796],[79.6127,27.7524],[79.5313,27.7354],[79.5508,27.681],[79.5202,27.6723],[79.4995,27.6364],[79.4692,27.6458],[79.4694,27.6639],[79.5102,27.6815],[79.5015,27.7808],[79.4406,27.7815],[79.4301,27.7546],[79.3793,27.7461],[79.3585,27.7102],[79.2977,27.7108],[79.2578,27.7653],[79.2172,27.7657],[79.1865,27.7389],[79.1853,27.6306],[79.2356,27.6031],[79.2555,27.5668],[79.3262,27.5571],[79.3247,27.4307],[79.3549,27.4214],[79.3747,27.3851],[79.496,27.3838],[79.5072,27.4649],[79.5382,27.5096],[79.8417,27.5057],[79.9439,27.5584],[80.0451,27.5569],[80.1073,27.6281],[80.1876,27.5907],[80.2686,27.5893],[80.3202,27.6336],[80.3313,27.6785],[80.3615,27.6689],[80.3607,27.6328],[80.3198,27.6155],[80.3905,27.6052],[80.41,27.5688],[80.4405,27.5772],[80.4422,27.6494],[80.4835,27.6847],[80.4869,27.8291],[80.4085,27.9569],[80.4915,28.0276],[80.4923,28.0636],[80.4334,28.155],[80.3731,28.1922],[80.3739,28.2283],[80.3136,28.2654],[80.3144,28.3015],[80.2744,28.3383],[80.2651,28.3836],[80.142,28.3496],[80.0718,28.4139],[80.0535,28.5224],[79.9936,28.5955],[79.995,28.6677],[79.9242,28.7139]]],[[[79.3879,27.6286],[79.377,27.5656],[79.3676,27.6289],[79.3879,27.6286]]]]}},{"type":"Feature","properties":{"cell":25,"feature":258,"phase":"Unclassified","min_bt_K":234.0,"area_km2":6464,"cold_core_km2":0,"speed_kmh":66.8,"heading_deg":337,"d_min_bt_30":1.8,"age_min":30,"family":3,"touches_missing":false,"lon":76.5843,"lat":33.6545,"merges_splits_so_far":2},"geometry":{"type":"MultiPolygon","coordinates":[[[[76.8316,34.009],[76.5287,34.006],[76.4864,33.9514],[76.4431,33.9509],[76.3145,33.8952],[76.2603,33.9035],[76.2812,33.9399],[76.2691,34.0029],[76.2258,34.0023],[76.1727,33.9565],[76.217,33.9029],[76.1976,33.7944],[76.2412,33.777],[76.2642,33.7051],[76.2115,33.6412],[76.1579,33.6315],[76.1605,33.5052],[76.0756,33.4499],[76.0787,33.3056],[76.1769,33.2258],[76.2634,33.1909],[76.3264,33.2638],[76.3907,33.2646],[76.433,33.3012],[76.498,33.2659],[76.6697,33.2677],[76.7118,33.3222],[76.7974,33.3411],[76.8078,33.3682],[76.8505,33.3867],[76.8498,33.4408],[76.7631,33.4941],[76.7839,33.5484],[76.8158,33.5758],[76.9452,33.5588],[76.9554,33.604],[77.0301,33.6677],[77.1594,33.6686],[77.2342,33.7502],[77.2123,33.7862],[77.2551,33.8225],[77.2548,33.8586],[77.3087,33.8679],[77.4484,33.9858],[76.8535,33.9911],[76.8316,34.009]]]]}},{"type":"Feature","properties":{"cell":30,"feature":253,"phase":"Unclassified","min_bt_K":233.0,"area_km2":3588,"cold_core_km2":0,"speed_kmh":null,"heading_deg":null,"d_min_bt_30":null,"age_min":0,"family":3,"touches_missing":true,"lon":76.2829,"lat":31.2011,"merges_splits_so_far":1},"geometry":{"type":"MultiPolygon","coordinates":[[[[76.4417,31.5333],[76.3785,31.5326],[76.3163,31.4777],[76.2525,31.5129],[76.1683,31.5118],[76.0863,31.4024],[75.9811,31.4009],[75.9295,31.355],[75.9311,31.2828],[75.9838,31.2746],[76.0254,31.2933],[76.0166,31.212],[76.1013,31.1771],[76.0604,31.1224],[76.0618,31.0503],[76.0097,31.0405],[75.9997,31.0133],[75.9377,30.9762],[75.9392,30.9041],[75.9708,30.8956],[76.1158,30.9699],[76.1477,30.9432],[76.1271,30.9249],[76.1494,30.8531],[76.181,30.8445],[76.2135,30.7818],[76.2768,30.7465],[76.2569,30.6921],[76.2993,30.6566],[76.332,30.5758],[76.4459,30.6223],[76.4248,30.6401],[76.4445,30.7125],[76.4024,30.7301],[76.4224,30.7844],[76.4009,30.8203],[76.4213,30.8566],[76.3989,30.9465],[76.4404,30.965],[76.4396,31.0192],[76.4602,31.0374],[76.4591,31.1096],[76.4378,31.1274],[76.4789,31.182],[76.4576,31.1998],[76.5604,31.3453],[76.5915,31.3726],[76.6335,31.3731],[76.6644,31.4185],[76.6535,31.4455],[76.5483,31.4443],[76.4847,31.4797],[76.4417,31.5333]]]]}}]}