{"type":"FeatureCollection","features":[{"type":"Feature","properties":{"cell":3,"feature":305,"phase":"Developing","min_bt_K":231.0,"area_km2":103644,"cold_core_km2":0,"speed_kmh":226.9,"heading_deg":145,"d_min_bt_30":-2.0,"age_min":150,"family":3,"touches_missing":true,"lon":80.4149,"lat":29.0741,"merges_splits_so_far":10},"geometry":{"type":"MultiPolygon","coordinates":[[[[81.0537,31.5254],[80.9251,31.4562],[80.7779,31.4593],[80.7348,31.4241],[80.6717,31.4254],[80.6496,31.3898],[80.6076,31.3906],[80.5221,31.3381],[80.4782,31.2668],[80.4152,31.268],[80.3933,31.2323],[80.3513,31.233],[80.3294,31.1973],[80.0883,31.2104],[80.0895,31.2645],[80.0066,31.3199],[80.0085,31.41],[80.0931,31.4268],[80.0418,31.4907],[79.8096,31.458],[79.7893,31.4943],[79.7261,31.4952],[79.7161,31.5224],[79.6847,31.5318],[79.6523,31.4871],[79.6513,31.433],[79.5565,31.4251],[79.5453,31.3801],[79.4607,31.345],[79.4598,31.2909],[79.3854,31.2286],[79.3434,31.229],[79.3219,31.1931],[79.2588,31.1757],[79.2159,31.1039],[79.1737,31.0863],[79.0689,31.0872],[78.9529,31.0069],[78.9195,30.7996],[78.8986,30.7998],[78.8365,30.8724],[78.7529,30.8729],[78.7422,30.8459],[78.7003,30.828],[78.6999,30.7739],[78.658,30.7561],[78.6785,30.7019],[78.6365,30.666],[78.636,30.5938],[78.5525,30.5762],[78.5312,30.4861],[78.4684,30.4322],[78.4994,30.387],[78.5828,30.4047],[78.6038,30.4406],[78.7391,30.4309],[78.7389,30.4129],[78.6972,30.3951],[78.6968,30.341],[78.7383,30.3227],[78.7377,30.2505],[78.8202,30.1779],[78.8199,30.1418],[78.892,30.0782],[78.9129,30.0961],[78.9438,30.0688],[78.9639,29.9965],[79.0255,29.9419],[79.0249,29.8878],[79.066,29.8514],[79.0656,29.8153],[79.0238,29.7795],[79.0229,29.6893],[79.0538,29.6801],[79.0741,29.6438],[79.1463,29.6342],[79.1461,29.6161],[79.0421,29.5448],[79.0415,29.4907],[79.1034,29.4902],[79.0616,29.4364],[79.0599,29.274],[78.9568,29.2568],[78.9563,29.2026],[78.915,29.1849],[78.8934,29.0587],[78.9857,29.049],[79.0059,29.0128],[79.129,29.0118],[79.15,29.0477],[79.1705,29.0475],[79.1906,29.0113],[79.3754,29.0095],[79.4256,28.9277],[79.4233,28.7653],[79.4949,28.7555],[79.5047,28.7283],[79.5454,28.7098],[79.543,28.5474],[79.5836,28.5289],[79.5931,28.4837],[79.7157,28.4821],[79.7663,28.4544],[79.745,28.4005],[79.6619,28.3114],[79.6613,28.2753],[79.7523,28.229],[79.7919,28.1563],[79.9037,28.1457],[79.8623,28.1102],[79.8617,28.0741],[79.8,28.0388],[79.7994,28.0027],[79.7479,27.9583],[79.6766,27.9502],[79.6961,27.8958],[79.7764,27.8406],[79.7552,27.7867],[79.8351,27.7134],[79.8345,27.6773],[79.8748,27.6587],[79.8738,27.6046],[79.8433,27.596],[79.7916,27.5335],[79.7895,27.4072],[79.7687,27.3713],[79.8191,27.3616],[79.8598,27.3791],[79.9012,27.4327],[80.0235,27.485],[80.0637,27.4663],[80.1346,27.4742],[80.1531,27.3837],[80.1325,27.3659],[80.1315,27.3118],[80.0904,27.2764],[80.0897,27.2403],[80.1694,27.1848],[80.1071,27.0955],[80.1061,27.0414],[80.1658,27.0043],[80.1637,26.896],[80.1432,26.8783],[80.1923,26.8143],[80.3129,26.8122],[80.352,26.7573],[80.4529,26.7736],[80.4845,26.8362],[80.5354,26.8623],[80.5563,26.898],[80.6578,26.9321],[80.7616,27.0563],[80.8422,27.0546],[80.8816,27.0177],[80.9425,27.0344],[80.9784,27.2412],[81.0296,27.2671],[81.0606,27.2935],[81.0616,27.3295],[81.1233,27.3642],[81.1669,27.4715],[81.198,27.4978],[81.2571,27.4422],[81.2981,27.4592],[81.3292,27.4855],[81.3753,27.6649],[81.5016,27.806],[81.5846,27.8579],[81.7219,28.0076],[81.7822,27.9878],[81.8544,28.0128],[81.857,28.0849],[81.9016,28.1919],[81.8438,28.2838],[81.8662,28.3373],[81.8478,28.392],[81.8715,28.4816],[81.8517,28.5002],[81.8953,28.5711],[82.0679,28.5388],[82.1271,28.4828],[82.2117,28.5524],[82.242,28.5424],[82.2602,28.4876],[82.2905,28.4776],[82.3025,28.5224],[82.3449,28.5571],[82.3471,28.6111],[82.3168,28.6212],[82.2683,28.6859],[82.2508,28.7587],[82.0502,28.8733],[82.0721,28.9087],[82.0113,28.9286],[82.0127,28.9647],[81.9738,29.02],[81.9766,29.0921],[81.9256,29.1026],[81.8526,29.0777],[81.8698,28.987],[81.8387,28.9789],[81.8267,28.9341],[81.7851,28.9172],[81.7824,28.8451],[81.7613,28.8277],[81.7778,28.7189],[81.8082,28.709],[81.8293,28.7265],[81.8372,28.6631],[81.7225,28.6032],[81.6611,28.6049],[81.5986,28.5705],[81.5769,28.535],[81.5057,28.546],[81.5279,28.5995],[81.4883,28.6367],[81.5105,28.6902],[81.4913,28.7268],[81.5552,28.7973],[81.6179,28.8317],[81.5986,28.8683],[81.6409,28.9033],[81.6428,28.9573],[81.6851,28.9923],[81.6652,29.0109],[81.74,29.09],[81.7917,29.0975],[81.797,29.2417],[81.8415,29.3307],[81.8443,29.4028],[81.8064,29.4941],[81.8924,29.5818],[81.9771,29.6335],[81.9785,29.6695],[81.8966,29.69],[81.8972,29.708],[81.9607,29.7422],[81.9314,29.7882],[81.8066,29.7738],[81.798,29.8192],[81.6966,29.8762],[81.6979,29.9122],[81.6571,29.9314],[81.6384,29.9861],[81.5869,29.9965],[81.4958,30.0621],[81.4883,30.1435],[81.3845,30.1462],[81.2819,30.1848],[81.1574,30.1879],[81.0653,30.2351],[81.0681,30.3253],[81.1518,30.3414],[81.1125,30.4145],[81.1142,30.4686],[81.1773,30.4851],[81.179,30.5392],[81.2213,30.5562],[81.2231,30.6103],[81.2982,30.6716],[81.3507,30.6793],[81.3443,30.7967],[81.2595,30.7628],[81.1551,30.7653],[81.1426,30.7024],[81.0484,30.6956],[81.0264,30.66],[80.807,30.6558],[80.8509,30.7271],[80.9462,30.7701],[80.9574,30.7969],[81.0427,30.8491],[81.0224,30.8676],[81.0648,30.8847],[81.0772,30.9475],[81.2477,31.0337],[81.2914,31.0867],[81.3441,31.0944],[81.346,31.1485],[81.3676,31.166],[81.3688,31.2021],[81.3287,31.2572],[81.2556,31.268],[81.195,31.3417],[80.9957,31.3554],[81.0201,31.463],[81.0633,31.4981],[81.0537,31.5254]]],[[[81.1311,27.6348],[81.0895,27.5997],[81.089,27.5817],[81.129,27.5627],[81.0875,27.5275],[81.0864,27.4915],[81.0558,27.4831],[81.047,27.5285],[81.0776,27.5368],[81.0885,27.5636],[81.049,27.6006],[81.0797,27.609],[81.101,27.6446],[81.1311,27.6348]]],[[[81.1598,27.923],[81.1588,27.8869],[81.1176,27.8698],[81.1566,27.8147],[81.1155,27.7977],[81.1046,27.7708],[81.0952,27.7981],[81.1166,27.8337],[81.0973,27.8703],[81.1192,27.9239],[81.1598,27.923]]],[[[81.2527,28.2998],[81.311,28.2081],[81.3087,28.1359],[81.2675,28.1189],[81.2554,28.056],[81.2257,28.0838],[81.268,28.1369],[81.2708,28.2271],[81.2306,28.2462],[81.2323,28.3003],[81.2527,28.2998]]],[[[81.7707,28.5206],[81.8096,28.4653],[81.7451,28.3769],[81.7432,28.3228],[81.7123,28.3147],[81.7037,28.3601],[81.7457,28.395],[81.7477,28.4491],[81.7687,28.4665],[81.7502,28.5212],[81.7707,28.5206]]],[[[81.7393,29.3517],[81.7784,29.2964],[81.7366,29.2796],[81.7346,29.2255],[81.6697,29.1371],[81.6678,29.083],[81.6261,29.0661],[81.6024,28.9765],[81.5185,28.9246],[81.5061,28.8618],[81.498,28.9252],[81.562,28.9956],[81.6036,29.0126],[81.6055,29.0666],[81.6704,29.1551],[81.6723,29.2092],[81.7141,29.2261],[81.716,29.2801],[81.7373,29.2976],[81.7187,29.3522],[81.7393,29.3517]]],[[[79.0993,29.1113],[79.0888,29.0843],[79.0582,29.1116],[79.0993,29.1113]]],[[[79.2863,29.272],[79.286,29.254],[79.3676,29.199],[79.3563,29.1179],[79.3256,29.1273],[79.3263,29.1814],[79.2037,29.2548],[79.2863,29.272]]],[[[79.8892,30.6901],[79.9914,30.5804],[79.9899,30.5083],[79.9578,30.4636],[79.9267,30.4731],[79.9691,30.5086],[79.95,30.5991],[79.8974,30.5728],[79.9299,30.6354],[79.8475,30.6907],[79.8892,30.6901]]]]}},{"type":"Feature","properties":{"cell":7,"feature":307,"phase":"Developing","min_bt_K":233.0,"area_km2":5264,"cold_core_km2":0,"speed_kmh":31.3,"heading_deg":48,"d_min_bt_30":1.0,"age_min":150,"family":3,"touches_missing":false,"lon":75.9972,"lat":32.2312,"merges_splits_so_far":8},"geometry":{"type":"MultiPolygon","coordinates":[[[[76.2325,32.5771],[76.126,32.5756],[76.0416,32.5383],[75.7437,32.5336],[75.7133,32.47],[75.6504,32.4328],[75.6306,32.3783],[75.5786,32.3323],[75.4833,32.3215],[75.5267,32.2862],[75.533,32.0518],[75.5128,32.0153],[75.5457,31.9708],[75.6713,32.0272],[75.6812,32.0545],[75.6595,32.0721],[75.7326,32.1185],[75.8493,32.1114],[75.8501,32.0753],[75.7667,32.0198],[75.7684,31.9477],[75.7275,31.8929],[75.7602,31.8483],[75.8236,31.8494],[75.8348,31.8225],[75.8774,31.8052],[75.8567,31.7868],[75.8691,31.7058],[75.9957,31.7078],[76.079,31.7631],[76.1005,31.7454],[76.1634,31.7643],[76.1717,31.8817],[76.2552,31.9369],[76.2545,31.973],[76.2959,32.0277],[76.3138,32.2083],[76.3765,32.2632],[76.3952,32.4077],[76.3419,32.4161],[76.3308,32.443],[76.2879,32.4605],[76.3078,32.5329],[76.2325,32.5771]]],[[[75.8734,31.9855],[75.8746,31.9314],[75.8431,31.9219],[75.8311,31.9848],[75.8734,31.9855]]]]}},{"type":"Feature","properties":{"cell":9,"feature":310,"phase":"Developing","min_bt_K":234.1,"area_km2":50932,"cold_core_km2":0,"speed_kmh":41.8,"heading_deg":357,"d_min_bt_30":1.1,"age_min":150,"family":3,"touches_missing":false,"lon":77.6435,"lat":32.7704,"merges_splits_so_far":12},"geometry":{"type":"MultiPolygon","coordinates":[[[[76.8316,34.009],[76.7018,34.0078],[76.6596,33.9352],[76.5945,33.9525],[76.5287,34.006],[76.4638,34.0052],[76.4212,33.9687],[76.3131,33.9673],[76.2273,33.9301],[76.1318,33.8477],[76.1431,33.8207],[76.1863,33.8213],[76.2192,33.7947],[76.2419,33.7409],[76.2035,33.5058],[76.2694,33.4345],[76.249,33.3801],[76.2712,33.3443],[76.1438,33.2705],[76.1671,33.1806],[76.2111,33.127],[76.2118,33.091],[76.1483,33.054],[76.1505,32.9458],[76.1722,32.9281],[76.152,32.8737],[76.174,32.8379],[76.2388,32.8027],[76.2507,32.7397],[76.378,32.7774],[76.4427,32.7421],[76.6133,32.7439],[76.6563,32.7263],[76.666,32.7896],[76.6868,32.8259],[76.7187,32.8352],[76.7837,32.7636],[76.9118,32.7648],[76.9656,32.7201],[76.9875,32.6661],[76.9668,32.6118],[76.9697,32.3593],[77.0866,32.3511],[77.1077,32.3693],[77.2035,32.3429],[77.1827,32.2886],[77.2041,32.2707],[77.2054,32.1264],[77.1639,32.0179],[77.2172,31.9731],[77.2702,31.9644],[77.2282,31.9281],[77.2289,31.8379],[77.1875,31.7475],[77.2406,31.7027],[77.3992,31.6403],[77.3782,31.6222],[77.4,31.5141],[77.3792,31.4779],[77.2954,31.4233],[77.3167,31.3874],[77.2961,31.3332],[77.3805,31.2795],[77.3597,31.2433],[77.3915,31.1983],[77.5803,31.1991],[77.7275,31.1092],[77.8323,31.0914],[77.8638,31.0643],[77.8222,30.9019],[77.9059,30.8299],[77.9269,30.7758],[77.9061,30.6675],[77.9374,30.6585],[77.9896,30.7938],[77.9895,30.884],[78.0418,30.9111],[78.0837,30.893],[78.1254,30.8389],[78.1568,30.8478],[78.1569,30.92],[78.2199,31.0101],[78.2412,31.1544],[78.2832,31.1724],[78.3049,31.3888],[78.3891,31.4246],[78.3893,31.4788],[78.421,31.5057],[78.4631,31.5056],[78.5268,31.5956],[78.6006,31.6043],[78.6009,31.6584],[78.6437,31.7484],[78.6441,31.8025],[78.6231,31.8206],[78.6443,31.8386],[78.6447,31.8927],[78.6237,31.9108],[78.6458,32.055],[78.6248,32.0732],[78.6674,32.1091],[78.6678,32.1632],[78.6891,32.1811],[78.6684,32.2534],[78.7117,32.3614],[78.6906,32.3795],[78.691,32.4337],[78.7127,32.4877],[78.7553,32.5055],[78.7559,32.5776],[78.7774,32.5955],[78.7565,32.6498],[78.7995,32.6856],[78.7783,32.7038],[78.8001,32.7578],[78.7792,32.812],[78.8655,32.9017],[78.866,32.9558],[78.8876,32.9737],[78.8458,33.0822],[78.8138,33.0914],[78.7395,33.1731],[78.7186,33.2453],[78.7833,33.2811],[78.892,33.4247],[78.8931,33.5329],[78.9148,33.5508],[78.9154,33.605],[78.894,33.6232],[78.9182,33.8756],[78.8437,33.9933],[77.9784,33.996],[77.9459,33.9689],[77.9676,33.9329],[77.9244,33.8967],[77.9676,33.7344],[77.9461,33.6803],[77.9138,33.6712],[77.86,33.6261],[77.86,33.59],[77.817,33.5719],[77.753,33.3733],[77.5709,33.2556],[77.4851,33.2553],[77.4638,33.2372],[77.3992,33.273],[77.3351,33.2366],[77.3248,33.1734],[77.2821,33.1551],[77.3042,33.065],[77.2508,33.0557],[77.2297,33.0195],[77.2184,33.0826],[77.1323,33.1362],[77.1312,33.2444],[77.0988,33.2713],[77.024,33.2437],[76.9801,33.3336],[77.0009,33.3879],[76.8926,33.4592],[76.9121,33.6217],[77.0412,33.6407],[77.0616,33.7491],[77.1042,33.8036],[76.93,33.9286],[76.9184,33.9916],[76.8535,33.9911],[76.8316,34.009]]],[[[77.9684,31.4974],[77.9685,31.3531],[77.9475,31.335],[77.9685,31.2448],[77.9475,31.2087],[77.8741,31.1816],[77.8637,31.1365],[77.8323,31.1275],[77.8216,31.2086],[77.8531,31.2177],[77.8635,31.2447],[77.8215,31.2808],[77.8214,31.3349],[77.7793,31.3709],[77.7792,31.407],[77.8106,31.4702],[77.8737,31.4703],[77.8947,31.5064],[77.9684,31.4974]]]]}},{"type":"Feature","properties":{"cell":30,"feature":306,"phase":"Developing","min_bt_K":231.1,"area_km2":10720,"cold_core_km2":0,"speed_kmh":95.9,"heading_deg":16,"d_min_bt_30":-1.9,"age_min":30,"family":3,"touches_missing":true,"lon":76.4238,"lat":31.6162,"merges_splits_so_far":1},"geometry":{"type":"MultiPolygon","coordinates":[[[[76.6586,32.564],[76.4257,32.4893],[76.3619,32.4885],[76.3187,32.5241],[76.2876,32.4786],[76.3419,32.4161],[76.3952,32.4077],[76.3967,32.3176],[76.3765,32.2632],[76.3138,32.2083],[76.3157,32.1001],[76.2552,31.9369],[76.1717,31.8817],[76.1738,31.7735],[76.1319,31.7549],[76.1752,31.7013],[76.1241,31.6194],[75.9884,31.5543],[75.9689,31.4819],[75.9375,31.4723],[75.9069,31.4268],[75.9288,31.391],[75.9081,31.3727],[75.9105,31.2645],[75.9533,31.229],[75.9544,31.1749],[75.8935,31.0838],[75.9152,31.048],[75.9069,30.9487],[76.0115,30.9503],[76.0317,30.9867],[76.053,30.9689],[76.1158,30.9699],[76.157,31.0065],[76.2198,31.0074],[76.3467,30.9369],[76.4301,30.9559],[76.5144,30.9208],[76.5448,30.9843],[76.5024,31.0199],[76.5437,31.0564],[76.5636,31.1288],[76.6154,31.1745],[76.7094,31.2025],[76.6879,31.2383],[76.7294,31.2748],[76.7488,31.4013],[76.7906,31.4197],[76.8107,31.4921],[76.8945,31.5289],[76.9135,31.7094],[77.0397,31.7465],[76.8796,31.8986],[76.8055,31.9069],[76.8048,31.961],[76.8892,31.9798],[76.9093,32.0702],[76.8556,32.1329],[76.8132,32.1325],[76.7701,32.1862],[76.717,32.1947],[76.7163,32.2489],[76.7477,32.2762],[76.7902,32.2766],[76.8214,32.322],[76.7778,32.4118],[76.6704,32.4829],[76.6586,32.564]]]]}},{"type":"Feature","properties":{"cell":33,"feature":298,"phase":"Unclassified","min_bt_K":237.2,"area_km2":1156,"cold_core_km2":0,"speed_kmh":null,"heading_deg":null,"d_min_bt_30":null,"age_min":0,"family":33,"touches_missing":true,"lon":81.7695,"lat":31.6957,"merges_splits_so_far":0},"geometry":{"type":"MultiPolygon","coordinates":[[[[82.0647,32.0036],[82.0208,31.9688],[81.9793,31.9881],[81.9668,31.9434],[81.7933,31.8402],[81.8137,31.8215],[81.7045,31.7344],[81.7031,31.6984],[81.65,31.6908],[81.5949,31.6292],[81.5936,31.5931],[81.529,31.5588],[81.4402,31.4348],[81.4389,31.3987],[81.4898,31.3523],[81.5949,31.3495],[81.6274,31.3757],[81.5881,31.4489],[81.6322,31.5018],[81.675,31.5187],[81.7417,31.6071],[81.8929,31.6929],[81.9163,31.7464],[82.0037,31.8159],[82.006,31.87],[82.0373,31.86],[82.0702,31.8861],[82.0725,31.9402],[82.1156,31.9569],[82.0647,32.0036]]]]}},{"type":"Feature","properties":{"cell":35,"feature":308,"phase":"Unclassified","min_bt_K":232.5,"area_km2":4944,"cold_core_km2":0,"speed_kmh":null,"heading_deg":null,"d_min_bt_30":null,"age_min":0,"family":3,"touches_missing":false,"lon":75.9135,"lat":32.7364,"merges_splits_so_far":1},"geometry":{"type":"MultiPolygon","coordinates":[[[[75.6637,33.1637],[75.5999,33.1445],[75.5485,33.0624],[75.55,33.0083],[75.5719,32.9907],[75.5092,32.9354],[75.4893,32.8809],[75.5116,32.8452],[75.4704,32.7903],[75.5146,32.737],[75.4943,32.7006],[75.517,32.6469],[75.5185,32.5928],[75.4977,32.5743],[75.5224,32.4485],[75.4809,32.4116],[75.5031,32.376],[75.4937,32.3307],[75.5786,32.3323],[75.6306,32.3783],[75.6504,32.4328],[75.7133,32.47],[75.7437,32.5336],[76.0416,32.5383],[76.126,32.5756],[76.2325,32.5771],[76.3619,32.4885],[76.4257,32.4893],[76.5102,32.5263],[76.574,32.527],[76.6161,32.5636],[76.6799,32.5642],[76.6899,32.6094],[76.7323,32.6279],[76.7315,32.682],[76.6781,32.6905],[76.6563,32.7263],[76.6133,32.7439],[76.4427,32.7421],[76.378,32.7774],[76.2507,32.7397],[76.2388,32.8027],[76.1849,32.829],[76.152,32.8737],[76.1722,32.9281],[76.1396,32.9547],[75.9896,32.9705],[75.9242,33.0237],[75.7744,33.0212],[75.763,33.0481],[75.6979,33.0831],[75.6637,33.1637]]]]}}]}