{"type":"FeatureCollection","features":[{"type":"Feature","properties":{"cell":3,"feature":361,"phase":"Developing","min_bt_K":230.0,"area_km2":87048,"cold_core_km2":0,"speed_kmh":89.5,"heading_deg":137,"d_min_bt_30":-1.0,"age_min":180,"family":3,"touches_missing":true,"lon":80.7291,"lat":28.7797,"merges_splits_so_far":10},"geometry":{"type":"MultiPolygon","coordinates":[[[[79.9779,31.4556],[79.9148,31.4565],[79.8293,31.3856],[79.7659,31.3684],[79.7335,31.3237],[79.6485,31.2707],[79.647,31.1805],[79.3614,31.0123],[79.3185,30.9406],[79.2557,30.9412],[79.2456,30.9684],[79.2039,30.9868],[79.1943,31.05],[79.0685,31.0511],[79.0578,31.0241],[78.9946,30.9885],[78.9942,30.9524],[79.0255,30.9432],[79.0357,30.9161],[78.9936,30.8983],[78.9931,30.8442],[78.9511,30.8265],[78.9292,30.7184],[78.9495,30.6641],[78.9807,30.6549],[79.0426,30.5822],[79.126,30.5816],[79.1361,30.5544],[79.1775,30.536],[79.1868,30.4367],[79.2803,30.4268],[79.2792,30.3366],[79.3203,30.3001],[79.2988,30.2462],[79.3399,30.2097],[79.3389,30.1376],[79.4006,30.1008],[79.3994,30.0106],[79.4406,29.9922],[79.46,29.9017],[79.5011,29.8832],[79.5199,29.7567],[79.477,29.6489],[79.4354,29.6314],[79.4344,29.5592],[79.4955,29.5044],[79.4744,29.4685],[79.4944,29.4322],[79.4733,29.3964],[79.4923,29.2879],[79.4715,29.2701],[79.5225,29.2424],[79.5426,29.2061],[79.6043,29.2054],[79.6141,29.1782],[79.6955,29.123],[79.6946,29.0689],[79.6532,29.0514],[79.6526,29.0153],[79.683,28.9879],[79.724,28.9873],[79.7657,29.0229],[79.8273,29.022],[79.8367,28.9768],[79.867,28.9493],[79.9081,28.9487],[79.9783,28.8665],[79.9766,28.7763],[80.0581,28.757],[80.0664,28.6576],[79.9846,28.6588],[79.9648,28.6952],[79.9239,28.6958],[79.9132,28.6689],[79.8304,28.6159],[79.8294,28.5618],[79.7678,28.5446],[79.7666,28.4724],[79.8071,28.4538],[79.8366,28.3903],[79.8574,28.408],[79.8875,28.3805],[79.8872,28.3625],[79.8253,28.3273],[79.8555,28.2998],[79.947,28.2894],[79.9156,28.2448],[79.8545,28.2456],[79.8031,28.2193],[79.8028,28.2012],[79.8329,28.1737],[79.8536,28.1915],[79.935,28.1903],[79.9551,28.172],[79.9961,28.1894],[80.0055,28.1441],[80.1262,28.0701],[80.1055,28.0523],[80.1144,27.989],[80.053,27.9719],[80.0114,27.9184],[80.0024,27.9817],[79.9721,27.9912],[79.9411,27.9646],[79.9404,27.9285],[79.9807,27.9099],[79.9901,27.8646],[80.0713,27.8634],[80.0919,27.8811],[80.1728,27.8617],[80.2012,27.762],[80.2414,27.7432],[80.2598,27.6527],[80.1876,27.5907],[80.006,27.6297],[79.9548,27.6034],[79.9539,27.5492],[79.9333,27.5315],[80.0026,27.4492],[80.0232,27.467],[80.1244,27.4654],[80.308,27.5345],[80.3786,27.5242],[80.3171,27.4892],[80.1928,27.3469],[80.1921,27.3108],[80.2321,27.2921],[80.231,27.2379],[80.2005,27.2294],[80.1811,27.2659],[80.0801,27.2675],[80.0281,27.1871],[80.0777,27.1411],[80.1991,27.1572],[80.22,27.193],[80.3102,27.1644],[80.3095,27.1283],[80.3494,27.1095],[80.3862,26.9463],[80.466,26.9087],[80.4643,26.8365],[80.4438,26.8189],[80.4616,26.7102],[80.5505,26.6453],[80.5907,26.6445],[80.6321,26.6979],[80.6719,26.679],[80.733,26.7139],[80.8255,26.7932],[80.8268,26.8473],[80.8577,26.8737],[81.0192,26.8882],[81.0712,26.9502],[81.1946,27.0375],[81.218,27.1453],[81.3101,27.1881],[81.3215,27.233],[81.3728,27.2587],[81.4461,27.3381],[81.4691,27.4278],[81.4189,27.4381],[81.3894,27.4659],[81.3905,27.502],[81.442,27.5278],[81.6235,27.5048],[81.6548,27.5311],[81.6351,27.5497],[81.637,27.6038],[81.6787,27.6387],[81.7255,27.8179],[81.9469,28.0371],[81.9875,28.0359],[82.0092,28.0713],[82.1214,28.0769],[82.1235,28.131],[82.165,28.1477],[82.1664,28.1838],[82.1973,28.1918],[82.2296,28.2359],[82.2318,28.29],[82.2831,28.2974],[82.3367,28.3588],[82.3177,28.3955],[82.4251,28.5183],[82.4054,28.537],[82.4486,28.5897],[82.4289,28.6084],[82.4327,28.6985],[82.4032,28.7266],[82.3819,28.7093],[82.2818,28.7667],[82.0976,28.7725],[82.0559,28.7558],[82.0163,28.7931],[81.9754,28.7943],[81.9225,28.7508],[81.9211,28.7147],[81.8901,28.7066],[81.826,28.6363],[81.7442,28.6387],[81.5421,28.7164],[81.4807,28.7181],[81.4714,28.7454],[81.503,28.7716],[81.6054,28.7689],[81.7197,28.8108],[81.7652,28.9359],[81.7274,29.0272],[81.7705,29.0801],[81.8971,29.1666],[81.8992,29.2207],[81.9204,29.2381],[81.8615,29.3121],[81.9054,29.383],[81.9686,29.4172],[82.0988,29.5756],[82.1002,29.6116],[82.0597,29.6309],[82.0917,29.657],[82.1117,29.6384],[82.195,29.6538],[82.2095,29.7526],[82.273,29.7866],[82.2746,29.8227],[82.3382,29.8567],[82.3612,29.9101],[82.4548,29.916],[82.4954,29.8965],[82.5492,29.9398],[82.5517,29.9939],[82.5218,30.022],[82.4389,30.0248],[82.4066,29.9988],[82.4257,29.9621],[82.3736,29.9548],[82.3644,29.9821],[82.3859,29.9995],[82.356,30.0275],[82.3145,30.0289],[82.2293,29.9775],[82.1671,29.9795],[82.0506,29.9199],[82.102,29.9093],[82.2078,29.9601],[82.2907,29.9575],[82.3206,29.9294],[82.0548,29.7664],[81.91,29.7708],[81.7832,29.7023],[81.7526,29.7122],[81.7539,29.7482],[81.7032,29.7767],[81.6839,29.8134],[81.5804,29.8162],[81.561,29.8528],[81.4783,29.855],[81.4688,29.8823],[81.4381,29.8922],[81.4186,29.9288],[81.3772,29.9298],[81.3577,29.9664],[81.1091,29.9725],[81.0463,29.9559],[80.9959,30.0022],[80.9981,30.0743],[80.9678,30.102],[80.9263,30.103],[80.8965,30.1487],[80.8773,30.2033],[80.9193,30.2204],[80.9209,30.2745],[80.8692,30.2846],[80.8495,30.3212],[80.7247,30.3238],[80.7049,30.3603],[80.6633,30.3611],[80.6338,30.4249],[80.5926,30.4437],[80.5936,30.4798],[80.5529,30.5166],[80.5135,30.6076],[80.6285,30.6144],[80.6721,30.6857],[80.9022,30.6989],[80.9242,30.7345],[81.0286,30.7322],[81.0506,30.7677],[81.0924,30.7668],[81.1121,30.7302],[81.2481,30.736],[81.3132,30.8065],[81.3037,30.8338],[81.2619,30.8349],[81.2422,30.8714],[81.1783,30.8369],[81.1054,30.8477],[81.1072,30.9017],[81.1496,30.9188],[81.1752,31.0625],[81.2183,31.0976],[81.2214,31.1877],[81.18,31.2067],[81.1818,31.2608],[81.1086,31.2716],[81.0961,31.2087],[81.0433,31.2009],[81.0212,31.1653],[80.9362,31.1312],[80.8502,31.0609],[80.4935,31.05],[80.4507,31.0147],[80.346,31.0166],[80.3375,31.098],[80.317,31.1164],[80.3393,31.1701],[80.3084,31.1977],[80.2455,31.1988],[80.1529,31.2815],[80.1331,31.3359],[80.0605,31.3822],[80.0403,31.4186],[79.9982,31.4192],[79.9779,31.4556]]],[[[81.2047,27.3803],[81.2036,27.3442],[81.1621,27.3091],[81.1715,27.2818],[81.2015,27.2721],[81.2004,27.236],[81.1176,27.1657],[81.0954,27.094],[81.0644,27.0677],[81.0561,27.1311],[81.0866,27.1394],[81.1186,27.2018],[81.1595,27.2189],[81.1611,27.273],[81.1217,27.3101],[81.1627,27.3272],[81.1746,27.3901],[81.2047,27.3803]]],[[[81.3736,27.6108],[81.3731,27.5927],[81.332,27.5757],[81.3517,27.5572],[81.3484,27.4489],[81.3074,27.4319],[81.3057,27.3778],[81.2751,27.3695],[81.2664,27.4149],[81.3079,27.45],[81.3118,27.5762],[81.3736,27.6108]]],[[[81.55,28.0394],[81.5697,28.0208],[81.5667,27.9306],[81.5243,27.8776],[81.5643,27.8585],[81.5219,27.8055],[81.5619,27.7863],[81.5601,27.7322],[81.5294,27.724],[81.5079,27.6885],[81.5213,27.7874],[81.5022,27.824],[81.5237,27.8596],[81.4843,27.8967],[81.5255,27.9137],[81.5296,28.0399],[81.55,28.0394]]],[[[80.4662,27.8114],[80.4964,27.8018],[80.5059,27.7746],[80.4546,27.7485],[80.4248,27.7761],[80.4459,27.8118],[80.4662,27.8114]]],[[[80.2724,28.2481],[80.2298,28.1586],[80.199,28.1501],[80.1691,28.1777],[80.1698,28.2137],[80.242,28.2577],[80.2724,28.2481]]],[[[82.1032,28.6551],[82.1025,28.637],[82.1426,28.6177],[82.1003,28.5829],[82.0954,28.4568],[82.0736,28.4213],[82.1137,28.402],[82.1123,28.366],[82.0806,28.3399],[82.0729,28.4033],[82.0335,28.4406],[82.075,28.4574],[82.0799,28.5836],[82.101,28.601],[82.0623,28.6563],[82.1032,28.6551]]],[[[82.2887,28.6852],[82.3282,28.6479],[82.2865,28.6312],[82.2843,28.5771],[82.3131,28.531],[82.2434,28.5784],[82.2449,28.6145],[82.2873,28.6492],[82.288,28.6672],[82.2478,28.6866],[82.2887,28.6852]]],[[[80.785,29.1226],[80.774,29.0958],[80.7434,29.1054],[80.7544,29.1323],[80.785,29.1226]]],[[[79.8406,29.1933],[79.8298,29.1664],[79.7992,29.1758],[79.8099,29.2027],[79.8406,29.1933]]]]}},{"type":"Feature","properties":{"cell":9,"feature":363,"phase":"Developing","min_bt_K":233.0,"area_km2":43916,"cold_core_km2":0,"speed_kmh":55.4,"heading_deg":106,"d_min_bt_30":-1.1,"age_min":180,"family":3,"touches_missing":true,"lon":77.9278,"lat":32.7016,"merges_splits_so_far":14},"geometry":{"type":"MultiPolygon","coordinates":[[[[79.0816,33.9916],[78.4976,33.9951],[78.4757,33.9591],[78.4325,33.9592],[78.411,33.9954],[78.2812,33.9957],[78.2703,33.9687],[78.227,33.9507],[78.1943,33.8154],[78.0648,33.8156],[78.0432,33.7795],[77.9784,33.7795],[77.9569,33.7434],[77.849,33.7253],[77.7952,33.6801],[77.8385,33.608],[77.7632,33.5808],[77.677,33.5987],[77.6553,33.6347],[77.5907,33.6345],[77.4825,33.7063],[77.4394,33.7062],[77.4276,33.8595],[77.3734,33.8863],[77.3628,33.8592],[77.3198,33.8409],[77.3415,33.823],[77.3423,33.7147],[77.2786,33.5881],[77.2795,33.4799],[77.226,33.4525],[77.2048,33.4163],[77.0977,33.3795],[77.0232,33.3159],[77.0138,33.1985],[76.928,33.1979],[76.9063,33.2157],[76.875,33.1523],[76.8761,33.0621],[77.0271,32.9551],[76.9955,32.9097],[76.8887,32.9089],[76.8457,32.9266],[76.7929,32.881],[76.8159,32.7549],[76.9445,32.7019],[76.9453,32.6297],[76.8612,32.5388],[76.9049,32.449],[76.9059,32.3588],[76.9274,32.3409],[76.8856,32.2865],[76.8869,32.1782],[76.983,32.1159],[77.0998,32.0896],[77.1004,32.0175],[77.2709,31.8742],[77.2716,31.784],[77.2928,31.7661],[77.2932,31.712],[77.3251,31.6851],[77.3461,31.7032],[77.4093,31.7035],[77.4305,31.6856],[77.5571,31.6861],[77.5783,31.65],[77.6205,31.6502],[77.789,31.7407],[77.8523,31.7408],[77.8629,31.7138],[77.9051,31.6958],[77.9473,31.6236],[77.9473,31.5695],[77.9052,31.5334],[77.9684,31.4793],[77.9474,31.4252],[78.0315,31.3531],[77.9895,31.2989],[78.0105,31.2809],[77.9685,31.2448],[77.9685,31.1907],[78.021,31.1636],[78.0524,31.1726],[78.126,31.2718],[78.189,31.2717],[78.2206,31.2988],[78.2207,31.3709],[78.2523,31.3979],[78.3575,31.3977],[78.4102,31.4426],[78.4527,31.5327],[78.5161,31.5685],[78.5797,31.6404],[78.5589,31.6766],[78.6013,31.7125],[78.6015,31.7486],[78.6332,31.7574],[78.6652,31.8024],[78.7288,31.8381],[78.7291,31.8742],[78.7715,31.892],[78.772,31.9461],[78.7092,32.0367],[78.7095,32.0728],[78.7416,32.1177],[78.816,32.1443],[78.859,32.2162],[78.8385,32.2885],[78.8813,32.3243],[78.9038,32.4504],[78.9467,32.4862],[79.0133,32.7383],[79.0348,32.7562],[79.036,32.8644],[78.9945,32.9729],[78.9955,33.0631],[78.9743,33.0813],[79.0177,33.1351],[79.0402,33.2252],[79.0835,33.2609],[79.0848,33.3692],[79.0003,33.4961],[79.0222,33.532],[78.9798,33.5865],[79.0019,33.6404],[78.9806,33.6586],[79.0027,33.7126],[78.9818,33.7669],[79.0692,33.8564],[79.0264,33.8928],[79.07,33.9286],[79.0816,33.9916]]],[[[78.18,32.0745],[78.2011,32.0384],[78.1376,32.0024],[78.1057,31.9213],[78.0529,32.0205],[78.0953,32.0385],[78.1059,32.0836],[78.18,32.0745]]],[[[78.6243,32.001],[78.6452,31.9648],[78.5923,31.9561],[78.5818,31.9832],[78.6243,32.001]]],[[[78.8203,32.6314],[78.8413,32.5952],[78.7984,32.5593],[78.7976,32.4691],[78.7656,32.4603],[78.7556,32.5415],[78.7985,32.5774],[78.799,32.6315],[78.8203,32.6314]]]]}},{"type":"Feature","properties":{"cell":30,"feature":362,"phase":"Developing","min_bt_K":234.0,"area_km2":17316,"cold_core_km2":0,"speed_kmh":42.2,"heading_deg":34,"d_min_bt_30":2.9,"age_min":60,"family":3,"touches_missing":true,"lon":76.5496,"lat":31.7729,"merges_splits_so_far":2},"geometry":{"type":"MultiPolygon","coordinates":[[[[76.8266,32.746],[76.784,32.7456],[76.7631,32.7093],[76.6565,32.7083],[76.5937,32.6355],[76.4146,32.5162],[76.4047,32.471],[76.2974,32.5238],[76.2457,32.4419],[76.2035,32.4233],[76.269,32.334],[76.2488,32.2796],[76.3347,32.2266],[76.2929,32.19],[76.2936,32.1539],[76.2202,32.1079],[76.1775,32.1253],[76.0716,32.1238],[75.9984,32.0776],[75.9992,32.0416],[75.9576,32.0049],[75.9388,31.8963],[75.9823,31.8429],[76.0053,31.753],[75.965,31.6622],[75.9666,31.5901],[75.9042,31.553],[75.9058,31.4809],[75.8241,31.3713],[75.8459,31.3356],[75.7841,31.2804],[75.8055,31.2628],[75.7652,31.1899],[75.7878,31.1181],[75.7468,31.0814],[75.748,31.0273],[75.8014,30.9831],[75.8856,30.9664],[75.897,30.9215],[75.9286,30.9129],[75.9503,30.8772],[76.0339,30.8785],[76.0959,30.9154],[76.1587,30.9163],[76.1876,31.052],[76.2391,31.0978],[76.323,31.0989],[76.3342,31.054],[76.4192,30.9828],[76.3779,30.9463],[76.4204,30.9107],[76.4218,30.8205],[76.4536,30.7938],[76.516,30.8126],[76.547,30.84],[76.525,30.9119],[76.556,30.9393],[76.6187,30.94],[76.6702,31.0036],[76.6697,31.0397],[76.7109,31.0942],[76.6897,31.1121],[76.6889,31.1662],[76.8972,31.2944],[76.8966,31.3485],[76.9278,31.3758],[77.0119,31.3764],[77.022,31.4216],[77.0637,31.458],[77.0633,31.4941],[77.1369,31.5036],[77.2519,31.6035],[77.2515,31.6576],[77.2932,31.712],[77.2709,31.8742],[77.1004,32.0175],[77.0891,32.0986],[76.9616,32.1337],[76.9194,32.1154],[76.8451,32.1238],[76.8869,32.1782],[76.8856,32.2865],[76.9276,32.3229],[76.8827,32.521],[76.8612,32.5388],[76.9453,32.6297],[76.9445,32.7019],[76.8266,32.746]]]]}},{"type":"Feature","properties":{"cell":33,"feature":354,"phase":"Developing","min_bt_K":236.1,"area_km2":1796,"cold_core_km2":0,"speed_kmh":50.7,"heading_deg":73,"d_min_bt_30":-1.1,"age_min":30,"family":33,"touches_missing":true,"lon":82.025,"lat":31.7637,"merges_splits_so_far":0},"geometry":{"type":"MultiPolygon","coordinates":[[[[82.2999,32.0503],[82.1941,32.0537],[82.1509,32.037],[82.1384,31.9923],[82.0412,31.9501],[82.0178,31.8967],[81.9653,31.9073],[81.9623,31.8352],[81.9193,31.8185],[81.8522,31.7302],[81.7882,31.714],[81.7185,31.5536],[81.7389,31.535],[81.7368,31.4809],[81.768,31.471],[81.7876,31.4344],[81.8732,31.468],[81.9284,31.5295],[82.004,31.5724],[82.0352,31.5624],[81.9923,31.5456],[81.9893,31.4736],[81.8811,31.4046],[81.8673,31.3238],[81.9311,31.34],[81.9862,31.4015],[82.0508,31.4356],[82.0742,31.489],[82.1171,31.5058],[82.1202,31.5778],[82.142,31.5952],[82.1022,31.6506],[82.0499,31.6612],[82.0202,31.7072],[82.1852,31.8555],[82.2722,31.9068],[82.3254,31.9141],[82.3507,32.0035],[82.2999,32.0503]]]]}},{"type":"Feature","properties":{"cell":35,"feature":365,"phase":"Unclassified","min_bt_K":234.0,"area_km2":2904,"cold_core_km2":0,"speed_kmh":68.3,"heading_deg":338,"d_min_bt_30":1.5,"age_min":30,"family":3,"touches_missing":false,"lon":75.7782,"lat":33.0224,"merges_splits_so_far":1},"geometry":{"type":"MultiPolygon","coordinates":[[[[75.7216,33.4173],[75.6905,33.3716],[75.6919,33.3175],[75.6494,33.2988],[75.6513,33.2266],[75.6094,33.1898],[75.5699,33.0628],[75.5714,33.0087],[75.5932,32.991],[75.5733,32.9366],[75.6175,32.8832],[75.6222,32.7029],[75.644,32.6852],[75.6231,32.6668],[75.6671,32.6135],[75.6685,32.5594],[75.6155,32.5494],[75.5952,32.513],[75.5526,32.5122],[75.5437,32.4489],[75.5758,32.4405],[75.7628,32.6241],[75.8267,32.6252],[75.8593,32.5987],[75.8609,32.5265],[75.8292,32.517],[75.8192,32.4898],[75.8409,32.4721],[75.8426,32.3999],[75.8747,32.3914],[75.9272,32.4193],[75.989,32.5105],[75.9669,32.5462],[76.0091,32.5649],[76.0072,32.6551],[76.0494,32.6737],[76.0475,32.7639],[75.9396,32.8164],[75.9275,32.8794],[75.9061,32.879],[75.8646,32.8243],[75.8324,32.8328],[75.8315,32.8688],[75.8734,32.9056],[75.8508,32.9594],[75.8923,33.0141],[75.8914,33.0502],[75.9556,33.0512],[75.952,33.2135],[75.9066,33.3211],[75.8299,33.383],[75.744,33.3816],[75.7216,33.4173]]]]}},{"type":"Feature","properties":{"cell":41,"feature":366,"phase":"Unclassified","min_bt_K":234.0,"area_km2":8840,"cold_core_km2":0,"speed_kmh":null,"heading_deg":null,"d_min_bt_30":null,"age_min":0,"family":3,"touches_missing":true,"lon":76.4684,"lat":33.6621,"merges_splits_so_far":2},"geometry":{"type":"MultiPolygon","coordinates":[[[[76.8316,34.009],[75.9773,33.9898],[76.0446,33.8825],[76.0474,33.7562],[76.0152,33.7467],[75.9416,33.6644],[75.88,33.5372],[75.8264,33.5273],[75.7316,33.4445],[75.744,33.3816],[75.8299,33.383],[75.9066,33.3211],[75.952,33.2135],[75.9661,33.0604],[75.9977,33.0879],[75.9961,33.1601],[76.0806,33.2154],[76.0798,33.2515],[76.2596,33.3893],[76.3244,33.3721],[76.5177,33.3744],[76.5813,33.4292],[76.6672,33.4301],[76.7752,33.395],[76.8826,33.3959],[76.9037,33.4322],[76.9467,33.4326],[77.0338,33.325],[77.0977,33.3795],[77.162,33.398],[77.183,33.4522],[77.2475,33.4526],[77.2795,33.4799],[77.2786,33.5881],[77.3423,33.7147],[77.3415,33.823],[77.2119,33.8223],[77.2116,33.8584],[77.1683,33.8761],[77.1894,33.9304],[77.1674,33.9664],[77.178,33.9935],[76.8535,33.9911],[76.8316,34.009]]]]}}]}