{"type":"FeatureCollection","features":[{"type":"Feature","properties":{"cell":3,"feature":418,"phase":"Developing","min_bt_K":234.0,"area_km2":35980,"cold_core_km2":0,"speed_kmh":235.8,"heading_deg":351,"d_min_bt_30":4.0,"age_min":210,"family":3,"touches_missing":true,"lon":80.5467,"lat":29.8314,"merges_splits_so_far":11},"geometry":{"type":"MultiPolygon","coordinates":[[[[80.0162,31.2746],[79.9952,31.2749],[79.9735,31.2392],[79.8895,31.2404],[79.8671,31.1685],[79.8042,31.1694],[79.7932,31.1425],[79.7296,31.1073],[79.7183,31.0623],[79.6555,31.0631],[79.6339,31.0273],[79.5814,31.0189],[79.5808,30.9828],[79.5386,30.9653],[79.4099,30.7502],[79.504,30.7582],[79.5244,30.7219],[79.5764,30.7123],[79.5964,30.6579],[79.6581,30.603],[79.655,30.4227],[79.6336,30.3868],[79.6954,30.35],[79.6936,30.2418],[79.6517,30.2242],[79.6087,30.1346],[79.6698,30.0616],[79.7314,30.0248],[79.7205,29.9978],[79.6686,29.9895],[79.668,29.9534],[79.7187,29.8896],[79.7808,29.8888],[79.8416,29.8158],[79.9345,29.8054],[79.9335,29.7513],[79.9741,29.7146],[79.9527,29.6789],[79.972,29.6064],[79.9094,29.5712],[79.9283,29.4807],[79.9692,29.4621],[79.9468,29.3722],[80.0806,29.3611],[80.1513,29.2968],[80.13,29.2611],[80.1255,29.0446],[80.1557,29.0171],[80.2584,29.0154],[80.268,28.9881],[80.3087,28.9694],[80.2978,28.9425],[80.2363,28.9436],[80.1531,28.8908],[80.1121,28.8915],[80.0492,28.8203],[79.9353,28.7588],[79.8722,28.6695],[79.8716,28.6334],[79.8304,28.6159],[79.8297,28.5799],[79.8599,28.5524],[79.9008,28.5518],[79.9105,28.5246],[79.951,28.5059],[79.9604,28.4607],[80.0622,28.4411],[80.136,28.5572],[80.271,28.6542],[80.3733,28.6524],[80.3941,28.6701],[80.4755,28.6505],[80.5787,28.6847],[80.6396,28.6654],[80.671,28.6918],[80.6724,28.746],[80.7034,28.7543],[80.7457,28.8076],[80.9306,28.8217],[80.9416,28.8485],[81.0567,28.9271],[81.386,28.9552],[81.4253,28.9],[81.4663,28.8989],[81.4998,28.9793],[81.5309,28.9875],[81.595,29.0579],[81.7513,29.1167],[81.7221,29.1627],[81.5477,29.1765],[81.5701,29.23],[81.6231,29.2737],[81.6849,29.272],[81.7067,29.3075],[81.7585,29.315],[81.7605,29.3691],[81.6682,29.3807],[81.6089,29.4545],[81.444,29.4589],[81.4222,29.4234],[81.3804,29.4065],[81.3497,29.4163],[81.3609,29.443],[81.4234,29.4595],[81.4452,29.495],[81.5083,29.5294],[81.6115,29.5267],[81.6334,29.5621],[81.6415,29.4988],[81.6927,29.4883],[81.7053,29.5511],[81.6853,29.5697],[81.688,29.6418],[81.7533,29.7302],[81.7239,29.7762],[81.6399,29.7424],[81.5779,29.7441],[81.5378,29.7813],[81.4864,29.7917],[81.4682,29.8643],[81.4381,29.8922],[81.3866,29.9025],[81.3979,29.9293],[81.5121,29.9353],[81.514,29.9894],[81.4732,30.0085],[81.455,30.0812],[81.4041,30.1096],[81.362,30.0926],[81.1337,30.0982],[81.0833,30.1445],[81.1052,30.1801],[81.0451,30.2537],[81.0878,30.2887],[81.112,30.3964],[80.9972,30.3901],[80.9753,30.3545],[80.9236,30.3646],[81.0309,30.4705],[80.9802,30.5167],[80.9188,30.5542],[80.8563,30.5556],[80.8349,30.538],[80.6057,30.5427],[80.5964,30.588],[80.6183,30.6236],[80.5872,30.6333],[80.5654,30.5976],[80.514,30.6256],[80.4954,30.7162],[80.5386,30.7695],[80.5395,30.8056],[80.6241,30.84],[80.5642,30.9494],[80.5657,31.0035],[80.629,31.0203],[80.6304,31.0744],[80.5373,31.1213],[80.5159,31.1037],[80.4321,31.1053],[80.3469,31.0527],[80.3384,31.134],[80.3812,31.1693],[80.3504,31.197],[80.3084,31.1977],[80.2648,31.1263],[80.2019,31.1273],[80.1801,31.0916],[80.1172,31.0926],[80.0864,31.1202],[80.0871,31.1562],[80.0456,31.1749],[80.0471,31.2471],[80.0162,31.2746]]],[[[80.413,29.0397],[80.4125,29.0217],[80.4532,29.0029],[80.4519,28.9487],[80.5235,28.9384],[80.5536,28.9107],[80.5422,28.8658],[80.4611,28.9035],[80.4514,28.9307],[80.3706,28.9863],[80.3719,29.0404],[80.413,29.0397]]],[[[81.3404,29.7593],[81.3398,29.7413],[81.2979,29.7243],[81.2961,29.6702],[81.2749,29.6527],[81.2731,29.5986],[81.3132,29.5615],[81.3121,29.5255],[81.2384,29.4822],[81.2708,29.5265],[81.2725,29.5806],[81.2318,29.5996],[81.233,29.6357],[81.2755,29.6707],[81.2772,29.7248],[81.3404,29.7593]]],[[[81.021,30.1459],[80.9779,30.0928],[81.0188,30.0738],[81.0788,30.0003],[81.0463,29.9559],[81.0155,29.9656],[81.0469,29.9739],[81.0581,30.0007],[80.9369,30.1117],[80.9683,30.1201],[80.9901,30.1557],[81.021,30.1459]]]]}},{"type":"Feature","properties":{"cell":9,"feature":424,"phase":"Developing","min_bt_K":234.0,"area_km2":16396,"cold_core_km2":0,"speed_kmh":170.3,"heading_deg":360,"d_min_bt_30":1.0,"age_min":210,"family":3,"touches_missing":false,"lon":77.9248,"lat":33.4692,"merges_splits_so_far":17},"geometry":{"type":"MultiPolygon","coordinates":[[[[78.9735,33.9925],[78.4543,33.9952],[78.4433,33.9682],[78.4863,33.9139],[78.4643,33.8418],[78.4858,33.8237],[78.4424,33.7878],[78.4422,33.7337],[78.4097,33.7067],[78.399,33.7338],[78.356,33.752],[78.3347,33.8422],[78.2484,33.8785],[78.2487,33.9507],[78.2163,33.9958],[77.2645,33.994],[77.2438,33.8856],[77.179,33.8852],[77.1676,33.9483],[77.1132,33.975],[77.1044,33.7855],[77.1265,33.7315],[77.0623,33.677],[77.0422,33.5505],[76.9782,33.4959],[76.9788,33.4418],[76.9575,33.4236],[76.9807,33.2795],[77.013,33.2707],[77.0768,33.3253],[77.2484,33.3444],[77.3348,33.2727],[77.3991,33.291],[77.5279,33.2735],[77.5711,33.2195],[77.7644,33.1118],[77.8072,33.1118],[77.9144,33.0217],[78.0428,33.0037],[78.1389,32.9044],[78.2028,32.7961],[78.2986,32.7147],[78.3625,32.7146],[78.3944,32.6874],[78.394,32.5972],[78.4472,32.588],[78.4588,32.7774],[78.5016,32.7953],[78.5019,32.8494],[78.5877,32.9032],[78.6101,33.0655],[78.7178,33.1371],[78.7437,33.6782],[78.7981,33.741],[78.852,33.7317],[78.8618,33.6324],[78.948,33.6318],[78.959,33.6588],[79.0023,33.6765],[79.0027,33.7126],[78.96,33.749],[78.9606,33.8031],[78.918,33.8575],[78.9836,33.9292],[78.9735,33.9925]]]]}},{"type":"Feature","properties":{"cell":30,"feature":419,"phase":"Developing","min_bt_K":232.0,"area_km2":11260,"cold_core_km2":0,"speed_kmh":21.9,"heading_deg":175,"d_min_bt_30":-2.0,"age_min":90,"family":3,"touches_missing":false,"lon":76.5596,"lat":31.6746,"merges_splits_so_far":2},"geometry":{"type":"MultiPolygon","coordinates":[[[[76.4303,32.2187],[76.3242,32.2174],[76.2196,32.1439],[76.1344,32.1608],[76.1247,32.1156],[76.0615,32.0966],[76.0627,32.0425],[76.0211,32.0058],[76.0226,31.9337],[75.9811,31.897],[76.003,31.8612],[75.983,31.8068],[76.026,31.7714],[76.0061,31.7169],[76.0072,31.6628],[76.0287,31.6451],[75.9892,31.5182],[76.0106,31.5005],[76.0125,31.4103],[76.0763,31.3752],[76.0781,31.285],[76.1098,31.2765],[76.1315,31.2407],[76.1735,31.2413],[76.2804,31.1345],[76.4068,31.1],[76.4387,31.0733],[76.4502,31.0103],[76.5764,30.9756],[76.6798,31.0669],[76.9091,31.1772],[77.0132,31.2502],[77.0547,31.3046],[77.1392,31.251],[77.1704,31.2783],[77.1905,31.3867],[77.2323,31.423],[77.2526,31.5133],[77.1366,31.5397],[77.0833,31.6025],[77.0828,31.6566],[77.0615,31.6745],[77.0825,31.6926],[77.0819,31.7468],[77.0394,31.7825],[77.0601,31.8188],[77.028,31.8636],[76.9537,31.8901],[76.9523,32.0164],[76.9733,32.0346],[76.9305,32.0704],[76.9085,32.1423],[76.8342,32.1507],[76.7923,32.1143],[76.7075,32.1135],[76.5578,32.2021],[76.4521,32.1829],[76.4303,32.2187]]]]}},{"type":"Feature","properties":{"cell":33,"feature":412,"phase":"Developing","min_bt_K":235.4,"area_km2":1096,"cold_core_km2":0,"speed_kmh":75.3,"heading_deg":51,"d_min_bt_30":-0.7,"age_min":60,"family":33,"touches_missing":true,"lon":82.3335,"lat":31.978,"merges_splits_so_far":0},"geometry":{"type":"MultiPolygon","coordinates":[[[[82.5619,32.204],[82.5195,32.2054],[82.2906,32.0777],[82.2881,32.0236],[82.2238,32.0076],[82.2222,31.9716],[82.1117,31.8668],[82.003,31.7979],[81.9656,31.6637],[82.0952,31.732],[82.1804,31.7474],[82.1922,31.7741],[82.2571,31.8081],[82.2807,31.8615],[82.4218,31.938],[82.4337,31.9647],[82.587,32.0678],[82.5676,32.1045],[82.5923,32.1759],[82.5619,32.204]]]]}},{"type":"Feature","properties":{"cell":41,"feature":420,"phase":"Developing","min_bt_K":233.3,"area_km2":28392,"cold_core_km2":0,"speed_kmh":177.8,"heading_deg":170,"d_min_bt_30":-0.7,"age_min":30,"family":3,"touches_missing":true,"lon":76.6291,"lat":32.8719,"merges_splits_so_far":4},"geometry":{"type":"MultiPolygon","coordinates":[[[[76.8316,34.009],[76.2258,34.0023],[76.1738,33.9024],[76.0564,33.8376],[75.9932,33.7645],[75.9611,33.7549],[75.8985,33.6638],[75.8994,33.6277],[75.8571,33.5909],[75.8584,33.5368],[75.7746,33.4452],[75.776,33.3911],[75.7339,33.3544],[75.7152,33.2458],[75.6113,33.1177],[75.5928,33.0091],[75.6146,32.9914],[75.6165,32.9193],[75.6602,32.884],[75.6398,32.8475],[75.6625,32.7938],[75.6416,32.7754],[75.644,32.6852],[75.6023,32.6484],[75.6037,32.5943],[75.5616,32.5755],[75.5437,32.4489],[75.5026,32.394],[75.5045,32.3219],[75.5687,32.305],[75.5706,32.2329],[75.5287,32.2141],[75.5301,32.16],[75.4882,32.1412],[75.4897,32.0871],[75.573,32.1427],[75.5824,32.188],[75.6036,32.1884],[75.6365,32.1439],[75.5118,32.0514],[75.4954,31.8707],[75.5696,31.863],[75.6128,31.8277],[75.718,31.8476],[75.7693,31.9116],[75.768,31.9657],[75.8095,32.0025],[75.8086,32.0386],[75.7659,32.0559],[75.7858,32.1104],[75.7425,32.1457],[75.7624,32.2002],[75.6555,32.2344],[75.6333,32.2701],[75.631,32.3603],[75.7867,32.5163],[75.8401,32.5081],[75.8413,32.454],[75.8739,32.4275],[75.9055,32.437],[75.924,32.5636],[75.8918,32.5721],[75.8709,32.5537],[75.8597,32.5806],[75.8805,32.599],[75.8785,32.6892],[75.9203,32.7259],[75.8981,32.7617],[75.9811,32.8712],[75.9787,32.9794],[75.9569,32.9971],[75.9322,33.1411],[76.0487,33.206],[76.0603,33.161],[76.1468,33.1262],[76.2139,32.9827],[76.257,32.9653],[76.2577,32.9292],[76.3012,32.8937],[76.1968,32.766],[76.1777,32.6575],[76.1145,32.6206],[76.0943,32.5661],[76.0312,32.5291],[76.0111,32.4747],[76.0339,32.4029],[76.1196,32.3681],[76.0779,32.3314],[76.0794,32.2592],[76.1646,32.2424],[76.1657,32.1883],[76.1448,32.17],[76.1984,32.1436],[76.3242,32.2174],[76.4303,32.2187],[76.4521,32.1829],[76.5578,32.2021],[76.7075,32.1135],[76.7923,32.1143],[76.8342,32.1507],[76.8978,32.1513],[76.9305,32.0704],[76.9733,32.0346],[76.9523,32.0164],[76.9537,31.8901],[77.028,31.8636],[77.0601,31.8188],[77.0394,31.7825],[77.0819,31.7468],[77.0825,31.6926],[77.0615,31.6745],[77.0828,31.6566],[77.0833,31.6025],[77.1366,31.5397],[77.242,31.5223],[77.3154,31.5678],[77.3151,31.6038],[77.3675,31.6492],[77.4519,31.6315],[77.4623,31.6586],[77.5044,31.6768],[77.5041,31.731],[77.5881,31.8215],[77.588,31.8575],[77.5031,31.9294],[77.5347,31.9566],[77.577,31.9387],[77.6404,31.9569],[77.6931,32.0021],[77.7141,32.0563],[77.6928,32.1104],[77.629,32.1643],[77.6075,32.2364],[77.4908,32.2451],[77.3733,32.3618],[77.3088,32.4697],[77.2339,32.5144],[77.1373,32.6131],[77.1359,32.7574],[77.1782,32.7937],[77.1564,32.8477],[77.2095,32.8751],[77.2412,32.9204],[77.2405,33.0106],[77.1975,33.0284],[77.197,33.0825],[77.1429,33.1453],[77.0143,33.1444],[76.9819,33.1712],[77.0023,33.2616],[76.9586,33.3334],[76.9575,33.4236],[76.9788,33.4418],[76.9782,33.4959],[77.0422,33.5505],[77.0623,33.677],[77.1265,33.7315],[77.1044,33.7855],[77.1025,33.9659],[77.1567,33.9573],[77.1889,33.9845],[76.8535,33.9911],[76.8316,34.009]]],[[[75.7451,32.0375],[75.7672,32.0018],[75.7154,31.9558],[75.6825,32.0004],[75.7451,32.0375]]],[[[76.2708,33.3624],[76.2821,33.3355],[76.1755,33.298],[76.1431,33.3065],[76.1744,33.3521],[76.2708,33.3624]]]]}},{"type":"Feature","properties":{"cell":45,"feature":422,"phase":"Unclassified","min_bt_K":233.0,"area_km2":6836,"cold_core_km2":0,"speed_kmh":null,"heading_deg":null,"d_min_bt_30":null,"age_min":0,"family":3,"touches_missing":false,"lon":77.6711,"lat":32.8869,"merges_splits_so_far":1},"geometry":{"type":"MultiPolygon","coordinates":[[[[77.2484,33.3444],[77.0768,33.3253],[77.0023,33.2616],[77.0029,33.2075],[76.9817,33.1893],[77.0143,33.1444],[77.1429,33.1453],[77.197,33.0825],[77.1975,33.0284],[77.2405,33.0106],[77.2412,32.9204],[77.2202,32.8842],[77.1564,32.8477],[77.189,32.7848],[77.3384,32.7856],[77.3923,32.7047],[77.4458,32.6778],[77.531,32.6782],[77.6806,32.5884],[77.7657,32.5886],[77.8297,32.5526],[77.9361,32.5527],[77.9681,32.5076],[78.0425,32.4625],[78.0851,32.4625],[78.1913,32.4082],[78.2763,32.4081],[78.3184,32.2998],[78.3821,32.2996],[78.5207,32.3983],[78.4999,32.4886],[78.4681,32.4978],[78.4467,32.4798],[78.4149,32.507],[78.4151,32.543],[78.3726,32.5612],[78.394,32.5972],[78.3944,32.6874],[78.3625,32.7146],[78.2986,32.7147],[78.2028,32.7961],[78.1389,32.9044],[78.0428,33.0037],[77.9144,33.0217],[77.8072,33.1118],[77.7644,33.1118],[77.5711,33.2195],[77.5279,33.2735],[77.4636,33.2733],[77.442,33.2912],[77.3348,33.2727],[77.2484,33.3444]]]]}},{"type":"Feature","properties":{"cell":46,"feature":423,"phase":"Unclassified","min_bt_K":233.0,"area_km2":11916,"cold_core_km2":0,"speed_kmh":null,"heading_deg":null,"d_min_bt_30":null,"age_min":0,"family":3,"touches_missing":true,"lon":78.9504,"lat":32.9484,"merges_splits_so_far":1},"geometry":{"type":"MultiPolygon","coordinates":[[[[79.2333,34.0084],[78.9842,33.9834],[78.9836,33.9292],[78.918,33.8575],[78.9606,33.8031],[78.96,33.749],[79.0027,33.7126],[79.0019,33.6404],[78.9586,33.6227],[79.0011,33.5683],[79.0007,33.5322],[78.9468,33.5236],[78.9358,33.4966],[78.8817,33.4699],[78.742,33.4797],[78.7178,33.1371],[78.6101,33.0655],[78.5877,32.9032],[78.5019,32.8494],[78.5016,32.7953],[78.4588,32.7774],[78.4579,32.597],[78.5217,32.5787],[78.5109,32.5517],[78.4576,32.5429],[78.4575,32.5068],[78.4999,32.4886],[78.5207,32.3983],[78.478,32.3624],[78.4776,32.2903],[78.435,32.2543],[78.4347,32.2002],[78.3605,32.1914],[78.3286,32.1644],[78.3497,32.1463],[78.3492,32.0201],[78.328,32.0021],[78.4652,31.9205],[78.4969,31.9294],[78.5076,31.9564],[78.5606,31.9652],[78.561,32.0374],[78.6994,32.136],[78.7419,32.1538],[78.8477,32.1351],[78.8906,32.1889],[78.9966,32.1882],[79.0607,32.2238],[79.072,32.2868],[79.1147,32.3045],[79.1151,32.3406],[79.1578,32.3583],[79.1582,32.3943],[79.2012,32.43],[79.1809,32.5024],[79.2129,32.5111],[79.2239,32.5381],[79.1818,32.5745],[79.183,32.6647],[79.2697,32.7722],[79.2062,32.8088],[79.2067,32.8449],[79.2952,33.0606],[79.3391,33.1323],[79.4256,33.1855],[79.4265,33.2397],[79.4482,33.2575],[79.4488,33.2935],[79.3852,33.3483],[79.4073,33.3842],[79.3662,33.5109],[79.3886,33.5648],[79.3676,33.6011],[79.4113,33.6367],[79.3903,33.673],[79.434,33.7087],[79.413,33.745],[79.4354,33.7989],[79.3727,33.9258],[79.2971,33.9356],[79.2333,34.0084]]],[[[79.1667,33.0618],[79.1658,32.9896],[79.1226,32.9539],[79.1219,32.8998],[79.079,32.8821],[79.0563,32.774],[79.0133,32.7383],[79.0127,32.6842],[78.9698,32.6664],[78.9585,32.6034],[78.9485,32.6666],[79.0135,32.7563],[79.0141,32.8104],[79.057,32.8281],[79.0796,32.9362],[79.1228,32.9719],[79.1239,33.0621],[79.1667,33.0618]]],[[[79.1476,33.2423],[79.1898,33.1878],[79.2324,33.1694],[79.2317,33.1153],[79.2637,33.106],[79.2634,33.0879],[79.1891,33.1337],[79.1686,33.2061],[79.1259,33.2245],[79.1262,33.2425],[79.1476,33.2423]]]]}},{"type":"Feature","properties":{"cell":47,"feature":425,"phase":"Unclassified","min_bt_K":215.0,"area_km2":33928,"cold_core_km2":168,"speed_kmh":null,"heading_deg":null,"d_min_bt_30":null,"age_min":0,"family":3,"touches_missing":true,"lon":81.2954,"lat":27.8068,"merges_splits_so_far":1},"geometry":{"type":"MultiPolygon","coordinates":[[[[82.5978,28.9546],[82.5362,28.9567],[82.4716,28.8867],[82.4085,28.8528],[82.3675,28.8541],[82.3562,28.8274],[82.3038,28.8021],[82.2628,28.8034],[82.1831,28.8601],[82.1718,28.8334],[82.212,28.8141],[82.2007,28.7874],[82.1802,28.788],[82.1513,28.834],[82.1739,28.8875],[82.1435,28.8974],[82.0849,28.9715],[81.9802,28.9205],[81.8784,28.9416],[81.836,28.9067],[81.7745,28.9085],[81.7533,28.8911],[81.7447,28.9364],[81.7665,28.9719],[81.7156,28.9824],[81.6633,28.9568],[81.6812,28.8841],[81.6489,28.8399],[81.485,28.8443],[81.4217,28.7918],[81.2971,28.7408],[81.1809,28.6264],[81.108,28.583],[81.0262,28.5849],[81.0053,28.5673],[80.9664,28.6404],[80.8033,28.662],[80.7753,28.7619],[80.7243,28.772],[80.7129,28.7271],[80.6819,28.7187],[80.6396,28.6654],[80.5992,28.6843],[80.4964,28.6682],[80.526,28.6225],[80.4947,28.596],[80.4325,28.5611],[80.3303,28.5629],[80.3195,28.5361],[80.2783,28.5187],[80.2775,28.4827],[80.378,28.4087],[80.3959,28.3001],[80.4467,28.2901],[80.4966,28.2441],[80.4961,28.226],[80.455,28.2087],[80.4732,28.1181],[80.5434,28.0717],[80.6447,28.0516],[80.6939,27.9875],[80.6013,27.9442],[80.4388,27.9473],[80.3348,27.8409],[80.2739,27.842],[80.2429,27.8154],[80.2196,27.6714],[80.1364,27.5645],[80.2056,27.4821],[80.2461,27.4814],[80.2858,27.4446],[80.4076,27.4605],[80.4472,27.4237],[80.4877,27.4229],[80.5174,27.3953],[80.4963,27.3595],[80.5058,27.3323],[80.6679,27.3472],[80.6975,27.3195],[80.6962,27.2653],[80.7159,27.2469],[80.6931,27.139],[80.7123,27.1025],[80.7522,27.0836],[80.7218,27.0752],[80.6904,27.0307],[80.6887,26.9585],[80.7272,26.8855],[80.796,26.8209],[80.9162,26.8002],[80.9648,26.7359],[81.0143,26.7077],[81.0745,26.7063],[81.1559,26.7405],[81.2183,26.8112],[81.371,26.8706],[81.4342,26.9592],[81.5165,27.0112],[81.5798,27.0998],[81.6629,27.1697],[81.6641,27.2058],[81.6953,27.232],[81.8287,27.2914],[81.8104,27.3461],[81.8521,27.381],[81.7927,27.4188],[81.7946,27.4729],[81.8154,27.4904],[81.7965,27.527],[81.8585,27.5613],[81.8604,27.6154],[81.9016,27.6323],[81.9029,27.6684],[81.9454,27.7212],[82.0285,27.7729],[82.0305,27.827],[82.0718,27.8438],[82.0529,27.8805],[82.0563,27.9706],[82.2028,28.0743],[82.2667,28.1445],[82.2787,28.1892],[82.3195,28.1879],[82.3413,28.2233],[82.4137,28.2479],[82.459,28.3547],[82.5233,28.4247],[82.6286,28.4933],[82.6309,28.5473],[82.6955,28.6172],[82.7372,28.6338],[82.72,28.7066],[82.7413,28.7239],[82.7684,28.8673],[82.7495,28.9041],[82.6995,28.933],[82.5954,28.9005],[82.5978,28.9546]]],[[[81.333,26.9438],[81.3014,26.8994],[81.2715,26.9092],[81.333,26.9438]]],[[[81.4802,27.1386],[81.4583,27.085],[81.376,27.033],[81.3743,26.9788],[81.3439,26.9706],[81.3351,27.016],[81.4185,27.1041],[81.4802,27.1386]]],[[[81.5964,27.6049],[81.5947,27.5508],[81.6247,27.5409],[81.6339,27.5136],[81.5929,27.4967],[81.5887,27.3704],[81.5673,27.3349],[81.6059,27.2796],[81.5747,27.2534],[81.5667,27.3168],[81.5367,27.3267],[81.5275,27.354],[81.5685,27.3709],[81.5518,27.4797],[81.5935,27.5147],[81.5548,27.5699],[81.5559,27.606],[81.5964,27.6049]]],[[[81.7825,27.708],[81.7303,27.6643],[81.7002,27.6742],[81.7309,27.6824],[81.7524,27.7179],[81.7825,27.708]]],[[[80.6691,27.8075],[80.6885,27.771],[80.6466,27.7177],[80.6159,27.7093],[80.5663,27.7554],[80.5672,27.7914],[80.5983,27.8179],[80.6691,27.8075]]],[[[81.8472,27.8144],[81.806,27.7976],[81.8244,27.7429],[81.7936,27.7347],[81.7857,27.7981],[81.8171,27.8243],[81.8472,27.8144]]],[[[81.8826,28.2286],[81.8819,28.2105],[81.9614,28.154],[81.9187,28.1011],[81.998,28.0446],[81.9974,28.0266],[81.956,28.0098],[81.9946,27.9544],[81.9533,27.9376],[81.9513,27.8835],[81.9192,27.8394],[81.8989,27.84],[81.8898,27.8673],[81.931,27.8841],[81.933,27.9382],[81.954,27.9557],[81.9357,28.0104],[81.9574,28.0458],[81.8983,28.1017],[81.9207,28.1552],[81.8616,28.2111],[81.8622,28.2292],[81.8826,28.2286]]],[[[82.0307,28.3685],[82.03,28.3505],[82.1488,28.2565],[82.1067,28.2218],[82.0941,28.159],[82.0646,28.187],[82.0659,28.223],[82.0968,28.2311],[82.1081,28.2578],[82.0096,28.3511],[82.0208,28.3778],[82.0307,28.3685]]],[[[82.5366,28.7311],[82.4713,28.6431],[82.4297,28.6264],[82.4168,28.5637],[82.388,28.6098],[82.4312,28.6625],[82.5047,28.7051],[82.5268,28.7405],[82.5366,28.7311]]]]}}]}