{"type":"FeatureCollection","features":[{"type":"Feature","properties":{"cell":9,"feature":481,"phase":"Developing","min_bt_K":233.0,"area_km2":6952,"cold_core_km2":0,"speed_kmh":26.7,"heading_deg":11,"d_min_bt_30":-1.0,"age_min":240,"family":3,"touches_missing":true,"lon":77.9533,"lat":33.5873,"merges_splits_so_far":17},"geometry":{"type":"MultiPolygon","coordinates":[[[[77.6971,33.9957],[77.3726,33.9945],[77.3191,33.9311],[77.3408,33.9132],[77.32,33.8048],[77.3526,33.7779],[77.4714,33.7694],[77.4724,33.589],[77.5157,33.5531],[77.5161,33.4809],[77.613,33.4542],[77.7639,33.3102],[77.8498,33.2742],[77.9142,33.2743],[77.9356,33.2563],[78.0,33.2563],[78.0215,33.2743],[78.1929,33.1659],[78.3,33.1477],[78.3855,33.0934],[78.4925,33.093],[78.5248,33.1199],[78.5036,33.1561],[78.5253,33.2102],[78.4613,33.2645],[78.483,33.3186],[78.4617,33.3367],[78.5264,33.3906],[78.5266,33.4266],[78.559,33.4536],[78.6238,33.4894],[78.6883,33.4891],[78.6993,33.5161],[78.7425,33.5339],[78.7432,33.6241],[78.7649,33.642],[78.7437,33.6782],[78.6256,33.7419],[78.5385,33.616],[78.4308,33.6164],[78.3448,33.6528],[78.3019,33.725],[78.2372,33.7252],[78.1727,33.7974],[78.0864,33.8156],[78.0432,33.8697],[77.8919,33.9418],[77.7405,33.9597],[77.6971,33.9957]]],[[[78.097,33.6441],[78.0969,33.59],[78.0754,33.572],[78.0968,33.5359],[78.086,33.4728],[78.0753,33.5359],[78.043,33.5449],[78.0323,33.572],[78.0754,33.59],[78.0754,33.6442],[78.097,33.6441]]]]}},{"type":"Feature","properties":{"cell":41,"feature":477,"phase":"Developing","min_bt_K":232.0,"area_km2":23400,"cold_core_km2":0,"speed_kmh":102.8,"heading_deg":174,"d_min_bt_30":-1.3,"age_min":60,"family":3,"touches_missing":false,"lon":76.6864,"lat":32.4107,"merges_splits_so_far":7},"geometry":{"type":"MultiPolygon","coordinates":[[[[76.8316,34.009],[76.6046,33.9978],[76.6498,33.8719],[76.6509,33.7998],[76.6727,33.7819],[76.4804,33.6716],[76.481,33.6356],[76.4386,33.599],[76.4193,33.4725],[76.3766,33.4539],[76.3776,33.3998],[76.3349,33.3812],[76.3356,33.3452],[76.2311,33.1995],[76.2325,33.1273],[76.1697,33.0543],[76.1726,32.91],[76.1306,32.8734],[76.1523,32.8556],[76.1325,32.7832],[76.2402,32.7305],[76.2416,32.6584],[76.2206,32.6401],[76.3069,32.5871],[76.2862,32.5507],[76.3082,32.5149],[76.2252,32.4056],[76.2296,32.1711],[76.2088,32.1528],[76.2102,32.0807],[76.1689,32.026],[76.2126,31.9544],[76.1509,31.8634],[76.1523,31.7912],[76.3021,31.685],[76.304,31.5768],[76.2622,31.5582],[76.2846,31.4863],[76.2431,31.4497],[76.2648,31.4139],[76.2445,31.3775],[76.2455,31.3234],[76.2668,31.3057],[76.2465,31.2693],[76.3107,31.198],[76.2907,31.1436],[76.3342,31.054],[76.4292,31.01],[76.5549,31.0114],[76.5962,31.048],[76.701,31.049],[76.7321,31.0764],[76.7521,31.1488],[76.8044,31.1583],[76.8146,31.1854],[76.8667,31.2129],[76.9928,31.1959],[77.024,31.2232],[77.0236,31.2593],[77.128,31.3322],[77.1275,31.3863],[77.1588,31.4135],[77.2429,31.414],[77.2741,31.4593],[77.2634,31.4863],[77.2004,31.4679],[77.1686,31.4948],[77.1681,31.5489],[77.1469,31.5668],[77.209,31.6935],[77.2086,31.7476],[77.2717,31.766],[77.2493,31.9282],[77.0999,32.0716],[77.036,32.1072],[77.0347,32.2335],[77.1189,32.3063],[77.1185,32.3423],[77.1816,32.4149],[77.1813,32.451],[77.2344,32.4603],[77.2448,32.4874],[77.1156,32.649],[77.1361,32.7393],[77.104,32.7481],[76.9314,32.9092],[76.8563,32.9357],[76.8772,32.9719],[76.8119,33.0616],[76.8104,33.1698],[76.7671,33.2055],[76.7651,33.3498],[76.7209,33.4396],[76.7206,33.4576],[76.7952,33.5034],[76.9673,33.5049],[77.0102,33.5232],[77.0522,33.6138],[77.1169,33.6142],[77.1918,33.6598],[77.1693,33.7679],[77.2551,33.8225],[77.2116,33.8584],[77.1996,33.9936],[76.8535,33.9911],[76.8316,34.009]]]]}},{"type":"Feature","properties":{"cell":45,"feature":479,"phase":"Unclassified","min_bt_K":233.0,"area_km2":10264,"cold_core_km2":0,"speed_kmh":33.8,"heading_deg":73,"d_min_bt_30":0.0,"age_min":30,"family":3,"touches_missing":false,"lon":77.8441,"lat":32.931,"merges_splits_so_far":1},"geometry":{"type":"MultiPolygon","coordinates":[[[[77.5699,33.4721],[77.5054,33.4719],[77.3772,33.345],[77.3129,33.3267],[77.2596,33.2813],[77.2614,33.0648],[77.2402,33.0467],[77.2406,32.9925],[77.2838,32.9387],[77.3161,32.9118],[77.3586,32.9481],[77.3696,32.903],[77.5521,32.7324],[77.6589,32.6786],[77.7871,32.5706],[78.0,32.4625],[78.2122,32.2459],[78.3819,32.2455],[78.4032,32.2635],[78.4667,32.2272],[78.5731,32.2809],[78.6048,32.2537],[78.6045,32.2176],[78.6996,32.172],[78.7744,32.2348],[78.7747,32.2708],[78.7113,32.3073],[78.701,32.3524],[78.5948,32.3529],[78.5844,32.3981],[78.5422,32.4343],[78.5424,32.4704],[78.6064,32.5062],[78.6075,32.6686],[78.5758,32.7138],[78.469,32.6782],[78.416,32.7415],[78.4161,32.7776],[78.4912,32.8404],[78.5766,32.8401],[78.5982,32.8761],[78.6836,32.8757],[78.7159,32.9026],[78.6734,32.9389],[78.6528,33.0472],[78.5994,33.0565],[78.5561,32.9845],[78.492,32.9848],[78.3746,33.0663],[78.3748,33.1024],[78.3428,33.1296],[78.1929,33.1659],[78.0215,33.2743],[78.0,33.2563],[77.9356,33.2563],[77.7639,33.3102],[77.6238,33.4452],[77.5699,33.4721]]],[[[78.3097,32.85],[78.3309,32.8139],[78.2775,32.7869],[78.2456,32.8321],[78.2777,32.8591],[78.3097,32.85]]]]}},{"type":"Feature","properties":{"cell":46,"feature":483,"phase":"Unclassified","min_bt_K":233.1,"area_km2":26412,"cold_core_km2":0,"speed_kmh":30.9,"heading_deg":135,"d_min_bt_30":0.1,"age_min":30,"family":3,"touches_missing":true,"lon":79.068,"lat":32.8505,"merges_splits_so_far":1},"geometry":{"type":"MultiPolygon","coordinates":[[[[79.7958,34.002],[79.6444,34.004],[79.6217,33.9501],[79.5895,33.9595],[79.5795,34.0047],[77.708,33.9867],[77.8054,33.9417],[77.8919,33.9418],[78.0432,33.8697],[78.0864,33.8156],[78.1727,33.7974],[78.2372,33.7252],[78.3019,33.725],[78.3126,33.6799],[78.4308,33.6164],[78.5385,33.616],[78.6256,33.7419],[78.8078,33.6237],[78.7849,33.4615],[78.7417,33.4437],[78.7413,33.3895],[78.6767,33.3718],[78.7401,33.2452],[78.8254,33.1906],[78.7814,33.0646],[78.8023,33.0103],[78.7805,32.9563],[78.6405,32.8218],[78.5979,32.84],[78.4912,32.8404],[78.4161,32.7776],[78.416,32.7415],[78.469,32.6782],[78.5864,32.7048],[78.6075,32.6686],[78.6064,32.5062],[78.6592,32.4428],[78.7122,32.4335],[78.7117,32.3614],[78.7963,32.3248],[78.7747,32.2708],[78.8064,32.2616],[78.8378,32.2163],[78.7953,32.1986],[78.7948,32.1444],[78.7521,32.1086],[78.7732,32.0904],[78.7515,32.0364],[78.7936,32.0001],[78.7721,31.9642],[78.7924,31.8558],[78.8664,31.8644],[78.8765,31.8192],[78.8444,31.7743],[78.7389,31.7749],[78.6429,31.6221],[78.674,31.5588],[78.7583,31.5584],[78.779,31.5222],[78.8211,31.5219],[78.8525,31.4946],[78.8518,31.4225],[78.8202,31.4137],[78.7671,31.3508],[78.7667,31.2967],[78.8085,31.2784],[78.8078,31.1882],[78.7657,31.1704],[78.7437,31.0443],[78.7645,31.0261],[78.7641,30.972],[78.8057,30.9357],[78.8045,30.7914],[78.8357,30.7822],[78.8665,30.7188],[78.9185,30.6914],[78.9707,30.7001],[78.9711,30.7361],[79.0556,30.8257],[79.0353,30.88],[79.1198,30.9514],[79.1001,31.0599],[79.153,31.1045],[79.2371,31.1218],[79.2585,31.1577],[79.374,31.1655],[79.3745,31.2016],[79.417,31.2373],[79.4176,31.2733],[79.4601,31.309],[79.4607,31.345],[79.5033,31.3806],[79.5038,31.4167],[79.5465,31.4523],[79.5471,31.4884],[79.6117,31.5778],[79.6347,31.6858],[79.5833,31.7676],[79.4569,31.7871],[79.3506,31.7341],[79.319,31.7434],[79.3407,31.7793],[79.3208,31.8697],[79.3422,31.8875],[79.3213,31.9057],[79.3221,31.9598],[79.28,31.9783],[79.281,32.0504],[79.3024,32.0683],[79.2818,32.1046],[79.3032,32.1224],[79.2835,32.2308],[79.3718,32.4645],[79.3511,32.5008],[79.3729,32.5366],[79.3532,32.6451],[79.4185,32.7346],[79.4191,32.7707],[79.484,32.8241],[79.4849,32.8782],[79.5282,32.9138],[79.5071,32.9321],[79.5508,32.9857],[79.5309,33.0761],[79.7046,33.2003],[79.6835,33.2186],[79.706,33.2725],[79.6637,33.3091],[79.6654,33.3993],[79.6443,33.4176],[79.6886,33.4892],[79.732,33.5067],[79.7118,33.5791],[79.7567,33.6687],[79.7358,33.7051],[79.8042,33.8846],[79.7833,33.921],[79.8057,33.9568],[79.7958,34.002]]],[[[79.4067,33.3481],[79.4064,33.3301],[79.4491,33.3116],[79.4485,33.2755],[79.405,33.2399],[79.403,33.1136],[79.3813,33.0958],[79.4022,33.0595],[79.3802,33.0236],[79.3783,32.8974],[79.4208,32.8789],[79.3883,32.8522],[79.3359,32.9158],[79.3375,33.0241],[79.3805,33.0417],[79.3385,33.0962],[79.3816,33.1138],[79.3836,33.2401],[79.4053,33.2579],[79.3852,33.3483],[79.4067,33.3481]]],[[[79.6039,33.5624],[79.5605,33.5449],[79.6026,33.4902],[79.5592,33.4727],[79.5583,33.4186],[79.515,33.4011],[79.5032,33.338],[79.4935,33.4013],[79.5595,33.4908],[79.5599,33.5088],[79.5171,33.5273],[79.5717,33.5718],[79.6039,33.5624]]],[[[79.5459,33.942],[79.5672,33.9237],[79.564,33.7433],[79.5315,33.7347],[79.5093,33.6988],[79.5243,33.9422],[79.5459,33.942]]],[[[78.6584,33.8049],[78.6474,33.7779],[78.6368,33.805],[78.6584,33.8049]]]]}},{"type":"Feature","properties":{"cell":47,"feature":484,"phase":"Developing","min_bt_K":213.0,"area_km2":73156,"cold_core_km2":320,"speed_kmh":166.1,"heading_deg":358,"d_min_bt_30":-2.0,"age_min":30,"family":3,"touches_missing":true,"lon":81.273,"lat":28.5557,"merges_splits_so_far":2},"geometry":{"type":"MultiPolygon","coordinates":[[[[79.8713,31.385],[79.7549,31.3415],[79.7322,31.2516],[79.6041,31.1269],[79.6029,31.0547],[79.5599,30.9831],[79.5593,30.947],[79.6215,30.9102],[79.6209,30.8741],[79.6618,30.8195],[79.6608,30.7654],[79.702,30.7288],[79.701,30.6747],[79.6799,30.6569],[79.7001,30.6205],[79.6783,30.5667],[79.7191,30.512],[79.6976,30.4762],[79.7905,30.4299],[79.8321,30.4293],[79.8622,30.3658],[80.0464,30.2187],[80.0449,30.1466],[80.126,30.0551],[80.1249,30.001],[80.062,29.9659],[80.1026,29.9292],[80.1019,29.8931],[80.1421,29.8383],[80.1406,29.7662],[80.1812,29.7294],[80.2404,29.6021],[80.2186,29.5484],[80.2999,29.4928],[80.2991,29.4568],[80.3496,29.4108],[80.4109,29.3916],[80.4912,29.2999],[80.5122,29.3175],[80.5419,29.2719],[80.6028,29.2346],[80.6014,29.1805],[80.642,29.1616],[80.6411,29.1256],[80.558,29.0911],[80.5562,29.019],[80.6073,29.0089],[80.6283,29.0266],[80.6976,28.9259],[80.6966,28.8898],[80.5718,28.8201],[80.5905,28.7476],[80.5269,28.6586],[80.5456,28.586],[80.5038,28.5507],[80.5417,28.4237],[80.5916,28.3776],[80.6532,28.3944],[80.6832,28.3667],[80.6415,28.3315],[80.6406,28.2954],[80.5265,28.2164],[80.4853,28.1991],[80.3835,28.201],[80.3312,28.1388],[80.3611,28.1112],[80.4022,28.1285],[80.4325,28.1189],[80.4521,28.0824],[80.4309,28.0467],[80.4404,28.0195],[80.4811,28.0187],[80.5231,28.0721],[80.5534,28.0625],[80.5516,27.9903],[80.6022,27.9803],[80.6519,27.9342],[80.6506,27.88],[80.6091,27.8448],[80.6587,27.7987],[80.6993,27.7978],[80.7611,27.8326],[80.8031,27.8859],[80.8329,27.8582],[80.831,27.786],[80.7687,27.7332],[80.7678,27.6971],[80.7259,27.6438],[80.7245,27.5897],[80.6831,27.5545],[80.6818,27.5003],[80.7119,27.4907],[80.7528,27.5079],[80.8229,27.4793],[80.7976,27.2813],[80.8952,27.1528],[80.8741,27.1171],[80.914,27.0982],[80.9466,26.8086],[81.0353,26.7433],[81.0956,26.7419],[81.2146,26.6849],[81.4557,26.6788],[81.5779,26.7297],[81.6382,26.728],[81.8784,26.983],[81.8797,27.0191],[82.0142,27.1143],[82.0546,27.1131],[82.1275,27.174],[82.1289,27.2101],[82.1706,27.2449],[82.1957,27.3705],[82.2368,27.3872],[82.2389,27.4413],[82.2815,27.4941],[82.2829,27.5302],[82.3248,27.5649],[82.327,27.619],[82.348,27.6364],[82.2893,27.6924],[82.3118,27.7459],[82.2929,27.7826],[82.3574,27.8707],[82.3611,27.9609],[82.3822,27.9782],[82.4085,28.1218],[82.4726,28.1918],[82.5141,28.2084],[82.5187,28.3166],[82.592,28.3592],[82.6328,28.3577],[82.6858,28.401],[82.7299,28.4716],[82.7225,28.5351],[82.6906,28.5091],[82.689,28.4731],[82.6482,28.4745],[82.6498,28.5106],[82.6914,28.5271],[82.6939,28.5812],[82.7143,28.5805],[82.7429,28.5343],[82.8182,28.6128],[82.8198,28.6489],[82.8616,28.6654],[82.8632,28.7014],[82.9477,28.7524],[82.952,28.8425],[82.9217,28.8527],[82.9127,28.8801],[82.934,28.8973],[82.9366,28.9514],[82.9678,28.9592],[82.9794,28.9859],[82.8875,28.9983],[82.849,29.0539],[82.8079,29.0554],[82.7086,29.1312],[82.6461,29.1153],[82.5671,29.1903],[82.5054,29.1924],[82.4758,29.2205],[82.4683,29.2839],[82.4065,29.286],[82.2991,29.1812],[82.258,29.1826],[82.1933,29.1124],[81.9886,29.1368],[81.8838,29.0858],[81.7605,29.0894],[81.7393,29.0719],[81.6784,29.0917],[81.6572,29.0742],[81.534,29.0776],[81.5128,29.0601],[81.4113,29.0989],[81.3585,29.0551],[81.3784,29.0366],[81.355,28.9469],[81.2923,28.9124],[81.2911,28.8763],[81.249,28.8413],[81.2263,28.7697],[81.1743,28.7439],[81.0457,28.9003],[81.0878,28.9354],[81.0894,28.9895],[81.2148,29.0587],[81.2481,29.1391],[81.3726,29.1721],[81.5414,29.294],[81.5826,29.2928],[81.6363,29.3545],[81.6064,29.3824],[81.5652,29.3835],[81.4952,29.4486],[81.4971,29.5027],[81.4577,29.5578],[81.5008,29.6108],[81.6493,29.7151],[81.6732,29.8047],[81.8221,29.9087],[81.7828,29.964],[81.8048,29.9994],[81.7848,30.018],[81.7889,30.1262],[81.8311,30.143],[81.8325,30.1791],[81.7515,30.2355],[81.7227,30.2995],[81.5142,30.2871],[81.4878,30.4232],[81.4468,30.4423],[81.448,30.4783],[81.407,30.4974],[81.3672,30.5526],[81.3685,30.5886],[81.2869,30.6448],[81.278,30.6901],[81.1718,30.6386],[81.1301,30.6396],[81.1426,30.7024],[81.0924,30.7668],[80.9434,30.6799],[80.8915,30.6901],[80.8835,30.7715],[80.7984,30.7192],[80.7149,30.7209],[80.7052,30.7482],[80.6639,30.7671],[80.6679,30.9113],[80.7107,30.9465],[80.6596,30.9927],[80.5335,30.9771],[80.4717,31.0143],[80.3665,30.9982],[80.3358,31.0258],[80.3362,31.0439],[80.3785,31.0611],[80.3799,31.1152],[80.4223,31.1325],[80.4245,31.2227],[80.3834,31.2595],[80.3741,31.3048],[80.2789,31.2794],[80.2875,31.198],[80.2673,31.2345],[80.2253,31.2352],[80.2142,31.2083],[80.1825,31.1998],[80.1632,31.2723],[80.0265,31.2654],[80.0273,31.3015],[80.0701,31.3369],[80.0601,31.3641],[80.0181,31.3648],[79.9753,31.3293],[79.8913,31.3306],[79.8713,31.385]]],[[[81.9264,27.1982],[81.9251,27.1622],[81.8829,27.1093],[81.8419,27.0924],[81.8192,27.0208],[81.6838,26.8893],[81.6746,26.9166],[81.7155,26.9335],[81.7374,26.9871],[81.7783,27.004],[81.7802,27.0581],[81.8107,27.0662],[81.8432,27.1285],[81.8841,27.1453],[81.8861,27.1994],[81.9264,27.1982]]],[[[82.3903,28.6639],[82.3895,28.6458],[82.4297,28.6264],[82.4054,28.537],[82.4243,28.5003],[82.4644,28.4809],[82.4621,28.4268],[82.4923,28.4168],[82.5014,28.3894],[82.4598,28.3727],[82.4787,28.336],[82.4364,28.3013],[82.4341,28.2472],[82.3926,28.2306],[82.3656,28.069],[82.3241,28.0523],[82.3219,27.9983],[82.2798,27.9635],[82.2777,27.9094],[82.2973,27.8908],[82.2132,27.8213],[82.2082,27.6951],[82.2481,27.6757],[82.2208,27.4961],[82.1789,27.4613],[82.1768,27.4072],[82.1357,27.3904],[82.1107,27.2648],[82.0697,27.2481],[82.0677,27.194],[82.0371,27.1859],[82.0286,27.2313],[82.0703,27.2661],[82.0724,27.3202],[82.1134,27.337],[82.1385,27.4626],[82.1796,27.4793],[82.1831,27.5695],[82.2243,27.5862],[82.2075,27.677],[82.1691,27.7324],[82.1726,27.8226],[82.2559,27.874],[82.2827,28.0356],[82.3685,28.1411],[82.3511,28.2139],[82.3934,28.2486],[82.3949,28.2847],[82.4371,28.3193],[82.4394,28.3734],[82.4606,28.3908],[82.4432,28.4635],[82.4047,28.519],[82.3645,28.5384],[82.3653,28.5564],[82.4069,28.5731],[82.3691,28.6465],[82.3698,28.6645],[82.3903,28.6639]]],[[[82.0346,27.9352],[82.0339,27.9171],[81.9926,27.9003],[81.9893,27.8102],[82.0684,27.7536],[82.065,27.6634],[82.1048,27.6442],[82.0518,27.5826],[82.0427,27.61],[82.0643,27.6454],[82.0251,27.6827],[82.0278,27.7549],[81.969,27.8108],[81.9507,27.8655],[81.994,27.9364],[82.0346,27.9352]]],[[[82.7192,28.6886],[82.7462,28.6064],[82.7159,28.6165],[82.6783,28.6901],[82.7192,28.6886]]],[[[80.8837,28.9761],[80.8726,28.9493],[80.8421,28.959],[80.8531,28.9858],[80.8837,28.9761]]],[[[80.9883,29.046],[80.9768,29.0011],[80.9257,29.0113],[80.9883,29.046]]],[[[81.4025,29.7578],[81.38,29.7042],[81.338,29.6872],[81.3209,29.4801],[81.3156,29.6337],[81.2961,29.6702],[81.3392,29.7233],[81.2985,29.7424],[81.3304,29.7686],[81.3499,29.732],[81.4025,29.7578]]],[[[81.6691,30.2559],[81.6785,30.2285],[81.7495,30.1814],[81.7066,30.1466],[81.7032,30.0564],[81.744,30.0372],[81.7406,29.9471],[81.7714,29.9372],[81.7707,29.9192],[81.6999,29.9663],[81.7026,30.0384],[81.6624,30.0756],[81.6651,30.1477],[81.7073,30.1646],[81.6275,30.257],[81.6691,30.2559]]],[[[81.0321,30.5065],[81.0309,30.4705],[80.9353,30.4095],[80.8308,30.3937],[80.78,30.4399],[80.812,30.4663],[80.9161,30.464],[81.0011,30.5163],[81.0321,30.5065]]],[[[80.8461,30.5648],[80.8349,30.538],[80.8044,30.5657],[80.8461,30.5648]]]]}},{"type":"Feature","properties":{"cell":50,"feature":470,"phase":"Unclassified","min_bt_K":236.0,"area_km2":836,"cold_core_km2":0,"speed_kmh":null,"heading_deg":null,"d_min_bt_30":null,"age_min":0,"family":3,"touches_missing":true,"lon":72.6793,"lat":33.0599,"merges_splits_so_far":0},"geometry":{"type":"MultiPolygon","coordinates":[[[[72.6341,33.2388],[72.5709,33.2182],[72.4997,33.1521],[72.5469,33.0818],[72.5556,32.9378],[72.633,32.8958],[72.7174,32.9172],[72.7297,32.8906],[72.7846,32.8657],[72.7907,32.9472],[72.8324,32.9668],[72.7865,33.0192],[72.8006,33.1461],[72.7568,33.1624],[72.7547,33.1984],[72.7965,33.2181],[72.6566,33.2216],[72.6341,33.2388]]]]}},{"type":"Feature","properties":{"cell":51,"feature":471,"phase":"Unclassified","min_bt_K":234.9,"area_km2":748,"cold_core_km2":0,"speed_kmh":null,"heading_deg":null,"d_min_bt_30":null,"age_min":0,"family":3,"touches_missing":true,"lon":74.9363,"lat":33.1586,"merges_splits_so_far":0},"geometry":{"type":"MultiPolygon","coordinates":[[[[75.0996,33.3692],[75.0793,33.3326],[74.994,33.3127],[74.9645,33.2308],[74.9119,33.2026],[74.8475,33.2011],[74.804,33.2181],[74.7813,33.2536],[74.7501,33.2258],[74.7722,33.2083],[74.7306,33.1712],[74.7748,33.1362],[74.7547,33.0996],[74.8312,33.0563],[74.9199,32.9682],[74.9516,32.9779],[74.9504,33.014],[75.0122,33.0876],[75.0967,33.1255],[75.0747,33.1431],[75.1158,33.1981],[75.092,33.2698],[75.1344,33.2887],[75.1326,33.3428],[75.0996,33.3692]]]]}},{"type":"Feature","properties":{"cell":55,"feature":482,"phase":"Unclassified","min_bt_K":233.3,"area_km2":636,"cold_core_km2":0,"speed_kmh":null,"heading_deg":null,"d_min_bt_30":null,"age_min":0,"family":3,"touches_missing":true,"lon":74.7502,"lat":33.5671,"merges_splits_so_far":0},"geometry":{"type":"MultiPolygon","coordinates":[[[[74.829,33.7239],[74.7656,33.6863],[74.7434,33.7038],[74.669,33.6749],[74.6703,33.6388],[74.5668,33.528],[74.6022,33.4477],[74.7748,33.4339],[74.8478,33.4988],[74.8883,33.5719],[74.8661,33.5894],[74.8851,33.6621],[74.829,33.7239]]]]}}]}