{"type":"FeatureCollection","features":[{"type":"Feature","properties":{"cell":9,"feature":529,"phase":"Developing","min_bt_K":232.0,"area_km2":12356,"cold_core_km2":0,"speed_kmh":33.2,"heading_deg":87,"d_min_bt_30":-1.0,"age_min":270,"family":3,"touches_missing":false,"lon":78.1319,"lat":33.5951,"merges_splits_so_far":17},"geometry":{"type":"MultiPolygon","coordinates":[[[[78.9302,33.9928],[77.3294,33.9943],[77.2651,33.9218],[77.2645,33.994],[77.0698,33.9928],[77.0604,33.8574],[77.1361,33.8489],[77.1473,33.8038],[77.2123,33.7862],[77.1918,33.6598],[77.2242,33.651],[77.2895,33.5791],[77.3109,33.5973],[77.3755,33.5976],[77.4183,33.6339],[77.526,33.6343],[77.5692,33.6164],[77.6449,33.5355],[77.688,33.5175],[77.7744,33.3914],[77.8712,33.3103],[77.9356,33.2743],[78.0644,33.2563],[78.1607,33.1389],[78.2677,33.0846],[78.2889,33.0305],[78.353,32.9942],[78.4486,32.8767],[78.5766,32.8401],[78.5874,32.8671],[78.7056,32.9477],[78.7911,32.9472],[78.8662,32.9738],[78.8669,33.046],[78.8456,33.0642],[78.8688,33.2444],[78.7836,33.3171],[78.7627,33.3894],[78.7307,33.4167],[78.623,33.3811],[78.6013,33.3451],[78.5478,33.3724],[78.5481,33.4266],[78.6454,33.5073],[78.731,33.4527],[78.7853,33.5156],[78.786,33.5877],[78.7431,33.606],[78.7224,33.7144],[78.6798,33.7868],[78.8418,33.7949],[78.8848,33.7766],[78.9499,33.8122],[78.9828,33.8571],[78.8967,33.8938],[78.8975,33.9659],[78.93,33.9747],[78.9302,33.9928]]]]}},{"type":"Feature","properties":{"cell":41,"feature":523,"phase":"Developing","min_bt_K":234.0,"area_km2":52192,"cold_core_km2":0,"speed_kmh":66.6,"heading_deg":41,"d_min_bt_30":2.0,"age_min":90,"family":3,"touches_missing":false,"lon":76.92,"lat":32.6369,"merges_splits_so_far":10},"geometry":{"type":"MultiPolygon","coordinates":[[[[76.8316,34.009],[76.1826,34.0017],[76.1295,33.9559],[76.1098,33.8654],[76.0674,33.8287],[76.0697,33.7205],[76.0486,33.7021],[76.0505,33.6119],[76.0729,33.5762],[75.9681,33.4483],[75.9689,33.4123],[75.9053,33.3752],[75.9061,33.3391],[75.8741,33.3296],[75.822,33.2656],[75.8696,33.0679],[75.808,32.9587],[75.8303,32.9229],[75.7893,32.8501],[75.7057,32.7765],[75.6486,32.5049],[75.607,32.4681],[75.6287,32.4504],[75.6079,32.432],[75.6102,32.3419],[75.6433,32.2973],[75.6753,32.2889],[75.6767,32.2348],[75.6875,32.2259],[75.7602,32.2903],[75.7698,32.3356],[75.791,32.336],[75.8455,32.2737],[75.8264,32.1832],[75.7849,32.1464],[75.7862,32.0923],[75.7443,32.0736],[75.7464,31.9834],[75.7257,31.965],[75.7477,31.9293],[75.8,31.9572],[75.8634,31.9583],[75.9041,32.0311],[76.0415,32.0422],[76.0423,32.0061],[76.0742,31.9976],[76.1283,31.9352],[76.1298,31.8631],[76.1727,31.8276],[76.1527,31.7732],[76.1959,31.7197],[76.2703,31.6936],[76.3883,31.5778],[76.3685,31.5054],[76.4115,31.4518],[76.3907,31.4335],[76.4148,31.2534],[76.4674,31.245],[76.4889,31.2092],[76.5522,31.1918],[76.604,31.2375],[76.6333,31.3911],[76.7386,31.3741],[76.7594,31.3924],[76.9695,31.4122],[77.0757,31.3047],[77.1806,31.3235],[77.1904,31.4047],[77.1058,31.4583],[77.116,31.4854],[77.2426,31.4501],[77.2635,31.4683],[77.3898,31.4689],[77.4527,31.5053],[77.5054,31.4784],[77.506,31.3702],[77.5483,31.3162],[77.5485,31.2801],[77.622,31.2713],[77.6533,31.3165],[77.7163,31.3528],[77.653,31.4067],[77.6737,31.497],[77.7472,31.5603],[77.8526,31.5424],[77.884,31.6597],[77.9156,31.6868],[77.9578,31.6868],[78.0422,31.777],[78.1267,31.795],[78.1584,31.822],[78.1373,31.8401],[78.1374,31.8942],[78.1797,31.9302],[78.1801,32.0926],[78.2226,32.1647],[78.2227,32.2188],[78.3505,32.3628],[78.3296,32.4531],[78.2659,32.4713],[78.3085,32.5072],[78.2873,32.5253],[78.2875,32.5795],[78.245,32.6156],[78.2451,32.6517],[78.0427,32.7872],[78.0,32.7872],[77.9573,32.8233],[77.8932,32.8233],[77.8611,32.8683],[77.8825,32.9044],[77.861,32.9585],[77.8824,32.9766],[77.8823,33.0488],[77.8393,33.1389],[77.9035,33.2292],[77.9678,33.2653],[77.8712,33.3103],[77.7744,33.3914],[77.688,33.5175],[77.526,33.6343],[77.4183,33.6339],[77.3755,33.5976],[77.3109,33.5973],[77.2895,33.5791],[77.2568,33.6241],[77.1918,33.6598],[77.2129,33.714],[77.1589,33.7227],[77.1486,33.6776],[77.1058,33.6412],[77.1275,33.6233],[77.1069,33.5329],[77.0747,33.5237],[76.9985,33.6043],[77.0412,33.6407],[77.041,33.6588],[76.9977,33.6765],[76.9971,33.7306],[77.04,33.749],[77.0606,33.8393],[76.9415,33.8655],[76.9304,33.8925],[76.887,33.9102],[76.9293,33.9827],[76.8316,34.009]]],[[[77.5468,31.6229],[77.5891,31.605],[77.5892,31.5689],[77.5368,31.5236],[77.5048,31.6047],[77.5468,31.6229]]]]}},{"type":"Feature","properties":{"cell":46,"feature":525,"phase":"Developing","min_bt_K":232.2,"area_km2":43960,"cold_core_km2":0,"speed_kmh":83.1,"heading_deg":170,"d_min_bt_30":-0.9,"age_min":60,"family":3,"touches_missing":true,"lon":79.1413,"lat":32.481,"merges_splits_so_far":1},"geometry":{"type":"MultiPolygon","coordinates":[[[[80.1203,33.9973],[80.0338,33.9986],[80.0227,33.9898],[80.0656,33.9711],[80.0541,33.9442],[79.9905,33.9993],[79.1684,34.009],[79.1465,33.9911],[78.9518,33.9926],[78.9614,33.8753],[79.0146,33.8117],[79.0799,33.8473],[79.166,33.8285],[79.2313,33.864],[79.2414,33.8188],[79.2841,33.7824],[79.2189,33.7469],[79.2184,33.7108],[79.1748,33.6751],[79.1738,33.6029],[79.2164,33.5665],[79.2159,33.5304],[79.1074,33.4592],[79.1275,33.3508],[79.0308,33.3425],[78.9983,33.3157],[78.9979,33.2796],[78.9548,33.2619],[78.9542,33.2078],[78.8682,33.1903],[78.8463,33.1363],[78.8662,32.9738],[78.7911,32.9472],[78.7056,32.9477],[78.6412,32.912],[78.5766,32.8401],[78.4486,32.8767],[78.353,32.9942],[78.2889,33.0305],[78.2677,33.0846],[78.1714,33.1299],[78.1179,33.2111],[78.0215,33.2743],[77.9356,33.2563],[77.8393,33.1389],[77.8823,33.0488],[77.8824,32.9766],[77.861,32.9585],[77.8824,32.9405],[77.8611,32.8864],[77.8826,32.8323],[78.0427,32.7872],[78.2451,32.6517],[78.245,32.6156],[78.2875,32.5795],[78.2873,32.5253],[78.3085,32.5072],[78.2659,32.4713],[78.319,32.4621],[78.3507,32.4169],[78.3505,32.3628],[78.2227,32.2188],[78.2226,32.1647],[78.1801,32.0926],[78.1797,31.9302],[78.1374,31.8942],[78.1373,31.8401],[78.1584,31.822],[78.1267,31.795],[78.0422,31.777],[77.9578,31.6868],[77.9156,31.6868],[77.884,31.6597],[77.8421,31.5334],[77.8842,31.4973],[77.8422,31.4612],[77.8423,31.4251],[77.937,31.3079],[77.979,31.344],[78.021,31.344],[78.0105,31.4252],[78.0316,31.4433],[78.0316,31.4974],[78.0737,31.5154],[78.0527,31.5695],[78.0738,31.6056],[78.1687,31.6686],[78.2422,31.5693],[78.2211,31.5333],[78.2947,31.5061],[78.3264,31.5331],[78.3371,31.5962],[78.4004,31.596],[78.4639,31.6679],[78.5803,31.7306],[78.6228,31.7846],[78.6018,31.8027],[78.6127,31.8477],[78.6763,31.8835],[78.7607,31.865],[78.8138,31.8918],[78.8141,31.9278],[78.8779,31.9635],[78.8782,31.9996],[78.9207,32.0173],[78.9213,32.0715],[78.9531,32.0803],[78.9627,31.981],[78.8775,31.9274],[78.8772,31.8914],[78.8346,31.8556],[78.8341,31.8014],[78.8755,31.711],[78.8119,31.6753],[78.8116,31.6392],[78.7477,31.5494],[78.7474,31.5133],[78.7892,31.477],[78.7677,31.423],[78.7874,31.2605],[78.7451,31.2247],[78.7236,31.1526],[78.8073,31.1341],[78.828,31.0979],[78.8069,31.08],[78.8272,31.0077],[78.8999,30.9441],[78.9729,30.9165],[78.9925,30.7901],[79.1483,30.7077],[79.2745,30.7787],[79.3372,30.778],[79.4117,30.8765],[79.35,30.9493],[79.3518,31.0756],[79.3952,31.1834],[79.4478,31.1918],[79.4892,31.1553],[79.5312,31.1548],[79.6476,31.2166],[79.6489,31.2887],[79.6915,31.3242],[79.6925,31.3784],[79.7352,31.4139],[79.7144,31.4322],[79.7154,31.4863],[79.674,31.5229],[79.6957,31.5587],[79.6966,31.6128],[79.6759,31.6311],[79.6986,31.721],[79.7414,31.7566],[79.7857,31.8642],[79.8817,31.908],[79.957,31.9701],[79.9585,32.0422],[80.0016,32.0776],[80.0692,32.257],[80.112,32.2744],[80.0604,32.3383],[79.9866,32.3665],[79.9882,32.4387],[80.0423,32.4829],[80.2342,32.4979],[80.3655,32.64],[80.4924,32.6016],[80.5958,32.4914],[80.6596,32.4901],[80.6814,32.5077],[80.7453,32.5064],[80.8107,32.5592],[80.8533,32.5583],[80.9413,32.6466],[81.0692,32.6437],[81.1453,32.687],[81.1252,32.7236],[81.1478,32.7591],[81.0966,32.8235],[80.9472,32.8268],[80.9252,32.8093],[80.8635,32.8828],[80.778,32.8846],[80.7665,32.8578],[80.6685,32.7966],[80.605,32.8159],[80.5738,32.8436],[80.5753,32.8977],[80.5132,32.971],[80.4938,33.0436],[80.4405,33.0536],[80.4201,33.09],[80.4087,33.0632],[80.2889,32.9841],[80.2461,32.9848],[80.0981,33.0594],[80.0007,33.0158],[79.9541,32.8361],[79.8994,32.7737],[79.8458,32.7654],[79.8017,32.6939],[79.8642,32.6209],[79.8209,32.5854],[79.8415,32.549],[79.7975,32.4774],[79.7651,32.4508],[79.68,32.4519],[79.6277,32.4977],[79.6499,32.5515],[79.6289,32.5698],[79.6305,32.66],[79.5885,32.6966],[79.6318,32.7321],[79.6111,32.7685],[79.6328,32.7863],[79.6338,32.8404],[79.7212,32.9475],[79.7002,32.9658],[79.7454,33.0915],[79.7247,33.1279],[79.8569,33.3065],[79.8592,33.4148],[79.881,33.4325],[79.8856,33.6489],[79.8648,33.6853],[79.9189,33.6936],[79.9413,33.7293],[79.9844,33.7287],[79.9958,33.7556],[80.0613,33.7907],[80.1203,33.9973]]],[[[80.2077,32.7239],[80.1429,32.6888],[80.1546,32.7337],[80.2077,32.7239]]],[[[78.2459,32.9584],[78.2458,32.9043],[78.3097,32.85],[78.2775,32.7869],[78.2455,32.796],[78.2883,32.8501],[78.2563,32.8591],[78.2031,32.9224],[78.2031,32.9404],[78.2459,32.9584]]],[[[80.1069,32.9781],[80.1697,32.9229],[80.1475,32.8872],[80.168,32.8508],[80.1567,32.8239],[80.1467,32.8511],[80.1044,32.8699],[80.1484,32.9233],[80.0641,32.9787],[80.1069,32.9781]]],[[[79.4044,33.2038],[79.3825,33.1679],[79.403,33.1136],[79.3808,33.0597],[79.3486,33.051],[79.3385,33.0962],[79.3708,33.1049],[79.3819,33.1319],[79.3396,33.1684],[79.4044,33.2038]]],[[[79.6383,33.0929],[79.6377,33.0568],[79.6054,33.0482],[79.5955,33.0934],[79.6383,33.0929]]],[[[79.8016,33.7584],[79.8225,33.722],[79.7782,33.6685],[79.8206,33.6318],[79.7772,33.6143],[79.7761,33.5602],[79.7327,33.5427],[79.7316,33.4886],[79.7098,33.4709],[79.7302,33.4165],[79.7084,33.3987],[79.7073,33.3446],[79.6641,33.3271],[79.706,33.2725],[79.6627,33.255],[79.6495,33.1198],[79.6413,33.2552],[79.6634,33.291],[79.6426,33.3274],[79.7087,33.4168],[79.7091,33.4348],[79.6664,33.4534],[79.7101,33.4889],[79.7337,33.5969],[79.7775,33.6324],[79.7779,33.6504],[79.7351,33.669],[79.779,33.7045],[79.78,33.7586],[79.8016,33.7584]]]]}},{"type":"Feature","properties":{"cell":47,"feature":530,"phase":"Decaying","min_bt_K":219.0,"area_km2":93420,"cold_core_km2":224,"speed_kmh":65.7,"heading_deg":110,"d_min_bt_30":6.0,"age_min":60,"family":3,"touches_missing":true,"lon":81.5885,"lat":28.4545,"merges_splits_so_far":2},"geometry":{"type":"MultiPolygon","coordinates":[[[[80.7426,31.6946],[80.6793,31.6959],[80.5826,31.6346],[80.5817,31.5986],[80.5493,31.5721],[80.5072,31.5729],[80.5165,31.5277],[80.4726,31.4563],[80.3978,31.4126],[80.4001,31.5028],[80.3167,31.5403],[80.2531,31.5234],[80.2119,31.5601],[80.1169,31.5527],[80.1359,31.4622],[80.1034,31.4176],[80.0613,31.4182],[80.0104,31.5002],[80.0533,31.5356],[80.0545,31.5897],[80.097,31.6071],[80.1197,31.6789],[80.0461,31.6891],[80.0035,31.6717],[79.9817,31.6359],[79.9395,31.6366],[79.9063,31.5559],[79.9045,31.4657],[79.8727,31.4571],[79.831,31.4757],[79.7462,31.4408],[79.6925,31.3784],[79.6915,31.3242],[79.6489,31.2887],[79.6473,31.1985],[79.7509,31.125],[79.7502,31.089],[79.8118,31.016],[79.8108,30.9619],[79.7051,30.9091],[79.6827,30.8192],[79.7344,30.7915],[79.7978,30.8267],[79.9445,30.8427],[80.0064,30.8057],[80.0691,30.8047],[80.1535,30.8395],[80.2879,30.7741],[80.2768,30.7472],[80.2244,30.7391],[80.2449,30.7207],[80.2436,30.6666],[80.2224,30.6489],[80.2428,30.6305],[80.2603,30.4859],[80.2391,30.4682],[80.2379,30.4141],[80.1958,30.3968],[80.2146,30.3062],[80.2753,30.233],[80.2537,30.1973],[80.2733,30.1429],[80.2309,30.1075],[80.2297,30.0534],[80.1879,30.036],[80.1871,30.0],[80.1241,29.9649],[80.2363,29.8819],[80.2574,29.8995],[80.3178,29.8263],[80.3693,29.8164],[80.3879,29.7258],[80.4495,29.7067],[80.4477,29.6345],[80.4056,29.5992],[80.4864,29.5255],[80.3798,29.3832],[80.297,29.3666],[80.2954,29.2944],[80.2639,29.2679],[80.161,29.2696],[80.109,29.2434],[80.1281,29.1709],[80.1793,29.1611],[80.2216,29.2145],[80.2631,29.2318],[80.366,29.23],[80.4067,29.2112],[80.4697,29.2642],[80.5721,29.2442],[80.5932,29.2618],[80.6549,29.2606],[80.697,29.2959],[80.7482,29.2858],[80.7477,29.2677],[80.685,29.2329],[80.6411,29.1256],[80.5161,29.0558],[80.4942,29.0021],[80.5243,28.9744],[80.8121,28.9867],[80.8211,28.9414],[80.7362,28.8349],[80.7129,28.7271],[80.6406,28.7015],[80.6296,28.6746],[80.5674,28.6398],[80.5556,28.5768],[80.4534,28.5788],[80.4425,28.5519],[80.4826,28.515],[80.4809,28.4429],[80.6011,28.3503],[80.5998,28.2962],[80.6301,28.2866],[80.6496,28.2501],[80.752,28.266],[80.8017,28.2199],[80.7766,28.0399],[80.7133,27.951],[80.712,27.8968],[80.7521,27.878],[80.7295,27.7882],[80.7593,27.7605],[80.8503,27.7495],[80.8088,27.7143],[80.8276,27.6597],[80.805,27.57],[80.8356,27.5783],[80.8653,27.5506],[80.8624,27.4424],[80.8116,27.4344],[80.7802,27.39],[80.7783,27.3178],[80.7981,27.2993],[80.776,27.2276],[80.9144,27.1162],[80.9332,27.0617],[80.9312,26.9895],[80.8895,26.9362],[80.8666,26.8284],[80.8961,26.8007],[80.9363,26.7998],[81.0388,26.8697],[81.0682,26.8419],[81.0471,26.8063],[81.1162,26.7595],[81.1564,26.7585],[81.1755,26.722],[81.2358,26.7205],[81.2749,26.6834],[81.3352,26.6819],[81.3547,26.6633],[81.4752,26.6602],[81.4947,26.6416],[81.7144,26.5995],[81.858,26.6857],[81.9999,26.7175],[82.0835,26.8052],[82.1231,26.7859],[82.1445,26.8214],[82.1848,26.8201],[82.1972,26.8829],[82.2284,26.909],[82.2784,26.8984],[82.3013,26.9698],[82.243,27.0259],[82.2854,27.0787],[82.2875,27.1328],[82.259,27.1789],[82.3181,27.1408],[82.3307,27.2036],[82.3703,27.1842],[82.3278,27.1315],[82.3257,27.0774],[82.2847,27.0607],[82.2826,27.0066],[82.3319,26.9779],[82.3639,27.022],[82.3674,27.1121],[82.596,27.2668],[82.5983,27.3209],[82.6395,27.3375],[82.6246,27.4644],[82.6892,27.5524],[82.6916,27.6065],[82.7329,27.6231],[82.7352,27.6771],[82.7563,27.6944],[82.7587,27.7485],[82.7197,27.786],[82.7603,27.7846],[82.7595,27.7665],[82.7993,27.747],[82.7976,27.711],[82.7555,27.6764],[82.7305,27.569],[82.6884,27.5344],[82.6966,27.489],[82.7273,27.4969],[82.7726,27.6036],[82.8771,27.672],[82.8625,27.7989],[82.8236,27.8364],[82.8293,27.9626],[82.8,27.9907],[82.7683,27.9648],[82.8065,27.9093],[82.774,27.8653],[82.7667,27.9288],[82.7269,27.9482],[82.7277,27.9663],[82.7691,27.9828],[82.7715,28.0369],[82.7927,28.0542],[82.7943,28.0902],[82.7552,28.1277],[82.7601,28.2359],[82.8033,28.2885],[82.8058,28.3425],[82.8694,28.3943],[82.8703,28.4124],[82.8303,28.4319],[82.8728,28.4664],[82.8982,28.5738],[82.9408,28.6083],[82.9434,28.6623],[82.9033,28.6819],[82.9042,28.6999],[82.946,28.7164],[82.952,28.8425],[82.9118,28.8621],[82.934,28.8973],[82.9161,28.9521],[82.949,28.996],[83.0302,28.9749],[83.1918,29.1221],[83.1937,29.1581],[83.2375,29.2105],[83.1875,29.2396],[83.1034,29.2067],[83.0775,29.307],[83.0059,29.3188],[82.9871,29.3556],[82.945,29.3391],[82.9781,29.383],[82.8893,29.4675],[82.745,29.4728],[82.7317,29.4101],[82.6996,29.3841],[82.6172,29.3871],[82.5974,29.4058],[82.5356,29.4079],[82.5142,29.3906],[82.2471,29.4175],[82.1838,29.3834],[82.0602,29.3873],[81.9146,29.3556],[81.7884,29.2871],[81.7067,29.3075],[81.6875,29.3441],[81.5227,29.3486],[81.4928,29.3765],[81.5564,29.4289],[81.559,29.501],[81.6008,29.5179],[81.6028,29.572],[81.6673,29.6424],[81.7306,29.6767],[81.6653,29.5883],[81.6234,29.5714],[81.6427,29.5348],[81.6002,29.4999],[81.6089,29.4545],[81.6402,29.4627],[81.6415,29.4988],[81.696,29.5785],[81.8439,29.6645],[81.9165,29.6714],[81.9179,29.7074],[81.878,29.7447],[81.8694,29.79],[81.8087,29.8279],[81.7159,29.8395],[81.7173,29.8756],[81.76,29.9105],[81.7862,30.0541],[81.8605,30.0971],[81.9642,30.094],[82.0072,30.1288],[82.1109,30.1256],[82.1539,30.1603],[82.28,30.1924],[82.2254,30.131],[82.2231,30.077],[82.1801,30.0422],[82.2301,29.9955],[82.3122,29.9748],[82.362,29.9281],[82.3604,29.892],[82.4309,29.8446],[82.5137,29.8418],[82.5468,29.8858],[82.5169,29.9139],[82.4548,29.916],[82.4457,29.9433],[82.628,30.0724],[82.6936,30.1423],[82.7892,30.184],[82.6663,30.2245],[82.7303,30.2583],[82.732,30.2943],[82.7862,30.3375],[82.8486,30.3352],[82.9552,30.3854],[83.0177,30.3831],[83.1037,30.4339],[83.1652,30.4135],[83.1869,30.4307],[83.2494,30.4282],[83.2721,30.4634],[83.3554,30.4601],[83.54,30.5878],[83.5102,30.6161],[83.4675,30.5998],[83.3216,30.6058],[83.2769,30.5534],[83.1936,30.5567],[83.15,30.5223],[83.025,30.5271],[83.0033,30.5099],[82.9208,30.531],[82.8574,30.5153],[82.7047,30.3765],[82.6631,30.378],[82.5973,30.3081],[82.5558,30.3095],[82.5333,30.2742],[82.4294,30.2777],[82.3863,30.2431],[82.2616,30.2471],[82.2216,30.2845],[82.1384,30.2871],[82.1169,30.2698],[82.0768,30.3071],[82.0353,30.3084],[82.013,30.273],[82.0037,30.3003],[82.026,30.3357],[82.0066,30.3724],[82.0289,30.4078],[81.9687,30.4638],[82.0025,30.5259],[82.0233,30.5253],[82.0326,30.4979],[82.001,30.4898],[81.9895,30.4631],[82.0412,30.4525],[82.085,30.5053],[82.1892,30.5021],[82.2008,30.5288],[82.2432,30.5455],[82.1707,30.5568],[82.1112,30.6308],[82.0263,30.5973],[81.922,30.6005],[81.8407,30.657],[81.7357,30.6419],[81.727,30.6873],[81.6044,30.7629],[81.6894,30.7966],[81.7036,30.8954],[81.5788,30.9169],[81.5114,30.7924],[81.469,30.7755],[81.3019,30.7798],[81.238,30.7453],[81.1754,30.7468],[81.0907,30.7127],[80.9237,30.7165],[80.9135,30.7257],[80.9772,30.7604],[80.9682,30.8057],[80.7383,30.8106],[80.7169,30.793],[80.6542,30.7943],[80.6241,30.84],[80.6888,30.9109],[80.7204,30.9193],[80.7424,30.9549],[80.8057,30.9716],[80.8491,31.0248],[80.9329,31.023],[80.9872,31.0849],[80.9572,31.1307],[80.8943,31.1321],[80.8233,31.2148],[80.8566,31.2772],[80.9514,31.2842],[81.0394,31.4085],[80.9996,31.4816],[80.9479,31.5098],[80.8836,31.4751],[80.7994,31.4769],[80.7137,31.4246],[80.6086,31.4267],[80.5777,31.4543],[80.6017,31.5621],[80.7523,31.6673],[80.7426,31.6946]]],[[[82.6104,28.0787],[82.5682,28.0441],[82.5666,28.0081],[82.6065,27.9886],[82.6057,27.9706],[82.5749,27.9626],[82.5463,28.0088],[82.5486,28.0628],[82.5803,28.0888],[82.6104,28.0787]]],[[[81.2929,28.9304],[81.2911,28.8763],[81.2485,28.8233],[81.1754,28.7799],[81.1344,28.7809],[81.1277,28.8984],[81.1803,28.9422],[81.2929,28.9304]]],[[[81.4866,29.1962],[81.6062,29.0847],[81.5738,29.0404],[81.5657,29.1038],[81.4455,29.1972],[81.4866,29.1962]]],[[[81.3074,29.3812],[81.265,29.3462],[81.2644,29.3282],[81.305,29.3091],[81.2627,29.2741],[81.2493,29.1751],[81.2421,29.2746],[81.2639,29.3101],[81.2238,29.3472],[81.255,29.3555],[81.2767,29.391],[81.3074,29.3812]]],[[[81.4241,30.3887],[81.4335,30.3614],[81.5376,30.3587],[81.547,30.3314],[81.4934,30.2877],[81.4103,30.2899],[81.402,30.3532],[81.3711,30.363],[81.3617,30.3903],[81.4241,30.3887]]],[[[80.63,31.0564],[80.5973,31.0119],[80.5447,31.0039],[80.5569,31.0668],[80.63,31.0564]]],[[[80.5954,31.3277],[80.6896,31.3168],[80.7199,31.2711],[80.5597,31.175],[80.4968,31.1762],[80.466,31.2039],[80.467,31.2399],[80.5309,31.2748],[80.5426,31.3197],[80.5954,31.3277]]]]}},{"type":"Feature","properties":{"cell":50,"feature":526,"phase":"Developing","min_bt_K":231.0,"area_km2":1276,"cold_core_km2":0,"speed_kmh":27.0,"heading_deg":86,"d_min_bt_30":-5.0,"age_min":30,"family":3,"touches_missing":true,"lon":72.8232,"lat":33.069,"merges_splits_so_far":0},"geometry":{"type":"MultiPolygon","coordinates":[[[[72.825,33.2824],[72.7606,33.2799],[72.6046,33.1925],[72.609,33.1204],[72.5726,33.0107],[72.6512,32.9507],[72.7143,32.9712],[72.7591,32.9369],[72.8019,32.9386],[72.8355,32.9128],[72.8375,32.8768],[72.8701,32.869],[72.8934,32.8338],[72.9361,32.8355],[72.9423,32.9169],[72.984,32.9365],[72.975,33.0986],[72.9526,33.1158],[72.971,33.1707],[72.9465,33.2239],[72.8904,33.2669],[72.825,33.2824]]]]}},{"type":"Feature","properties":{"cell":51,"feature":527,"phase":"Developing","min_bt_K":232.0,"area_km2":1652,"cold_core_km2":0,"speed_kmh":27.6,"heading_deg":41,"d_min_bt_30":-2.8,"age_min":30,"family":3,"touches_missing":true,"lon":75.0331,"lat":33.2526,"merges_splits_so_far":0},"geometry":{"type":"MultiPolygon","coordinates":[[[[75.1786,33.5874],[75.1571,33.5869],[75.1367,33.5504],[75.0722,33.549],[75.0501,33.5666],[75.0402,33.5393],[74.9769,33.5018],[74.8946,33.3916],[74.8958,33.3556],[74.7923,33.2449],[74.8144,33.2273],[74.8163,33.1733],[74.9852,32.9336],[75.0384,32.9438],[75.058,32.9984],[75.121,33.0358],[75.1818,33.1454],[75.1796,33.2175],[75.1576,33.2351],[75.1988,33.2901],[75.1541,33.3433],[75.1954,33.3983],[75.1518,33.4154],[75.1727,33.4339],[75.1484,33.5236],[75.1903,33.5606],[75.1786,33.5874]]]]}},{"type":"Feature","properties":{"cell":55,"feature":528,"phase":"Developing","min_bt_K":228.0,"area_km2":2064,"cold_core_km2":0,"speed_kmh":10.0,"heading_deg":70,"d_min_bt_30":-5.3,"age_min":30,"family":3,"touches_missing":true,"lon":74.8008,"lat":33.5821,"merges_splits_so_far":0},"geometry":{"type":"MultiPolygon","coordinates":[[[[74.9515,33.9252],[74.8232,33.8862],[74.6976,33.7749],[74.6336,33.7552],[74.6245,33.7099],[74.5612,33.6722],[74.5633,33.6181],[74.5425,33.5995],[74.5883,33.5285],[74.5911,33.4564],[74.6237,33.4482],[74.7019,33.369],[74.7813,33.2536],[74.834,33.2819],[74.8958,33.3556],[74.9148,33.4282],[75.0605,33.5758],[75.0587,33.6299],[74.9923,33.6826],[75.0102,33.7912],[74.9658,33.8263],[74.9849,33.8989],[74.9515,33.9252]]]]}},{"type":"Feature","properties":{"cell":56,"feature":507,"phase":"Unclassified","min_bt_K":241.7,"area_km2":48,"cold_core_km2":0,"speed_kmh":null,"heading_deg":null,"d_min_bt_30":null,"age_min":0,"family":56,"touches_missing":false,"lon":75.0085,"lat":31.4553,"merges_splits_so_far":0},"geometry":{"type":"MultiPolygon","coordinates":[[[[75.0317,31.4913],[74.9793,31.4811],[74.9919,31.4182],[75.0441,31.4284],[75.0317,31.4913]]]]}},{"type":"Feature","properties":{"cell":61,"feature":517,"phase":"Unclassified","min_bt_K":237.0,"area_km2":244,"cold_core_km2":0,"speed_kmh":null,"heading_deg":null,"d_min_bt_30":null,"age_min":0,"family":61,"touches_missing":true,"lon":72.1661,"lat":33.5441,"merges_splits_so_far":0},"geometry":{"type":"MultiPolygon","coordinates":[[[[72.2657,33.6206],[72.158,33.6159],[72.1162,33.596],[72.0678,33.5126],[72.0702,33.4766],[72.1257,33.452],[72.189,33.4728],[72.2183,33.5192],[72.2805,33.558],[72.2657,33.6206]]]]}},{"type":"Feature","properties":{"cell":63,"feature":524,"phase":"Unclassified","min_bt_K":231.3,"area_km2":3024,"cold_core_km2":0,"speed_kmh":null,"heading_deg":null,"d_min_bt_30":null,"age_min":0,"family":3,"touches_missing":true,"lon":75.5694,"lat":33.0015,"merges_splits_so_far":1},"geometry":{"type":"MultiPolygon","coordinates":[[[[75.8277,33.4732],[75.7636,33.4541],[75.754,33.4088],[75.659,33.344],[75.5755,33.2523],[75.5117,33.2331],[75.4678,33.2684],[75.4264,33.2135],[75.4044,33.2311],[75.3631,33.1761],[75.3098,33.1661],[75.3136,33.0398],[75.2818,33.0302],[75.2094,32.9475],[75.211,32.8934],[75.1902,32.8749],[75.2653,32.8675],[75.4069,32.7711],[75.3861,32.7526],[75.409,32.6989],[75.4006,32.6176],[75.4645,32.6188],[75.5057,32.6737],[75.6118,32.6937],[75.643,32.7213],[75.6421,32.7574],[75.7461,32.8674],[75.7862,32.9763],[75.8185,32.9679],[75.8495,33.0135],[75.8696,33.0679],[75.8443,33.2299],[75.822,33.2656],[75.7787,33.2829],[75.7773,33.337],[75.8194,33.3738],[75.8181,33.4279],[75.8391,33.4463],[75.8277,33.4732]]]]}}]}