{"type":"FeatureCollection","features":[{"type":"Feature","properties":{"cell":9,"feature":577,"phase":"Developing","min_bt_K":233.0,"area_km2":6548,"cold_core_km2":0,"speed_kmh":19.5,"heading_deg":237,"d_min_bt_30":1.0,"age_min":300,"family":3,"touches_missing":true,"lon":78.044,"lat":33.547,"merges_splits_so_far":19},"geometry":{"type":"MultiPolygon","coordinates":[[[[78.9518,33.9926],[77.7404,33.9958],[77.7297,33.9506],[77.7731,33.8966],[77.7192,33.8514],[77.6758,33.9234],[77.6002,33.9142],[77.5572,33.86],[77.6006,33.824],[77.6007,33.7879],[77.7413,33.7071],[77.7521,33.68],[77.6553,33.6347],[77.5261,33.6163],[77.494,33.5891],[77.4949,33.4267],[77.5273,33.3998],[77.5917,33.4],[77.6349,33.364],[77.6778,33.3641],[77.7316,33.3192],[77.6891,33.1928],[77.7537,33.1208],[77.7323,33.0846],[77.7434,32.9674],[77.8503,32.9675],[77.893,33.0037],[78.0,33.0218],[78.0428,33.0578],[78.214,33.0396],[78.3535,33.1386],[78.3215,33.1657],[78.2572,33.1658],[78.2037,33.193],[78.0966,33.3555],[78.2043,33.4816],[78.2046,33.6079],[78.1401,33.6802],[78.1402,33.7343],[78.1834,33.7703],[78.1835,33.8064],[78.324,33.8693],[78.3672,33.8692],[78.4749,33.8147],[78.6477,33.814],[78.7133,33.9219],[78.8209,33.8672],[78.8971,33.9299],[78.8975,33.9659],[78.9516,33.9746],[78.9518,33.9926]]]]}},{"type":"Feature","properties":{"cell":41,"feature":572,"phase":"Developing","min_bt_K":230.0,"area_km2":31872,"cold_core_km2":0,"speed_kmh":74.4,"heading_deg":302,"d_min_bt_30":-4.0,"age_min":120,"family":3,"touches_missing":false,"lon":76.5835,"lat":32.8149,"merges_splits_so_far":10},"geometry":{"type":"MultiPolygon","coordinates":[[[[76.8316,34.009],[76.4422,34.005],[76.3673,33.959],[76.2404,33.813],[76.221,33.7045],[76.1787,33.6679],[76.2006,33.6501],[76.1582,33.6135],[76.1594,33.5594],[76.1171,33.5227],[76.1182,33.4686],[76.0756,33.4499],[76.0768,33.3958],[76.0342,33.3771],[76.0369,33.2509],[76.0588,33.2332],[76.0268,33.2237],[75.9326,33.123],[75.9548,33.0873],[75.9133,33.0325],[75.9145,32.9784],[75.8102,32.8685],[75.7727,32.6514],[75.731,32.6146],[75.7319,32.5785],[75.6898,32.5598],[75.6907,32.5237],[75.6278,32.4865],[75.6405,32.4055],[75.683,32.4063],[75.7459,32.4434],[75.7789,32.3989],[75.716,32.3617],[75.7498,32.2811],[75.8876,32.2924],[75.8676,32.238],[75.8693,32.1658],[75.8909,32.1481],[75.8186,32.0658],[75.7456,32.0195],[75.7257,31.965],[75.7473,31.9473],[75.7275,31.8929],[75.7495,31.8572],[75.824,31.8314],[75.897,31.8776],[75.8961,31.9137],[75.938,31.9324],[75.9153,32.0042],[75.9568,32.0409],[75.966,32.1042],[76.0508,32.1055],[76.0939,32.07],[76.1574,32.0709],[76.1685,32.044],[76.2431,32.018],[76.2757,31.9733],[76.2767,31.9192],[76.3203,31.8476],[76.2995,31.8293],[76.3742,31.7851],[76.395,31.8034],[76.469,31.7952],[76.491,31.7414],[76.4711,31.669],[76.5141,31.6153],[76.5158,31.5071],[76.5688,31.4806],[76.6528,31.4996],[76.7382,31.4102],[76.8012,31.4108],[76.8531,31.4744],[76.8949,31.4928],[76.9143,31.6373],[76.9565,31.6376],[76.9342,31.7457],[76.8916,31.7814],[76.8696,31.8534],[76.9428,31.9171],[77.0063,31.9176],[77.1221,31.9635],[77.1419,32.108],[77.1736,32.1172],[77.2682,32.217],[77.2467,32.2529],[77.246,32.3431],[77.2246,32.361],[77.2457,32.3792],[77.2451,32.4513],[77.2024,32.4691],[77.2439,32.5957],[77.2225,32.6136],[77.2429,32.7219],[77.2748,32.7311],[77.2958,32.7673],[77.3172,32.7674],[77.3388,32.7315],[77.424,32.7499],[77.4771,32.7952],[77.4548,32.9395],[77.5827,33.0301],[77.5824,33.1023],[77.5391,33.1923],[77.4314,33.2641],[77.474,33.3184],[77.4738,33.3545],[77.5166,33.3907],[77.4949,33.4267],[77.494,33.5891],[77.5261,33.6163],[77.6553,33.6347],[77.7306,33.68],[77.6331,33.779],[77.5037,33.7786],[77.3955,33.8142],[77.2989,33.7506],[77.2885,33.7054],[77.2346,33.6961],[77.2142,33.5697],[77.1503,33.4971],[77.0321,33.4873],[77.011,33.4511],[76.9778,33.532],[77.1482,33.7136],[77.1676,33.9483],[77.1347,33.9932],[76.8535,33.9911],[76.8316,34.009]]]]}},{"type":"Feature","properties":{"cell":46,"feature":576,"phase":"Developing","min_bt_K":233.4,"area_km2":58788,"cold_core_km2":0,"speed_kmh":56.5,"heading_deg":258,"d_min_bt_30":1.1,"age_min":90,"family":3,"touches_missing":true,"lon":78.8473,"lat":32.4286,"merges_splits_so_far":2},"geometry":{"type":"MultiPolygon","coordinates":[[[[80.2068,33.9959],[80.1419,33.9969],[80.1521,33.9697],[80.0524,33.872],[80.0423,33.8992],[80.0647,33.935],[80.1084,33.9524],[80.0987,33.9976],[79.3415,34.0073],[79.3508,33.908],[79.2414,33.8188],[79.2625,33.7826],[79.1534,33.6933],[79.2392,33.6565],[79.2384,33.6024],[79.1944,33.5306],[79.1294,33.4951],[79.128,33.3868],[79.0956,33.3781],[79.0318,33.4327],[78.8819,33.4879],[78.8174,33.4883],[78.7739,33.4345],[78.7309,33.4347],[78.6333,33.3179],[78.6329,33.2638],[78.6543,33.2457],[78.611,33.1917],[78.6431,33.1826],[78.6536,33.1555],[78.6214,33.1466],[78.6105,33.1196],[78.6532,33.1013],[78.6423,33.0743],[78.6209,33.0744],[78.5891,33.1197],[78.6109,33.1737],[78.5572,33.1649],[78.5146,33.2012],[78.4284,33.1113],[78.3428,33.1296],[78.214,33.0396],[78.0428,33.0578],[78.0,33.0218],[77.893,33.0037],[77.8503,32.9675],[77.7434,32.9674],[77.7007,32.9493],[77.6901,32.9222],[77.6261,32.8859],[77.6476,32.8499],[77.6267,32.7416],[77.5522,32.6963],[77.4988,32.7231],[77.4877,32.8043],[77.424,32.7499],[77.3388,32.7315],[77.3286,32.6683],[77.2755,32.6409],[77.2652,32.5958],[77.2228,32.5775],[77.2234,32.5053],[77.2023,32.4872],[77.2024,32.4691],[77.2451,32.4513],[77.2561,32.4063],[77.3305,32.3977],[77.3201,32.3706],[77.246,32.3431],[77.2467,32.2529],[77.2682,32.217],[77.2473,32.1808],[77.1419,32.108],[77.1221,31.9635],[77.0063,31.9176],[76.9428,31.9171],[76.8696,31.8534],[76.8916,31.7814],[76.9342,31.7457],[76.9671,31.6287],[77.0934,31.6476],[77.1885,31.6212],[77.1679,31.5669],[77.1893,31.531],[77.1686,31.4948],[77.1905,31.3867],[77.3062,31.3783],[77.3274,31.3604],[77.3693,31.3786],[77.4221,31.3338],[77.4224,31.2977],[77.5173,31.2169],[77.5802,31.2171],[77.6854,31.1452],[77.7273,31.1634],[77.7482,31.1995],[77.8321,31.2177],[77.937,31.2719],[77.9685,31.317],[78.0105,31.335],[77.979,31.3621],[77.9264,31.353],[77.9474,31.3711],[77.9054,31.4071],[77.9053,31.4793],[77.8421,31.5153],[77.8841,31.5695],[77.8841,31.6056],[77.9789,31.6327],[78.0105,31.6778],[77.9895,31.6958],[77.9894,31.786],[77.9261,31.804],[77.9472,31.8401],[77.9155,31.8491],[77.8837,31.8942],[77.9048,31.9664],[77.9471,32.0025],[77.9471,32.0746],[77.9046,32.1287],[78.053,32.237],[78.0531,32.3092],[78.1062,32.3181],[78.1488,32.3903],[78.2125,32.4082],[78.2871,32.4712],[78.2872,32.5073],[78.3513,32.5613],[78.3623,32.6424],[78.4474,32.6241],[78.4898,32.5879],[78.6819,32.6412],[78.7664,32.5505],[78.7985,32.5774],[78.799,32.6315],[78.8418,32.6493],[78.8423,32.7034],[78.896,32.7481],[78.9064,32.721],[78.8636,32.7033],[78.8631,32.6491],[78.7982,32.5413],[78.8614,32.4687],[78.893,32.4415],[78.9356,32.4412],[78.9564,32.405],[79.0208,32.4586],[79.0844,32.4401],[79.1489,32.4936],[79.4041,32.4912],[79.4135,32.4099],[79.4555,32.3734],[79.4119,32.3017],[79.2942,32.2397],[79.2189,32.1593],[79.1952,31.961],[79.2577,31.8883],[79.2344,31.7262],[79.16,31.6817],[79.0758,31.7005],[79.0226,31.6558],[79.0012,31.6199],[79.0425,31.5474],[78.9994,31.4575],[78.9989,31.4034],[79.0197,31.3852],[78.9453,31.3046],[78.8191,31.2874],[78.787,31.2064],[78.8286,31.1701],[78.8485,31.0437],[78.9106,30.9711],[78.8894,30.9352],[78.9205,30.9079],[79.0048,30.9614],[79.0566,30.9159],[79.0355,30.898],[79.0343,30.7898],[79.0755,30.7353],[79.0747,30.6632],[79.1057,30.6359],[79.127,30.6718],[79.252,30.6526],[79.2618,30.6074],[79.3134,30.5618],[79.3556,30.5975],[79.4807,30.5961],[79.5013,30.5778],[79.5644,30.6132],[79.6581,30.603],[79.6768,30.4765],[79.5929,30.4415],[79.592,30.3873],[79.6125,30.3691],[79.5701,30.3154],[79.5675,30.1531],[79.6084,30.1165],[79.5851,29.9544],[79.6157,29.927],[79.6574,29.9445],[79.719,29.9076],[79.7811,29.9068],[79.8755,29.9687],[79.8758,29.9867],[79.7326,30.0969],[79.7332,30.133],[79.6927,30.1876],[79.7162,30.3497],[79.8622,30.3658],[79.8642,30.474],[79.8331,30.4835],[79.8027,30.529],[79.8769,30.5911],[79.9394,30.5902],[79.961,30.626],[79.9914,30.5804],[79.9493,30.563],[79.9479,30.4908],[79.9998,30.481],[80.0418,30.4984],[80.0532,30.5434],[80.0952,30.5608],[80.0964,30.6149],[80.1806,30.6496],[80.2666,30.7564],[80.2674,30.7925],[80.2371,30.8381],[80.1744,30.8391],[80.1527,30.8034],[80.0152,30.7244],[79.9617,30.662],[79.8991,30.6629],[79.8581,30.6996],[79.7955,30.7005],[79.7646,30.7279],[79.8296,30.8534],[79.7682,30.9263],[79.7692,30.9805],[79.738,30.9899],[79.643,30.946],[79.6636,30.9277],[79.6621,30.8375],[79.7235,30.7646],[79.692,30.756],[79.6717,30.7923],[79.5673,30.7936],[79.5355,30.7669],[79.5349,30.7308],[79.5764,30.7123],[79.5655,30.6853],[79.4932,30.7313],[79.4937,30.7674],[79.4525,30.8039],[79.5157,30.8393],[79.518,30.9836],[79.5814,31.0189],[79.6245,31.0906],[79.6041,31.1269],[79.6467,31.1624],[79.626,31.1807],[79.6479,31.2346],[79.6285,31.325],[79.6498,31.3428],[79.5876,31.3977],[79.6102,31.4876],[79.6847,31.5318],[79.7268,31.5313],[79.8727,31.4571],[79.9794,31.5277],[80.1479,31.5251],[80.2015,31.5693],[80.202,31.5874],[80.1602,31.6061],[80.1607,31.6241],[80.2032,31.6415],[80.2045,31.6956],[80.226,31.7133],[80.2079,31.8398],[80.0508,31.9055],[79.9789,32.0058],[80.0024,32.1137],[80.0456,32.1491],[80.0251,32.1855],[80.1124,32.2924],[80.1137,32.3465],[80.1565,32.3639],[80.1799,32.4537],[80.2446,32.4887],[80.2459,32.5428],[80.3338,32.6495],[80.5395,32.7631],[80.6936,32.9224],[80.7364,32.9215],[80.7665,32.8578],[80.7435,32.8041],[80.7638,32.7676],[80.72,32.7324],[80.7616,32.6955],[80.7392,32.6599],[80.7485,32.6146],[80.8354,32.6669],[81.007,32.6992],[81.0411,32.7616],[81.0459,32.9058],[81.0899,32.9409],[81.0905,32.9589],[81.0484,32.9779],[81.0807,32.9862],[81.1223,32.9492],[81.1449,32.9847],[81.2091,32.9832],[81.2434,33.0455],[81.2044,33.1547],[81.2272,33.1903],[81.207,33.2268],[81.2304,33.2804],[81.1777,33.3087],[81.1446,33.2824],[81.1433,33.2464],[81.0336,33.1767],[80.8998,33.0173],[80.8784,33.0178],[80.8692,33.0631],[80.8038,33.0284],[80.7375,32.9576],[80.7062,32.9853],[80.7281,33.0029],[80.7089,33.0755],[80.7759,33.1643],[80.716,33.3099],[80.8128,33.3169],[80.8535,33.2439],[80.9294,33.2693],[80.9312,33.3234],[80.9532,33.3409],[80.7534,33.4805],[80.6988,33.4546],[80.6752,33.3829],[80.6312,33.3477],[80.6065,33.2399],[80.5736,33.2135],[80.5307,33.2143],[80.5228,33.3137],[80.5898,33.4026],[80.6768,33.437],[80.6784,33.4911],[80.6045,33.5376],[80.5614,33.5385],[80.4959,33.5036],[80.4513,33.4503],[80.4083,33.4511],[80.3964,33.4062],[80.3529,33.3889],[80.3496,33.2627],[80.2948,33.2185],[80.252,33.2193],[80.21,33.2561],[80.1776,33.2476],[80.1552,33.2118],[80.1972,33.1751],[80.1749,33.1394],[80.1942,33.0488],[80.1278,32.9597],[80.1044,32.8699],[80.0286,32.8259],[79.9548,32.8721],[80.0209,32.9614],[80.0234,33.0696],[80.0027,33.106],[80.0246,33.1237],[80.0258,33.1778],[80.0695,33.2132],[80.006,33.2503],[80.0072,33.3044],[80.0517,33.3759],[80.0542,33.4841],[79.9792,33.4942],[79.9694,33.5395],[80.036,33.6287],[80.0381,33.7189],[80.1155,33.7989],[80.1922,33.8427],[80.2151,33.8965],[80.194,33.9149],[80.2068,33.9959]]],[[[79.8577,32.2962],[79.8145,32.2607],[79.8135,32.2066],[79.7707,32.1892],[79.7576,32.054],[79.7495,32.1894],[79.7711,32.2072],[79.7721,32.2613],[79.8149,32.2788],[79.826,32.3057],[79.8577,32.2962]]],[[[79.9897,32.5108],[79.9677,32.475],[79.987,32.3846],[79.9646,32.3308],[79.9325,32.3222],[79.9229,32.3675],[79.9549,32.376],[79.9661,32.4029],[79.9244,32.4396],[79.9251,32.4757],[79.9897,32.5108]]],[[[79.8458,32.7654],[79.8769,32.7199],[79.8241,32.7477],[79.8245,32.7657],[79.8458,32.7654]]],[[[79.1881,33.0616],[79.1658,32.9896],[79.1226,32.9539],[79.1224,32.9359],[79.1649,32.9174],[79.1644,32.8814],[79.121,32.8276],[79.1635,32.8092],[79.1094,32.7465],[79.099,32.7737],[79.1208,32.8096],[79.0999,32.8458],[79.1215,32.8637],[79.1221,32.9178],[79.1012,32.9541],[79.1228,32.9719],[79.1235,33.026],[79.1881,33.0616]]],[[[79.9163,33.0712],[79.9136,32.9449],[79.8915,32.9091],[79.9335,32.8724],[79.9327,32.8364],[79.8571,32.7923],[79.89,32.837],[79.8911,32.8911],[79.8488,32.9097],[79.8923,32.9452],[79.8949,33.0715],[79.9163,33.0712]]],[[[80.3863,33.0275],[80.3198,32.9385],[80.373,32.9285],[80.3844,32.9554],[80.4605,32.9991],[80.5127,32.953],[80.4685,32.8997],[80.4675,32.8636],[80.3284,32.8571],[80.3194,32.9204],[80.2875,32.93],[80.2971,32.8847],[80.2644,32.8582],[80.2552,32.9215],[80.3212,32.9926],[80.3863,33.0275]]],[[[79.3401,33.2045],[79.3396,33.1684],[79.2962,33.1327],[79.3383,33.0782],[79.2952,33.0606],[79.2944,33.0065],[79.2405,32.9799],[79.2408,32.9979],[79.273,33.0067],[79.2738,33.0608],[79.2954,33.0786],[79.2745,33.1149],[79.2972,33.2049],[79.3401,33.2045]]],[[[80.4584,33.3149],[80.5003,33.278],[80.4778,33.2423],[80.4978,33.1878],[80.4759,33.1702],[80.4619,33.0532],[80.4301,33.0628],[80.433,33.171],[80.4764,33.1882],[80.4769,33.2063],[80.4345,33.2251],[80.4349,33.2431],[80.4783,33.2604],[80.4788,33.2784],[80.4364,33.2972],[80.4479,33.3241],[80.4584,33.3149]]],[[[79.5187,33.6175],[79.5608,33.5629],[79.5583,33.4186],[79.5259,33.41],[79.5038,33.3741],[79.5181,33.5814],[79.4971,33.6178],[79.5187,33.6175]]],[[[79.9982,33.8638],[79.997,33.8097],[79.9534,33.7923],[79.9522,33.7382],[79.8973,33.6939],[79.8871,33.7211],[79.9307,33.7385],[79.955,33.8645],[79.9982,33.8638]]],[[[79.654,33.9407],[79.6427,33.9138],[79.6104,33.9232],[79.6217,33.9501],[79.654,33.9407]]]]}},{"type":"Feature","properties":{"cell":47,"feature":584,"phase":"Mature","min_bt_K":220.2,"area_km2":99896,"cold_core_km2":116,"speed_kmh":74.1,"heading_deg":118,"d_min_bt_30":1.2,"age_min":90,"family":3,"touches_missing":true,"lon":81.9209,"lat":28.2953,"merges_splits_so_far":2},"geometry":{"type":"MultiPolygon","coordinates":[[[[81.6105,31.2047],[81.4819,31.136],[81.419,31.1376],[81.3974,31.1202],[81.3771,31.1387],[81.3142,31.1403],[81.1866,31.0893],[81.1106,31.0099],[81.1089,30.9558],[81.0235,30.9037],[80.9902,30.8413],[80.8964,30.8524],[80.898,30.9065],[80.9415,30.9596],[81.0054,30.9943],[81.0059,31.0123],[80.934,31.059],[80.8599,31.0336],[80.7944,30.9448],[80.7934,30.9087],[80.7398,30.8647],[80.6771,30.866],[80.6362,30.9029],[80.573,30.8861],[80.5405,30.8416],[80.4768,30.8068],[80.4755,30.7527],[80.5376,30.7334],[80.5126,30.5715],[80.4704,30.5543],[80.4691,30.5002],[80.4372,30.4737],[80.4163,30.4741],[80.3964,30.5106],[80.3649,30.5021],[80.364,30.466],[80.2782,30.3593],[80.3398,30.3221],[80.2944,30.1605],[80.3453,30.1145],[80.4093,30.1856],[80.5025,30.1748],[80.5615,30.0474],[80.538,29.9396],[80.5979,29.8482],[80.5767,29.8306],[80.5965,29.7941],[80.5941,29.7039],[80.6662,29.6935],[80.7268,29.6381],[80.7781,29.628],[80.7555,29.5563],[80.8049,29.4741],[80.909,29.5079],[80.9603,29.4977],[80.8827,29.31],[80.821,29.3113],[80.7808,29.3483],[80.7597,29.3307],[80.5945,29.316],[80.5616,29.2354],[80.489,29.2097],[80.4566,29.1472],[80.4863,29.1015],[80.5886,29.0815],[80.6096,29.0991],[80.6712,29.0979],[80.7247,29.178],[80.7769,29.204],[80.7845,29.1046],[80.6694,29.0257],[80.4623,28.9576],[80.451,28.9127],[80.5431,28.9019],[80.5627,28.8654],[80.7271,28.8802],[80.7457,28.8076],[80.8072,28.8063],[80.8667,28.7328],[80.9176,28.7227],[80.9151,28.6325],[80.8637,28.6246],[80.8527,28.5978],[80.8113,28.5806],[80.8094,28.5085],[80.8493,28.4715],[80.8279,28.4359],[80.8473,28.3994],[80.7852,28.3646],[80.7842,28.3285],[80.6999,28.222],[80.7392,28.167],[80.7175,28.1133],[80.7369,28.0768],[80.7771,28.0579],[80.7554,28.0042],[80.8551,27.9299],[80.813,27.8767],[80.8626,27.8305],[80.9532,27.8014],[80.929,27.6575],[80.9591,27.6478],[80.9685,27.6205],[80.886,27.5682],[80.9853,27.4938],[80.9843,27.4577],[80.901,27.3693],[80.9197,27.3147],[80.969,27.2685],[80.9897,27.2861],[81.0192,27.2583],[81.0177,27.2042],[80.9971,27.1866],[80.9956,27.1325],[80.9341,27.0977],[80.9327,27.0436],[80.8718,27.0269],[80.8872,26.846],[80.9171,26.8363],[80.9583,26.8715],[81.0388,26.8697],[81.1162,26.7595],[81.2374,26.7746],[81.2961,26.719],[81.3563,26.7175],[81.4177,26.752],[81.4872,26.7231],[81.4666,26.7056],[81.4746,26.6422],[81.555,26.64],[81.5745,26.6214],[81.6553,26.6373],[81.7338,26.5809],[81.9345,26.575],[81.996,26.6093],[82.0763,26.6068],[82.1599,26.6945],[82.2001,26.6932],[82.2423,26.746],[82.2721,26.736],[82.3054,26.8162],[82.3449,26.7969],[82.3665,26.8323],[82.467,26.8289],[82.5058,26.7914],[82.5862,26.7887],[82.5974,26.8154],[82.578,26.8341],[82.6205,26.8868],[82.581,26.9062],[82.6227,26.9409],[82.6355,27.0036],[82.6429,26.9402],[82.6212,26.9048],[82.6398,26.868],[82.6182,26.8327],[82.648,26.8226],[82.6793,26.8486],[82.6615,26.9034],[82.704,26.956],[82.7056,26.9921],[82.8094,27.0606],[82.8102,27.0786],[82.7796,27.0707],[82.7513,27.1169],[82.7932,27.1515],[82.7956,27.2055],[82.8367,27.2221],[82.8391,27.2762],[82.9029,27.346],[82.9442,27.3625],[82.9062,27.4181],[82.9369,27.426],[82.9854,27.379],[82.9741,27.3524],[82.9943,27.3516],[83.0477,27.4128],[83.0747,27.5562],[83.1169,27.5906],[83.1194,27.6447],[83.1405,27.6619],[83.1229,27.7168],[83.1643,27.7332],[83.1906,27.8586],[83.2321,27.875],[83.1941,27.9306],[83.2251,27.9384],[83.2436,27.9016],[83.2745,27.9094],[83.302,28.0527],[83.2719,28.0629],[83.2534,28.0998],[83.2127,28.1014],[83.1746,28.1571],[83.1596,28.0584],[83.1198,28.078],[83.1233,28.15],[83.2074,28.2009],[83.1879,28.2197],[83.1914,28.2918],[83.2738,28.3066],[83.2811,28.4507],[83.3033,28.4859],[83.2634,28.5055],[83.2252,28.5612],[83.227,28.5972],[83.1879,28.6349],[83.2315,28.6873],[83.2325,28.7053],[83.1924,28.725],[83.2361,28.7774],[83.2067,28.8056],[83.1853,28.7884],[83.1551,28.7986],[83.1595,28.8887],[83.1194,28.9083],[83.1435,28.9796],[83.0508,28.9741],[83.0427,29.0196],[83.1489,29.0876],[83.182,29.1315],[83.2231,29.1299],[83.2464,29.1831],[83.3198,29.2072],[83.2842,29.3169],[83.3067,29.3521],[83.3704,29.3856],[83.3723,29.4217],[83.4144,29.438],[83.4202,29.546],[83.3917,29.5923],[83.25,29.6522],[82.9411,29.6821],[82.8602,29.7212],[82.7353,29.7077],[82.6345,29.7654],[82.5451,29.8497],[82.5468,29.8858],[82.4779,29.9693],[82.415,29.9534],[82.3604,29.892],[82.3764,29.7832],[82.345,29.7753],[82.2478,29.6792],[82.2654,29.6064],[82.3166,29.5957],[82.377,29.5577],[82.3861,29.5303],[82.3326,29.4869],[82.2723,29.525],[82.1485,29.5289],[82.1272,29.5116],[82.0866,29.5309],[82.0439,29.4961],[82.024,29.5147],[81.9415,29.5172],[81.9144,29.6173],[81.8545,29.6732],[81.8773,29.7266],[81.8394,29.818],[81.8715,29.8441],[81.9335,29.8423],[82.0106,29.9573],[82.0421,29.9653],[82.1402,30.0796],[82.1824,30.0963],[82.0731,30.217],[82.0216,30.2276],[82.0044,30.3183],[81.9628,30.3196],[81.988,30.4271],[82.0426,30.4886],[82.0735,30.4786],[82.0304,30.4438],[82.0289,30.4078],[82.0597,30.3978],[82.1044,30.4686],[82.2285,30.4467],[82.2725,30.4994],[82.335,30.4974],[82.3566,30.5147],[82.46,30.4932],[82.5233,30.5091],[82.5533,30.481],[82.5508,30.427],[82.5075,30.3924],[82.4618,30.3037],[82.4918,30.2756],[82.6148,30.2353],[82.7437,30.321],[82.8286,30.354],[82.891,30.3517],[82.9136,30.387],[82.9968,30.3838],[83.0829,30.4347],[83.1245,30.4331],[83.1571,30.4589],[83.16,30.5129],[83.2462,30.5637],[83.258,30.5903],[83.3623,30.5861],[83.406,30.6204],[83.4477,30.6187],[83.5122,30.6521],[83.557,30.7044],[83.7042,30.7162],[83.7909,30.7666],[83.8029,30.7931],[83.6886,30.8071],[83.6666,30.79],[83.604,30.7926],[83.5153,30.7061],[83.4725,30.6899],[83.3682,30.6941],[83.3464,30.677],[83.3255,30.6778],[83.3165,30.7052],[83.3384,30.7224],[83.3414,30.7764],[83.3732,30.7842],[83.3742,30.8022],[83.1861,30.8097],[83.1325,30.7847],[83.1197,30.7401],[82.9054,30.6399],[82.8828,30.6046],[82.6942,30.5934],[82.6508,30.5588],[82.6091,30.5603],[82.5708,30.6338],[82.4874,30.6367],[82.4757,30.61],[82.4224,30.5847],[82.3807,30.5861],[82.2741,30.5354],[82.2116,30.5375],[82.2031,30.5828],[82.4189,30.7382],[82.5074,30.8435],[82.5718,30.8774],[82.5953,30.9307],[82.5652,30.9588],[82.5016,30.9429],[82.4413,30.9991],[82.2319,31.0059],[82.1707,31.044],[82.1311,31.0993],[81.9417,31.0871],[81.8803,31.125],[81.8254,31.0634],[81.8239,31.0274],[81.7922,31.0192],[81.6997,31.067],[81.7024,31.1391],[81.6504,31.1495],[81.6105,31.2047]]],[[[82.971,27.506],[82.958,27.4433],[82.9507,27.5067],[82.971,27.506]]],[[[83.179,28.4547],[83.1985,28.4359],[83.1453,28.3929],[83.1169,28.4391],[83.1488,28.4649],[83.179,28.4547]]],[[[81.1438,28.7536],[81.0908,28.6917],[81.0603,28.7014],[81.1134,28.7634],[81.1438,28.7536]]],[[[83.1177,28.8723],[83.1061,28.8457],[83.0972,28.8731],[83.1177,28.8723]]],[[[81.5278,29.7906],[81.5234,29.6644],[81.4921,29.6562],[81.4702,29.6207],[81.4864,29.7917],[81.5278,29.7906]]],[[[81.922,30.3388],[81.9198,30.2848],[81.8776,30.268],[81.8547,30.2145],[81.7803,30.1715],[81.7702,30.1809],[81.8561,30.2506],[81.8797,30.322],[81.922,30.3388]]],[[[81.2606,30.4831],[81.238,30.4295],[81.2778,30.3744],[81.2344,30.3213],[81.203,30.3131],[81.2356,30.3574],[81.2374,30.4115],[81.2065,30.4212],[81.197,30.4485],[81.2606,30.4831]]],[[[81.9841,30.8422],[81.961,30.7888],[82.0553,30.7949],[82.0631,30.7315],[81.9998,30.7154],[81.9544,30.6266],[81.9004,30.5831],[81.7983,30.6402],[81.6731,30.6437],[81.6529,30.6623],[81.5897,30.646],[81.4753,30.658],[81.4994,30.7476],[81.6172,30.8257],[81.6799,30.8239],[81.7649,30.8576],[81.8269,30.8378],[81.8485,30.8552],[81.9105,30.8354],[81.9322,30.8528],[81.9841,30.8422]]],[[[82.3611,30.8484],[82.3494,30.8217],[82.3185,30.8317],[82.3301,30.8584],[82.3611,30.8484]]]]}},{"type":"Feature","properties":{"cell":50,"feature":575,"phase":"Developing","min_bt_K":230.0,"area_km2":2300,"cold_core_km2":0,"speed_kmh":30.9,"heading_deg":57,"d_min_bt_30":-1.0,"age_min":60,"family":3,"touches_missing":true,"lon":72.9621,"lat":33.145,"merges_splits_so_far":0},"geometry":{"type":"MultiPolygon","coordinates":[[[[73.092,33.509],[73.006,33.5059],[72.9067,33.3577],[72.8004,33.3356],[72.781,33.2987],[72.7279,33.2876],[72.6904,33.1959],[72.715,33.1427],[72.6743,33.105],[72.6764,33.069],[72.7224,33.0167],[72.7245,32.9807],[72.7784,32.9738],[72.8019,32.9386],[72.866,32.9411],[72.9107,32.9067],[72.9748,32.9091],[73.0846,32.8591],[73.1079,32.8238],[73.1719,32.8262],[73.1531,32.9789],[73.1939,33.0164],[73.2105,33.1073],[73.1882,33.1245],[73.1833,33.2146],[73.16,33.2498],[73.1161,33.2663],[73.0897,33.3555],[73.0458,33.372],[73.055,33.3994],[73.0765,33.4002],[73.0999,33.3649],[73.1307,33.3931],[73.1082,33.4104],[73.1268,33.4652],[73.092,33.509]]]]}},{"type":"Feature","properties":{"cell":55,"feature":579,"phase":"Developing","min_bt_K":226.5,"area_km2":5436,"cold_core_km2":0,"speed_kmh":29.6,"heading_deg":83,"d_min_bt_30":-1.5,"age_min":60,"family":3,"touches_missing":true,"lon":74.9591,"lat":33.5983,"merges_splits_so_far":1},"geometry":{"type":"MultiPolygon","coordinates":[[[[75.2086,34.003],[74.776,33.9933],[74.702,33.9464],[74.704,33.8923],[74.6615,33.8732],[74.6629,33.8372],[74.6315,33.8093],[74.587,33.8443],[74.4686,33.8322],[74.4707,33.7781],[74.5174,33.6891],[74.521,33.599],[74.5654,33.564],[74.546,33.5094],[74.5904,33.4744],[74.5925,33.4203],[74.625,33.4122],[74.6479,33.3766],[74.6908,33.3777],[74.78,33.2897],[74.929,33.3293],[74.9621,33.303],[74.989,33.1412],[75.0666,33.0617],[75.161,33.1269],[75.1576,33.2351],[75.251,33.3363],[75.3149,33.3556],[75.3667,33.4198],[75.3447,33.4374],[75.3431,33.4915],[75.385,33.5284],[75.3409,33.5636],[75.3614,33.6001],[75.3377,33.6718],[75.3587,33.6903],[75.3571,33.7444],[75.4192,33.8358],[75.4065,33.8987],[75.2581,33.8056],[75.1717,33.8038],[75.1414,33.74],[75.0983,33.739],[75.1163,33.8477],[75.1788,33.9212],[75.2086,34.003]]]]}},{"type":"Feature","properties":{"cell":56,"feature":557,"phase":"Developing","min_bt_K":238.0,"area_km2":524,"cold_core_km2":0,"speed_kmh":31.7,"heading_deg":53,"d_min_bt_30":-3.7,"age_min":30,"family":56,"touches_missing":true,"lon":75.1423,"lat":31.5407,"merges_splits_so_far":0},"geometry":{"type":"MultiPolygon","coordinates":[[[[75.2126,31.7839],[75.1926,31.7474],[75.1401,31.7372],[75.1412,31.7012],[75.1098,31.6915],[75.1006,31.6462],[75.059,31.6272],[75.063,31.501],[75.0214,31.482],[75.035,31.3831],[75.1385,31.4395],[75.2022,31.4228],[75.2329,31.4505],[75.2282,31.6128],[75.1839,31.684],[75.1834,31.7021],[75.225,31.721],[75.2126,31.7839]]]]}},{"type":"Feature","properties":{"cell":61,"feature":565,"phase":"Unclassified","min_bt_K":237.3,"area_km2":200,"cold_core_km2":0,"speed_kmh":24.0,"heading_deg":67,"d_min_bt_30":0.3,"age_min":30,"family":61,"touches_missing":false,"lon":72.2848,"lat":33.5869,"merges_splits_so_far":0},"geometry":{"type":"MultiPolygon","coordinates":[[[[72.3699,33.6791],[72.3495,33.6602],[72.2849,33.6575],[72.1921,33.5903],[72.2511,33.5116],[72.3258,33.5238],[72.3835,33.6346],[72.3699,33.6791]]]]}},{"type":"Feature","properties":{"cell":63,"feature":574,"phase":"Developing","min_bt_K":229.0,"area_km2":5772,"cold_core_km2":0,"speed_kmh":12.0,"heading_deg":244,"d_min_bt_30":-2.3,"age_min":30,"family":3,"touches_missing":true,"lon":75.5116,"lat":32.9779,"merges_splits_so_far":3},"geometry":{"type":"MultiPolygon","coordinates":[[[[75.6538,33.5424],[75.5587,33.4776],[75.5077,33.3774],[75.4857,33.395],[75.4003,33.3753],[75.3887,33.4022],[75.3562,33.4106],[75.3254,33.3648],[75.251,33.3363],[75.1576,33.2351],[75.161,33.1269],[75.2263,33.0922],[75.1447,32.9642],[75.1677,32.9105],[75.1475,32.874],[75.2023,32.8301],[75.2877,32.8318],[75.3856,32.7706],[75.3653,32.7342],[75.3882,32.6805],[75.3461,32.6616],[75.2848,32.5702],[75.2869,32.498],[75.2455,32.4611],[75.2487,32.3529],[75.2705,32.3353],[75.2498,32.3169],[75.2514,32.2628],[75.21,32.2258],[75.2236,32.1269],[75.2758,32.155],[75.285,32.2003],[75.3171,32.1919],[75.3471,32.2557],[75.3994,32.2838],[75.4997,32.5022],[75.6354,32.6039],[75.678,32.6046],[75.6875,32.6499],[75.7506,32.6871],[75.7497,32.7231],[75.7919,32.7419],[75.8102,32.8685],[75.9145,32.9784],[75.9133,33.0325],[75.9548,33.0873],[75.9326,33.123],[75.9742,33.1778],[76.0588,33.2332],[76.0369,33.2509],[76.024,33.3499],[75.9087,33.2309],[75.8994,33.1676],[75.7923,33.1659],[75.7261,33.2369],[75.6184,33.2531],[75.6275,33.3164],[75.6695,33.3532],[75.7092,33.4802],[75.6538,33.5424]]]]}},{"type":"Feature","properties":{"cell":64,"feature":559,"phase":"Unclassified","min_bt_K":236.1,"area_km2":612,"cold_core_km2":0,"speed_kmh":null,"heading_deg":null,"d_min_bt_30":null,"age_min":0,"family":64,"touches_missing":true,"lon":83.4092,"lat":32.6276,"merges_splits_so_far":0},"geometry":{"type":"MultiPolygon","coordinates":[[[[83.6581,32.7574],[83.6357,32.7403],[83.5504,32.7439],[83.4405,32.6943],[83.3777,32.7149],[83.342,32.6532],[83.2872,32.6283],[83.203,32.6497],[83.1472,32.6067],[83.1888,32.587],[83.1665,32.5699],[83.1634,32.5158],[83.2161,32.5048],[83.3469,32.5537],[83.4543,32.5674],[83.498,32.5837],[83.5438,32.6359],[83.6514,32.6494],[83.6581,32.7574]]]]}},{"type":"Feature","properties":{"cell":72,"feature":582,"phase":"Unclassified","min_bt_K":231.4,"area_km2":416,"cold_core_km2":0,"speed_kmh":null,"heading_deg":null,"d_min_bt_30":null,"age_min":0,"family":3,"touches_missing":true,"lon":73.0155,"lat":33.7552,"merges_splits_so_far":0},"geometry":{"type":"MultiPolygon","coordinates":[[[[73.072,33.8693],[72.8911,33.8174],[72.8973,33.7093],[72.9743,33.6851],[73.044,33.5975],[73.0963,33.6265],[73.0738,33.6437],[73.1139,33.6993],[73.0873,33.7886],[73.1295,33.8082],[73.072,33.8693]]]]}}]}