{"type":"FeatureCollection","features":[{"type":"Feature","properties":{"cell":9,"feature":637,"phase":"Developing","min_bt_K":233.1,"area_km2":4548,"cold_core_km2":0,"speed_kmh":66.0,"heading_deg":18,"d_min_bt_30":0.1,"age_min":330,"family":3,"touches_missing":true,"lon":78.1563,"lat":33.8293,"merges_splits_so_far":20},"geometry":{"type":"MultiPolygon","coordinates":[[[[78.6706,33.9943],[78.4327,33.9953],[78.4109,33.9773],[78.3894,33.9954],[77.7837,33.9958],[77.7838,33.9237],[77.7622,33.9236],[77.6971,33.9957],[77.3943,33.9946],[77.3408,33.9132],[77.406,33.8594],[77.4064,33.8052],[77.4715,33.7514],[77.4718,33.6973],[77.5476,33.6344],[77.5907,33.6345],[77.6231,33.6076],[77.6233,33.5534],[77.6988,33.5085],[77.7846,33.6169],[77.9138,33.6171],[77.9354,33.5991],[78.0215,33.6532],[78.0646,33.6351],[78.237,33.6349],[78.3665,33.6888],[78.4309,33.6345],[78.4955,33.6342],[78.6364,33.7509],[78.6151,33.7871],[78.6584,33.8049],[78.6807,33.895],[78.6163,33.9675],[78.6705,33.9763],[78.6706,33.9943]]]]}},{"type":"Feature","properties":{"cell":41,"feature":625,"phase":"Developing","min_bt_K":229.2,"area_km2":13496,"cold_core_km2":0,"speed_kmh":33.9,"heading_deg":192,"d_min_bt_30":-0.9,"age_min":150,"family":3,"touches_missing":false,"lon":76.5468,"lat":32.6654,"merges_splits_so_far":12},"geometry":{"type":"MultiPolygon","coordinates":[[[[76.7515,33.5572],[76.6789,33.367],[76.6259,33.3214],[76.583,33.3209],[76.5409,33.2664],[76.4337,33.2651],[76.4019,33.2377],[76.424,33.2019],[76.3821,33.1473],[76.3834,33.0751],[76.3426,32.9664],[76.3005,32.9298],[76.3015,32.8756],[76.2591,32.8571],[76.2808,32.8393],[76.2182,32.7663],[76.2189,32.7302],[76.1871,32.7208],[76.1246,32.6478],[75.9766,32.5915],[75.9561,32.5551],[75.8822,32.5269],[75.9481,32.4377],[75.9064,32.401],[75.928,32.3833],[75.9296,32.3111],[75.868,32.2199],[75.8896,32.2022],[75.8717,32.0576],[75.8298,32.0389],[75.8306,32.0028],[75.7892,31.9661],[75.8858,31.9045],[75.9376,31.9504],[75.9356,32.0406],[75.9876,32.0865],[76.0931,32.1061],[76.1046,32.0612],[76.1581,32.0348],[76.1789,32.0532],[76.2636,32.0543],[76.2737,32.0815],[76.3262,32.1092],[76.453,32.1288],[76.4661,31.9756],[76.4452,31.9573],[76.4667,31.9395],[76.4682,31.8494],[76.4899,31.8135],[76.5538,31.7781],[76.5121,31.7416],[76.513,31.6875],[76.4922,31.6692],[76.5349,31.6336],[76.5152,31.5432],[76.58,31.4357],[76.5598,31.3813],[76.6335,31.3731],[76.6978,31.2835],[76.7915,31.3476],[76.8107,31.4921],[76.852,31.5646],[76.799,31.5912],[76.704,31.5993],[76.7249,31.6175],[76.7236,31.7077],[76.6797,31.8336],[76.7214,31.8701],[76.7411,31.9785],[76.8044,31.9971],[76.8032,32.0873],[76.7387,32.1589],[76.7153,32.321],[76.6938,32.3388],[76.6922,32.4471],[76.7558,32.4657],[76.7761,32.5381],[76.9016,32.7196],[76.901,32.7737],[76.9538,32.8192],[77.0606,32.82],[77.1029,32.8564],[77.1458,32.8386],[77.2203,32.8661],[77.22,32.9022],[77.1879,32.911],[77.1769,32.938],[77.2303,32.9474],[77.2408,32.9745],[77.2834,32.9928],[77.283,33.0469],[77.24,33.0647],[77.2392,33.1549],[77.282,33.1732],[77.2815,33.2273],[77.324,33.2816],[77.2699,33.3445],[77.2056,33.3261],[77.1731,33.353],[77.1725,33.4251],[77.1396,33.4881],[77.0966,33.4878],[77.0329,33.4152],[76.9899,33.4148],[76.9465,33.4506],[76.8385,33.4858],[76.7515,33.5572]]]]}},{"type":"Feature","properties":{"cell":46,"feature":630,"phase":"Developing","min_bt_K":233.0,"area_km2":34908,"cold_core_km2":0,"speed_kmh":166.5,"heading_deg":31,"d_min_bt_30":-0.4,"age_min":120,"family":3,"touches_missing":true,"lon":79.3092,"lat":33.0701,"merges_splits_so_far":8},"geometry":{"type":"MultiPolygon","coordinates":[[[[80.1419,33.9969],[78.6922,33.9942],[78.6595,33.9493],[78.6808,33.9131],[78.7239,33.8948],[78.6804,33.859],[78.68,33.8048],[78.6582,33.7869],[78.6794,33.7327],[78.6578,33.7328],[78.6473,33.7599],[78.4632,33.6253],[78.5275,33.571],[78.5273,33.5349],[78.5699,33.4806],[78.4942,33.3997],[78.4083,33.4],[78.3437,33.3641],[78.3328,33.3371],[78.2898,33.3191],[78.2897,33.265],[78.2681,33.247],[78.3108,33.1747],[78.2678,33.1207],[78.246,32.9945],[78.278,32.9673],[78.3208,32.9672],[78.3633,32.913],[78.4061,32.9129],[78.4486,32.8767],[78.5127,32.8764],[78.5552,32.8402],[78.6193,32.8399],[78.704,32.7493],[78.7677,32.7129],[78.8104,32.7126],[78.8633,32.6672],[78.873,32.5679],[78.9796,32.5852],[79.1381,32.4847],[79.1149,32.3225],[79.1357,32.2863],[79.2408,32.2132],[79.1763,32.1416],[79.1973,32.1234],[79.1754,32.0695],[79.2173,32.033],[79.1959,32.0152],[79.1945,31.9069],[79.1731,31.8891],[79.2786,31.8701],[79.3201,31.8155],[79.3196,31.7795],[79.3513,31.7882],[79.4035,31.7425],[79.4333,31.6249],[79.4969,31.6423],[79.5176,31.624],[79.602,31.623],[79.645,31.6766],[79.7927,31.6747],[79.8041,31.7197],[79.8577,31.764],[79.9414,31.7267],[79.9529,31.7717],[80.1677,31.9307],[80.1685,31.9668],[80.2333,32.0198],[80.2354,32.11],[80.2782,32.1273],[80.2584,32.1818],[80.3012,32.1991],[80.303,32.2712],[80.2619,32.326],[80.2836,32.3437],[80.2849,32.3978],[80.394,32.5041],[80.3102,32.5598],[80.3542,32.6131],[80.3338,32.6495],[80.356,32.6852],[80.3361,32.7397],[80.4238,32.8284],[80.4034,32.8648],[80.4272,32.9546],[80.5023,32.9622],[80.5231,32.9438],[80.557,33.0063],[80.5053,33.0704],[80.452,33.0804],[80.4425,33.1257],[80.3778,33.1088],[80.3568,33.1273],[80.1964,33.139],[80.1784,33.2836],[80.2222,33.319],[80.2464,33.4269],[80.3118,33.4618],[80.3352,33.5336],[80.2931,33.5704],[80.3156,33.6061],[80.2528,33.6793],[80.2537,33.7154],[80.1904,33.7706],[80.1724,33.9152],[80.13,33.952],[80.1419,33.9969]]],[[[79.3311,32.5912],[79.3309,32.5731],[79.3732,32.5547],[79.3514,32.5188],[79.3718,32.4645],[79.318,32.4199],[79.3078,32.4471],[79.3506,32.4647],[79.3508,32.4827],[79.3085,32.5012],[79.3088,32.5192],[79.3516,32.5368],[79.3096,32.5733],[79.3098,32.5914],[79.3311,32.5912]]],[[[80.1429,32.6888],[80.0998,32.6715],[80.0756,32.5456],[80.0435,32.537],[80.0339,32.5823],[80.0773,32.6177],[80.0785,32.6718],[80.1111,32.6984],[80.1429,32.6888]]],[[[79.0798,32.9542],[79.0783,32.828],[79.024,32.7472],[79.0141,32.8104],[79.057,32.8281],[79.0584,32.9544],[79.0798,32.9542]]],[[[79.3385,33.0962],[79.3383,33.0782],[79.2952,33.0606],[79.2944,33.0065],[79.3369,32.988],[79.315,32.9521],[79.3359,32.9158],[79.3248,32.8889],[79.3145,32.9161],[79.272,32.9345],[79.2722,32.9526],[79.3153,32.9702],[79.273,33.0067],[79.2738,33.0608],[79.3385,33.0962]]],[[[80.1372,33.3565],[80.1149,33.3207],[80.1355,33.2843],[80.1132,33.2486],[80.1102,33.1224],[80.1518,33.0676],[80.1501,32.9954],[80.1174,32.9689],[80.1098,33.1043],[80.0674,33.123],[80.0703,33.2493],[80.1027,33.2578],[80.1141,33.2847],[80.0821,33.2942],[80.072,33.3214],[80.1372,33.3565]]],[[[79.6403,33.2011],[79.6377,33.0568],[79.6054,33.0482],[79.5974,33.2016],[79.6403,33.2011]]],[[[79.5135,33.3109],[79.5558,33.2743],[79.5552,33.2382],[79.4914,33.275],[79.3825,33.1679],[79.4033,33.1316],[79.3922,33.1047],[79.3396,33.1684],[79.3827,33.186],[79.405,33.2399],[79.4373,33.2486],[79.492,33.3111],[79.5135,33.3109]]],[[[79.6013,33.4181],[79.6006,33.382],[79.5247,33.3378],[79.5583,33.4186],[79.6013,33.4181]]],[[[80.207,33.5719],[80.1828,33.464],[80.0838,33.3663],[80.0736,33.3936],[80.1394,33.4467],[80.1416,33.5368],[80.207,33.5719]]],[[[79.6944,33.7958],[79.7369,33.7592],[79.7358,33.7051],[79.6701,33.6518],[79.6691,33.5977],[79.6366,33.5891],[79.6032,33.5263],[79.5708,33.5177],[79.626,33.5982],[79.6267,33.6343],[79.6708,33.6879],[79.7143,33.7054],[79.7153,33.7595],[79.6725,33.7781],[79.6729,33.7961],[79.6944,33.7958]]]]}},{"type":"Feature","properties":{"cell":47,"feature":638,"phase":"Mature","min_bt_K":217.3,"area_km2":95764,"cold_core_km2":132,"speed_kmh":68.4,"heading_deg":134,"d_min_bt_30":-2.9,"age_min":120,"family":3,"touches_missing":true,"lon":82.1721,"lat":28.0817,"merges_splits_so_far":2},"geometry":{"type":"MultiPolygon","coordinates":[[[[81.8333,31.5233],[81.8115,31.5058],[81.7273,31.5082],[81.6838,31.4734],[81.6431,31.5106],[81.5582,31.4948],[81.4823,31.4337],[81.4809,31.3976],[81.2868,31.2583],[81.2747,31.2134],[81.2328,31.2145],[81.1896,31.1794],[80.9895,31.157],[80.9878,31.1029],[81.0801,31.0377],[81.122,31.0367],[81.2076,31.0888],[81.2704,31.0873],[81.2902,31.0507],[81.3327,31.0677],[81.4057,31.0568],[81.3727,31.0125],[81.3308,31.0136],[81.2871,30.9606],[81.2129,30.9353],[81.1885,30.8276],[81.1347,30.7838],[81.0088,30.7687],[80.9344,30.7253],[80.9745,30.6702],[80.9621,30.6074],[81.1713,30.6206],[81.2571,30.6907],[81.2881,30.6809],[81.2964,30.6175],[81.3602,30.652],[81.4651,30.6673],[81.4733,30.604],[81.5251,30.5936],[81.5365,30.6203],[81.622,30.6722],[81.6139,30.7355],[81.5284,30.6837],[81.4772,30.7121],[81.4791,30.7662],[81.5431,30.8006],[81.5552,30.8454],[81.5862,30.8355],[81.5849,30.7995],[81.6348,30.735],[81.7586,30.6954],[81.8018,30.7303],[81.8098,30.6669],[81.7364,30.66],[81.6933,30.6251],[81.6307,30.6268],[81.5024,30.5401],[81.4398,30.5417],[81.4165,30.4701],[81.1886,30.5119],[81.1351,30.4681],[81.1125,30.4145],[81.1917,30.2863],[81.1871,30.142],[81.1657,30.1245],[81.1836,30.0339],[81.0984,29.9637],[81.1186,29.9452],[81.1169,29.8911],[81.2736,29.9324],[81.2819,29.8691],[81.1856,29.7722],[81.0811,29.7386],[81.0281,29.6947],[81.0026,29.5329],[81.0634,29.4954],[81.0406,29.4237],[81.0607,29.4052],[81.0775,29.2785],[81.211,29.2663],[81.2204,29.239],[81.1787,29.222],[81.177,29.1679],[81.0721,29.0982],[81.0699,29.026],[81.0283,29.009],[81.0052,28.9193],[80.8587,28.8142],[80.8157,28.743],[80.8143,28.6889],[80.7724,28.6537],[80.7714,28.6176],[80.8023,28.6259],[80.8522,28.5798],[80.7899,28.545],[80.8099,28.5265],[80.7847,28.3466],[80.8221,28.2194],[80.8192,28.1112],[80.778,28.094],[80.7762,28.0219],[80.7554,28.0042],[80.8561,27.966],[80.8551,27.9299],[80.813,27.8767],[80.9324,27.7838],[80.9319,27.7658],[80.8286,27.6958],[80.8677,27.6408],[80.8667,27.6047],[80.9562,27.5396],[81.047,27.5285],[81.045,27.4563],[80.9419,27.3864],[80.9404,27.3323],[80.9601,27.3138],[80.8563,27.2078],[80.8638,27.1083],[80.9946,27.0964],[80.9936,27.0603],[80.9524,27.0251],[80.9092,26.9177],[80.9392,26.908],[80.9583,26.8715],[80.9995,26.9067],[81.1203,26.9039],[81.1394,26.8673],[81.24,26.8649],[81.2596,26.8463],[81.2802,26.8639],[81.4412,26.8597],[81.4619,26.8773],[81.5211,26.8396],[81.6423,26.8543],[81.7405,26.7793],[81.7904,26.7689],[81.7277,26.6984],[81.7265,26.6624],[81.7557,26.6344],[81.7764,26.6519],[81.937,26.6472],[81.9759,26.6099],[82.0361,26.6081],[82.0536,26.5353],[82.194,26.5309],[82.3766,26.5791],[82.4383,26.6132],[82.4598,26.6485],[82.52,26.6465],[82.5416,26.6819],[82.5721,26.6898],[82.5743,26.7439],[82.771,26.8724],[82.9118,26.8672],[82.944,26.9111],[82.9851,26.9276],[82.9875,26.9817],[83.0512,27.0515],[83.0634,27.0962],[83.0836,27.0954],[83.0915,27.05],[83.1117,27.0492],[83.115,27.1213],[83.1588,27.1918],[83.1613,27.2459],[83.2025,27.2623],[83.2288,27.3876],[83.2701,27.404],[83.2727,27.4581],[83.314,27.4745],[83.3158,27.5105],[83.2771,27.5482],[83.3018,27.6375],[83.3326,27.6453],[83.352,27.6264],[83.404,27.6514],[83.3846,27.6702],[83.4076,27.7235],[83.3697,27.7792],[83.4121,27.8135],[83.4245,27.8582],[83.5057,27.8548],[83.5598,27.9157],[83.5607,27.9337],[83.521,27.9534],[83.5219,27.9715],[83.5635,27.9878],[83.5645,28.0058],[83.5247,28.0255],[83.5275,28.0795],[83.5692,28.0958],[83.5313,28.1516],[83.572,28.1499],[83.5749,28.2039],[83.5554,28.2228],[83.5971,28.2391],[83.6,28.2931],[83.6427,28.3274],[83.6242,28.3643],[83.7117,28.4688],[83.7176,28.5769],[83.6504,28.661],[83.5881,28.6456],[83.5501,28.7014],[83.4877,28.6859],[83.4789,28.7134],[83.439,28.7331],[83.4408,28.7691],[83.352,28.8359],[83.2602,28.8486],[83.3067,28.9551],[83.2908,29.0459],[83.3426,29.0529],[83.3973,29.1138],[83.3992,29.1498],[83.4422,29.1842],[83.4235,29.221],[83.4774,29.2639],[83.5401,29.2794],[83.5528,29.324],[83.6165,29.3574],[83.6175,29.3754],[83.5273,29.4243],[83.4792,29.4895],[83.5017,29.5246],[83.544,29.5409],[83.5489,29.6309],[83.6149,29.7003],[83.6179,29.7544],[83.6623,29.8066],[83.6338,29.8529],[83.5096,29.8582],[83.488,29.841],[83.3855,29.8633],[83.3186,29.7758],[83.1945,29.7807],[83.1702,29.7095],[83.1495,29.7103],[83.1307,29.7471],[83.0687,29.7495],[83.0462,29.7143],[82.951,29.6727],[82.9698,29.6359],[82.9384,29.6281],[82.933,29.7276],[82.905,29.7918],[82.7197,29.8165],[82.7107,29.8439],[82.6105,29.9197],[82.6147,30.0097],[82.657,30.0263],[82.6703,30.089],[82.7109,30.0695],[82.7749,30.1033],[82.8579,30.1003],[82.9119,30.1434],[82.9137,30.1794],[82.8433,30.2271],[82.7792,30.1934],[82.7394,30.2309],[82.6563,30.2338],[82.6139,30.2173],[82.5699,30.1647],[82.486,30.1495],[82.4744,30.1228],[82.5043,30.0947],[82.5873,30.0919],[82.6172,30.0638],[82.5625,30.0025],[82.5218,30.022],[82.3145,30.0289],[82.2546,30.085],[82.1724,30.1056],[82.1632,30.133],[82.1324,30.143],[82.0579,30.1002],[81.9892,29.9399],[81.9364,29.9144],[81.9164,29.933],[81.8328,29.9174],[81.8107,29.882],[81.7693,29.8831],[81.7373,29.857],[81.6826,29.7773],[81.5792,29.7802],[81.5704,29.8255],[81.5196,29.8539],[81.46,29.9277],[81.3772,29.9298],[81.3909,30.0287],[81.433,30.0457],[81.4349,30.0998],[81.394,30.1189],[81.3965,30.191],[81.5047,30.3145],[81.5073,30.3866],[81.7517,30.5152],[81.7632,30.5419],[81.8271,30.5762],[81.8285,30.6122],[81.8609,30.6384],[81.9443,30.6359],[81.9536,30.6086],[81.9946,30.5893],[81.9076,30.5017],[81.8832,30.4122],[81.7456,30.353],[81.7328,30.2902],[81.659,30.2652],[81.6155,30.2122],[81.5425,30.2052],[81.5354,30.0069],[81.5662,29.997],[81.5856,29.9604],[81.6478,29.9587],[81.6698,29.9942],[81.7112,29.9931],[81.7226,30.0198],[81.7755,30.0454],[81.8584,30.043],[82.0101,30.2009],[82.0516,30.1996],[82.0946,30.2344],[82.2185,30.2124],[82.2616,30.2471],[82.3031,30.2458],[82.3363,30.2898],[82.3086,30.3719],[82.2663,30.3553],[82.2254,30.3746],[82.2108,30.2758],[82.17,30.2952],[82.173,30.3673],[82.2154,30.384],[82.2177,30.438],[82.2493,30.446],[82.2678,30.3913],[82.3226,30.4527],[82.3242,30.4887],[82.2933,30.4987],[82.271,30.4634],[82.2131,30.5735],[82.1807,30.5475],[82.1792,30.5114],[82.1375,30.5127],[82.139,30.5488],[82.1815,30.5655],[82.1838,30.6195],[82.1436,30.6569],[82.1451,30.6929],[82.1869,30.6916],[82.1946,30.6282],[82.2479,30.6536],[82.2077,30.6909],[82.2294,30.7083],[82.2109,30.763],[82.2542,30.7977],[82.2799,30.9052],[82.3233,30.9398],[82.3241,30.9579],[82.2831,30.9772],[82.3265,31.0119],[82.2746,31.0226],[82.2605,30.9419],[82.142,30.8644],[82.1342,30.9278],[82.0931,30.9471],[82.0861,31.0286],[82.0023,31.0311],[81.9806,31.0137],[81.9402,31.051],[81.7091,31.0396],[81.6476,31.0774],[81.4698,31.0912],[81.5016,31.0994],[81.5455,31.1524],[81.6084,31.1507],[81.6727,31.185],[81.714,31.1658],[81.9071,31.2685],[82.0129,31.2834],[82.0463,31.3275],[82.089,31.3442],[82.0703,31.3989],[81.913,31.4127],[81.8695,31.3779],[81.8064,31.3797],[81.7189,31.292],[81.6559,31.2937],[81.6125,31.2588],[81.5705,31.2599],[81.5482,31.2245],[81.4662,31.2808],[81.3911,31.2376],[81.3924,31.2736],[81.4242,31.2818],[81.4465,31.3174],[81.5298,31.2971],[81.5942,31.3315],[81.639,31.4024],[81.681,31.4013],[81.8101,31.4698],[81.8427,31.4959],[81.8333,31.5233]]],[[[82.6808,26.8846],[82.6681,26.8219],[82.6607,26.8854],[82.6808,26.8846]]],[[[81.3351,27.016],[81.3036,26.9716],[81.2334,26.9824],[81.2638,26.9907],[81.2851,27.0262],[81.3351,27.016]]],[[[82.3472,29.5857],[82.4083,29.5656],[82.3945,29.4849],[82.312,29.4876],[82.2417,29.535],[82.2539,29.5797],[82.3472,29.5857]]],[[[82.1445,29.6824],[82.1644,29.6638],[82.153,29.6371],[82.0184,29.6322],[82.0198,29.6683],[82.0519,29.6943],[82.1445,29.6824]]],[[[81.8752,30.7372],[81.8637,30.7104],[81.8328,30.7204],[81.8752,30.7372]]]]}},{"type":"Feature","properties":{"cell":50,"feature":631,"phase":"Developing","min_bt_K":225.0,"area_km2":3832,"cold_core_km2":0,"speed_kmh":31.0,"heading_deg":42,"d_min_bt_30":-5.0,"age_min":90,"family":3,"touches_missing":true,"lon":73.0743,"lat":33.2481,"merges_splits_so_far":0},"geometry":{"type":"MultiPolygon","coordinates":[[[[73.1937,33.621],[73.0861,33.6171],[72.961,33.5403],[72.9517,33.5128],[72.8279,33.4179],[72.7279,33.2876],[72.716,33.1247],[72.7609,33.0904],[72.7651,33.0184],[72.8201,32.9934],[72.866,32.9411],[72.9301,32.9435],[72.9962,32.9099],[73.0593,32.9303],[73.1254,32.8967],[73.2322,32.9005],[73.2981,32.8668],[73.3408,32.8683],[73.3669,32.9865],[73.2944,32.9388],[73.2619,32.9467],[73.3855,33.0413],[73.3809,33.1313],[73.4219,33.1688],[73.3772,33.2034],[73.3735,33.2754],[73.3287,33.31],[73.3492,33.3287],[73.3054,33.3453],[73.3464,33.3828],[73.3455,33.4008],[73.3016,33.4173],[73.2959,33.5254],[73.3155,33.5622],[73.1937,33.621]]]]}},{"type":"Feature","properties":{"cell":55,"feature":632,"phase":"Developing","min_bt_K":226.0,"area_km2":6528,"cold_core_km2":0,"speed_kmh":19.6,"heading_deg":27,"d_min_bt_30":-0.5,"age_min":90,"family":3,"touches_missing":true,"lon":75.0073,"lat":33.677,"merges_splits_so_far":1},"geometry":{"type":"MultiPolygon","coordinates":[[[[74.6672,34.0087],[74.5486,33.9967],[74.5932,33.9617],[74.5974,33.8536],[74.6197,33.8361],[74.516,33.7251],[74.437,33.5426],[74.5051,33.4542],[74.5599,33.4285],[74.6244,33.4302],[74.7338,33.3788],[74.8621,33.3999],[75.0503,33.2328],[75.0515,33.1967],[75.106,33.1708],[75.2851,33.2738],[75.283,33.3459],[75.3248,33.3829],[75.3227,33.455],[75.385,33.5284],[75.3835,33.5825],[75.5733,33.7304],[75.5502,33.7841],[75.5713,33.8026],[75.5698,33.8567],[75.6125,33.8755],[75.6106,33.9476],[75.5884,33.9653],[75.6096,33.9837],[75.5115,34.009],[74.6895,33.9912],[74.6672,34.0087]]]]}},{"type":"Feature","properties":{"cell":56,"feature":605,"phase":"Developing","min_bt_K":238.0,"area_km2":948,"cold_core_km2":0,"speed_kmh":21.1,"heading_deg":57,"d_min_bt_30":0.0,"age_min":60,"family":56,"touches_missing":true,"lon":75.2359,"lat":31.592,"merges_splits_so_far":0},"geometry":{"type":"MultiPolygon","coordinates":[[[[75.3156,31.8762],[75.2527,31.8569],[75.2018,31.7927],[75.1839,31.684],[75.1034,31.556],[75.1056,31.4839],[75.0851,31.4654],[75.0975,31.4025],[75.1606,31.4039],[75.1822,31.3863],[75.2447,31.4057],[75.2545,31.4329],[75.3782,31.5256],[75.3767,31.5797],[75.3551,31.5973],[75.3747,31.6519],[75.331,31.7051],[75.3918,31.7965],[75.3692,31.8502],[75.3156,31.8762]]]]}},{"type":"Feature","properties":{"cell":61,"feature":613,"phase":"Unclassified","min_bt_K":237.0,"area_km2":196,"cold_core_km2":0,"speed_kmh":35.5,"heading_deg":47,"d_min_bt_30":-0.3,"age_min":60,"family":61,"touches_missing":true,"lon":72.4245,"lat":33.6965,"merges_splits_so_far":0},"geometry":{"type":"MultiPolygon","coordinates":[[[[72.5334,33.8303],[72.5015,33.82],[72.4743,33.7376],[72.3472,33.6962],[72.2759,33.63],[72.3326,33.5873],[72.3756,33.5891],[72.4062,33.6175],[72.4039,33.6535],[72.4754,33.7196],[72.5185,33.7214],[72.5492,33.7497],[72.5334,33.8303]]]]}},{"type":"Feature","properties":{"cell":63,"feature":628,"phase":"Developing","min_bt_K":229.3,"area_km2":8848,"cold_core_km2":0,"speed_kmh":36.1,"heading_deg":26,"d_min_bt_30":0.2,"age_min":60,"family":3,"touches_missing":true,"lon":75.5964,"lat":33.124,"merges_splits_so_far":4},"geometry":{"type":"MultiPolygon","coordinates":[[[[76.0791,33.7838],[75.9302,33.6913],[75.8964,33.7539],[75.8638,33.7625],[75.7683,33.6977],[75.7582,33.6705],[75.7366,33.6701],[75.6921,33.7235],[75.6279,33.7044],[75.5412,33.7208],[75.5101,33.6751],[75.3835,33.5825],[75.385,33.5284],[75.3227,33.455],[75.3248,33.3829],[75.283,33.3459],[75.2851,33.2738],[75.2428,33.2549],[75.2455,33.1648],[75.1869,32.9831],[75.211,32.8934],[75.1689,32.8745],[75.2773,32.8226],[75.2576,32.7681],[75.2794,32.7505],[75.2816,32.6783],[75.24,32.6414],[75.2417,32.5873],[75.2962,32.5433],[75.3165,32.5798],[75.371,32.5358],[75.373,32.4637],[75.2906,32.3718],[75.3238,32.3274],[75.3761,32.3555],[75.4275,32.4196],[75.5333,32.4397],[75.6382,32.4957],[75.6794,32.5505],[75.7219,32.5513],[75.848,32.6255],[75.9203,32.7259],[75.8655,32.7882],[75.8555,32.761],[75.8028,32.7331],[75.7906,32.796],[75.8324,32.8328],[75.8315,32.8688],[75.8952,32.8879],[75.894,32.942],[75.9561,33.0332],[75.9544,33.1053],[76.0175,33.1604],[76.0163,33.2145],[76.0584,33.2512],[76.0779,33.3417],[76.1201,33.3784],[76.0979,33.4142],[76.1401,33.4508],[76.1178,33.4866],[76.1382,33.541],[76.1129,33.7211],[76.1337,33.7575],[76.0791,33.7838]]]]}},{"type":"Feature","properties":{"cell":64,"feature":608,"phase":"Unclassified","min_bt_K":237.0,"area_km2":584,"cold_core_km2":0,"speed_kmh":53.5,"heading_deg":57,"d_min_bt_30":1.0,"age_min":30,"family":64,"touches_missing":true,"lon":83.6488,"lat":32.7586,"merges_splits_so_far":0},"geometry":{"type":"MultiPolygon","coordinates":[[[[83.9887,32.9055],[83.8582,32.8751],[83.7739,32.8969],[83.6828,32.8105],[83.6401,32.8124],[83.5515,32.7619],[83.4651,32.7474],[83.399,32.714],[83.342,32.6532],[83.4586,32.6394],[83.5684,32.689],[83.6537,32.6854],[83.7198,32.7187],[83.7434,32.7538],[83.831,32.7861],[83.8997,32.8553],[83.9863,32.8695],[83.9887,32.9055]]]]}},{"type":"Feature","properties":{"cell":72,"feature":636,"phase":"Developing","min_bt_K":228.1,"area_km2":1744,"cold_core_km2":0,"speed_kmh":26.3,"heading_deg":36,"d_min_bt_30":-3.3,"age_min":30,"family":3,"touches_missing":true,"lon":73.0986,"lat":33.8515,"merges_splits_so_far":1},"geometry":{"type":"MultiPolygon","coordinates":[[[[72.9341,34.0085],[72.7611,34.0019],[72.7562,33.9024],[72.8705,33.7985],[73.0379,33.7056],[73.1291,33.6187],[73.2593,33.6053],[73.2882,33.6695],[73.351,33.7078],[73.306,33.7423],[73.305,33.7603],[73.3472,33.7799],[73.3443,33.8339],[73.3856,33.8714],[73.3415,33.8879],[73.3376,33.96],[73.3696,33.9701],[73.3922,33.9529],[73.4222,33.999],[73.2596,34.0024],[73.2173,33.9828],[73.1947,34.0001],[72.9568,33.9913],[72.9341,34.0085]]]]}},{"type":"Feature","properties":{"cell":77,"feature":621,"phase":"Unclassified","min_bt_K":234.0,"area_km2":8392,"cold_core_km2":0,"speed_kmh":null,"heading_deg":null,"d_min_bt_30":null,"age_min":0,"family":3,"touches_missing":false,"lon":77.5072,"lat":31.7355,"merges_splits_so_far":1},"geometry":{"type":"MultiPolygon","coordinates":[[[[77.6589,32.6786],[77.595,32.6784],[77.5207,32.615],[77.5209,32.5789],[77.4363,32.4884],[77.4153,32.4342],[77.3622,32.4249],[77.246,32.3431],[77.2255,32.2528],[77.2469,32.2349],[77.2483,32.0545],[77.2698,32.0185],[77.2279,31.9642],[77.1331,31.9185],[77.0485,31.9179],[77.0177,31.8365],[76.9654,31.791],[76.8598,31.7901],[76.7969,31.7535],[76.7874,31.6722],[76.8089,31.6364],[76.7672,31.5999],[76.8203,31.5733],[76.9886,31.5927],[77.0095,31.6109],[77.1361,31.5938],[77.147,31.5488],[77.1789,31.5219],[77.221,31.5222],[77.2528,31.4953],[77.253,31.4592],[77.2953,31.4414],[77.3166,31.4054],[77.2959,31.3512],[77.5071,31.1537],[77.5283,31.1177],[77.5075,31.0815],[77.5601,31.0366],[77.6229,31.0368],[77.6751,31.0821],[77.6854,31.1452],[77.8217,31.1545],[77.8215,31.2627],[77.8845,31.2989],[77.9053,31.4432],[77.9684,31.4974],[77.9684,31.5515],[77.8946,31.6326],[77.7681,31.6505],[77.7152,31.6955],[77.715,31.7677],[77.7361,31.7858],[77.7144,31.9661],[77.6189,32.047],[77.5024,32.0557],[77.5235,32.0738],[77.5022,32.0918],[77.523,32.164],[77.5969,32.2454],[77.6393,32.2455],[77.671,32.2727],[77.6704,32.4531],[77.7339,32.5434],[77.7338,32.5795],[77.7125,32.5975],[77.7123,32.6516],[77.6589,32.6786]]]]}},{"type":"Feature","properties":{"cell":82,"feature":627,"phase":"Unclassified","min_bt_K":234.0,"area_km2":5180,"cold_core_km2":0,"speed_kmh":null,"heading_deg":null,"d_min_bt_30":null,"age_min":0,"family":3,"touches_missing":false,"lon":76.96,"lat":32.2915,"merges_splits_so_far":1},"geometry":{"type":"MultiPolygon","coordinates":[[[[77.2097,32.8571],[77.1458,32.8386],[77.1029,32.8564],[77.0606,32.82],[76.9538,32.8192],[76.901,32.7737],[76.9016,32.7196],[76.7761,32.5381],[76.7558,32.4657],[76.6922,32.4471],[76.6938,32.3388],[76.7153,32.321],[76.7387,32.1589],[76.8032,32.0873],[76.8044,31.9971],[76.7411,31.9785],[76.7214,31.8701],[76.6797,31.8336],[76.7125,31.7527],[76.818,31.7537],[76.8598,31.7901],[76.9654,31.791],[77.0177,31.8365],[77.0485,31.9179],[77.1964,31.9369],[77.2698,32.0185],[77.2483,32.0545],[77.2469,32.2349],[77.2255,32.2528],[77.225,32.3069],[77.246,32.3431],[77.3305,32.3977],[77.2878,32.4335],[77.3299,32.4879],[77.3287,32.6502],[77.3925,32.6686],[77.3919,32.7588],[77.3385,32.7675],[77.3283,32.7044],[77.2538,32.6949],[77.242,32.8302],[77.2097,32.8571]]]]}},{"type":"Feature","properties":{"cell":84,"feature":633,"phase":"Unclassified","min_bt_K":234.4,"area_km2":7888,"cold_core_km2":0,"speed_kmh":null,"heading_deg":null,"d_min_bt_30":null,"age_min":0,"family":3,"touches_missing":false,"lon":76.5422,"lat":33.4458,"merges_splits_so_far":1},"geometry":{"type":"MultiPolygon","coordinates":[[[[76.8316,34.009],[76.5397,33.9971],[76.5403,33.961],[76.476,33.9242],[76.4141,33.7611],[76.3713,33.7425],[76.3723,33.6884],[76.3083,33.6515],[76.2889,33.543],[76.2039,33.4878],[76.099,33.36],[76.0584,33.2512],[76.0163,33.2145],[75.9981,33.0699],[75.9561,33.0332],[75.9573,32.9791],[75.9149,32.9604],[75.9162,32.9063],[75.8952,32.8879],[75.8973,32.7977],[75.8768,32.7613],[75.9203,32.7259],[75.8785,32.6892],[75.8797,32.6351],[75.9014,32.6174],[75.8805,32.599],[75.8926,32.5361],[75.9561,32.5551],[75.9766,32.5915],[76.0614,32.6108],[76.1137,32.6566],[76.113,32.6927],[76.1552,32.7113],[76.1755,32.7657],[76.2178,32.7843],[76.2168,32.8385],[76.3012,32.8937],[76.3005,32.9298],[76.3426,32.9664],[76.3834,33.0751],[76.3821,33.1473],[76.424,33.2019],[76.4019,33.2377],[76.4337,33.2651],[76.5409,33.2664],[76.583,33.3209],[76.6259,33.3214],[76.6789,33.367],[76.7515,33.5572],[76.8385,33.4858],[76.9465,33.4506],[76.9899,33.4148],[77.0329,33.4152],[77.0966,33.4878],[77.1503,33.4971],[77.1498,33.5513],[77.1711,33.5694],[77.1489,33.6415],[77.1703,33.6596],[77.1907,33.7861],[77.2334,33.8404],[77.1897,33.8943],[77.2321,33.9848],[76.8535,33.9911],[76.8316,34.009]]]]}}]}