{"type":"FeatureCollection","features":[{"type":"Feature","properties":{"cell":41,"feature":668,"phase":"Developing","min_bt_K":227.0,"area_km2":12664,"cold_core_km2":0,"speed_kmh":49.7,"heading_deg":13,"d_min_bt_30":-2.2,"age_min":180,"family":3,"touches_missing":true,"lon":76.6087,"lat":32.8834,"merges_splits_so_far":12},"geometry":{"type":"MultiPolygon","coordinates":[[[[76.8316,34.009],[76.7993,33.9996],[76.8,33.9455],[76.7787,33.9273],[76.8224,33.8916],[76.8228,33.8555],[76.8015,33.8373],[76.7816,33.7108],[76.739,33.6743],[76.7401,33.6022],[76.7836,33.5665],[76.7841,33.5304],[76.7413,33.512],[76.7421,33.4578],[76.6994,33.4394],[76.7216,33.3855],[76.5956,33.2038],[76.5961,33.1677],[76.47,33.022],[76.438,33.0126],[76.4265,33.0576],[76.4687,33.0942],[76.4877,33.2387],[76.4125,33.2469],[76.3812,33.2014],[76.3386,33.1828],[76.3393,33.1467],[76.2557,33.0374],[76.2367,32.9109],[76.1325,32.7832],[76.1542,32.7654],[76.0924,32.6563],[75.9473,32.4738],[75.9497,32.3656],[75.868,32.2199],[75.8796,32.175],[75.954,32.1672],[75.9548,32.1311],[75.9137,32.0763],[75.946,32.0498],[75.9668,32.0681],[76.1786,32.0712],[76.2199,32.1259],[76.3461,32.1816],[76.4103,32.1463],[76.4524,32.1649],[76.5148,32.2377],[76.6096,32.2839],[76.6075,32.4282],[76.5856,32.464],[76.6276,32.5005],[76.6263,32.5907],[76.6471,32.627],[76.6999,32.6546],[76.7207,32.6909],[76.7847,32.6915],[76.8163,32.7188],[76.8156,32.773],[76.8684,32.8185],[76.9109,32.8369],[77.039,32.8379],[77.1027,32.8744],[77.2095,32.8751],[77.2627,32.9025],[77.2412,32.9204],[77.2408,32.9745],[77.2831,33.0289],[77.2616,33.0468],[77.2608,33.137],[77.2391,33.1729],[77.2817,33.2093],[77.2601,33.2272],[77.2811,33.2814],[77.2377,33.3353],[77.2371,33.4075],[77.1935,33.4794],[77.193,33.5335],[77.2776,33.7144],[77.2766,33.8407],[77.3089,33.8499],[77.3302,33.8861],[77.4381,33.9046],[77.4917,33.986],[76.8535,33.9911],[76.8316,34.009]]],[[[76.3939,32.4799],[76.3955,32.3897],[76.3533,32.3712],[76.3438,32.3079],[76.3112,32.3526],[76.353,32.3892],[76.3514,32.4794],[76.3939,32.4799]]]]}},{"type":"Feature","properties":{"cell":46,"feature":667,"phase":"Developing","min_bt_K":232.1,"area_km2":101728,"cold_core_km2":0,"speed_kmh":215.4,"heading_deg":194,"d_min_bt_30":-0.9,"age_min":150,"family":3,"touches_missing":true,"lon":79.0405,"lat":32.1258,"merges_splits_so_far":15},"geometry":{"type":"MultiPolygon","coordinates":[[[[80.4231,33.9921],[77.9567,33.996],[77.9028,33.8967],[77.9028,33.8426],[77.8597,33.8065],[77.8705,33.7614],[77.8921,33.7794],[77.9461,33.7705],[77.9461,33.7524],[77.8814,33.7163],[77.903,33.6983],[77.8815,33.6441],[77.9031,33.6081],[77.7742,33.4816],[77.8173,33.4456],[77.796,33.3373],[77.8819,33.3013],[77.8391,33.2472],[77.8392,33.2111],[77.9679,33.139],[77.9893,33.0488],[77.8824,32.9225],[77.7651,32.8411],[77.7329,32.9042],[77.7541,32.9584],[77.7327,32.9764],[77.7217,33.0756],[77.6045,32.94],[77.626,32.904],[77.5834,32.8678],[77.6264,32.8138],[77.5839,32.7595],[77.5841,32.7234],[77.6482,32.6875],[77.6699,32.5974],[77.8191,32.5075],[77.8619,32.3993],[77.8196,32.291],[77.7877,32.2819],[77.756,32.2368],[77.7986,32.1467],[77.7988,32.0745],[77.7144,31.9841],[77.7357,31.9301],[77.7361,31.7677],[77.884,31.6597],[77.9053,31.4793],[77.8632,31.4612],[77.8634,31.3349],[77.937,31.326],[77.979,31.3621],[78.042,31.3621],[78.063,31.326],[78.1995,31.2627],[78.1153,31.1365],[78.1153,31.0824],[78.2199,31.0282],[78.2406,30.9018],[78.2719,30.8747],[78.3346,30.8746],[78.345,30.8475],[78.4908,30.7388],[78.4483,30.5766],[78.3856,30.5407],[78.3853,30.4685],[78.4267,30.4143],[78.4266,30.3782],[78.4576,30.351],[78.4993,30.3689],[78.6034,30.3685],[78.6653,30.296],[78.7277,30.2957],[78.7586,30.2685],[78.8919,30.0601],[78.9851,30.0505],[78.9846,29.9963],[79.0257,29.9599],[79.0253,29.9239],[78.9733,29.8972],[78.8906,29.9158],[78.8383,29.853],[78.931,29.8073],[79.0743,29.6619],[79.1772,29.6249],[79.2999,29.5335],[79.3412,29.5331],[79.3725,29.5599],[79.373,29.5959],[79.4673,29.6942],[79.5086,29.6937],[79.5505,29.7293],[79.5919,29.7288],[79.6545,29.7641],[79.6958,29.7636],[79.7572,29.7267],[79.9247,29.8326],[79.9868,29.8317],[80.0376,29.7858],[80.047,29.7406],[80.1508,29.757],[80.2034,29.8012],[80.2054,29.8914],[80.2696,29.9805],[80.2704,30.0166],[80.3131,30.07],[80.3762,30.105],[80.3876,30.1499],[80.4601,30.1395],[80.4587,30.0854],[80.4159,30.0321],[80.4138,29.9419],[80.4649,29.9139],[80.486,29.9315],[80.7139,29.9271],[80.7558,29.9442],[80.8524,30.0595],[80.8944,30.0766],[80.8959,30.1307],[80.9172,30.1483],[80.9193,30.2204],[80.8266,30.2495],[80.8175,30.2948],[80.777,30.3317],[80.7775,30.3497],[80.8196,30.3669],[80.8105,30.4122],[80.6643,30.3972],[80.6217,30.3619],[80.5177,30.364],[80.4747,30.3106],[80.4225,30.3026],[80.411,30.2577],[80.3903,30.2581],[80.3703,30.2945],[80.308,30.2956],[80.2863,30.2599],[80.2766,30.2871],[80.2354,30.3059],[80.2366,30.36],[80.3305,30.3674],[80.384,30.4296],[80.3849,30.4657],[80.3339,30.5117],[80.2714,30.5128],[80.2497,30.477],[80.1664,30.4784],[80.1357,30.506],[80.1782,30.5414],[80.1582,30.5778],[80.1798,30.6135],[80.1389,30.6503],[80.1602,30.668],[80.1618,30.7401],[80.1413,30.7585],[80.1839,30.7939],[80.1642,30.8483],[80.2294,30.9555],[80.1883,30.9922],[80.1895,31.0464],[80.169,31.0647],[80.1702,31.1188],[80.1916,31.1365],[80.171,31.1549],[80.2352,31.208],[80.2468,31.2529],[80.3312,31.2695],[80.3423,31.2963],[80.3848,31.3136],[80.3656,31.3861],[80.4104,31.4936],[80.4005,31.5208],[80.3369,31.5039],[80.2746,31.541],[80.2338,31.5959],[80.1706,31.5969],[80.1396,31.6245],[80.1615,31.6602],[80.1416,31.7146],[80.2057,31.7497],[80.2505,31.8572],[80.2937,31.8925],[80.1897,31.9664],[80.1914,32.0386],[80.2994,32.127],[80.3224,32.1987],[80.2813,32.2535],[80.3893,32.3238],[80.3902,32.3599],[80.4554,32.4128],[80.4781,32.4665],[80.4592,32.5571],[80.4176,32.5939],[80.5057,32.7006],[80.4651,32.7735],[80.5082,32.7907],[80.5107,32.8809],[80.4898,32.8993],[80.5127,32.953],[80.4923,32.9895],[80.5361,33.0247],[80.4953,33.0977],[80.4978,33.1878],[80.5861,33.2764],[80.5678,33.385],[80.6118,33.4202],[80.5588,33.4483],[80.4484,33.3421],[80.4284,33.3966],[80.3849,33.3793],[80.3529,33.3889],[80.3544,33.443],[80.3333,33.4615],[80.3553,33.4791],[80.3567,33.5332],[80.4008,33.5685],[80.4272,33.7485],[80.4714,33.7838],[80.4307,33.8747],[80.388,33.8935],[80.389,33.9296],[80.4332,33.9649],[80.4231,33.9921]]],[[[79.5645,31.2717],[79.5329,31.263],[79.522,31.2361],[79.6047,31.163],[79.5306,31.1187],[79.5631,31.1815],[79.48,31.2366],[79.5332,31.2811],[79.5645,31.2717]]],[[[78.4934,31.2619],[78.4617,31.217],[78.3568,31.2173],[78.3044,31.2445],[78.315,31.2715],[78.4934,31.2619]]],[[[79.622,32.173],[79.6425,32.1367],[79.6308,32.0737],[79.5572,32.1016],[79.6008,32.1733],[79.622,32.173]]],[[[78.6501,32.6684],[78.6923,32.614],[78.6603,32.6052],[78.6499,32.6323],[78.618,32.6415],[78.5851,32.5063],[78.5425,32.4885],[78.5422,32.4343],[78.5844,32.3981],[78.584,32.3259],[78.5521,32.317],[78.542,32.4163],[78.4996,32.4345],[78.4998,32.4706],[78.5426,32.5065],[78.5429,32.5606],[78.5856,32.5785],[78.5859,32.6326],[78.6501,32.6684]]],[[[79.2251,32.6283],[79.267,32.5737],[79.2242,32.5561],[79.2012,32.43],[79.1692,32.4213],[79.1475,32.3854],[79.1594,32.4845],[79.2022,32.5022],[79.2029,32.5563],[79.2244,32.5741],[79.2038,32.6285],[79.2251,32.6283]]],[[[79.7769,32.5138],[79.8188,32.4772],[79.7644,32.4147],[79.733,32.4422],[79.7344,32.5144],[79.7769,32.5138]]],[[[78.8219,32.8118],[78.9064,32.721],[78.8636,32.7033],[78.8631,32.6491],[78.8094,32.6044],[78.799,32.6315],[78.8418,32.6493],[78.8423,32.7034],[78.8638,32.7213],[78.8004,32.7938],[78.8006,32.8119],[78.8219,32.8118]]],[[[79.229,32.9169],[79.2283,32.8628],[79.1853,32.8451],[79.1094,32.7465],[79.099,32.7737],[79.1208,32.8096],[79.1637,32.8273],[79.186,32.8992],[79.229,32.9169]]],[[[78.9733,32.9911],[79.0155,32.9367],[78.9725,32.919],[78.9608,32.8199],[78.9511,32.9191],[78.9729,32.9551],[78.9519,32.9913],[78.9733,32.9911]]],[[[79.8532,33.1262],[79.8525,33.0901],[79.9155,33.0351],[79.9136,32.9449],[79.956,32.9262],[79.9447,32.8993],[79.8923,32.9452],[79.8941,33.0354],[79.8096,33.0907],[79.8104,33.1268],[79.8532,33.1262]]],[[[80.4349,33.2431],[80.4345,33.2251],[80.4769,33.2063],[80.4325,33.153],[80.4749,33.1341],[80.4196,33.072],[80.4096,33.0992],[80.432,33.1349],[80.3901,33.1718],[80.4225,33.1802],[80.434,33.2071],[80.3921,33.2439],[80.4349,33.2431]]],[[[79.5141,33.3469],[79.5135,33.3109],[79.5981,33.2377],[79.5872,33.2288],[79.5023,33.2839],[79.4908,33.239],[79.4479,33.2394],[79.4485,33.2755],[79.4917,33.2931],[79.4926,33.3472],[79.5141,33.3469]]],[[[80.4292,33.8206],[80.2931,33.5704],[80.2889,33.4081],[80.352,33.3529],[80.3296,33.3172],[80.3496,33.2627],[80.2967,33.2907],[80.2734,33.2189],[80.2424,33.2645],[80.3305,33.3532],[80.2985,33.3628],[80.2464,33.4269],[80.2501,33.5711],[80.2936,33.5884],[80.3184,33.7143],[80.362,33.7316],[80.386,33.8214],[80.4292,33.8206]]],[[[79.6718,33.742],[79.6924,33.6876],[79.6698,33.6338],[79.7327,33.5427],[79.72,33.4437],[79.7111,33.543],[79.6684,33.5616],[79.6695,33.6157],[79.6267,33.6343],[79.6705,33.6698],[79.6708,33.6879],[79.628,33.7064],[79.6287,33.7425],[79.6718,33.742]]],[[[79.8038,33.8666],[79.8455,33.7938],[79.8444,33.7397],[79.8871,33.7211],[79.8319,33.6587],[79.8217,33.6859],[79.844,33.7217],[79.8228,33.74],[79.8239,33.7941],[79.7811,33.8128],[79.7822,33.8669],[79.8038,33.8666]]],[[[79.9534,33.7923],[79.942,33.7654],[79.9318,33.7926],[79.9534,33.7923]]]]}},{"type":"Feature","properties":{"cell":47,"feature":663,"phase":"Mature","min_bt_K":221.0,"area_km2":73492,"cold_core_km2":0,"speed_kmh":60.2,"heading_deg":118,"d_min_bt_30":3.7,"age_min":150,"family":3,"touches_missing":true,"lon":82.4428,"lat":27.9546,"merges_splits_so_far":4},"geometry":{"type":"MultiPolygon","coordinates":[[[[82.3189,31.0753],[82.1086,31.064],[82.0543,31.0205],[82.1032,30.9378],[82.1458,30.9545],[82.2605,30.9419],[82.2799,30.9052],[82.2574,30.8698],[82.2518,30.7437],[82.0926,30.6855],[82.0594,30.6414],[81.9953,30.6073],[81.9939,30.5713],[81.9284,30.501],[81.9794,30.4725],[82.1044,30.4686],[82.1244,30.45],[82.146,30.4673],[82.2393,30.4554],[82.2278,30.4287],[82.1437,30.4133],[82.1314,30.3686],[82.1623,30.3586],[82.2046,30.3753],[82.2547,30.3286],[82.2724,30.2558],[82.3124,30.2184],[82.3108,30.1824],[82.3523,30.181],[82.3484,30.0909],[82.2953,30.0656],[82.2347,30.1036],[82.1094,30.0896],[82.0972,30.0448],[82.055,30.0281],[82.0528,29.974],[82.0106,29.9573],[82.0085,29.9032],[81.9457,29.887],[81.9014,29.8162],[81.92,29.7615],[81.9507,29.7515],[82.017,29.8578],[82.1205,29.8546],[82.1634,29.8894],[82.2255,29.8874],[82.3321,29.9561],[82.4365,29.9707],[82.6039,29.7755],[82.6006,29.7034],[82.5254,29.6429],[82.4635,29.645],[82.3587,29.6124],[82.338,29.6131],[82.299,29.6685],[82.2371,29.6705],[82.153,29.6371],[82.1323,29.6377],[82.1131,29.6744],[82.0511,29.6763],[82.0077,29.6235],[81.9344,29.5986],[81.9123,29.5632],[81.9082,29.4551],[81.7738,29.4499],[81.7625,29.4232],[81.7313,29.4151],[81.712,29.4517],[81.6295,29.454],[81.6215,29.5174],[81.5809,29.5365],[81.5828,29.5906],[81.6553,29.5976],[81.7093,29.6593],[81.7106,29.6953],[81.6593,29.7058],[81.6166,29.6709],[81.5547,29.6726],[81.5466,29.7359],[81.4745,29.7469],[81.4,29.6856],[81.3976,29.6135],[81.4695,29.6026],[81.4777,29.5393],[81.4052,29.5321],[81.3834,29.4966],[81.3009,29.4987],[81.2373,29.4461],[81.1754,29.4476],[81.1019,29.4043],[81.0797,29.3506],[81.0759,29.2244],[81.0959,29.2059],[81.0732,29.1343],[80.9904,29.1181],[80.9868,28.9919],[80.8406,28.9049],[80.8801,28.8499],[80.8567,28.7421],[80.8971,28.7232],[80.8956,28.6691],[80.8532,28.6158],[80.8503,28.5076],[80.921,28.479],[80.9419,28.4966],[81.208,28.5084],[81.2378,28.4806],[81.235,28.3904],[81.3645,28.2879],[81.4478,28.3399],[81.5084,28.3203],[81.6276,28.2268],[81.6887,28.2251],[81.7097,28.2426],[81.7295,28.224],[81.8418,28.2297],[81.8399,28.1757],[81.7349,28.0884],[81.7336,28.0524],[81.8032,28.0052],[81.874,27.9941],[81.8432,27.986],[81.7902,27.9244],[81.787,27.8342],[81.7451,27.7993],[81.7432,27.7452],[81.7002,27.6742],[81.648,27.6305],[81.6075,27.6317],[81.5756,27.5874],[81.5738,27.5333],[81.531,27.4622],[81.5269,27.336],[81.4444,27.284],[81.4174,27.068],[81.2453,27.0453],[81.1936,27.0014],[81.1926,26.9653],[81.222,26.9375],[81.6045,26.9276],[81.6637,26.8898],[81.7246,26.9062],[81.8027,26.8317],[81.9038,26.8468],[81.9331,26.8189],[81.9311,26.7647],[81.9104,26.7473],[81.917,26.6478],[81.9571,26.6466],[81.9759,26.6099],[82.0763,26.6068],[82.1171,26.6236],[82.1365,26.6049],[82.1967,26.603],[82.295,26.5457],[82.3358,26.5624],[82.3648,26.5343],[82.3634,26.4983],[82.4125,26.4695],[82.434,26.5049],[82.4941,26.5029],[82.5156,26.5383],[82.5558,26.5369],[82.5981,26.5896],[82.6576,26.5694],[82.6992,26.6041],[82.7393,26.6026],[82.7505,26.6293],[82.8332,26.6805],[82.7953,26.736],[82.8259,26.744],[82.8444,26.7072],[82.8781,26.7872],[82.9287,26.7943],[82.9513,26.8476],[82.9907,26.8281],[83.0245,26.9081],[83.0648,26.9065],[83.0979,26.9684],[83.1373,26.9489],[83.1994,26.9825],[83.2388,26.9629],[83.3001,26.9785],[83.3193,26.9597],[83.3509,26.9855],[83.3333,27.0404],[83.3763,27.0928],[83.4596,27.1435],[83.4719,27.1882],[83.5017,27.1779],[83.5678,27.2834],[83.5715,27.3555],[83.5926,27.3727],[83.5751,27.4276],[83.5963,27.4447],[83.6028,27.5708],[83.624,27.588],[83.6056,27.6249],[83.6325,27.7501],[83.674,27.7664],[83.6991,27.8556],[83.7503,27.8624],[83.7841,27.9241],[83.8471,27.9574],[83.8297,28.0123],[83.8639,28.2636],[83.9057,28.2798],[83.8883,28.3347],[83.9516,28.368],[84.0006,28.5101],[83.9219,28.5679],[83.9076,28.6768],[83.9496,28.693],[83.9506,28.711],[83.8825,28.7772],[83.7802,28.7817],[83.7412,28.8195],[83.6797,28.8222],[83.6163,28.7888],[83.5754,28.7906],[83.5432,28.7648],[83.5403,28.7108],[83.5189,28.6936],[83.5122,28.5676],[83.4607,28.5607],[83.4073,28.5178],[83.4054,28.4817],[83.321,28.431],[83.3192,28.395],[83.2766,28.3606],[83.2951,28.3238],[83.1879,28.2197],[83.2029,28.1108],[83.0765,28.0255],[83.0634,27.9628],[82.9618,27.9667],[82.9186,27.9141],[82.8171,27.9179],[82.796,27.9006],[82.7163,27.9396],[82.7089,28.003],[82.6796,28.0312],[82.639,28.0326],[82.5705,28.0982],[82.5932,28.1515],[82.5344,28.2077],[82.536,28.2438],[82.4862,28.2726],[82.4447,28.2559],[82.3767,28.3394],[82.4409,28.4095],[82.475,28.4895],[82.5877,28.4947],[82.5901,28.5488],[82.5319,28.623],[82.5405,28.8212],[82.6577,28.9164],[82.7413,28.9495],[82.8627,28.909],[82.9447,28.9059],[82.9678,28.9592],[83.1998,29.0766],[83.2801,29.0373],[83.3016,29.0545],[83.3632,29.052],[83.4276,29.1036],[83.4687,29.1019],[83.4912,29.137],[83.6076,29.1953],[83.6096,29.2313],[83.6527,29.2656],[83.6557,29.3196],[83.7195,29.3529],[83.7235,29.425],[83.7668,29.4592],[83.7699,29.5132],[83.8219,29.5199],[83.8782,29.5987],[83.8478,29.609],[83.84,29.6545],[83.7998,29.6743],[83.7833,29.7472],[83.7538,29.7756],[83.6711,29.7792],[83.6131,29.8538],[83.5096,29.8582],[83.4456,29.8247],[83.423,29.7896],[83.3177,29.7578],[83.2979,29.7766],[83.1118,29.7839],[83.0723,29.8215],[83.0102,29.8239],[82.9904,29.8427],[82.9077,29.8458],[82.8645,29.8113],[82.8339,29.8214],[82.8654,29.8293],[82.8663,29.8473],[82.7628,29.8511],[82.7404,29.8158],[82.6784,29.818],[82.6851,29.9621],[82.7265,29.9607],[82.7382,29.9873],[82.8345,30.047],[82.9598,30.0604],[83.1421,30.1707],[83.1359,30.2522],[83.0717,30.2186],[83.0302,30.2202],[82.9598,30.2679],[82.9625,30.322],[83.081,30.3987],[83.1226,30.3971],[83.1415,30.3603],[83.1633,30.3775],[83.2673,30.3734],[83.3098,30.3897],[83.4416,30.5107],[83.5458,30.5064],[83.6015,30.5672],[83.5717,30.5955],[83.4883,30.599],[83.4665,30.5818],[83.3414,30.5869],[83.3216,30.6058],[83.2789,30.5894],[83.259,30.6083],[83.2353,30.5551],[83.025,30.5271],[82.9607,30.4935],[82.8774,30.4966],[82.8574,30.5153],[82.7706,30.4463],[82.6674,30.468],[82.6583,30.4954],[82.5875,30.543],[82.4616,30.5293],[82.355,30.4787],[82.2717,30.4814],[82.2625,30.5088],[82.3057,30.5434],[82.3306,30.6329],[82.4698,30.7094],[82.5959,30.7232],[82.5868,30.7505],[82.652,30.8024],[82.4748,30.8175],[82.4338,30.837],[82.4062,30.9191],[82.345,30.9572],[82.3458,30.9752],[82.3885,30.9918],[82.3189,31.0753]]]]}},{"type":"Feature","properties":{"cell":50,"feature":673,"phase":"Developing","min_bt_K":225.2,"area_km2":7196,"cold_core_km2":0,"speed_kmh":60.0,"heading_deg":26,"d_min_bt_30":0.2,"age_min":120,"family":3,"touches_missing":true,"lon":73.2157,"lat":33.4911,"merges_splits_so_far":1},"geometry":{"type":"MultiPolygon","coordinates":[[[[73.4326,34.0084],[72.9352,33.9905],[72.8848,33.9254],[72.9538,33.8558],[72.9558,33.8198],[72.9887,33.812],[73.0236,33.7682],[72.9835,33.7126],[72.9856,33.6765],[72.9446,33.6389],[72.9466,33.6029],[72.8851,33.5464],[72.8882,33.4924],[72.8473,33.4547],[72.83,33.3819],[72.7892,33.3442],[72.7923,33.2901],[72.7719,33.2713],[72.7944,33.2541],[72.7975,33.2001],[72.7782,33.1633],[72.8466,33.0937],[72.8731,33.0045],[72.9189,32.9521],[73.0176,32.9107],[73.0817,32.9131],[73.1021,32.9319],[73.1458,32.9155],[73.1875,32.935],[73.3381,32.9223],[73.378,32.9778],[73.4729,33.0082],[73.4702,33.0622],[73.501,33.0903],[73.554,33.1011],[73.5496,33.1912],[73.6301,33.3021],[73.6274,33.3562],[73.5146,33.4607],[73.5101,33.5508],[73.5307,33.5695],[73.4858,33.6041],[73.528,33.6236],[73.5262,33.6596],[73.4503,33.6661],[73.4372,33.7108],[73.562,33.8052],[73.5593,33.8592],[73.5998,33.9147],[73.6628,33.9529],[73.661,33.9889],[73.4551,33.9911],[73.4326,34.0084]]]]}},{"type":"Feature","properties":{"cell":55,"feature":676,"phase":"Developing","min_bt_K":223.0,"area_km2":7332,"cold_core_km2":0,"speed_kmh":41.9,"heading_deg":289,"d_min_bt_30":-3.0,"age_min":120,"family":3,"touches_missing":false,"lon":74.7932,"lat":33.7379,"merges_splits_so_far":3},"geometry":{"type":"MultiPolygon","coordinates":[[[[74.6672,34.0087],[74.2562,33.9978],[74.2705,33.917],[74.228,33.8978],[74.2512,33.8624],[74.2535,33.8083],[74.2326,33.7896],[74.2573,33.7182],[74.1861,33.6169],[74.0704,33.5504],[74.0728,33.4963],[74.127,33.4889],[74.1469,33.5255],[74.1684,33.5262],[74.1915,33.4907],[74.2345,33.4919],[74.3887,33.406],[74.4102,33.4066],[74.4302,33.4432],[74.4954,33.4269],[74.5155,33.4635],[74.5585,33.4646],[74.5925,33.4203],[74.6694,33.3772],[74.7761,33.3978],[74.8067,33.4437],[74.964,33.5646],[75.0519,33.5125],[75.0966,33.4593],[75.1611,33.4607],[75.1821,33.4792],[75.3971,33.4835],[75.4286,33.5112],[75.468,33.6383],[75.5106,33.6571],[75.5096,33.6932],[75.5517,33.73],[75.5291,33.7657],[75.5929,33.803],[75.5698,33.8567],[75.6125,33.8755],[75.6749,33.9668],[75.6634,33.9937],[75.5336,33.9914],[75.5115,34.009],[74.6895,33.9912],[74.6672,34.0087]]]]}},{"type":"Feature","properties":{"cell":56,"feature":652,"phase":"Developing","min_bt_K":240.0,"area_km2":568,"cold_core_km2":0,"speed_kmh":26.4,"heading_deg":26,"d_min_bt_30":2.0,"age_min":90,"family":56,"touches_missing":true,"lon":75.298,"lat":31.6986,"merges_splits_so_far":0},"geometry":{"type":"MultiPolygon","coordinates":[[[[75.3151,31.8942],[75.2836,31.8846],[75.2852,31.8305],[75.2435,31.8116],[75.2461,31.7214],[75.206,31.6484],[75.2211,31.4954],[75.3469,31.516],[75.3551,31.5973],[75.3968,31.6162],[75.3742,31.6699],[75.3948,31.6883],[75.3722,31.742],[75.3908,31.8326],[75.3372,31.8586],[75.3151,31.8942]]]]}},{"type":"Feature","properties":{"cell":61,"feature":677,"phase":"Developing","min_bt_K":229.7,"area_km2":1152,"cold_core_km2":0,"speed_kmh":54.5,"heading_deg":40,"d_min_bt_30":-7.3,"age_min":90,"family":61,"touches_missing":true,"lon":72.6151,"lat":33.8836,"merges_splits_so_far":0},"geometry":{"type":"MultiPolygon","coordinates":[[[[72.4789,34.0086],[72.414,34.0059],[72.3845,33.9595],[72.4357,33.8353],[72.4402,33.7633],[72.379,33.7066],[72.4561,33.6827],[72.481,33.6296],[72.5682,33.6151],[72.5729,33.7146],[72.6047,33.7249],[72.665,33.7995],[72.7697,33.8578],[72.8097,33.9135],[72.8745,33.916],[72.9455,33.9999],[72.5016,33.9915],[72.4789,34.0086]]]]}},{"type":"Feature","properties":{"cell":63,"feature":670,"phase":"Developing","min_bt_K":229.0,"area_km2":7644,"cold_core_km2":0,"speed_kmh":18.4,"heading_deg":28,"d_min_bt_30":-0.3,"age_min":90,"family":3,"touches_missing":true,"lon":75.6433,"lat":33.1969,"merges_splits_so_far":6},"geometry":{"type":"MultiPolygon","coordinates":[[[[76.1393,34.0011],[75.8365,33.9966],[75.6985,33.895],[75.6888,33.8498],[75.5718,33.7845],[75.5728,33.7485],[75.5096,33.6932],[75.5106,33.6571],[75.468,33.6383],[75.4286,33.5112],[75.3866,33.4743],[75.3882,33.4202],[75.3673,33.4018],[75.3914,33.312],[75.3495,33.2751],[75.3334,33.0944],[75.2911,33.0755],[75.2938,32.9853],[75.2198,32.9567],[75.2105,32.9114],[75.1689,32.8745],[75.2121,32.8573],[75.2368,32.7496],[75.4105,32.6448],[75.4561,32.5375],[75.5318,32.4938],[75.6377,32.5137],[75.8772,32.7433],[75.8521,32.9053],[75.9771,33.0515],[75.9758,33.1056],[76.0393,33.1427],[76.0385,33.1787],[76.1017,33.2338],[76.1005,33.2879],[76.1427,33.3246],[76.0459,33.3322],[75.9394,33.2945],[75.8956,33.3299],[75.8312,33.3289],[75.7659,33.3639],[75.7545,33.3908],[75.8172,33.464],[75.8141,33.5902],[75.9408,33.7005],[75.9387,33.7907],[76.0674,33.8287],[76.0662,33.8828],[76.1086,33.9195],[76.1074,33.9736],[76.1503,33.9923],[76.1393,34.0011]]]]}},{"type":"Feature","properties":{"cell":64,"feature":657,"phase":"Unclassified","min_bt_K":237.6,"area_km2":556,"cold_core_km2":0,"speed_kmh":24.7,"heading_deg":43,"d_min_bt_30":0.5,"age_min":60,"family":64,"touches_missing":true,"lon":83.739,"lat":32.8396,"merges_splits_so_far":0},"geometry":{"type":"MultiPolygon","coordinates":[[[[83.9922,32.9594],[83.9044,32.9273],[83.7975,32.9319],[83.7514,32.8798],[83.6671,32.9014],[83.5783,32.851],[83.4705,32.8375],[83.4582,32.8109],[83.5526,32.7799],[83.5964,32.7961],[83.6267,32.7678],[83.6031,32.7327],[83.6772,32.7205],[83.721,32.7367],[83.767,32.7889],[83.8535,32.8032],[83.8884,32.8467],[83.9999,32.914],[83.9922,32.9594]]]]}},{"type":"Feature","properties":{"cell":77,"feature":666,"phase":"Unclassified","min_bt_K":233.2,"area_km2":6876,"cold_core_km2":0,"speed_kmh":29.6,"heading_deg":26,"d_min_bt_30":-0.8,"age_min":30,"family":3,"touches_missing":false,"lon":77.5759,"lat":31.8553,"merges_splits_so_far":1},"geometry":{"type":"MultiPolygon","coordinates":[[[[77.5734,32.7324],[77.5415,32.7233],[77.5311,32.6601],[77.4566,32.6508],[77.4569,32.5967],[77.4145,32.5604],[77.4149,32.5063],[77.4363,32.4884],[77.4159,32.344],[77.3523,32.3256],[77.3531,32.2174],[77.332,32.1993],[77.3536,32.1452],[77.2908,32.0367],[77.3334,32.0008],[77.3763,31.9108],[77.2292,31.8018],[77.2301,31.6936],[77.1047,31.5665],[77.1472,31.5307],[77.1054,31.4944],[77.1796,31.4317],[77.3267,31.4506],[77.3375,31.4236],[77.4219,31.3698],[77.4222,31.3157],[77.4958,31.307],[77.5381,31.253],[77.601,31.2713],[77.6427,31.3436],[77.6848,31.3437],[77.7269,31.3077],[77.8529,31.3259],[77.8632,31.4612],[77.9053,31.4793],[77.884,31.6597],[77.7361,31.7677],[77.7357,31.9301],[77.7145,31.9481],[77.7354,32.0203],[77.7988,32.0745],[77.7986,32.1467],[77.756,32.2368],[77.7772,32.2729],[77.8196,32.291],[77.8619,32.3993],[77.8191,32.5075],[77.6699,32.5974],[77.6482,32.6875],[77.5734,32.7324]]]]}},{"type":"Feature","properties":{"cell":82,"feature":669,"phase":"Developing","min_bt_K":233.0,"area_km2":9100,"cold_core_km2":0,"speed_kmh":3.0,"heading_deg":109,"d_min_bt_30":-1.0,"age_min":30,"family":3,"touches_missing":false,"lon":76.9752,"lat":32.2872,"merges_splits_so_far":1},"geometry":{"type":"MultiPolygon","coordinates":[[[[77.2733,32.9115],[77.2095,32.8751],[77.1027,32.8744],[77.039,32.8379],[76.9109,32.8369],[76.8684,32.8185],[76.8156,32.773],[76.8163,32.7188],[76.7847,32.6915],[76.7207,32.6909],[76.6263,32.5907],[76.6276,32.5005],[76.5859,32.446],[76.6075,32.4282],[76.6102,32.2478],[76.6316,32.23],[76.611,32.1937],[76.6327,32.1578],[76.6123,32.1035],[76.6557,32.0318],[76.5941,31.9049],[76.6581,31.8694],[76.638,31.7971],[76.7021,31.7436],[76.7457,31.6358],[76.704,31.5993],[76.7467,31.5636],[76.7261,31.5273],[76.7798,31.4467],[76.8322,31.4562],[76.8318,31.4922],[76.8945,31.5289],[76.9043,31.5921],[77.1152,31.5756],[77.2301,31.6936],[77.2292,31.8018],[77.3763,31.9108],[77.2907,32.0547],[77.3536,32.1452],[77.3321,32.1812],[77.3531,32.2174],[77.3523,32.3256],[77.4159,32.344],[77.4156,32.3981],[77.4367,32.4162],[77.4145,32.5604],[77.4569,32.5967],[77.4566,32.6508],[77.435,32.6868],[77.3923,32.7047],[77.3812,32.7678],[77.2851,32.7763],[77.3058,32.8666],[77.2733,32.9115]]]]}},{"type":"Feature","properties":{"cell":84,"feature":671,"phase":"Unclassified","min_bt_K":231.8,"area_km2":2848,"cold_core_km2":0,"speed_kmh":103.1,"heading_deg":224,"d_min_bt_30":-2.6,"age_min":30,"family":3,"touches_missing":false,"lon":76.1595,"lat":33.1098,"merges_splits_so_far":1},"geometry":{"type":"MultiPolygon","coordinates":[[[[76.6635,33.6826],[76.5988,33.6819],[76.5132,33.6449],[76.4695,33.6805],[76.4173,33.5807],[76.3538,33.5258],[76.3544,33.4897],[76.2909,33.4348],[76.2708,33.3624],[76.2391,33.3349],[76.1533,33.3337],[76.1005,33.2879],[76.1017,33.2338],[76.0385,33.1787],[76.0393,33.1427],[75.9758,33.1056],[75.9771,33.0515],[75.8521,32.9053],[75.8877,32.7525],[75.9935,32.7902],[76.0564,32.8452],[76.1429,32.7923],[76.1744,32.8198],[76.2367,32.9109],[76.2557,33.0374],[76.3393,33.1467],[76.3386,33.1828],[76.3706,33.1922],[76.4125,33.2469],[76.4983,33.2478],[76.5083,33.2931],[76.5506,33.3296],[76.5498,33.3837],[76.6245,33.4116],[76.6561,33.457],[76.6547,33.5472],[76.676,33.5655],[76.6635,33.6826]]]]}},{"type":"Feature","properties":{"cell":89,"feature":658,"phase":"Unclassified","min_bt_K":238.0,"area_km2":1192,"cold_core_km2":0,"speed_kmh":null,"heading_deg":null,"d_min_bt_30":null,"age_min":0,"family":89,"touches_missing":true,"lon":81.941,"lat":32.9668,"merges_splits_so_far":0},"geometry":{"type":"MultiPolygon","coordinates":[[[[82.1615,33.2095],[82.1186,33.2109],[82.0519,33.1588],[81.9868,33.1427],[81.8181,32.9581],[81.7075,32.871],[81.7282,32.8524],[81.7031,32.7629],[81.6487,32.7373],[81.626,32.7019],[81.5723,32.6943],[81.5798,32.6129],[81.6437,32.6112],[81.6877,32.646],[81.7083,32.6274],[81.7414,32.6536],[81.7436,32.7076],[81.7017,32.7269],[81.7465,32.7797],[81.8239,32.8407],[81.8666,32.8395],[81.9543,32.891],[82.0184,32.8891],[82.119,32.9853],[82.0993,33.022],[82.1318,33.03],[82.1548,33.0654],[82.2413,33.0807],[82.3184,33.1233],[82.3098,33.1687],[82.2027,33.1721],[82.1615,33.2095]]]]}},{"type":"Feature","properties":{"cell":91,"feature":661,"phase":"Unclassified","min_bt_K":240.5,"area_km2":320,"cold_core_km2":0,"speed_kmh":null,"heading_deg":null,"d_min_bt_30":null,"age_min":0,"family":91,"touches_missing":true,"lon":81.8999,"lat":33.8631,"merges_splits_so_far":0},"geometry":{"type":"MultiPolygon","coordinates":[[[[82.0258,34.0077],[81.9825,34.009],[81.9264,33.9655],[81.9248,33.9295],[81.7465,33.8083],[81.777,33.7623],[81.9184,33.7853],[81.9864,33.8555],[82.0104,33.9089],[81.9897,33.9276],[82.0345,33.9623],[82.0258,34.0077]]]]}},{"type":"Feature","properties":{"cell":92,"feature":664,"phase":"Unclassified","min_bt_K":233.0,"area_km2":11104,"cold_core_km2":0,"speed_kmh":null,"heading_deg":null,"d_min_bt_30":null,"age_min":0,"family":3,"touches_missing":true,"lon":81.3201,"lat":27.7463,"merges_splits_so_far":1},"geometry":{"type":"MultiPolygon","coordinates":[[[[81.208,28.5084],[80.9315,28.4878],[80.9504,28.4332],[80.9295,28.4156],[80.928,28.3615],[80.8862,28.3263],[80.8852,28.2903],[80.9453,28.2528],[80.9637,28.1802],[80.8917,28.1548],[80.8599,28.1103],[80.8585,28.0562],[80.9185,28.0188],[80.8967,27.9651],[80.9151,27.8925],[80.8329,27.8582],[80.9725,27.7649],[80.971,27.7107],[80.8687,27.6769],[80.8658,27.5687],[80.7627,27.4986],[80.7406,27.4269],[80.6288,27.4021],[80.5561,27.3223],[80.5548,27.2682],[80.6249,27.2397],[80.645,27.2393],[80.6661,27.275],[80.807,27.254],[80.869,27.3068],[80.9902,27.3041],[81.0316,27.3393],[81.0912,27.3018],[81.1005,27.2745],[81.0586,27.2213],[81.0576,27.1852],[81.0168,27.1681],[81.0344,27.0774],[80.9926,27.0242],[80.9917,26.9881],[81.0418,26.9779],[81.081,26.9409],[81.1425,26.9756],[81.1827,26.9746],[81.2453,27.0453],[81.4174,27.068],[81.4191,27.1221],[81.4398,27.1397],[81.4242,27.2845],[81.4865,27.337],[81.4905,27.4633],[81.5316,27.4803],[81.5333,27.5344],[81.5738,27.5333],[81.597,27.6229],[81.648,27.6305],[81.7002,27.6742],[81.7432,27.7452],[81.7451,27.7993],[81.787,27.8342],[81.7902,27.9244],[81.8118,27.9599],[81.874,27.9941],[81.8032,28.0052],[81.7336,28.0524],[81.7349,28.0884],[81.8399,28.1757],[81.832,28.2391],[81.811,28.2216],[81.7295,28.224],[81.7097,28.2426],[81.6887,28.2251],[81.6276,28.2268],[81.5084,28.3203],[81.4478,28.3399],[81.3645,28.2879],[81.235,28.3904],[81.2378,28.4806],[81.208,28.5084]]]]}}]}