{"type":"FeatureCollection","features":[{"type":"Feature","properties":{"cell":41,"feature":709,"phase":"Developing","min_bt_K":230.0,"area_km2":21392,"cold_core_km2":0,"speed_kmh":58.2,"heading_deg":140,"d_min_bt_30":3.0,"age_min":210,"family":3,"touches_missing":false,"lon":76.8066,"lat":32.681,"merges_splits_so_far":13},"geometry":{"type":"MultiPolygon","coordinates":[[[[77.5024,33.9951],[77.4592,33.9949],[77.3518,33.8862],[77.3193,33.895],[77.3082,33.9401],[77.1999,33.9575],[77.1677,33.9303],[77.1686,33.8401],[77.1472,33.8219],[77.1475,33.7858],[77.2124,33.7682],[77.1699,33.6957],[77.1379,33.6685],[77.116,33.7044],[77.0299,33.6858],[77.0196,33.6406],[76.977,33.6042],[76.9774,33.5681],[76.9347,33.5317],[76.9352,33.4956],[76.8609,33.4138],[76.7967,33.3952],[76.6691,33.3038],[76.5615,33.3207],[76.5301,33.2753],[76.4663,33.2385],[76.4669,33.2024],[76.4138,33.1747],[76.393,33.1384],[76.3396,33.1287],[76.3195,33.0563],[76.2771,33.0377],[76.2777,33.0016],[76.2146,32.9467],[76.2153,32.9106],[76.1835,32.9012],[76.0894,32.8006],[76.07,32.7101],[76.0494,32.6737],[76.0072,32.6551],[75.9878,32.5646],[75.926,32.4734],[75.9268,32.4374],[75.8851,32.4006],[75.8859,32.3646],[75.781,32.3087],[75.7819,32.2727],[75.8139,32.2642],[75.918,32.356],[75.9817,32.357],[76.0142,32.3304],[75.9725,32.2937],[75.9645,32.1763],[76.0377,32.2226],[76.0366,32.2767],[76.0891,32.3045],[76.1434,32.2421],[76.1667,32.1342],[76.1987,32.1256],[76.2206,32.0898],[76.3249,32.1814],[76.4306,32.2007],[76.4512,32.237],[76.4936,32.2375],[76.5247,32.283],[76.5669,32.3015],[76.5873,32.3558],[76.64,32.3834],[76.7027,32.4562],[76.7873,32.4931],[76.8198,32.4483],[76.7775,32.4298],[76.7782,32.3757],[76.7362,32.3393],[76.6748,32.1763],[76.718,32.1226],[76.7406,32.0146],[76.8471,31.9614],[76.8478,31.9073],[76.8692,31.8894],[76.8485,31.8532],[76.9127,31.7816],[76.8709,31.7451],[76.9237,31.7366],[76.9983,31.674],[77.0209,31.5298],[77.095,31.4853],[77.1164,31.4493],[77.2314,31.5312],[77.2102,31.5491],[77.2096,31.6213],[77.2515,31.6576],[77.23,31.7116],[77.293,31.7481],[77.2926,31.8022],[77.3345,31.8385],[77.313,31.8925],[77.3656,31.9378],[77.4502,31.9382],[77.5449,32.0198],[77.5443,32.146],[77.523,32.164],[77.5437,32.2723],[77.4585,32.3261],[77.4576,32.4704],[77.5209,32.5789],[77.5203,32.6871],[77.3918,32.7768],[77.3913,32.849],[77.4126,32.8671],[77.391,32.9031],[77.3905,32.9753],[77.4117,32.9934],[77.3902,33.0113],[77.4114,33.0475],[77.3894,33.1376],[77.4321,33.1559],[77.4319,33.1919],[77.4747,33.2102],[77.4529,33.2642],[77.4736,33.3906],[77.4088,33.4444],[77.3864,33.5706],[77.4292,33.6069],[77.4285,33.7151],[77.45,33.7333],[77.4281,33.7873],[77.4819,33.8146],[77.5355,33.8779],[77.5024,33.9951]]]]}},{"type":"Feature","properties":{"cell":46,"feature":703,"phase":"Developing","min_bt_K":234.0,"area_km2":32520,"cold_core_km2":0,"speed_kmh":159.1,"heading_deg":143,"d_min_bt_30":1.9,"age_min":180,"family":3,"touches_missing":true,"lon":79.5488,"lat":31.5546,"merges_splits_so_far":23},"geometry":{"type":"MultiPolygon","coordinates":[[[[80.6963,33.0126],[80.5226,32.9258],[80.373,32.9285],[80.3507,32.8928],[80.2439,32.8947],[80.1458,32.8151],[80.2077,32.7239],[80.2394,32.7143],[80.3016,32.6411],[80.3442,32.6403],[80.3542,32.6131],[80.3963,32.5943],[80.3958,32.5763],[80.3424,32.5682],[80.2767,32.4972],[80.0423,32.4829],[80.0206,32.4652],[79.9568,32.4662],[79.8707,32.4133],[79.8282,32.4139],[79.8191,32.4952],[79.7982,32.5135],[79.8202,32.5493],[79.8,32.6037],[79.7685,32.6312],[79.6197,32.6511],[79.557,32.724],[79.472,32.743],[79.3645,32.69],[79.2795,32.7089],[79.1504,32.6199],[79.0319,32.5036],[79.0303,32.3593],[79.0514,32.3411],[79.0295,32.2871],[79.0501,32.2329],[78.9645,32.1614],[78.9852,32.1071],[79.0689,32.0162],[79.0473,31.9803],[78.8982,31.8732],[78.8977,31.8191],[78.8551,31.7833],[78.8548,31.7472],[78.8124,31.7294],[78.8327,31.6391],[78.8954,31.5846],[78.8949,31.5304],[78.9575,31.4759],[78.9146,31.386],[78.9132,31.2417],[79.0074,31.2139],[79.0176,31.1868],[78.9751,31.133],[78.9744,31.0608],[78.89,31.0073],[78.8894,30.9352],[78.8258,30.8454],[78.7419,30.8098],[78.7415,30.7557],[78.7205,30.7377],[78.7411,30.7015],[78.7932,30.6922],[78.845,30.6468],[78.8027,30.5749],[78.7502,30.5301],[78.7086,30.5303],[78.677,30.4854],[78.7184,30.4491],[78.7176,30.3408],[78.7485,30.2956],[79.0603,30.2934],[79.0918,30.3202],[79.0926,30.3924],[79.1666,30.491],[79.2082,30.4906],[79.2495,30.4542],[79.3229,30.4986],[79.3242,30.5887],[79.4086,30.66],[79.3882,30.6963],[79.4623,30.7587],[79.5458,30.7577],[79.6079,30.7209],[79.7331,30.7193],[79.7746,30.7008],[79.8598,30.7898],[79.9643,30.7883],[80.0068,30.8237],[80.0486,30.8231],[80.1129,30.8942],[80.1654,30.9024],[80.1662,30.9385],[80.1982,30.965],[80.3139,30.9901],[80.3148,31.0262],[80.3576,31.0615],[80.3371,31.0799],[80.3384,31.134],[80.391,31.1421],[80.4022,31.169],[80.5089,31.2392],[80.5108,31.3113],[80.5963,31.3638],[80.6183,31.3994],[80.5777,31.4543],[80.6424,31.5072],[80.6659,31.5969],[80.7091,31.6321],[80.668,31.669],[80.669,31.7051],[80.6273,31.724],[80.6087,31.8145],[80.4534,31.9348],[80.4007,31.9448],[80.4026,32.0169],[80.3819,32.0353],[80.4694,32.1419],[80.4487,32.1604],[80.4511,32.2505],[80.4945,32.2858],[80.5196,32.4297],[80.5414,32.4473],[80.5003,32.5022],[80.5028,32.5924],[80.591,32.6989],[80.5702,32.7174],[80.6144,32.7706],[80.6795,32.8054],[80.7046,32.9312],[80.7265,32.9488],[80.6963,33.0126]]],[[[79.7109,31.2338],[79.6686,31.2163],[79.7096,31.1616],[79.7083,31.0895],[79.6661,31.072],[79.6652,31.0179],[79.7064,30.9813],[79.6749,30.9727],[79.6649,30.9999],[79.6233,31.0184],[79.6044,31.1449],[79.5214,31.2],[79.553,31.2087],[79.6254,31.1447],[79.6245,31.0906],[79.6558,31.0811],[79.668,31.1802],[79.6263,31.1988],[79.6796,31.2432],[79.7109,31.2338]]],[[[80.3902,31.53],[80.3898,31.512],[80.4314,31.4932],[80.3884,31.4579],[80.387,31.4038],[80.3338,31.3777],[80.3343,31.3957],[80.366,31.4041],[80.3674,31.4582],[80.3889,31.4759],[80.3692,31.5304],[80.3902,31.53]]],[[[80.3966,31.7825],[80.4791,31.7088],[80.4988,31.6543],[80.4646,31.5557],[80.4332,31.5653],[80.4342,31.6014],[80.4777,31.6547],[80.436,31.6735],[80.4374,31.7276],[80.3544,31.7832],[80.3966,31.7825]]],[[[80.2142,32.1104],[80.2557,32.0736],[80.2125,32.0382],[80.2121,32.0202],[80.254,32.0014],[80.2423,31.9565],[80.2108,31.9661],[80.2117,32.0022],[80.1702,32.0389],[80.213,32.0563],[80.1719,32.1111],[80.2142,32.1104]]],[[[80.3491,32.4147],[80.3902,32.3599],[80.4322,32.3411],[80.4318,32.3231],[80.3888,32.3058],[80.3535,32.1711],[80.322,32.1807],[80.3229,32.2167],[80.3662,32.2521],[80.3898,32.3419],[80.3694,32.3783],[80.3274,32.3971],[80.3279,32.4151],[80.3491,32.4147]]],[[[79.7344,32.5144],[79.7124,32.4786],[79.733,32.4422],[79.7108,32.3884],[79.7313,32.352],[79.8152,32.2968],[79.8044,32.2879],[79.6683,32.3889],[79.6686,32.407],[79.7114,32.4245],[79.6699,32.4791],[79.7344,32.5144]]],[[[79.524,32.6613],[79.5237,32.6432],[79.4808,32.6257],[79.4787,32.4994],[79.4249,32.4549],[79.3726,32.5186],[79.3732,32.5547],[79.4052,32.5633],[79.4149,32.5001],[79.4467,32.4907],[79.4595,32.6259],[79.4922,32.6706],[79.524,32.6613]]]]}},{"type":"Feature","properties":{"cell":47,"feature":701,"phase":"Mature","min_bt_K":231.2,"area_km2":58264,"cold_core_km2":0,"speed_kmh":234.9,"heading_deg":12,"d_min_bt_30":10.2,"age_min":180,"family":3,"touches_missing":true,"lon":82.686,"lat":28.9926,"merges_splits_so_far":8},"geometry":{"type":"MultiPolygon","coordinates":[[[[83.9982,31.407],[83.8256,31.3425],[83.7836,31.3444],[83.7648,31.3813],[83.6554,31.3138],[83.5924,31.3165],[83.5273,31.2831],[83.4382,31.1966],[83.2465,31.1501],[83.2236,31.115],[83.1707,31.108],[83.2097,31.0523],[83.1868,31.0172],[83.1111,30.975],[83.0802,30.9852],[83.1121,30.993],[83.113,31.011],[82.8399,31.0032],[82.7963,30.9687],[82.7125,30.9717],[82.5518,30.8961],[82.591,30.8406],[82.5808,30.6244],[82.5149,30.5545],[82.5758,30.5163],[82.5533,30.481],[82.5491,30.391],[82.6082,30.3167],[82.658,30.2699],[82.8667,30.2804],[82.8884,30.2977],[82.9489,30.2593],[82.9905,30.2578],[83.0981,30.3258],[83.1397,30.3242],[83.1841,30.3766],[83.2257,30.375],[83.29,30.4085],[83.3524,30.406],[83.4168,30.4395],[83.4456,30.3932],[83.4198,30.304],[83.3258,30.2988],[83.2407,30.2661],[83.1845,30.1871],[83.236,30.1761],[83.2784,30.1924],[83.3664,30.2791],[83.4693,30.2569],[83.4959,30.1746],[83.4495,30.0863],[83.4179,30.0785],[83.406,30.0519],[83.4574,30.0408],[83.487,30.0125],[83.485,29.9765],[83.4308,29.9336],[83.3686,29.9362],[83.345,29.883],[82.9724,29.8975],[82.8555,29.8387],[82.8529,29.7847],[82.8835,29.7745],[82.8925,29.7471],[82.8611,29.7392],[82.8386,29.704],[82.7973,29.7055],[82.7784,29.7423],[82.7263,29.7351],[82.7246,29.6991],[82.765,29.6796],[82.7105,29.6184],[82.6403,29.666],[82.632,29.7114],[82.5899,29.6948],[82.4874,29.7164],[82.4023,29.6651],[82.2784,29.6692],[82.2669,29.6425],[82.2149,29.6351],[82.2035,29.6084],[82.1187,29.5569],[82.1172,29.5209],[82.0432,29.4781],[81.9408,29.4992],[81.891,29.5458],[81.8824,29.5912],[81.7379,29.5953],[81.7159,29.5598],[81.6334,29.5621],[81.6141,29.5988],[81.4902,29.6021],[81.4683,29.5666],[81.2413,29.5723],[81.2201,29.5548],[81.1582,29.5563],[81.1364,29.5207],[81.0745,29.5222],[81.0417,29.4598],[81.0374,29.3155],[80.9957,29.2984],[80.9941,29.2443],[81.0347,29.2254],[81.031,29.0991],[80.9378,29.0742],[80.8947,29.0029],[80.8111,28.9506],[80.7496,28.9519],[80.6971,28.9079],[80.7066,28.8806],[80.8096,28.8965],[80.8396,28.8688],[80.7472,28.8617],[80.7362,28.8349],[80.7557,28.7984],[80.8162,28.761],[80.7524,28.6721],[80.7514,28.636],[80.8118,28.5987],[80.789,28.5089],[80.7472,28.4737],[80.8364,28.3725],[81.0205,28.3865],[81.0603,28.3495],[81.2031,28.3461],[81.2427,28.309],[81.2637,28.3266],[81.3249,28.325],[81.4082,28.377],[81.572,28.3908],[81.7167,28.4409],[81.7365,28.4223],[81.8385,28.4194],[81.8662,28.3373],[82.0147,28.2156],[82.0259,28.2423],[82.2044,28.3721],[82.2656,28.3701],[82.3691,28.4028],[82.5528,28.3966],[82.5952,28.4313],[82.7176,28.4269],[82.7593,28.4435],[82.8253,28.3238],[82.8229,28.2697],[82.7796,28.2171],[82.7976,28.1623],[82.774,28.091],[82.8024,28.0448],[82.9114,27.9776],[82.8878,27.9063],[82.9356,27.8413],[83.0168,27.8382],[83.1421,27.9056],[83.1959,27.9667],[83.2091,28.0293],[83.4125,28.0211],[83.4513,27.9834],[83.7561,27.9705],[83.7851,27.9421],[83.7793,27.834],[83.8807,27.8295],[83.905,27.9007],[83.9466,27.9168],[83.9486,27.9529],[83.9913,27.987],[84.0097,28.3112],[83.9903,28.3301],[84.003,28.9072],[83.9102,28.9023],[83.8312,28.96],[83.8225,28.9874],[83.8441,29.0045],[83.8471,29.0586],[83.9118,29.1098],[83.9149,29.1638],[83.8759,29.2017],[83.8975,29.2188],[83.88,29.2737],[83.9914,29.4131],[83.9978,29.5211],[83.9261,29.5333],[83.8869,29.5712],[83.7621,29.5586],[83.7601,29.5226],[83.6982,29.5253],[83.6755,29.4902],[83.6343,29.492],[83.5567,29.396],[83.4616,29.3548],[83.441,29.3557],[83.4027,29.4114],[83.2753,29.3444],[83.2136,29.3468],[83.1482,29.2772],[83.0032,29.2647],[82.9818,29.2475],[82.9308,29.2584],[82.9317,29.2764],[82.9952,29.3101],[82.9996,29.4002],[83.0318,29.4261],[83.1348,29.4221],[83.1465,29.4487],[83.1887,29.4651],[83.169,29.4839],[83.1745,29.592],[83.144,29.6022],[83.135,29.6296],[83.2096,29.6718],[83.2321,29.707],[83.2833,29.696],[83.258,29.6067],[83.3297,29.5948],[83.3936,29.6283],[83.5597,29.6395],[83.5824,29.6746],[83.8302,29.6639],[83.8432,29.7085],[83.9367,29.7134],[83.9507,29.7759],[83.9932,29.792],[84.0083,30.044],[83.9417,30.1463],[83.8794,30.1491],[83.8108,30.0438],[83.7486,30.0465],[83.6885,30.0852],[83.6035,30.0528],[83.5107,30.0657],[83.5562,30.136],[83.663,30.1856],[83.6869,30.2387],[83.689,30.2747],[83.6396,30.3219],[83.5772,30.3246],[83.5288,30.3898],[83.5318,30.4438],[83.5745,30.46],[83.6431,30.5654],[83.6859,30.5816],[83.688,30.6176],[83.6364,30.6289],[83.528,30.5612],[83.4764,30.5724],[83.4794,30.6264],[83.5341,30.6693],[83.6614,30.7],[83.7427,30.6604],[83.8645,30.7724],[83.8678,30.8263],[83.8381,30.8547],[83.7952,30.8386],[83.6939,30.8971],[83.5674,30.8844],[83.5266,30.9042],[83.4977,30.9505],[83.5767,31.0464],[83.7045,31.0771],[83.7926,31.1455],[83.8997,31.1768],[83.9449,31.229],[83.9648,31.21],[83.9968,31.2176],[83.9982,31.407]]],[[[83.7205,29.3709],[83.7175,29.3169],[83.6429,29.275],[83.5812,29.2776],[83.5596,29.2605],[83.4676,29.2734],[83.544,29.3514],[83.6263,29.3479],[83.6901,29.3813],[83.7205,29.3709]]]]}},{"type":"Feature","properties":{"cell":50,"feature":713,"phase":"Developing","min_bt_K":220.0,"area_km2":6468,"cold_core_km2":12,"speed_kmh":45.2,"heading_deg":71,"d_min_bt_30":-5.2,"age_min":150,"family":3,"touches_missing":true,"lon":73.4463,"lat":33.5564,"merges_splits_so_far":2},"geometry":{"type":"MultiPolygon","coordinates":[[[[73.4326,34.0084],[72.9465,33.9819],[73.0144,33.9303],[73.0165,33.8943],[73.1736,33.7918],[73.1315,33.7722],[73.1374,33.6641],[73.205,33.6124],[73.1649,33.5568],[73.1678,33.5028],[73.2342,33.4691],[73.2362,33.433],[73.1746,33.3767],[73.1766,33.3407],[73.1356,33.3031],[73.1395,33.231],[73.1088,33.2028],[72.9179,33.1596],[72.9088,33.1322],[72.9546,33.0798],[73.0991,32.9859],[73.2274,32.9906],[73.2479,33.0094],[73.3557,32.9951],[73.3678,32.9685],[73.3371,32.9403],[73.2944,32.9388],[73.2637,32.9107],[73.3204,32.8495],[73.339,32.9043],[73.3817,32.9058],[73.4226,32.9433],[73.4756,32.9541],[73.431,32.9887],[73.4292,33.0247],[73.5464,33.0377],[73.6089,33.0759],[73.6174,33.1213],[73.6996,33.1961],[73.6979,33.2321],[73.7614,33.2522],[73.7356,33.3416],[73.8164,33.4525],[73.8156,33.4705],[73.7718,33.4871],[73.7459,33.5766],[73.702,33.5932],[73.6779,33.6466],[73.7571,33.7935],[73.7735,33.9023],[73.815,33.9397],[73.8124,33.9937],[73.4551,33.9911],[73.4326,34.0084]]]]}},{"type":"Feature","properties":{"cell":55,"feature":712,"phase":"Developing","min_bt_K":220.7,"area_km2":19200,"cold_core_km2":20,"speed_kmh":47.9,"heading_deg":134,"d_min_bt_30":-2.3,"age_min":150,"family":3,"touches_missing":true,"lon":74.98,"lat":33.5889,"merges_splits_so_far":7},"geometry":{"type":"MultiPolygon","coordinates":[[[[74.0175,34.009],[73.8228,34.0031],[73.7562,33.8115],[73.8883,33.7615],[73.8916,33.6894],[73.9467,33.664],[74.0034,33.6025],[74.0067,33.5305],[74.0513,33.4957],[74.0529,33.4596],[74.0863,33.4336],[74.1293,33.4348],[74.1708,33.4721],[74.256,33.4926],[74.3228,33.4403],[74.3657,33.4414],[74.4975,33.3728],[74.5821,33.4111],[74.5952,33.3482],[74.5537,33.3111],[74.5564,33.239],[74.6248,33.1325],[74.743,33.1264],[74.7845,33.1635],[74.8488,33.165],[74.8825,33.1207],[74.8844,33.0666],[74.9596,33.0593],[75.0042,33.0062],[75.047,33.0071],[75.0909,32.972],[75.2187,32.9928],[75.2521,32.9484],[75.2653,32.8675],[75.3502,32.8872],[75.3919,32.9241],[75.4789,32.8717],[75.5305,32.9358],[75.7093,33.0562],[75.7927,33.1478],[76.1307,33.3875],[76.2381,33.389],[76.2592,33.4073],[76.3557,33.4176],[76.3756,33.508],[76.2793,33.4798],[76.2666,33.5788],[76.2878,33.5971],[76.2868,33.6513],[76.3295,33.6698],[76.3285,33.724],[76.3713,33.7425],[76.4344,33.8335],[76.3344,33.9857],[76.2695,33.9848],[76.2475,34.0026],[76.1829,33.9837],[76.1609,34.0014],[75.923,33.998],[75.8607,33.8887],[75.8175,33.888],[75.7757,33.8332],[75.6476,33.7769],[75.6346,33.8578],[75.6768,33.8947],[75.7067,33.9944],[75.5336,33.9914],[75.5115,34.009],[74.0399,33.9916],[74.0175,34.009]]],[[[75.2703,33.7607],[75.2935,33.707],[75.2846,33.6437],[75.1775,33.6234],[75.1472,33.5596],[75.1152,33.5499],[74.9904,33.4209],[74.8718,33.4272],[74.913,33.4823],[74.9117,33.5183],[74.9849,33.5831],[75.0907,33.6396],[75.174,33.7316],[75.2376,33.769],[75.2703,33.7607]]]]}},{"type":"Feature","properties":{"cell":61,"feature":717,"phase":"Developing","min_bt_K":232.5,"area_km2":836,"cold_core_km2":0,"speed_kmh":8.3,"heading_deg":55,"d_min_bt_30":2.8,"age_min":120,"family":61,"touches_missing":true,"lon":72.6519,"lat":33.9052,"merges_splits_so_far":0},"geometry":{"type":"MultiPolygon","coordinates":[[[[72.4789,34.0086],[72.447,33.9982],[72.4959,33.91],[72.506,33.748],[72.5843,33.706],[72.6672,33.7635],[72.6716,33.6915],[72.7238,33.7206],[72.7001,33.7558],[72.7174,33.8287],[72.7481,33.857],[72.7708,33.8398],[72.7994,33.9041],[72.8508,33.9512],[72.8735,33.934],[72.893,33.9709],[72.9455,33.9999],[72.5016,33.9915],[72.4789,34.0086]]]]}},{"type":"Feature","properties":{"cell":77,"feature":706,"phase":"Unclassified","min_bt_K":234.1,"area_km2":4196,"cold_core_km2":0,"speed_kmh":44.1,"heading_deg":129,"d_min_bt_30":0.9,"age_min":60,"family":3,"touches_missing":false,"lon":77.7553,"lat":31.7288,"merges_splits_so_far":1},"geometry":{"type":"MultiPolygon","coordinates":[[[[77.6613,32.0291],[77.5555,32.0288],[77.4502,31.9382],[77.3656,31.9378],[77.313,31.8925],[77.3345,31.8385],[77.2926,31.8022],[77.293,31.7481],[77.23,31.7116],[77.2519,31.6035],[77.2099,31.5852],[77.2102,31.5491],[77.2526,31.5133],[77.2529,31.4772],[77.3056,31.4685],[77.3474,31.5048],[77.4315,31.5232],[77.4418,31.5684],[77.4733,31.5775],[77.4942,31.6137],[77.5363,31.6138],[77.6213,31.4517],[77.6844,31.4519],[77.7266,31.4159],[77.7476,31.434],[77.8317,31.4341],[77.8738,31.3981],[78.021,31.3801],[78.0526,31.4072],[78.0526,31.4613],[78.0947,31.4793],[78.0947,31.5154],[78.0316,31.6056],[78.0527,31.6597],[78.116,31.6777],[78.116,31.7138],[78.1795,31.8039],[78.1267,31.813],[78.0,31.9033],[77.9577,31.9033],[77.8943,31.9393],[77.7462,31.9571],[77.6613,32.0291]]]]}},{"type":"Feature","properties":{"cell":89,"feature":690,"phase":"Unclassified","min_bt_K":241.0,"area_km2":1056,"cold_core_km2":0,"speed_kmh":90.4,"heading_deg":42,"d_min_bt_30":3.0,"age_min":30,"family":89,"touches_missing":true,"lon":82.2665,"lat":33.2685,"merges_splits_so_far":0},"geometry":{"type":"MultiPolygon","coordinates":[[[[82.7809,33.5497],[82.7584,33.5325],[82.6723,33.5355],[82.6489,33.5002],[82.5629,33.5032],[82.4966,33.4694],[82.3891,33.4729],[82.3452,33.4563],[82.2773,33.3863],[82.2343,33.3877],[82.1545,33.2909],[82.1108,33.2743],[82.1083,33.2202],[82.0622,33.1494],[82.0185,33.1327],[82.0383,33.096],[81.9281,33.0271],[81.9266,32.9911],[81.8593,32.9209],[81.9124,32.9103],[81.9773,32.9264],[82.1215,33.0393],[82.1264,33.1475],[82.1718,33.2002],[82.2052,33.2262],[82.2481,33.2248],[82.3605,33.3295],[82.4035,33.3281],[82.4482,33.3627],[82.4911,33.3613],[82.6013,33.4117],[82.6695,33.4815],[82.7125,33.48],[82.7789,33.5137],[82.7809,33.5497]]]]}},{"type":"Feature","properties":{"cell":91,"feature":693,"phase":"Developing","min_bt_K":238.0,"area_km2":568,"cold_core_km2":0,"speed_kmh":9.9,"heading_deg":297,"d_min_bt_30":-2.5,"age_min":30,"family":91,"touches_missing":true,"lon":81.8521,"lat":33.8832,"merges_splits_so_far":0},"geometry":{"type":"MultiPolygon","coordinates":[[[[82.0258,34.0077],[81.8079,33.978],[81.7951,33.9332],[81.7504,33.8984],[81.7488,33.8624],[81.6595,33.7926],[81.6357,33.7392],[81.6892,33.7287],[81.7338,33.7635],[81.7986,33.7617],[81.976,33.8648],[82.0184,33.8455],[82.0258,34.0077]]]]}},{"type":"Feature","properties":{"cell":92,"feature":698,"phase":"Unclassified","min_bt_K":233.0,"area_km2":16788,"cold_core_km2":0,"speed_kmh":26.0,"heading_deg":118,"d_min_bt_30":0.0,"age_min":30,"family":3,"touches_missing":true,"lon":81.4361,"lat":27.6902,"merges_splits_so_far":1},"geometry":{"type":"MultiPolygon","coordinates":[[[[81.7167,28.4409],[81.572,28.3908],[81.4082,28.377],[81.3249,28.325],[81.2637,28.3266],[81.2427,28.309],[81.2031,28.3461],[81.0603,28.3495],[81.0205,28.3865],[80.8364,28.3725],[80.7766,28.428],[80.7453,28.4015],[80.7439,28.3474],[80.7638,28.329],[80.742,28.2753],[80.8524,28.2098],[80.921,28.109],[80.859,28.0742],[80.858,28.0382],[80.918,28.0007],[80.9165,27.9466],[80.7724,27.8775],[80.7701,27.7873],[80.688,27.7529],[80.6241,27.6279],[80.6336,27.6006],[80.684,27.5905],[80.6831,27.5545],[80.5711,27.5296],[80.5599,27.4847],[80.5896,27.457],[80.6301,27.4562],[80.6714,27.4915],[80.7119,27.4907],[80.733,27.5263],[80.773,27.5075],[80.8742,27.5053],[80.9039,27.4776],[80.9019,27.4054],[80.8502,27.3614],[80.728,27.3279],[80.6966,27.2834],[80.694,27.1751],[80.7433,27.1289],[80.8446,27.1449],[80.9228,27.0529],[81.1037,27.0307],[81.1833,26.9926],[81.2039,27.0102],[81.2437,26.9912],[81.2644,27.0087],[81.4054,27.0051],[81.5245,26.9478],[81.5826,26.874],[81.6435,26.8904],[81.6935,26.88],[81.7234,27.168],[81.6665,27.278],[81.6677,27.314],[81.6989,27.3403],[81.7595,27.3385],[81.8214,27.3729],[81.9642,27.4047],[82.0366,27.4477],[82.0393,27.5198],[82.0008,27.5751],[82.0055,27.7014],[82.0265,27.7188],[82.0285,27.7729],[82.0802,27.7984],[82.0914,27.8251],[81.973,27.919],[81.916,28.029],[81.9648,28.2442],[81.8662,28.3373],[81.8385,28.4194],[81.7365,28.4223],[81.7167,28.4409]]],[[[81.1595,27.2189],[81.1787,27.1823],[81.1275,27.1565],[81.1063,27.1209],[80.9956,27.1325],[80.9966,27.1686],[81.069,27.2301],[81.1595,27.2189]]],[[[81.2295,28.2101],[81.2493,28.1915],[81.218,28.1652],[81.1266,28.1765],[81.1789,28.2203],[81.2295,28.2101]]]]}},{"type":"Feature","properties":{"cell":97,"feature":689,"phase":"Unclassified","min_bt_K":230.9,"area_km2":488,"cold_core_km2":0,"speed_kmh":null,"heading_deg":null,"d_min_bt_30":null,"age_min":0,"family":3,"touches_missing":true,"lon":72.1658,"lat":32.5706,"merges_splits_so_far":0},"geometry":{"type":"MultiPolygon","coordinates":[[[[72.2398,32.6809],[72.112,32.6753],[72.0705,32.6554],[72.0013,32.5711],[72.0585,32.5105],[72.1436,32.5143],[72.297,32.4487],[72.325,32.5131],[72.2802,32.5473],[72.278,32.5833],[72.3093,32.5936],[72.3183,32.6211],[72.2858,32.6287],[72.2656,32.6098],[72.2398,32.6809]]]]}},{"type":"Feature","properties":{"cell":103,"feature":702,"phase":"Unclassified","min_bt_K":233.1,"area_km2":24224,"cold_core_km2":0,"speed_kmh":null,"heading_deg":null,"d_min_bt_30":null,"age_min":0,"family":3,"touches_missing":true,"lon":79.8517,"lat":30.2547,"merges_splits_so_far":1},"geometry":{"type":"MultiPolygon","coordinates":[[[[80.6246,31.2459],[80.4982,31.2303],[80.4343,31.1954],[80.391,31.1421],[80.3491,31.1429],[80.3371,31.0799],[80.3576,31.0615],[80.3148,31.0262],[80.3033,30.9813],[80.1982,30.965],[80.1662,30.9385],[80.1654,30.9024],[80.1129,30.8942],[80.0486,30.8231],[80.0068,30.8237],[79.9643,30.7883],[79.8598,30.7898],[79.7746,30.7008],[79.7331,30.7193],[79.6079,30.7209],[79.5458,30.7577],[79.4623,30.7587],[79.3882,30.6963],[79.4086,30.66],[79.3242,30.5887],[79.3229,30.4986],[79.2495,30.4542],[79.2082,30.4906],[79.1666,30.491],[79.0926,30.3924],[79.0918,30.3202],[79.0603,30.2934],[78.7485,30.2956],[78.7176,30.3408],[78.7184,30.4491],[78.6666,30.4945],[78.6041,30.4948],[78.5623,30.4589],[78.4893,30.4501],[78.4892,30.4141],[78.5928,30.3415],[78.5925,30.2873],[78.6335,30.1969],[78.7057,30.1334],[78.8299,30.0966],[78.8813,30.0331],[78.9945,29.9512],[79.0559,29.8785],[79.0973,29.8782],[79.1278,29.8328],[79.0963,29.788],[78.9722,29.7889],[78.8374,29.7448],[78.8368,29.6726],[78.8779,29.6543],[78.9387,29.5276],[79.0101,29.4458],[79.0928,29.4632],[79.1749,29.4264],[79.1434,29.3816],[79.1944,29.336],[79.256,29.3174],[79.3589,29.3164],[79.483,29.3512],[79.5041,29.387],[79.5453,29.3865],[79.556,29.4135],[79.6393,29.4666],[79.6399,29.5027],[79.7449,29.6096],[79.7671,29.6995],[79.7986,29.7262],[79.9023,29.7427],[79.9443,29.7782],[80.0064,29.7773],[80.0703,29.8665],[80.1949,29.8826],[80.2797,29.9713],[80.3419,29.9703],[80.4239,29.9327],[80.4865,29.9496],[80.55,30.0025],[80.6334,30.0189],[80.6532,29.9824],[80.7153,29.9812],[80.7755,29.9077],[80.8674,29.8607],[80.8956,29.7608],[80.9168,29.7784],[81.0202,29.7761],[81.0632,29.8292],[81.1046,29.8282],[81.2003,29.9072],[81.1801,29.9257],[81.2227,29.9607],[81.2476,30.0864],[81.2914,30.1575],[81.2576,30.3929],[81.1221,30.3872],[81.0822,30.4422],[81.04,30.4252],[80.9359,30.4275],[80.8857,30.4918],[80.8339,30.5019],[80.7531,30.5938],[80.66,30.6228],[80.6518,30.7041],[80.5687,30.7238],[80.5488,30.7603],[80.4453,30.7983],[80.3941,30.8444],[80.4155,30.862],[80.3959,30.9165],[80.5681,31.0937],[80.5695,31.1478],[80.6246,31.2459]]],[[[79.2902,29.5787],[79.3103,29.5424],[79.2788,29.4976],[79.1757,29.4986],[79.1453,29.544],[79.1767,29.5888],[79.2902,29.5787]]],[[[81.2315,30.2312],[81.2309,30.2132],[81.1888,30.1961],[81.164,30.0704],[81.1326,30.0622],[81.1237,30.1075],[81.1663,30.1425],[81.168,30.1966],[81.2315,30.2312]]],[[[80.5311,30.481],[80.5515,30.4625],[80.5473,30.3002],[80.5048,30.265],[80.5034,30.2109],[80.472,30.2024],[80.4504,30.1668],[80.4628,30.2477],[80.5052,30.283],[80.5103,30.4814],[80.5311,30.481]]]]}},{"type":"Feature","properties":{"cell":108,"feature":710,"phase":"Unclassified","min_bt_K":232.0,"area_km2":14840,"cold_core_km2":0,"speed_kmh":null,"heading_deg":null,"d_min_bt_30":null,"age_min":0,"family":3,"touches_missing":true,"lon":78.8881,"lat":33.0972,"merges_splits_so_far":1},"geometry":{"type":"MultiPolygon","coordinates":[[[[79.5508,33.6081],[79.357,33.6102],[79.2592,33.548],[79.2587,33.512],[79.226,33.4852],[79.1613,33.4677],[79.1183,33.4681],[79.0548,33.5588],[78.9472,33.5596],[78.9045,33.596],[78.8185,33.6146],[78.839,33.5062],[78.6023,33.4895],[78.5698,33.4625],[78.5696,33.4265],[78.5156,33.3816],[78.4511,33.3638],[78.4401,33.3187],[78.3863,33.2918],[78.2363,33.3824],[78.129,33.4186],[78.086,33.4908],[78.0,33.4908],[77.9355,33.4186],[77.8496,33.4186],[77.8174,33.3915],[77.8174,33.3554],[77.8497,33.3284],[77.8819,33.3374],[77.8926,33.3645],[77.9463,33.3555],[77.9463,33.3014],[77.9249,33.2833],[77.925,33.157],[77.9464,33.121],[77.7972,32.7961],[77.8506,32.7691],[77.8612,32.8142],[77.9146,32.8594],[78.0641,32.8594],[78.1068,32.8233],[78.2135,32.8231],[78.2455,32.796],[78.2453,32.7239],[78.2984,32.6606],[78.3623,32.6605],[78.3836,32.6424],[78.4262,32.6422],[78.469,32.6782],[78.5329,32.6779],[78.5541,32.6598],[78.8525,32.6582],[78.98,32.6213],[79.0857,32.5483],[79.1397,32.611],[79.2795,32.7089],[79.3645,32.69],[79.472,32.743],[79.557,32.724],[79.6197,32.6511],[79.7685,32.6312],[79.7804,32.6942],[79.9099,32.7645],[79.9106,32.8006],[79.9545,32.8541],[79.8799,32.8642],[79.8386,32.9369],[79.6785,32.9481],[79.6584,33.0205],[79.7233,33.0557],[79.6597,33.0926],[79.64,33.1831],[79.5552,33.2382],[79.5558,33.2743],[79.5993,33.3099],[79.5997,33.3279],[79.557,33.3464],[79.6006,33.382],[79.6009,33.4001],[79.5583,33.4186],[79.6019,33.4542],[79.6035,33.5444],[79.5508,33.6081]]],[[[79.5514,33.0218],[79.5511,33.0037],[79.5936,32.9852],[79.5499,32.9316],[79.6344,32.8764],[79.5799,32.814],[79.5697,32.8411],[79.5917,32.877],[79.5285,32.9318],[79.5505,32.9677],[79.53,33.022],[79.5514,33.0218]]]]}},{"type":"Feature","properties":{"cell":109,"feature":711,"phase":"Unclassified","min_bt_K":232.0,"area_km2":3632,"cold_core_km2":0,"speed_kmh":null,"heading_deg":null,"d_min_bt_30":null,"age_min":0,"family":3,"touches_missing":true,"lon":75.9286,"lat":33.0334,"merges_splits_so_far":2},"geometry":{"type":"MultiPolygon","coordinates":[[[[76.3237,33.4082],[76.1307,33.3875],[75.541,32.945],[75.4481,32.826],[75.4501,32.7538],[75.4079,32.735],[75.4313,32.6633],[75.5066,32.6376],[75.5919,32.6392],[75.6042,32.5763],[75.6789,32.5686],[75.6875,32.6499],[75.7619,32.6602],[75.8441,32.7879],[75.9295,32.7892],[75.973,32.7538],[76.037,32.7547],[76.0471,32.782],[76.0254,32.7997],[76.0879,32.8728],[76.0871,32.9088],[76.1915,33.0366],[76.276,33.0918],[76.2954,33.2003],[76.3376,33.2369],[76.3155,33.2727],[76.3577,33.3093],[76.3571,33.3454],[76.3134,33.381],[76.3237,33.4082]]]]}},{"type":"Feature","properties":{"cell":112,"feature":716,"phase":"Unclassified","min_bt_K":234.0,"area_km2":9280,"cold_core_km2":0,"speed_kmh":null,"heading_deg":null,"d_min_bt_30":null,"age_min":0,"family":3,"touches_missing":true,"lon":79.428,"lat":33.6809,"merges_splits_so_far":1},"geometry":{"type":"MultiPolygon","coordinates":[[[[80.5534,34.0078],[80.5102,34.0086],[80.4654,33.9553],[80.4332,33.9649],[80.4447,33.9917],[79.1684,34.009],[79.1465,33.9911],[78.7139,33.9941],[78.7023,33.8949],[78.7237,33.8768],[78.7233,33.8226],[78.7662,33.7863],[78.8078,33.6237],[78.9045,33.596],[78.9472,33.5596],[79.0548,33.5588],[79.1183,33.4681],[79.226,33.4852],[79.2587,33.512],[79.2592,33.548],[79.357,33.6102],[79.5508,33.6081],[79.6138,33.5172],[79.6254,33.5621],[79.6578,33.5708],[79.6678,33.5255],[79.6244,33.508],[79.6234,33.4539],[79.6016,33.4361],[79.6224,33.3998],[79.6003,33.364],[79.6211,33.3276],[79.5981,33.2377],[79.7032,33.1282],[79.7022,33.0741],[79.7233,33.0557],[79.7015,33.038],[79.7002,32.9658],[79.7317,32.9384],[79.8386,32.9369],[79.8799,32.8642],[79.944,32.8633],[79.9988,32.9256],[80.0444,33.0512],[80.0234,33.0696],[80.0254,33.1598],[80.0691,33.1952],[80.1372,33.3565],[80.2469,33.4449],[80.2478,33.481],[80.2052,33.4997],[80.2501,33.5711],[80.2079,33.6079],[80.2088,33.644],[80.0905,33.6549],[80.0466,33.6195],[79.9514,33.7021],[79.9958,33.7556],[79.9746,33.774],[79.997,33.8097],[80.063,33.8628],[80.0215,33.9356],[80.0982,33.9796],[80.1847,33.9782],[80.1949,33.951],[80.1724,33.9152],[80.1935,33.8969],[80.1922,33.8427],[80.2459,33.8328],[80.2666,33.7964],[80.2886,33.8141],[80.3534,33.8129],[80.3745,33.7945],[80.4734,33.8559],[80.4744,33.892],[80.5186,33.9272],[80.4981,33.9637],[80.564,33.9985],[80.5534,34.0078]]],[[[79.8463,33.8299],[79.8459,33.8119],[79.8887,33.7932],[79.8883,33.7752],[79.8448,33.7578],[79.8421,33.6315],[79.8848,33.6129],[79.8837,33.5588],[79.926,33.5221],[79.8826,33.5046],[79.8927,33.4774],[79.9248,33.468],[79.9135,33.4411],[79.892,33.4414],[79.8607,33.4869],[79.8833,33.5407],[79.8206,33.6318],[79.8232,33.7581],[79.8451,33.7758],[79.8247,33.8302],[79.8463,33.8299]]],[[[80.164,33.5726],[80.1525,33.5457],[80.1205,33.5552],[80.1319,33.5821],[80.164,33.5726]]],[[[79.8046,33.9027],[79.7925,33.8397],[79.783,33.9029],[79.8046,33.9027]]]]}}]}