{"type":"FeatureCollection","features":[{"type":"Feature","properties":{"cell":47,"feature":766,"phase":"Developing","min_bt_K":217.6,"area_km2":91524,"cold_core_km2":172,"speed_kmh":209.0,"heading_deg":187,"d_min_bt_30":-13.5,"age_min":210,"family":3,"touches_missing":true,"lon":82.5653,"lat":28.0556,"merges_splits_so_far":12},"geometry":{"type":"MultiPolygon","coordinates":[[[[82.5177,29.9319],[82.3274,29.848],[82.1611,29.8353],[82.0098,29.6776],[81.8859,29.6813],[81.8218,29.629],[81.7406,29.6674],[81.5547,29.6726],[81.5559,29.7086],[81.6493,29.7151],[81.6405,29.7604],[81.4958,29.7643],[81.3912,29.731],[81.3711,29.7495],[81.2471,29.7526],[81.1208,29.6835],[81.0588,29.685],[80.999,29.7585],[80.8336,29.7622],[80.8018,29.7358],[80.8618,29.6623],[80.8607,29.6262],[80.7349,29.5567],[80.7334,29.5026],[80.8054,29.4921],[80.8144,29.4468],[80.7094,29.3768],[80.8004,29.3117],[80.8827,29.31],[80.9329,29.2638],[80.9303,29.1736],[80.8782,29.1477],[80.796,29.1494],[80.7759,29.1679],[80.7137,29.1512],[80.6708,29.0798],[80.6091,29.0811],[80.5051,29.029],[80.4933,28.966],[80.5239,28.9564],[80.5636,28.9015],[80.6857,28.863],[80.7476,28.8798],[80.8101,28.9145],[80.8316,28.9502],[80.8726,28.9493],[80.8837,28.9761],[80.9147,28.9845],[80.9242,28.9572],[80.9647,28.9382],[80.9621,28.848],[80.8382,28.8147],[80.8567,28.7421],[80.8871,28.7324],[80.9066,28.6959],[80.9884,28.6941],[81.0283,28.657],[81.0692,28.6561],[81.2346,28.7063],[81.296,28.7048],[81.3252,28.6589],[81.0676,28.602],[80.9738,28.541],[81.0441,28.4943],[81.2483,28.4894],[81.2571,28.444],[80.917,28.3347],[80.8971,28.3532],[80.824,28.2916],[80.8539,28.2639],[80.9657,28.2524],[80.851,28.1556],[80.6058,28.1246],[80.5746,28.0982],[80.6144,28.0613],[80.6135,28.0252],[80.5412,27.9815],[80.5006,27.9823],[80.4686,27.9197],[80.6614,27.9069],[80.6601,27.8528],[80.721,27.8515],[80.8819,27.794],[81.0245,27.8088],[81.0744,27.7806],[81.0937,27.744],[81.0427,27.7362],[80.9799,27.6654],[80.9186,27.6487],[80.8988,27.6672],[80.7335,27.5444],[80.693,27.5452],[80.662,27.5188],[80.671,27.4735],[80.7523,27.4898],[80.8521,27.4336],[80.9325,27.4137],[80.9621,27.386],[80.969,27.2685],[81.0296,27.2671],[81.069,27.2301],[81.2506,27.2257],[81.3095,27.1701],[81.3499,27.1691],[81.4093,27.1314],[81.43,27.1489],[81.6252,26.9451],[81.8064,26.94],[81.8655,26.9021],[81.9674,26.9352],[82.168,26.9109],[82.365,26.7962],[82.3941,26.7681],[82.3726,26.7327],[82.4225,26.722],[82.4433,26.7394],[82.5438,26.736],[82.5653,26.7713],[82.6055,26.7699],[82.6376,26.8139],[82.689,26.8392],[82.8901,26.8319],[83.035,26.9167],[83.1566,26.93],[83.2825,27.0334],[83.322,27.0137],[83.4253,27.0637],[83.4385,27.1263],[83.4701,27.1521],[83.6315,27.1453],[83.6948,27.1967],[83.9763,27.1662],[83.9945,27.1293],[84.01,27.2279],[83.9908,27.2468],[84.0055,27.8781],[83.9553,27.8894],[83.9436,27.8628],[83.9127,27.8552],[83.8654,27.9205],[83.8674,27.9565],[83.789,28.0141],[83.8007,28.0407],[83.8413,28.0389],[83.884,28.0731],[83.9964,28.0771],[84.0093,29.0152],[83.9898,29.0341],[84.0099,29.3761],[83.9903,29.3951],[83.9967,29.5031],[83.9576,29.541],[83.9608,29.595],[83.9107,29.6243],[83.8478,29.609],[83.7936,29.5663],[83.7699,29.5132],[83.7895,29.4943],[83.7148,29.4524],[83.6921,29.4173],[83.6421,29.4465],[83.6255,29.5194],[83.5951,29.5297],[83.5764,29.5666],[83.4478,29.4817],[83.3653,29.4851],[83.3072,29.5597],[83.1834,29.5646],[83.1745,29.592],[83.144,29.6022],[83.1252,29.639],[83.0839,29.6406],[83.065,29.6774],[83.0031,29.6798],[82.9914,29.6532],[82.8954,29.5936],[82.8765,29.6304],[82.8459,29.6405],[82.8188,29.7227],[82.7659,29.6976],[82.7891,29.7509],[82.7495,29.7884],[82.7421,29.8518],[82.6594,29.8548],[82.6196,29.8923],[82.5575,29.8944],[82.5177,29.9319]]],[[[81.2213,27.9395],[81.2515,27.9298],[81.2806,27.8839],[81.2488,27.8396],[81.1676,27.8415],[81.1801,27.9225],[81.2213,27.9395]]]]}},{"type":"Feature","properties":{"cell":55,"feature":767,"phase":"Developing","min_bt_K":215.6,"area_km2":26136,"cold_core_km2":1152,"speed_kmh":89.8,"heading_deg":271,"d_min_bt_30":-5.1,"age_min":180,"family":3,"touches_missing":true,"lon":74.4961,"lat":33.5957,"merges_splits_so_far":9},"geometry":{"type":"MultiPolygon","coordinates":[[[[73.4326,34.0084],[73.0979,33.9875],[73.2657,33.6868],[73.1883,33.5216],[73.135,33.5106],[73.095,33.455],[73.0818,33.4996],[73.1228,33.5372],[73.1188,33.6093],[73.0841,33.6531],[73.0522,33.6429],[73.0553,33.5889],[72.9937,33.5325],[73.0193,33.4612],[72.9783,33.4236],[72.9864,33.2795],[73.0742,33.2467],[73.0771,33.1927],[73.122,33.1582],[73.0831,33.0846],[73.139,33.0415],[73.2488,32.9913],[73.3985,32.9966],[73.4208,32.9793],[73.4618,33.0168],[73.4832,33.0175],[73.5063,32.9822],[73.6124,33.0038],[73.7159,33.0793],[73.7587,33.0807],[73.8505,33.1828],[73.8909,33.2382],[73.8884,33.2923],[73.8447,33.309],[73.8859,33.3463],[73.9041,33.4191],[73.9566,33.4477],[73.99,33.4217],[73.9917,33.3856],[74.0458,33.3782],[74.0903,33.3434],[74.111,33.3621],[74.2398,33.3658],[74.2517,33.339],[74.231,33.3204],[74.2643,33.2943],[74.3287,33.2961],[74.3701,33.3333],[74.4345,33.335],[74.4761,33.3722],[74.4982,33.3548],[74.5841,33.357],[74.5959,33.3302],[74.5758,33.2936],[74.6201,33.2587],[74.6332,33.1958],[74.7209,33.1439],[74.7631,33.163],[74.9345,33.167],[74.9792,33.1139],[75.121,33.0358],[75.177,32.9558],[75.2412,32.9572],[75.2823,33.0121],[75.3454,33.0495],[75.3888,33.0323],[75.4723,33.1061],[75.5361,33.1253],[75.5694,33.0808],[75.5485,33.0624],[75.5704,33.0448],[75.5723,32.9726],[75.5305,32.9358],[75.5315,32.8997],[75.4476,32.844],[75.4804,32.8176],[75.5658,32.8191],[75.5876,32.8015],[75.6303,32.8023],[75.6611,32.8479],[75.7034,32.8667],[75.7025,32.9028],[75.7443,32.9396],[75.743,32.9937],[75.7853,33.0124],[75.8032,33.157],[75.8452,33.1938],[75.8443,33.2299],[75.8859,33.2847],[76.0553,33.3955],[76.0541,33.4496],[76.0858,33.4771],[76.1393,33.4869],[76.1386,33.523],[76.2017,33.596],[76.2218,33.6685],[76.3288,33.7059],[76.3268,33.8141],[76.4112,33.9234],[76.3773,34.0042],[76.0311,33.9996],[75.9044,33.8714],[75.8616,33.8526],[75.7536,33.8509],[75.7201,33.8954],[75.7412,33.9138],[75.7081,33.9403],[75.6,33.9384],[75.5145,33.9008],[75.505,33.8555],[75.4623,33.8366],[75.4423,33.7821],[75.3886,33.7721],[75.3045,33.6982],[75.3549,33.8165],[75.4186,33.8539],[75.417,33.908],[75.4592,33.9449],[75.4582,33.9809],[75.4909,33.9725],[75.5115,34.009],[74.3211,33.9996],[74.3017,33.945],[74.2562,33.9978],[74.0399,33.9916],[74.0175,34.009],[73.8237,33.9851],[73.8012,34.0024],[73.4551,33.9911],[73.4326,34.0084]]],[[[74.325,33.6478],[74.3599,33.5856],[74.446,33.588],[74.4876,33.6252],[74.5009,33.5623],[74.3829,33.5502],[74.3383,33.5851],[74.2953,33.5839],[74.2819,33.6467],[74.325,33.6478]]],[[[75.273,33.6705],[75.2637,33.6252],[75.1786,33.5874],[75.1455,33.6137],[75.1973,33.678],[75.273,33.6705]]],[[[74.4195,33.9752],[74.5751,33.871],[74.5884,33.8082],[74.6099,33.8088],[74.6301,33.8454],[74.6865,33.7836],[74.6545,33.7738],[74.6315,33.8093],[74.5925,33.7],[74.5779,33.7989],[74.534,33.8158],[74.4545,33.913],[74.4113,33.9119],[74.3554,33.9555],[74.3651,33.9828],[74.4195,33.9752]]],[[[73.7338,33.8288],[73.7459,33.8021],[73.7891,33.8035],[73.8011,33.7768],[73.8451,33.7601],[73.8356,33.7328],[73.7908,33.7675],[73.7364,33.7748],[73.7131,33.8101],[73.7122,33.8281],[73.7338,33.8288]]],[[[73.6924,33.7914],[73.6829,33.764],[73.6285,33.7713],[73.638,33.7987],[73.6924,33.7914]]]]}},{"type":"Feature","properties":{"cell":61,"feature":751,"phase":"Developing","min_bt_K":238.4,"area_km2":292,"cold_core_km2":0,"speed_kmh":13.0,"heading_deg":38,"d_min_bt_30":5.9,"age_min":150,"family":61,"touches_missing":false,"lon":72.6953,"lat":33.9515,"merges_splits_so_far":0},"geometry":{"type":"MultiPolygon","coordinates":[[[[72.8693,34.0061],[72.5881,33.995],[72.579,33.9675],[72.6244,33.9333],[72.6039,33.9144],[72.6299,33.8432],[72.6844,33.8364],[72.7265,33.8561],[72.7357,33.8835],[72.8806,33.9975],[72.8693,34.0061]]]]}},{"type":"Feature","properties":{"cell":89,"feature":745,"phase":"Unclassified","min_bt_K":240.5,"area_km2":480,"cold_core_km2":0,"speed_kmh":63.4,"heading_deg":42,"d_min_bt_30":-0.5,"age_min":60,"family":89,"touches_missing":true,"lon":82.494,"lat":33.4814,"merges_splits_so_far":0},"geometry":{"type":"MultiPolygon","coordinates":[[[[82.6809,33.6977],[82.6349,33.6451],[82.5469,33.612],[82.4684,33.5515],[82.4666,33.5155],[82.4227,33.4989],[82.377,33.4463],[82.3752,33.4102],[82.2644,33.3416],[82.2935,33.2775],[82.315,33.2768],[82.4052,33.3641],[82.492,33.3793],[82.548,33.4225],[82.5284,33.4593],[82.5751,33.5299],[82.6639,33.5809],[82.6809,33.6977]]]]}},{"type":"Feature","properties":{"cell":97,"feature":757,"phase":"Developing","min_bt_K":226.6,"area_km2":1496,"cold_core_km2":0,"speed_kmh":26.5,"heading_deg":138,"d_min_bt_30":-4.2,"age_min":30,"family":3,"touches_missing":true,"lon":72.2607,"lat":32.4824,"merges_splits_so_far":0},"geometry":{"type":"MultiPolygon","coordinates":[[[[72.3273,32.6485],[72.3071,32.6296],[72.2847,32.6467],[72.0717,32.6374],[72.0527,32.6005],[72.0001,32.5891],[72.0048,32.5171],[72.1964,32.3541],[72.2389,32.356],[72.2512,32.3294],[72.3282,32.2876],[72.4131,32.2912],[72.4714,32.3839],[72.5362,32.3685],[72.5563,32.3874],[72.602,32.3351],[72.6089,32.3985],[72.6483,32.4543],[72.5935,32.4791],[72.5096,32.4577],[72.4739,32.5193],[72.5121,32.5931],[72.4562,32.6359],[72.3497,32.6314],[72.3273,32.6485]]]]}},{"type":"Feature","properties":{"cell":103,"feature":753,"phase":"Developing","min_bt_K":233.0,"area_km2":51176,"cold_core_km2":0,"speed_kmh":77.5,"heading_deg":354,"d_min_bt_30":-0.1,"age_min":30,"family":3,"touches_missing":true,"lon":79.8116,"lat":30.6027,"merges_splits_so_far":3},"geometry":{"type":"MultiPolygon","coordinates":[[[[80.1524,31.7235],[80.0879,31.6704],[79.8348,31.6741],[79.7495,31.6212],[79.6422,31.5143],[79.4949,31.516],[79.4306,31.4446],[79.3462,31.4274],[79.293,31.3828],[79.28,31.1935],[79.217,31.1941],[79.1958,31.1763],[79.1541,31.1947],[79.0282,31.1957],[79.007,31.1779],[78.9652,31.1962],[78.9021,31.1786],[78.8608,31.251],[78.6299,31.2523],[78.6088,31.2344],[78.5669,31.2526],[78.5248,31.2348],[78.3359,31.2354],[78.2939,31.2535],[78.2833,31.2084],[78.2203,31.1725],[78.283,31.1002],[78.22,31.0462],[78.2513,31.001],[78.3559,30.9828],[78.3979,31.0187],[78.4398,31.0186],[78.5127,30.9371],[78.5123,30.865],[78.5331,30.8469],[78.5119,30.7928],[78.6056,30.7293],[78.6366,30.684],[78.6155,30.6481],[78.6363,30.6299],[78.6152,30.5939],[78.6357,30.5397],[78.7086,30.5303],[78.8536,30.4393],[78.8637,30.3941],[78.905,30.3577],[78.9046,30.3217],[78.8732,30.2948],[78.7485,30.2956],[78.7379,30.2686],[78.8204,30.1959],[78.8201,30.1598],[78.9438,30.0688],[78.8813,30.0331],[78.8392,29.9613],[78.9626,29.8702],[78.9623,29.8341],[79.1158,29.6795],[79.1982,29.6608],[79.2082,29.6336],[79.3106,29.5605],[79.1455,29.562],[79.1659,29.5438],[79.1653,29.4897],[79.2467,29.3987],[79.195,29.3902],[79.122,29.3096],[79.183,29.2369],[79.1821,29.1647],[79.254,29.155],[79.2946,29.1186],[79.3563,29.1179],[79.4184,29.1534],[79.4595,29.1529],[79.5012,29.1885],[79.5834,29.1876],[79.6665,29.2407],[79.7798,29.2482],[79.8232,29.374],[79.7621,29.4109],[79.763,29.465],[79.8569,29.5269],[79.8982,29.5263],[79.9408,29.5978],[79.9926,29.6061],[79.9937,29.6602],[79.9538,29.733],[79.9647,29.7599],[80.0571,29.7314],[80.0651,29.614],[80.1477,29.6127],[80.2833,29.6736],[80.2736,29.7008],[80.1391,29.694],[80.1722,29.7927],[80.2549,29.7913],[80.2647,29.7641],[80.2955,29.7545],[80.4208,29.8064],[80.4622,29.8057],[80.6725,29.9279],[80.7139,29.9271],[80.7639,29.8629],[80.8048,29.844],[80.8033,29.7899],[80.8336,29.7622],[80.999,29.7585],[81.0588,29.685],[81.1208,29.6835],[81.2471,29.7526],[81.3711,29.7495],[81.3912,29.731],[81.4958,29.7643],[81.6612,29.7599],[81.6932,29.786],[81.6438,29.8506],[81.5817,29.8523],[81.5623,29.8889],[81.4795,29.8911],[81.46,29.9277],[81.2949,29.9499],[81.2861,29.9953],[81.1942,30.0426],[81.1646,30.0885],[81.1663,30.1425],[81.2624,30.2214],[81.3247,30.2199],[81.3568,30.2461],[81.3586,30.3002],[81.4033,30.3893],[81.3672,30.5526],[81.4102,30.5876],[81.3906,30.6242],[81.4778,30.7302],[81.4259,30.7405],[81.2936,30.8431],[81.296,30.9152],[81.3385,30.9322],[81.341,31.0043],[81.2058,31.0347],[81.1752,31.0625],[81.1974,31.0981],[81.159,31.2072],[81.1182,31.2443],[81.1019,31.389],[81.0178,31.3909],[81.0195,31.445],[80.937,31.501],[80.9382,31.5371],[80.8766,31.5925],[80.8777,31.6286],[80.8058,31.6933],[80.7934,31.6304],[80.8248,31.6207],[80.855,31.5749],[80.8194,31.4404],[80.7784,31.4773],[80.7358,31.4602],[80.6742,31.5156],[80.4001,31.5028],[80.2759,31.5951],[80.2338,31.5959],[80.1821,31.6418],[80.1834,31.6959],[80.1524,31.7235]]],[[[81.0418,30.1455],[81.03,30.1006],[81.021,30.1459],[81.0418,30.1455]]],[[[81.1553,30.4495],[81.1333,30.414],[81.1316,30.3599],[81.1518,30.3414],[81.1282,30.2517],[81.0861,30.2347],[81.0844,30.1806],[81.053,30.1723],[81.044,30.2176],[81.1305,30.3238],[81.1311,30.3419],[81.09,30.3609],[81.0917,30.415],[81.1553,30.4495]]],[[[80.5405,30.8416],[80.5353,30.6433],[80.514,30.6256],[80.5121,30.5535],[80.4802,30.5271],[80.4723,30.6264],[80.5144,30.6437],[80.495,30.6982],[80.4987,30.8424],[80.5405,30.8416]]],[[[80.7923,30.8727],[80.6838,30.7306],[80.6833,30.7125],[80.7246,30.6937],[80.6813,30.6404],[80.7124,30.6308],[80.7221,30.6035],[80.8039,30.5477],[80.7932,30.5389],[80.6605,30.6408],[80.6823,30.6765],[80.6624,30.713],[80.6858,30.8027],[80.7281,30.8199],[80.7612,30.8823],[80.7923,30.8727]]],[[[79.2026,30.8786],[79.1601,30.8248],[79.2017,30.8064],[79.2217,30.7341],[79.2628,30.6796],[79.3043,30.6611],[79.2513,30.5985],[79.2412,30.6256],[79.2625,30.6615],[79.2421,30.6978],[79.2006,30.7162],[79.2013,30.7703],[79.17,30.7796],[79.1185,30.8432],[79.15,30.852],[79.1713,30.8879],[79.2026,30.8786]]],[[[81.0461,30.9573],[81.0444,30.9032],[81.0857,30.8842],[81.0851,30.8662],[81.0427,30.8491],[81.0421,30.8311],[81.0834,30.8121],[81.0721,30.7853],[81.0212,30.8316],[81.0433,30.8671],[81.0252,30.9578],[81.0461,30.9573]]],[[[79.9834,31.212],[80.0231,31.1031],[79.9903,31.0405],[79.9591,31.05],[79.9595,31.068],[80.0018,31.0854],[80.0021,31.1034],[79.9606,31.1221],[79.9624,31.2123],[79.9834,31.212]]],[[[81.0365,31.3183],[81.0138,31.2647],[81.045,31.255],[81.0547,31.2277],[81.0229,31.2194],[81.0116,31.1926],[81.0427,31.1829],[81.0524,31.1556],[81.0206,31.1473],[81.0093,31.1205],[81.0507,31.1015],[81.0393,31.0747],[80.9883,31.121],[81.0104,31.1566],[80.9906,31.1931],[81.0127,31.2287],[80.9934,31.2832],[81.0155,31.3188],[81.0365,31.3183]]],[[[79.887,31.6463],[79.9488,31.5733],[79.9152,31.4746],[79.8838,31.484],[79.8849,31.5381],[79.9273,31.5556],[79.8656,31.6286],[79.8767,31.6555],[79.887,31.6463]]]]}},{"type":"Feature","properties":{"cell":108,"feature":761,"phase":"Unclassified","min_bt_K":234.1,"area_km2":23380,"cold_core_km2":0,"speed_kmh":72.0,"heading_deg":149,"d_min_bt_30":2.1,"age_min":30,"family":3,"touches_missing":true,"lon":79.0865,"lat":32.8191,"merges_splits_so_far":2},"geometry":{"type":"MultiPolygon","coordinates":[[[[78.3444,33.5445],[78.1614,33.5358],[78.2042,33.4275],[78.1396,33.3735],[78.0966,33.3014],[78.118,33.2833],[78.0644,33.2563],[77.9893,33.1571],[77.9036,33.1029],[77.8825,32.8864],[77.8612,32.8503],[77.7972,32.8141],[77.7654,32.7149],[77.8507,32.715],[77.8721,32.6789],[77.9467,32.6519],[78.0,32.5707],[78.149,32.5526],[78.1596,32.5075],[78.2128,32.4984],[78.2233,32.4713],[78.2976,32.4261],[78.4039,32.4258],[78.4891,32.4616],[78.5102,32.4254],[78.5952,32.4251],[78.6166,32.443],[78.7439,32.4063],[78.8502,32.4057],[78.945,32.3239],[78.9551,32.2787],[79.0404,32.3141],[79.0621,32.35],[79.1685,32.3672],[79.201,32.412],[79.276,32.4564],[79.3393,32.4197],[79.6156,32.4166],[79.6273,32.4796],[79.6702,32.4971],[79.682,32.5601],[79.7134,32.5327],[79.6699,32.4791],[79.6689,32.425],[79.7006,32.4156],[79.7317,32.3701],[79.7094,32.3162],[79.8037,32.2519],[79.9943,32.2311],[80.0271,32.2757],[80.0071,32.3301],[80.0395,32.3567],[80.2519,32.3533],[80.2736,32.3709],[80.4856,32.3491],[80.4969,32.376],[80.4766,32.4124],[80.4989,32.4481],[80.4786,32.4846],[80.4365,32.5034],[80.4488,32.5663],[80.4994,32.4661],[80.5414,32.4473],[80.5409,32.4293],[80.4979,32.412],[80.4974,32.394],[80.5394,32.3752],[80.5389,32.3571],[80.4959,32.3399],[80.5138,32.2133],[80.6168,32.1031],[80.6157,32.067],[80.5729,32.0498],[80.5704,31.9596],[80.6019,31.95],[80.6117,31.9227],[80.5797,31.9143],[80.5684,31.8875],[80.5999,31.8779],[80.62,31.8414],[80.6942,31.8489],[80.654,31.9219],[80.7195,31.9927],[80.7454,32.1546],[80.6203,32.2293],[80.6218,32.2834],[80.6648,32.3006],[80.6664,32.3546],[80.6881,32.3723],[80.669,32.4448],[80.7829,32.6951],[80.7758,32.8125],[80.6685,32.7966],[80.6592,32.8419],[80.6066,32.87],[80.5628,32.8348],[80.4993,32.854],[80.347,32.7485],[80.2848,32.8218],[80.1785,32.8416],[80.1052,32.9059],[80.106,32.942],[80.0641,32.9787],[80.0339,33.0604],[80.0011,33.0338],[80.0217,32.9974],[79.9992,32.9436],[80.0617,32.8705],[80.0399,32.8528],[80.0371,32.7266],[79.994,32.7092],[80.0355,32.6544],[80.0033,32.6459],[79.9932,32.6731],[79.951,32.6918],[79.9944,32.7272],[79.9968,32.8354],[80.0407,32.8889],[79.9564,32.9443],[80.0,32.9797],[80.0003,32.9978],[79.958,33.0164],[80.0019,33.0699],[79.97,33.0794],[79.9599,33.1066],[80.0128,33.0788],[80.025,33.1417],[79.8983,33.2338],[79.9202,33.2515],[79.9104,33.2968],[79.8675,33.2974],[79.7805,33.2444],[79.7162,33.2453],[79.7036,33.1462],[79.6709,33.1195],[79.3925,33.1227],[79.297,33.1868],[79.2872,33.2501],[79.2014,33.2509],[79.1151,33.2156],[79.0512,33.2522],[79.0302,33.2884],[78.9658,33.2889],[78.7731,33.3443],[78.6879,33.4349],[78.6449,33.4351],[78.6015,33.3812],[78.5372,33.3995],[78.3444,33.5445]]],[[[78.7143,32.7041],[78.8411,32.5771],[78.8406,32.523],[78.8085,32.4961],[78.7987,32.5954],[78.7668,32.6046],[78.6929,32.6862],[78.693,32.7042],[78.7143,32.7041]]],[[[80.2721,32.7408],[80.293,32.7224],[80.2608,32.714],[80.2494,32.6871],[80.312,32.6319],[80.2785,32.5693],[80.2468,32.5789],[80.2907,32.6323],[80.2068,32.6878],[80.2508,32.7412],[80.2721,32.7408]]],[[[80.72,32.7324],[80.6955,32.6247],[80.6404,32.5626],[80.6093,32.5903],[80.6524,32.6075],[80.6539,32.6616],[80.6971,32.6788],[80.6768,32.7153],[80.72,32.7324]]],[[[79.1872,32.9894],[79.2292,32.9349],[79.1862,32.9173],[79.1102,32.8187],[79.0999,32.8458],[79.1217,32.8817],[79.1538,32.8905],[79.1865,32.9353],[79.1656,32.9716],[79.1658,32.9896],[79.1872,32.9894]]]]}},{"type":"Feature","properties":{"cell":109,"feature":762,"phase":"Unclassified","min_bt_K":231.0,"area_km2":2960,"cold_core_km2":0,"speed_kmh":70.8,"heading_deg":37,"d_min_bt_30":-1.0,"age_min":30,"family":3,"touches_missing":true,"lon":76.1581,"lat":33.2873,"merges_splits_so_far":2},"geometry":{"type":"MultiPolygon","coordinates":[[[[76.3182,33.6968],[76.2218,33.6685],[76.2017,33.596],[76.1386,33.523],[76.1393,33.4869],[76.0858,33.4771],[76.0541,33.4496],[76.0553,33.3955],[75.9386,33.3306],[75.8443,33.2299],[75.8452,33.1938],[75.8032,33.157],[75.7853,33.0124],[75.743,32.9937],[75.7443,32.9396],[75.777,32.913],[75.9266,32.9155],[75.9472,32.9519],[76.0541,32.9535],[76.1592,33.0451],[76.3604,33.165],[76.3386,33.1828],[76.3584,33.2733],[76.4007,33.3099],[76.3997,33.364],[76.4423,33.3825],[76.4835,33.4912],[76.4183,33.5266],[76.4392,33.5629],[76.4164,33.6348],[76.3182,33.6968]]]]}},{"type":"Feature","properties":{"cell":112,"feature":764,"phase":"Unclassified","min_bt_K":234.0,"area_km2":12408,"cold_core_km2":0,"speed_kmh":51.7,"heading_deg":261,"d_min_bt_30":0.0,"age_min":30,"family":3,"touches_missing":true,"lon":79.1532,"lat":33.6433,"merges_splits_so_far":2},"geometry":{"type":"MultiPolygon","coordinates":[[[[79.9689,33.9996],[79.8497,33.9923],[79.8926,33.9736],[79.9338,33.8828],[79.8895,33.8293],[79.8883,33.7752],[79.8448,33.7578],[79.8421,33.6315],[79.8848,33.6129],[79.8845,33.5948],[79.841,33.5774],[79.8406,33.5594],[79.8833,33.5407],[79.8705,33.4417],[79.861,33.5049],[79.8191,33.5596],[79.8414,33.5954],[79.8206,33.6318],[79.8232,33.7581],[79.8451,33.7758],[79.8463,33.8299],[79.8898,33.8474],[79.8918,33.9375],[79.8595,33.947],[79.8174,34.0017],[78.238,33.9958],[78.227,33.9507],[78.2701,33.8785],[78.1834,33.7884],[78.14,33.6261],[78.0861,33.599],[78.0754,33.572],[78.1291,33.5268],[78.1722,33.5448],[78.3444,33.5445],[78.4088,33.5082],[78.4515,33.454],[78.6015,33.3812],[78.6449,33.4351],[78.6879,33.4349],[78.7731,33.3443],[78.9658,33.2889],[79.0302,33.2884],[79.0406,33.2613],[79.1151,33.2156],[79.2014,33.2509],[79.2872,33.2501],[79.297,33.1868],[79.3925,33.1227],[79.6709,33.1195],[79.7036,33.1462],[79.7053,33.2364],[79.7805,33.2444],[79.8889,33.2971],[79.9229,33.3778],[79.9666,33.4132],[79.9686,33.5034],[79.9264,33.5401],[79.9495,33.6119],[79.9083,33.7027],[79.9758,33.8281],[79.9546,33.8464],[79.9766,33.8641],[79.9778,33.9183],[79.9566,33.9366],[79.9787,33.9543],[79.9689,33.9996]]]]}},{"type":"Feature","properties":{"cell":117,"feature":747,"phase":"Unclassified","min_bt_K":243.0,"area_km2":88,"cold_core_km2":0,"speed_kmh":null,"heading_deg":null,"d_min_bt_30":null,"age_min":0,"family":117,"touches_missing":false,"lon":82.8553,"lat":33.7265,"merges_splits_so_far":0},"geometry":{"type":"MultiPolygon","coordinates":[[[[82.8798,33.7808],[82.7803,33.7393],[82.8092,33.6751],[82.9087,33.7166],[82.9107,33.7526],[82.8798,33.7808]]]]}},{"type":"Feature","properties":{"cell":121,"feature":758,"phase":"Unclassified","min_bt_K":232.3,"area_km2":4748,"cold_core_km2":0,"speed_kmh":null,"heading_deg":null,"d_min_bt_30":null,"age_min":0,"family":3,"touches_missing":false,"lon":76.4153,"lat":32.676,"merges_splits_so_far":1},"geometry":{"type":"MultiPolygon","coordinates":[[[[76.521,33.1759],[76.4567,33.1752],[76.3936,33.1023],[76.3719,33.1201],[76.3403,33.0926],[76.3623,33.0568],[76.3643,32.9486],[76.4086,32.8589],[76.4093,32.8228],[76.3468,32.7319],[76.2098,32.6489],[76.0819,32.6472],[76.0168,32.7003],[75.9332,32.6269],[75.8054,32.6248],[75.7745,32.5792],[75.7324,32.5605],[75.7563,32.4526],[75.7246,32.4431],[75.7251,32.425],[75.7676,32.4258],[75.8722,32.4996],[75.9264,32.4554],[75.8851,32.4006],[75.9292,32.3292],[75.9817,32.357],[76.0667,32.3583],[76.197,32.2158],[76.239,32.2344],[76.3245,32.1994],[76.3454,32.2177],[76.4303,32.2187],[76.5038,32.2647],[76.523,32.3912],[76.5854,32.4821],[76.6276,32.5005],[76.7742,32.6824],[76.8271,32.7099],[76.8796,32.7735],[76.7622,32.7815],[76.6647,32.8798],[76.6641,32.9158],[76.7064,32.9523],[76.5547,33.0771],[76.5535,33.1492],[76.521,33.1759]]]]}},{"type":"Feature","properties":{"cell":123,"feature":760,"phase":"Unclassified","min_bt_K":234.2,"area_km2":7660,"cold_core_km2":0,"speed_kmh":null,"heading_deg":null,"d_min_bt_30":null,"age_min":0,"family":3,"touches_missing":false,"lon":77.0337,"lat":33.2021,"merges_splits_so_far":1},"geometry":{"type":"MultiPolygon","coordinates":[[[[77.7188,33.9957],[77.6755,33.9956],[77.6432,33.9685],[77.6111,33.8872],[77.5463,33.887],[77.5249,33.8508],[77.4817,33.8507],[77.471,33.8236],[77.428,33.8053],[77.4176,33.7421],[77.3744,33.7419],[77.3531,33.7058],[77.2239,33.687],[77.2135,33.6419],[77.1065,33.569],[77.1069,33.5329],[77.0536,33.4875],[76.9671,33.5229],[76.9032,33.4683],[76.7747,33.4311],[76.7325,33.3766],[76.6468,33.3577],[76.5092,33.239],[76.4887,33.1846],[76.5535,33.1492],[76.5547,33.0771],[76.7064,32.9523],[76.6641,32.9158],[76.6647,32.8798],[76.7622,32.7815],[76.8902,32.7826],[77.0386,32.874],[77.2526,32.8393],[77.2956,32.8034],[77.4555,32.8312],[77.4552,32.8853],[77.4122,32.9212],[77.4116,33.0114],[77.4542,33.0477],[77.4538,33.1199],[77.4856,33.1651],[77.5714,33.1654],[77.6033,33.2106],[77.6031,33.2647],[77.5601,33.2826],[77.5168,33.3546],[77.5163,33.4448],[77.5377,33.463],[77.516,33.499],[77.6234,33.5354],[77.6662,33.5896],[77.6873,33.716],[77.7733,33.8244],[77.7517,33.8424],[77.7731,33.9146],[77.7297,33.9506],[77.7188,33.9957]]]]}}]}