{"type":"FeatureCollection","features":[{"type":"Feature","properties":{"cell":47,"feature":797,"phase":"Decaying","min_bt_K":234.1,"area_km2":55932,"cold_core_km2":0,"speed_kmh":166.7,"heading_deg":0,"d_min_bt_30":16.5,"age_min":240,"family":3,"touches_missing":true,"lon":82.5662,"lat":28.8075,"merges_splits_so_far":16},"geometry":{"type":"MultiPolygon","coordinates":[[[[82.1694,30.0335],[82.0857,30.0181],[82.0528,29.974],[81.9571,29.9138],[81.8535,29.9168],[81.8335,29.9354],[81.79,29.8826],[81.6478,29.9587],[81.5882,30.0325],[81.4839,30.0173],[81.4619,29.9818],[81.4205,29.9828],[81.3458,29.9216],[81.3653,29.885],[81.3593,29.7047],[81.3073,29.697],[81.2961,29.6702],[81.3557,29.5966],[81.3121,29.5255],[81.3103,29.4714],[81.2679,29.4364],[81.2667,29.4003],[81.225,29.3833],[81.221,29.257],[81.3327,29.2092],[81.3944,29.2076],[81.4037,29.1803],[81.2892,29.1381],[81.0415,29.1079],[81.0099,29.0816],[81.0805,29.0348],[81.2242,29.0314],[81.2441,29.0129],[81.4083,29.0087],[81.4295,29.0262],[81.4165,28.9453],[81.3638,28.9016],[81.3228,28.9026],[81.2601,28.8681],[81.1155,28.8355],[81.0336,28.8374],[80.9711,28.8027],[80.8482,28.8054],[80.8282,28.8239],[80.7867,28.8068],[80.7462,28.8256],[80.7252,28.808],[80.6638,28.8093],[80.6114,28.7652],[80.6819,28.7187],[80.7843,28.7166],[80.8672,28.7509],[81.0309,28.7472],[81.1964,28.7975],[81.2169,28.797],[81.2263,28.7697],[81.1527,28.7083],[81.0913,28.7097],[81.0493,28.6746],[80.967,28.6584],[80.9654,28.6043],[80.9036,28.5877],[80.7809,28.5903],[80.761,28.6088],[80.74,28.5912],[80.6378,28.5932],[80.596,28.558],[80.5143,28.5596],[80.4317,28.525],[80.4313,28.507],[80.6755,28.4662],[80.7054,28.4385],[80.612,28.3772],[80.5716,28.396],[80.5295,28.3427],[80.4783,28.3346],[80.4879,28.3074],[80.5282,28.2886],[80.651,28.3042],[80.6899,28.2312],[80.8117,28.2106],[80.8325,28.2282],[81.0164,28.2422],[81.0279,28.2871],[81.0896,28.3037],[81.1011,28.3485],[81.1419,28.3476],[81.2455,28.3992],[81.4286,28.3765],[81.428,28.3585],[81.3668,28.3601],[81.2218,28.2915],[81.1199,28.2939],[81.1089,28.2671],[81.1386,28.2393],[81.1794,28.2384],[81.2212,28.2735],[81.262,28.2725],[81.3011,28.2173],[81.3622,28.2158],[81.4815,28.1224],[81.5629,28.1203],[81.6862,28.153],[81.746,28.1152],[81.9489,28.0912],[81.9909,28.126],[82.0927,28.1229],[82.1341,28.1397],[82.2512,28.0096],[82.3136,28.0437],[82.4153,28.0403],[82.4778,28.0743],[82.5975,28.016],[82.7131,27.8675],[82.7342,27.8848],[82.8155,27.8818],[82.8731,27.8075],[82.9128,27.788],[83.0143,27.7842],[83.1086,27.8437],[83.1782,28.0215],[83.21,28.0474],[83.2728,28.081],[83.3329,28.0605],[83.418,28.1292],[83.4994,28.1258],[83.5642,28.1953],[83.6049,28.1936],[83.7,28.2527],[83.7136,28.3153],[83.8155,28.3108],[83.8349,28.2919],[84.0086,28.2932],[83.9903,28.3301],[84.0099,28.6722],[83.9905,28.6911],[84.0093,29.0152],[83.9898,29.0341],[84.002,29.5931],[83.9716,29.6035],[83.9335,29.6593],[83.9118,29.6423],[83.8824,29.6707],[83.8561,29.753],[83.7724,29.7387],[83.7538,29.7756],[83.6711,29.7792],[83.6524,29.8161],[83.5904,29.8187],[83.5717,29.8556],[83.5096,29.8582],[83.487,29.823],[83.3619,29.8101],[83.3056,29.9207],[83.2227,29.924],[83.1757,29.8175],[83.0516,29.8223],[83.0291,29.7871],[82.9671,29.7894],[82.9231,29.7369],[82.7982,29.7235],[82.709,29.8079],[82.7007,29.8533],[82.6089,29.8836],[82.5608,29.9665],[82.27,29.9582],[82.2508,29.9949],[82.2093,29.9962],[82.1694,30.0335]]],[[[80.743,28.3114],[80.7321,28.2845],[80.7017,28.2942],[80.7126,28.321],[80.743,28.3114]]]]}},{"type":"Feature","properties":{"cell":55,"feature":816,"phase":"Developing","min_bt_K":215.0,"area_km2":21984,"cold_core_km2":1696,"speed_kmh":29.1,"heading_deg":282,"d_min_bt_30":-0.6,"age_min":210,"family":3,"touches_missing":true,"lon":74.3424,"lat":33.6222,"merges_splits_so_far":12},"geometry":{"type":"MultiPolygon","coordinates":[[[[73.4326,34.0084],[73.0546,33.9859],[73.1461,33.899],[73.1511,33.809],[73.0883,33.7706],[73.0698,33.7158],[73.1003,33.5545],[73.1228,33.5372],[73.0818,33.4996],[73.1062,33.4464],[73.0702,33.3187],[73.0927,33.3015],[73.0966,33.2295],[73.1648,33.1598],[73.1696,33.0697],[73.2376,33.0],[73.2925,32.9748],[73.5054,33.0002],[73.5731,32.9303],[73.7852,32.9733],[73.9609,33.114],[73.9688,33.1774],[74.0116,33.1787],[74.0315,33.2154],[74.1276,33.2272],[74.1229,33.3354],[74.1857,33.3733],[74.1842,33.4093],[74.2441,33.5193],[74.296,33.5658],[74.4474,33.5519],[74.4564,33.5973],[74.5084,33.6437],[74.5411,33.6356],[74.4987,33.6164],[74.5009,33.5623],[74.555,33.5547],[74.5779,33.5192],[74.6203,33.5383],[74.6529,33.5301],[74.6112,33.493],[74.6133,33.4389],[74.6569,33.422],[74.6928,33.3236],[74.7787,33.3257],[74.8418,33.3633],[75.0167,33.2771],[75.0503,33.2328],[75.1048,33.2069],[75.19,33.2267],[75.2741,33.2826],[75.4029,33.2852],[75.4254,33.2495],[75.4683,33.2503],[75.4907,33.2147],[75.5117,33.2331],[75.6189,33.2351],[75.6851,33.1641],[75.7494,33.1652],[75.7809,33.1928],[75.78,33.2288],[75.8435,33.266],[75.8636,33.3204],[76.0334,33.4132],[76.0326,33.4493],[75.9786,33.4575],[75.9019,33.5195],[75.9226,33.5559],[75.9154,33.8625],[75.9476,33.872],[75.9789,33.9176],[75.9777,33.9717],[75.9013,33.9976],[74.776,33.9933],[74.7662,33.966],[74.7236,33.9469],[74.7256,33.8928],[74.6831,33.8737],[74.6865,33.7836],[74.6545,33.7738],[74.6406,33.8546],[74.7327,33.9923],[74.6672,34.0087],[74.3427,34.0002],[74.3554,33.9555],[74.4678,33.8502],[74.6009,33.7634],[74.5925,33.7],[74.525,33.7705],[74.4819,33.7694],[74.4261,33.813],[74.2786,33.9804],[74.2129,33.9966],[74.0399,33.9916],[74.0175,34.009],[73.4551,33.9911],[73.4326,34.0084]]],[[[73.8801,33.4725],[73.9256,33.4197],[73.8938,33.4097],[73.8706,33.4451],[73.8276,33.4438],[73.8327,33.3357],[73.819,33.3984],[73.7752,33.4151],[73.8259,33.4798],[73.8801,33.4725]]],[[[74.8337,33.8954],[74.8565,33.8599],[74.8362,33.8233],[74.861,33.7337],[74.8205,33.6605],[74.7676,33.6322],[74.7983,33.6781],[74.7539,33.7131],[74.829,33.7239],[74.8375,33.7873],[74.7512,33.7852],[74.8356,33.8413],[74.7904,33.8944],[74.8337,33.8954]]]]}},{"type":"Feature","properties":{"cell":97,"feature":805,"phase":"Developing","min_bt_K":227.1,"area_km2":2456,"cold_core_km2":0,"speed_kmh":21.1,"heading_deg":143,"d_min_bt_30":0.4,"age_min":60,"family":3,"touches_missing":true,"lon":72.3289,"lat":32.4069,"merges_splits_so_far":0},"geometry":{"type":"MultiPolygon","coordinates":[[[[72.2824,32.6827],[72.1972,32.679],[72.1569,32.6412],[72.0291,32.6355],[71.9989,32.6071],[72.0118,32.4091],[72.0868,32.4035],[72.1204,32.3779],[72.1226,32.3419],[72.2322,32.2925],[72.269,32.2129],[72.3114,32.2147],[72.356,32.1805],[72.3951,32.2363],[72.5022,32.2227],[72.5568,32.1979],[72.559,32.1619],[72.6135,32.1371],[72.6368,32.1019],[72.7003,32.1045],[72.7497,32.1696],[72.7234,32.2588],[72.7779,32.2338],[72.787,32.2613],[72.7304,32.3222],[72.6688,32.2837],[72.6646,32.3557],[72.6556,32.3282],[72.6243,32.318],[72.6121,32.3445],[72.5685,32.3608],[72.542,32.45],[72.5834,32.4697],[72.5611,32.4868],[72.5792,32.5417],[72.306,32.6476],[72.2824,32.6827]]]]}},{"type":"Feature","properties":{"cell":103,"feature":802,"phase":"Developing","min_bt_K":233.0,"area_km2":29740,"cold_core_km2":0,"speed_kmh":74.6,"heading_deg":359,"d_min_bt_30":0.0,"age_min":60,"family":3,"touches_missing":true,"lon":79.807,"lat":30.9393,"merges_splits_so_far":9},"geometry":{"type":"MultiPolygon","coordinates":[[[[78.4229,31.9206],[78.3383,31.9209],[78.3171,31.9029],[78.1269,31.9212],[78.095,31.786],[78.0528,31.7499],[78.116,31.6597],[78.1369,31.5695],[78.2421,31.4972],[78.2209,31.4431],[78.2206,31.2988],[78.2623,31.1904],[78.2202,31.1544],[78.262,31.1002],[78.2619,31.0642],[78.3456,31.0098],[78.3244,30.9377],[78.3662,30.9196],[78.3764,30.8745],[78.4287,30.8653],[78.5026,31.0003],[78.5863,31.0],[78.6279,30.9457],[78.7325,30.9451],[78.8576,30.8903],[79.004,30.8892],[79.066,30.8166],[79.1496,30.8159],[79.2231,30.8423],[79.2447,30.8962],[79.2037,30.9688],[79.2145,30.9957],[79.2247,30.9686],[79.2663,30.9501],[79.2656,30.896],[79.2968,30.8867],[79.3173,30.8504],[79.3593,30.868],[79.4845,30.8486],[79.5464,30.7938],[79.6094,30.8111],[79.6624,30.8556],[79.6421,30.8919],[79.653,30.9188],[79.6733,30.8825],[79.7367,30.9177],[79.747,30.9086],[79.7154,30.9],[79.6621,30.8375],[79.7351,30.8276],[79.7659,30.8001],[79.7855,30.7277],[79.909,30.6357],[79.8868,30.5639],[79.8017,30.4749],[79.883,30.3655],[79.8404,30.312],[79.7773,30.2767],[79.8492,30.2306],[79.9528,30.2111],[79.9929,30.1384],[80.0551,30.1374],[80.2391,30.0081],[80.281,30.0254],[80.3013,30.0071],[80.4878,30.0037],[80.5496,29.9845],[80.5707,30.0021],[80.6329,30.0009],[80.6753,30.0361],[80.7583,30.0344],[80.7699,30.0793],[80.9076,30.1755],[80.9295,30.2112],[80.9918,30.2098],[81.0131,30.2273],[81.0546,30.2264],[81.1551,30.1158],[81.2173,30.1143],[81.3187,30.0396],[81.3934,30.1008],[81.3946,30.1369],[81.4367,30.1538],[81.4606,30.2434],[81.421,30.2986],[81.4033,30.3893],[81.3724,30.3991],[81.3023,30.482],[81.3451,30.5171],[81.3703,30.6427],[81.4361,30.7312],[81.4177,30.8039],[81.4716,30.8476],[81.5349,30.864],[81.597,30.8443],[81.6496,30.8518],[81.6719,30.8873],[81.6523,30.9239],[81.678,31.0495],[81.5841,31.0611],[81.5239,31.1349],[81.4623,31.1726],[81.4203,31.1737],[81.3695,31.2201],[81.3516,31.3108],[81.2401,31.4308],[81.2262,31.3319],[81.2676,31.3129],[81.2658,31.2588],[81.3479,31.2026],[81.304,31.1496],[81.386,31.0934],[81.4152,31.0295],[81.4793,31.0639],[81.4457,31.0016],[81.4869,30.9825],[81.4552,30.9743],[81.3841,31.0393],[81.2627,31.1686],[81.2945,31.1769],[81.3059,31.2037],[81.2244,31.2778],[81.186,31.387],[81.2299,31.4401],[81.2215,31.5034],[81.1571,31.4689],[81.0303,31.4538],[80.9763,31.4099],[80.9202,31.2939],[80.8566,31.2772],[80.813,31.224],[80.6539,31.1642],[80.6304,31.0744],[80.5871,31.0212],[80.4805,30.951],[80.4466,30.8524],[80.3835,30.8355],[80.3425,30.8723],[80.2375,30.8561],[80.1732,30.785],[80.1314,30.7857],[80.1109,30.8041],[80.0064,30.8057],[79.965,30.8244],[79.9562,30.9057],[79.8427,30.9885],[79.8008,30.9891],[79.7912,31.0343],[79.6983,31.1167],[79.6044,31.1449],[79.543,31.2359],[79.5436,31.2719],[79.5018,31.2904],[79.3784,31.4722],[79.3155,31.4909],[79.3381,31.5989],[79.2865,31.6806],[79.1811,31.6815],[79.1598,31.6637],[79.1389,31.6819],[79.0545,31.6826],[79.0128,31.719],[78.9915,31.7011],[78.8649,31.702],[78.7388,31.7569],[78.7181,31.8111],[78.6547,31.8115],[78.6443,31.8386],[78.5707,31.884],[78.4229,31.9206]]],[[[81.2249,30.6644],[81.16,30.5938],[81.157,30.5036],[81.1148,30.4866],[81.09,30.3609],[81.0158,30.3175],[81.0495,30.3979],[81.0923,30.433],[81.1177,30.5767],[81.2147,30.6736],[81.2249,30.6644]]],[[[81.4228,30.9481],[81.4215,30.912],[81.3784,30.8771],[81.3766,30.823],[81.3449,30.8148],[81.3228,30.7792],[81.2727,30.8436],[81.324,30.8153],[81.3366,30.8781],[81.3791,30.8951],[81.381,30.9492],[81.4228,30.9481]]]]}},{"type":"Feature","properties":{"cell":108,"feature":808,"phase":"Developing","min_bt_K":233.5,"area_km2":47488,"cold_core_km2":0,"speed_kmh":50.4,"heading_deg":357,"d_min_bt_30":-0.6,"age_min":60,"family":3,"touches_missing":true,"lon":79.0711,"lat":33.0458,"merges_splits_so_far":8},"geometry":{"type":"MultiPolygon","coordinates":[[[[80.0987,33.9976],[80.0338,33.9986],[79.9562,33.9186],[79.9126,33.9012],[79.955,33.8645],[79.953,33.7743],[79.9958,33.7556],[79.9844,33.7287],[79.9315,33.7746],[79.9334,33.8648],[79.8906,33.8834],[79.957,33.9546],[79.9256,34.0002],[79.5362,34.0052],[79.5246,33.9603],[79.5672,33.9237],[79.5665,33.8876],[79.523,33.8701],[79.5653,33.8155],[79.5537,33.7705],[79.5215,33.7799],[79.5224,33.834],[79.4795,33.8525],[79.5233,33.8881],[79.5243,33.9422],[79.4813,33.9608],[79.4713,34.006],[78.5408,33.9949],[78.5514,33.9498],[78.5185,33.8867],[78.4001,33.9683],[78.411,33.9954],[78.3029,33.9957],[78.2486,33.9326],[78.2701,33.8785],[78.1402,33.7163],[78.1617,33.6802],[78.1401,33.6621],[78.14,33.608],[78.0969,33.572],[78.0968,33.4998],[78.1612,33.4095],[78.1397,33.3915],[78.1826,33.3554],[78.2039,33.2832],[78.2895,33.2109],[78.0535,32.9766],[78.032,32.8864],[78.0854,32.8594],[78.0961,32.8323],[78.0534,32.7782],[77.968,32.7241],[77.9467,32.6158],[77.8723,32.5526],[77.7233,32.5524],[77.7125,32.5795],[77.7551,32.5976],[77.7336,32.6517],[77.7761,32.7059],[77.7547,32.7239],[77.7973,32.76],[77.7759,32.7961],[77.8185,32.8322],[77.7971,32.8683],[77.7222,32.8952],[77.6582,32.877],[77.6265,32.7957],[77.5306,32.7684],[77.5088,32.8404],[77.4128,32.831],[77.4335,32.9394],[77.4655,32.9485],[77.476,32.9756],[77.4544,33.0116],[77.4007,33.0385],[77.2412,32.9204],[77.1779,32.8298],[77.1782,32.7937],[77.1359,32.7574],[77.1364,32.7033],[77.0939,32.6849],[77.0943,32.6489],[77.0311,32.5762],[76.9782,32.5488],[76.81,32.385],[76.757,32.3755],[76.7167,32.2128],[76.6748,32.1763],[76.707,32.1495],[76.8121,32.2227],[76.9177,32.2597],[76.9499,32.2329],[76.9297,32.1425],[76.8877,32.1061],[76.8882,32.07],[76.92,32.0612],[77.0668,32.2067],[77.0989,32.1798],[77.0996,32.1077],[77.0576,32.0713],[77.0688,32.0083],[77.2578,32.1898],[77.3002,32.1901],[77.3325,32.1271],[77.3116,32.0909],[77.3331,32.0369],[77.3126,31.9466],[77.334,31.9106],[77.313,31.8925],[77.3557,31.8386],[77.3349,31.7843],[77.3562,31.7664],[77.3565,31.7123],[77.3885,31.6673],[77.494,31.6498],[77.5464,31.7131],[77.5251,31.7491],[77.6198,31.8125],[77.6622,31.7766],[77.7467,31.7768],[77.831,31.849],[77.8944,31.813],[77.9577,31.8852],[78.0951,31.8942],[78.0952,31.9303],[78.0529,31.9664],[78.0529,32.0205],[78.0741,32.0385],[78.053,32.1468],[78.0955,32.2189],[78.0956,32.3633],[78.17,32.3902],[78.3193,32.5343],[78.4899,32.6059],[78.5323,32.5697],[78.5962,32.5694],[78.7021,32.4967],[78.8508,32.4778],[78.8406,32.523],[78.8622,32.5589],[78.8413,32.5952],[78.7988,32.6135],[78.7993,32.6676],[78.7568,32.6859],[78.768,32.7489],[78.873,32.5679],[78.937,32.5855],[78.9587,32.6214],[79.0117,32.594],[79.022,32.5668],[79.1498,32.5658],[79.1825,32.6286],[79.2903,32.7178],[79.2921,32.8441],[79.3456,32.8526],[79.4401,32.7524],[79.4586,32.5718],[79.5117,32.5622],[79.5956,32.489],[79.6594,32.4883],[79.6692,32.443],[79.7421,32.3609],[79.7637,32.3787],[79.8476,32.3234],[79.8699,32.3772],[79.8793,32.314],[79.9322,32.3042],[79.9858,32.3304],[79.965,32.3488],[79.9769,32.4118],[79.9862,32.3485],[80.0179,32.339],[80.0383,32.3026],[80.251,32.3172],[80.3125,32.2259],[80.4856,32.3491],[80.5897,32.275],[80.6322,32.2741],[80.6767,32.3454],[80.6855,32.2821],[80.6534,32.2737],[80.642,32.2469],[80.6736,32.2372],[80.6834,32.21],[80.6405,32.1928],[80.6813,32.1378],[80.7232,32.119],[80.7325,32.0737],[80.8291,32.1167],[80.8313,32.1889],[80.8863,32.2508],[80.9924,32.2485],[81.0233,32.2207],[81.0422,32.1481],[81.0948,32.1379],[81.1493,32.1817],[81.1506,32.2178],[81.119,32.2275],[81.0893,32.2914],[81.0268,32.3289],[81.0286,32.383],[81.0504,32.4005],[80.9781,32.4653],[80.8304,32.5046],[80.8009,32.5864],[80.7594,32.6234],[80.772,32.6863],[80.8993,32.6655],[80.9321,32.6919],[80.9339,32.7459],[80.8929,32.801],[80.8612,32.8107],[80.8179,32.7936],[80.7884,32.8754],[80.8213,32.9017],[80.9275,32.8814],[80.9397,32.9262],[81.0062,32.9969],[81.008,33.051],[80.9328,33.0437],[80.8692,33.0631],[80.8258,33.046],[80.7621,33.0654],[80.6963,33.0126],[80.6535,33.0134],[80.6441,33.0587],[80.5496,33.1237],[80.4848,33.1069],[80.4291,33.0267],[80.4913,32.9534],[80.4371,32.9273],[80.373,32.9285],[80.3417,32.9561],[80.3649,33.0279],[80.2812,33.1015],[80.2611,33.156],[80.2834,33.1917],[80.2794,33.4534],[80.2464,33.4269],[80.2433,33.3006],[80.2213,33.2829],[80.2419,33.2465],[80.2196,33.2108],[80.2388,33.1203],[80.2165,33.0845],[80.2584,33.0478],[80.2766,32.9212],[80.318,32.8663],[80.3602,32.8475],[80.3598,32.8295],[80.2948,32.7946],[80.3175,32.8483],[80.2971,32.8847],[80.2548,32.9035],[80.257,32.9937],[80.2147,33.0124],[80.216,33.0665],[80.1736,33.0853],[80.2173,33.1206],[80.2178,33.1387],[80.1754,33.1574],[80.1767,33.2115],[80.2091,33.22],[80.2205,33.2469],[80.1885,33.2564],[80.1784,33.2836],[80.2218,33.301],[80.2249,33.4272],[80.2473,33.4629],[80.1842,33.5181],[80.2066,33.5538],[80.1873,33.6443],[80.1446,33.6631],[80.1468,33.7533],[80.1049,33.8081],[80.1278,33.8618],[80.0851,33.8805],[80.0987,33.9976]]],[[[80.7157,32.5882],[80.7152,32.5702],[80.7572,32.5513],[80.7404,32.3441],[80.7306,32.3714],[80.6886,32.3903],[80.6892,32.4083],[80.7322,32.4255],[80.7338,32.4796],[80.6939,32.5706],[80.7054,32.5974],[80.7157,32.5882]]],[[[80.641,32.9505],[80.6613,32.914],[80.617,32.8608],[80.6795,32.8054],[80.6571,32.7698],[80.6774,32.7333],[80.655,32.6977],[80.6753,32.6612],[80.6638,32.6343],[80.6123,32.6985],[80.6555,32.7157],[80.656,32.7337],[80.6139,32.7526],[80.6581,32.8059],[80.6264,32.8155],[80.5748,32.8797],[80.618,32.8969],[80.6196,32.951],[80.641,32.9505]]],[[[78.9729,32.9551],[78.9511,32.9191],[78.9721,32.8829],[78.9604,32.7838],[78.9508,32.8831],[78.9188,32.8923],[78.9084,32.9194],[78.9729,32.9551]]],[[[78.932,33.1358],[78.9102,33.0998],[78.9313,33.0636],[78.9195,32.9645],[78.9098,33.0638],[78.8778,33.073],[78.8674,33.1001],[78.932,33.1358]]],[[[79.2768,33.2772],[79.2755,33.1871],[79.2967,33.1688],[79.2959,33.1147],[79.3385,33.0962],[79.3274,33.0693],[79.2745,33.1149],[79.2753,33.169],[79.2329,33.2055],[79.2339,33.2777],[79.2768,33.2772]]],[[[79.1298,33.5312],[79.1509,33.4949],[79.1289,33.459],[79.1499,33.4227],[79.1488,33.3325],[79.1915,33.3141],[79.1804,33.2872],[79.1273,33.3327],[79.1284,33.4229],[79.0859,33.4594],[79.1291,33.477],[79.0868,33.5315],[79.1298,33.5312]]],[[[78.3562,33.8241],[78.4207,33.7518],[78.3665,33.6888],[78.3449,33.6888],[78.2697,33.7702],[78.3239,33.8332],[78.3562,33.8241]]]]}},{"type":"Feature","properties":{"cell":109,"feature":810,"phase":"Developing","min_bt_K":229.4,"area_km2":3540,"cold_core_km2":0,"speed_kmh":15.8,"heading_deg":30,"d_min_bt_30":-1.6,"age_min":60,"family":3,"touches_missing":true,"lon":76.2001,"lat":33.3494,"merges_splits_so_far":2},"geometry":{"type":"MultiPolygon","coordinates":[[[[76.446,33.7885],[76.2345,33.5694],[76.1484,33.5682],[76.0326,33.4493],[76.0334,33.4132],[76.0018,33.3857],[75.8636,33.3204],[75.8233,33.2115],[75.7389,33.156],[75.6979,33.0831],[75.6451,33.0551],[75.5514,32.9542],[75.5842,32.9277],[75.6693,32.9473],[75.7534,33.0029],[75.7945,33.0757],[75.8591,33.0587],[75.925,32.9876],[75.9678,32.9882],[76.0203,33.0341],[75.9977,33.0879],[76.1137,33.1708],[76.1573,33.1353],[76.3287,33.1376],[76.3495,33.1739],[76.4995,33.1757],[76.5312,33.2031],[76.5941,33.294],[76.5283,33.3835],[76.5495,33.4018],[76.5265,33.4917],[76.5675,33.6185],[76.5026,33.6358],[76.5439,33.7445],[76.4898,33.7529],[76.446,33.7885]]]]}},{"type":"Feature","properties":{"cell":117,"feature":790,"phase":"Developing","min_bt_K":240.3,"area_km2":204,"cold_core_km2":0,"speed_kmh":10.6,"heading_deg":336,"d_min_bt_30":-2.7,"age_min":30,"family":117,"touches_missing":true,"lon":82.8323,"lat":33.7704,"merges_splits_so_far":0},"geometry":{"type":"MultiPolygon","coordinates":[[[[82.819,33.8552],[82.7636,33.8301],[82.7391,33.7768],[82.7671,33.6946],[82.8984,33.726],[82.9332,33.7698],[82.9034,33.816],[82.8386,33.8184],[82.819,33.8552]]]]}},{"type":"Feature","properties":{"cell":121,"feature":806,"phase":"Unclassified","min_bt_K":232.3,"area_km2":2412,"cold_core_km2":0,"speed_kmh":38.4,"heading_deg":251,"d_min_bt_30":0.0,"age_min":30,"family":3,"touches_missing":false,"lon":76.2227,"lat":32.6182,"merges_splits_so_far":1},"geometry":{"type":"MultiPolygon","coordinates":[[[[76.1418,32.8465],[76.0778,32.8455],[76.0261,32.7636],[75.9002,32.6715],[75.9014,32.6174],[75.8597,32.5806],[75.8818,32.5449],[75.8401,32.5081],[75.8839,32.4547],[75.8639,32.4003],[75.8964,32.3737],[75.9589,32.4288],[76.0652,32.4304],[76.1942,32.3601],[76.2572,32.397],[76.321,32.3978],[76.3853,32.3625],[76.4916,32.3638],[76.5647,32.4458],[76.5641,32.4818],[76.4775,32.5711],[76.476,32.6613],[76.4541,32.6971],[76.3577,32.723],[76.271,32.7941],[76.2283,32.7935],[76.1418,32.8465]]]]}},{"type":"Feature","properties":{"cell":123,"feature":807,"phase":"Developing","min_bt_K":233.1,"area_km2":9220,"cold_core_km2":0,"speed_kmh":75.7,"heading_deg":243,"d_min_bt_30":-1.0,"age_min":30,"family":3,"touches_missing":true,"lon":76.6727,"lat":33.0463,"merges_splits_so_far":2},"geometry":{"type":"MultiPolygon","coordinates":[[[[77.9351,33.996],[77.7404,33.9958],[77.708,33.9686],[77.6651,33.8964],[77.6868,33.8603],[77.6654,33.8061],[77.6116,33.7609],[77.5253,33.7606],[77.5147,33.7335],[77.4717,33.7153],[77.4721,33.6431],[77.3649,33.5705],[77.3444,33.4261],[77.3125,33.3808],[77.2484,33.3444],[77.2054,33.3441],[77.1083,33.3886],[77.1074,33.4788],[77.1503,33.4971],[77.1499,33.5332],[77.1927,33.5696],[77.1816,33.5966],[77.0742,33.5778],[77.0317,33.5234],[76.9248,33.4685],[76.86,33.486],[76.7745,33.4491],[76.7325,33.3766],[76.6474,33.3216],[76.5939,33.312],[76.4995,33.1757],[76.3495,33.1739],[76.3287,33.1376],[76.1788,33.1356],[76.1581,33.0993],[76.0938,33.0984],[76.0522,33.0436],[75.9464,32.9879],[75.8315,32.8688],[75.7914,32.7599],[75.7283,32.7228],[75.7514,32.651],[75.7841,32.6245],[75.8267,32.6252],[75.9529,32.6994],[75.9605,32.8348],[75.9923,32.8443],[76.0549,32.9174],[76.0778,32.8455],[76.1418,32.8465],[76.2283,32.7935],[76.271,32.7941],[76.3577,32.723],[76.4433,32.706],[76.476,32.6613],[76.4775,32.5711],[76.4994,32.5352],[76.5746,32.491],[76.7102,32.6818],[76.7948,32.7367],[76.7943,32.7728],[76.9213,32.8641],[76.9208,32.9001],[77.0589,32.9824],[77.0905,33.0277],[77.3672,33.2458],[77.3667,33.3179],[77.3985,33.3812],[77.4522,33.3724],[77.4527,33.3003],[77.3674,33.2097],[77.3467,33.1194],[77.4004,33.0926],[77.5391,33.1923],[77.5389,33.2284],[77.5817,33.2466],[77.6026,33.373],[77.6669,33.4092],[77.688,33.5356],[77.7738,33.644],[77.7737,33.662],[77.7306,33.68],[77.7304,33.7341],[77.7626,33.7793],[77.8381,33.7884],[77.8596,33.8787],[77.9028,33.8967],[77.9351,33.996]]],[[[76.1284,32.9816],[76.1291,32.9455],[76.0972,32.936],[76.0856,32.981],[76.1284,32.9816]]]]}},{"type":"Feature","properties":{"cell":126,"feature":783,"phase":"Unclassified","min_bt_K":237.0,"area_km2":10288,"cold_core_km2":0,"speed_kmh":null,"heading_deg":null,"d_min_bt_30":null,"age_min":0,"family":126,"touches_missing":true,"lon":83.4366,"lat":31.266,"merges_splits_so_far":0},"geometry":{"type":"MultiPolygon","coordinates":[[[[83.6488,31.9096],[83.5188,31.8609],[83.4554,31.8636],[83.4354,31.8824],[83.4122,31.8473],[83.3367,31.8233],[83.3347,31.7873],[83.2693,31.7538],[83.2121,31.6748],[83.0003,31.6649],[82.8793,31.5702],[82.8536,31.4809],[82.8838,31.4527],[83.0128,31.502],[83.107,31.4894],[83.0783,31.3462],[82.9695,31.2781],[82.9238,31.2076],[82.9429,31.1708],[82.9201,31.1356],[82.9602,31.098],[82.9383,31.0808],[82.9746,30.9711],[82.9528,30.9539],[82.9927,30.9163],[82.97,30.8811],[82.99,30.8623],[82.9844,30.7542],[83.0034,30.7174],[83.0552,30.7064],[83.1206,30.7581],[83.1813,30.7196],[83.2449,30.7352],[83.2748,30.7069],[83.2728,30.6709],[83.3642,30.6221],[83.4089,30.6744],[83.4934,30.689],[83.569,30.731],[83.581,30.7575],[83.6645,30.754],[83.6875,30.7891],[83.7997,30.7391],[83.7965,30.6851],[83.7088,30.6167],[83.7057,30.5627],[83.7572,30.5515],[83.7791,30.5686],[83.8625,30.5649],[84.0018,30.6218],[84.0085,30.7298],[83.9151,30.743],[83.8865,30.7894],[83.8458,30.8093],[83.848,30.8453],[83.9998,30.9287],[83.9946,31.1816],[83.9427,31.193],[83.9294,31.1484],[83.8743,31.1058],[83.7794,31.1009],[83.8257,31.1711],[83.8809,31.2138],[83.9228,31.2119],[83.935,31.2384],[84.0002,31.2716],[83.9948,31.3531],[83.9185,31.3114],[83.9052,31.2668],[83.8522,31.2602],[83.8389,31.2156],[83.7539,31.2013],[83.7098,31.1671],[83.6469,31.1698],[83.6029,31.1356],[83.562,31.1553],[83.539,31.1202],[83.497,31.122],[83.474,31.0868],[83.3662,31.0371],[83.2296,31.0335],[83.2635,31.0773],[83.3264,31.0748],[83.3703,31.1091],[83.4232,31.116],[83.4173,31.1974],[83.4602,31.2137],[83.5221,31.1931],[83.649,31.2058],[83.7163,31.2751],[83.8444,31.3056],[83.9241,31.4013],[83.9672,31.4175],[83.9962,31.5425],[83.9331,31.5453],[83.9586,31.6164],[83.8832,31.5927],[83.8633,31.6116],[83.799,31.5964],[83.7701,31.6427],[83.8378,31.712],[83.7124,31.7355],[83.7145,31.7715],[83.6545,31.8282],[83.6488,31.9096]]],[[[83.7885,30.902],[83.6468,30.8089],[83.594,30.8021],[83.5961,30.8381],[83.6729,30.898],[83.7158,30.9142],[83.7885,30.902]]],[[[83.7364,31.0847],[83.7343,31.0487],[83.7024,31.0411],[83.7155,31.0857],[83.7364,31.0847]]],[[[83.3633,31.1725],[83.3303,31.1468],[83.2784,31.1579],[83.3114,31.1837],[83.3633,31.1725]]],[[[83.6015,31.6499],[83.5883,31.6054],[83.5583,31.6337],[83.6015,31.6499]]]]}},{"type":"Feature","properties":{"cell":131,"feature":798,"phase":"Unclassified","min_bt_K":234.0,"area_km2":15392,"cold_core_km2":0,"speed_kmh":null,"heading_deg":null,"d_min_bt_30":null,"age_min":0,"family":3,"touches_missing":true,"lon":80.1656,"lat":29.5001,"merges_splits_so_far":1},"geometry":{"type":"MultiPolygon","coordinates":[[[[79.3279,30.0926],[79.1307,30.0854],[79.1508,30.0311],[79.2946,29.9215],[79.2834,29.8585],[79.2213,29.859],[79.1803,29.8955],[79.1389,29.8959],[79.128,29.8509],[79.1692,29.8325],[79.1997,29.7871],[79.2513,29.7776],[79.2302,29.7417],[79.2502,29.6874],[79.2811,29.6781],[79.3421,29.6053],[79.3936,29.5957],[79.3829,29.5688],[79.321,29.5694],[79.2895,29.5246],[79.33,29.4701],[79.2881,29.4164],[79.3288,29.3799],[79.3078,29.344],[79.3587,29.2984],[79.41,29.2888],[79.4504,29.2342],[79.4499,29.1981],[79.5308,29.107],[79.6627,29.0062],[79.7038,29.0056],[79.8055,28.9501],[79.8468,28.9676],[80.0315,28.9649],[80.0117,29.0013],[79.8586,29.0487],[79.9114,29.1291],[80.1367,29.0896],[80.1565,29.0532],[80.2386,29.0518],[80.2805,29.0872],[80.4247,29.1026],[80.5261,29.0466],[80.6087,29.063],[80.6694,29.0257],[80.8336,29.0223],[80.8551,29.0579],[80.9478,29.0649],[80.9925,29.1902],[81.0242,29.2166],[81.0859,29.2152],[81.221,29.257],[81.225,29.3833],[81.2667,29.4003],[81.3557,29.5966],[81.2961,29.6702],[81.3073,29.697],[81.3593,29.7047],[81.3653,29.885],[81.3352,29.9129],[81.2932,29.8959],[81.2529,29.9329],[81.1701,29.935],[81.0447,29.9018],[80.981,29.8491],[80.9194,29.8686],[80.8144,29.8167],[80.7523,29.818],[80.6782,29.7564],[80.6768,29.7023],[80.7172,29.6654],[80.7162,29.6293],[80.6638,29.6033],[80.355,29.6452],[80.2914,29.5742],[80.1259,29.5589],[80.0752,29.6048],[80.0767,29.677],[80.0459,29.6865],[79.9243,29.8146],[79.8416,29.8158],[79.7604,29.9071],[79.6986,29.9259],[79.6169,29.9991],[79.4306,30.0193],[79.3279,30.0926]]],[[[80.9439,29.6425],[80.901,29.5893],[80.982,29.5333],[80.9667,29.3623],[80.9365,29.39],[80.9407,29.5343],[80.8804,29.5897],[80.9026,29.6434],[80.9439,29.6425]]]]}},{"type":"Feature","properties":{"cell":135,"feature":803,"phase":"Unclassified","min_bt_K":234.0,"area_km2":17920,"cold_core_km2":0,"speed_kmh":null,"heading_deg":null,"d_min_bt_30":null,"age_min":0,"family":3,"touches_missing":true,"lon":80.178,"lat":31.4983,"merges_splits_so_far":1},"geometry":{"type":"MultiPolygon","coordinates":[[[[80.5068,32.3487],[80.3445,32.2344],[80.3107,32.1538],[80.0352,32.1583],[79.992,32.1229],[79.8225,32.1253],[79.7461,32.0091],[79.6384,31.9022],[79.5324,31.8854],[79.5318,31.8494],[79.5735,31.8128],[79.5714,31.6865],[79.5396,31.6779],[79.4977,31.6964],[79.4443,31.6519],[79.4437,31.6158],[79.3488,31.6078],[79.3163,31.545],[79.3155,31.4909],[79.3784,31.4722],[79.5018,31.2904],[79.5436,31.2719],[79.543,31.2359],[79.6044,31.1449],[79.6983,31.1167],[79.7912,31.0343],[79.8008,30.9891],[79.8427,30.9885],[79.9253,30.9332],[79.9562,30.9057],[79.9547,30.8335],[80.0064,30.8057],[80.1732,30.785],[80.2375,30.8561],[80.3003,30.855],[80.3216,30.8727],[80.3835,30.8355],[80.4466,30.8524],[80.4805,30.951],[80.5657,31.0035],[80.6304,31.0744],[80.6539,31.1642],[80.813,31.224],[80.8566,31.2772],[80.9202,31.2939],[80.9763,31.4099],[81.0303,31.4538],[81.1571,31.4689],[81.2113,31.5127],[81.171,31.5678],[81.1722,31.6038],[81.1096,31.6234],[81.0692,31.6784],[81.0908,31.696],[81.0601,31.7237],[80.9552,31.7442],[80.8827,31.7909],[80.9569,31.7982],[81.0111,31.8421],[81.0786,31.9669],[81.0477,31.9946],[80.9631,31.9966],[80.903,32.1061],[80.8601,32.089],[80.8183,32.108],[80.7325,32.0737],[80.7097,32.02],[80.6787,32.0477],[80.6607,32.1563],[80.6188,32.1752],[80.641,32.2108],[80.6213,32.2653],[80.5068,32.3487]]]]}},{"type":"Feature","properties":{"cell":140,"feature":813,"phase":"Unclassified","min_bt_K":214.1,"area_km2":4532,"cold_core_km2":428,"speed_kmh":null,"heading_deg":null,"d_min_bt_30":null,"age_min":0,"family":3,"touches_missing":true,"lon":82.9925,"lat":26.5447,"merges_splits_so_far":1},"geometry":{"type":"MultiPolygon","coordinates":[[[[83.0576,26.97],[82.8708,26.8507],[82.7903,26.8536],[82.8178,26.7894],[82.7953,26.736],[82.7447,26.7289],[82.5669,26.5636],[82.5632,26.4734],[82.6004,26.3999],[82.5789,26.3645],[82.6085,26.3544],[82.6493,26.3711],[82.7257,26.278],[82.7834,26.2218],[82.8234,26.2203],[82.8419,26.1835],[82.9219,26.1805],[82.9634,26.2151],[83.0034,26.2136],[83.0651,26.2473],[83.1043,26.2277],[83.1651,26.2434],[83.2093,26.332],[83.2485,26.3124],[83.3407,26.3538],[83.3432,26.4079],[83.3641,26.4251],[83.3693,26.5332],[83.3318,26.589],[83.3344,26.643],[83.2391,26.7552],[83.2442,26.8634],[83.1742,26.8752],[83.0576,26.97]]],[[[83.1303,26.5789],[83.1286,26.5429],[83.0869,26.5084],[83.086,26.4903],[83.1253,26.4707],[83.0723,26.4096],[83.0435,26.4378],[83.074,26.4457],[83.0852,26.4723],[83.0467,26.5099],[83.0877,26.5264],[83.0901,26.5805],[83.1303,26.5789]]]]}}]}