{"type":"FeatureCollection","features":[{"type":"Feature","properties":{"cell":47,"feature":852,"phase":"Developing","min_bt_K":214.2,"area_km2":71788,"cold_core_km2":548,"speed_kmh":270.2,"heading_deg":156,"d_min_bt_30":-19.9,"age_min":270,"family":3,"touches_missing":true,"lon":83.1175,"lat":27.6903,"merges_splits_so_far":21},"geometry":{"type":"MultiPolygon","coordinates":[[[[82.6865,30.4313],[82.5907,30.3895],[82.5999,30.3621],[82.6523,30.3693],[82.6065,30.2807],[82.6629,30.1524],[82.7143,30.1416],[82.7541,30.104],[82.7956,30.1026],[82.8841,30.0001],[82.8823,29.964],[82.9139,29.9719],[82.9535,29.9343],[82.9967,29.9688],[83.3489,29.955],[83.3559,29.8916],[83.3342,29.8744],[83.3313,29.8204],[83.3895,29.7458],[83.234,29.743],[83.2059,29.5998],[83.144,29.6022],[83.0875,29.7127],[82.8386,29.704],[82.7784,29.7423],[82.737,29.7437],[82.6974,29.7813],[82.6552,29.7647],[82.6328,29.7294],[82.6237,29.7568],[82.6461,29.7921],[82.6163,29.8202],[82.5518,29.7683],[82.4997,29.7611],[82.4989,29.743],[82.5394,29.7236],[82.5337,29.5975],[82.5115,29.5622],[82.5908,29.4872],[82.5867,29.3971],[82.5415,29.3085],[82.5588,29.2357],[82.5145,29.165],[82.554,29.1276],[82.5509,29.0555],[82.5879,28.964],[82.5445,28.9113],[82.5634,28.8746],[82.5011,28.8587],[82.4949,28.7145],[82.4736,28.6972],[82.4895,28.5883],[82.3971,28.5824],[82.3343,28.5484],[82.192,28.571],[82.1292,28.5369],[81.9487,28.6327],[81.8458,28.6177],[81.7653,28.6561],[81.7231,28.6212],[81.58,28.6252],[81.5601,28.6438],[81.4783,28.6459],[81.4182,28.6836],[81.1279,28.5645],[81.0462,28.5664],[81.0247,28.5308],[80.9225,28.5331],[80.8906,28.4887],[80.9613,28.46],[80.9912,28.4323],[80.9902,28.3962],[80.8767,28.3536],[80.7344,28.3747],[80.6818,28.3126],[80.6406,28.2954],[80.6704,28.2677],[80.7728,28.2837],[80.9548,28.2256],[81.2196,28.2193],[81.2818,28.2539],[81.3226,28.2529],[81.3523,28.2251],[81.3209,28.1988],[81.2191,28.2013],[81.1976,28.1657],[81.1569,28.1667],[81.1459,28.1399],[81.0942,28.1141],[81.0337,28.1335],[81.0014,28.0711],[81.0509,28.0248],[81.1119,28.0234],[81.19,27.9132],[81.251,27.9117],[81.2707,27.8932],[81.4135,27.9076],[81.4535,27.8885],[81.4726,27.8519],[81.5132,27.8508],[81.6504,27.7027],[81.6904,27.6835],[81.7315,27.7004],[81.761,27.6725],[81.7572,27.5643],[81.7971,27.5451],[81.835,27.4718],[81.8129,27.4182],[81.9512,27.3239],[81.959,27.2605],[82.0579,27.2033],[82.1393,27.2188],[82.2381,27.1615],[82.3188,27.1589],[82.4056,27.0567],[82.4139,27.0113],[82.4945,27.0085],[82.5967,27.0411],[82.7579,27.0354],[82.8627,26.8961],[82.8178,26.7894],[82.907,26.759],[82.9352,26.7128],[83.0131,26.6557],[83.0596,26.5726],[83.1391,26.5515],[83.2255,26.4668],[83.203,26.4135],[83.2205,26.3586],[83.2693,26.3296],[83.3694,26.3255],[83.4077,26.2878],[83.5261,26.2468],[83.5696,26.3172],[83.6497,26.3138],[83.662,26.3584],[83.7134,26.3833],[83.7562,26.4356],[83.8268,26.4415],[83.8297,26.4956],[83.8707,26.5118],[83.8745,26.5839],[83.906,26.6095],[83.9261,26.6086],[83.9729,26.5433],[83.9309,26.5091],[84.0082,26.4514],[83.99,26.4883],[84.0095,26.8487],[83.9903,26.8676],[83.9933,26.9216],[83.954,26.9415],[83.9962,26.9757],[83.9991,27.0297],[83.9598,27.0496],[84.0021,27.0838],[84.01,27.2279],[83.9908,27.2468],[84.0097,27.589],[83.9905,27.6079],[84.0096,27.9501],[83.9903,27.969],[84.0097,28.3112],[83.9903,28.3301],[84.0099,28.6722],[83.9905,28.6911],[84.0093,29.0152],[83.9898,29.0341],[84.0095,29.7191],[83.9682,29.721],[83.9529,29.8119],[83.9136,29.8497],[83.9158,29.8857],[83.8754,29.9056],[83.8786,29.9596],[83.8481,29.97],[83.8295,30.0069],[83.7683,30.0276],[83.7061,30.0303],[83.6844,30.0132],[83.644,30.033],[83.5797,29.9996],[83.5393,30.0194],[83.5008,30.0751],[83.4179,30.0785],[83.3171,30.1368],[83.2954,30.1196],[83.235,30.1581],[83.1727,30.1605],[83.1133,30.217],[83.0717,30.2186],[83.0528,30.2554],[82.9308,30.3141],[82.8269,30.318],[82.7663,30.3562],[82.7247,30.3577],[82.6865,30.4313]]],[[[83.5999,26.7223],[83.5588,26.706],[83.5561,26.6519],[83.4504,26.548],[83.4373,26.4853],[83.4086,26.5136],[83.4103,26.5496],[83.4932,26.6004],[83.5177,26.6896],[83.5702,26.7326],[83.5999,26.7223]]],[[[83.9524,27.2847],[83.9888,27.2108],[83.9772,27.1842],[83.9686,27.2117],[83.9293,27.2315],[83.9322,27.2856],[83.9524,27.2847]]]]}},{"type":"Feature","properties":{"cell":55,"feature":853,"phase":"Developing","min_bt_K":217.2,"area_km2":27040,"cold_core_km2":1400,"speed_kmh":10.5,"heading_deg":171,"d_min_bt_30":2.2,"age_min":240,"family":3,"touches_missing":true,"lon":74.3517,"lat":33.5755,"merges_splits_so_far":16},"geometry":{"type":"MultiPolygon","coordinates":[[[[73.4326,34.0084],[73.0114,33.9843],[73.0144,33.9303],[72.9558,33.8198],[72.9784,33.8026],[72.9835,33.7126],[73.0287,33.6782],[73.0563,33.5709],[73.1013,33.5365],[73.0818,33.4996],[73.1053,33.4644],[73.1082,33.4104],[73.0877,33.3916],[73.0976,33.2115],[73.1648,33.1598],[73.1677,33.1057],[73.2906,33.0109],[73.378,32.9778],[73.419,33.0153],[73.4618,33.0168],[73.5749,32.8943],[73.6825,32.8798],[73.727,32.8451],[73.9175,32.8872],[73.999,32.9798],[74.0845,32.9824],[74.094,33.0097],[74.167,33.057],[74.2312,33.0588],[74.2969,33.0245],[74.339,33.0437],[74.4039,33.0275],[74.7248,33.0357],[74.828,33.1465],[74.9131,33.1665],[74.9572,33.1314],[74.967,33.1587],[75.1239,33.2795],[75.1883,33.2808],[75.2086,33.3173],[75.2202,33.2905],[75.1999,33.254],[75.2439,33.2188],[75.245,33.1828],[75.278,33.1564],[75.3422,33.1577],[75.405,33.213],[75.4583,33.2231],[75.4573,33.2592],[75.5416,33.3149],[75.5406,33.3509],[75.5831,33.3698],[75.6136,33.4335],[75.7623,33.5082],[75.7838,33.5085],[75.7952,33.4817],[75.7545,33.3908],[75.7225,33.3812],[75.7124,33.354],[75.8093,33.3466],[75.8619,33.3925],[75.861,33.4286],[75.9028,33.4834],[75.9977,33.5661],[76.0936,33.6126],[76.1352,33.6853],[76.1779,33.7039],[76.1768,33.7581],[76.2408,33.795],[76.2401,33.8311],[76.2723,33.8405],[76.3464,33.9226],[76.3124,34.0034],[75.9879,33.9989],[75.945,33.9802],[75.923,33.998],[75.36,34.0061],[75.3184,33.9511],[75.2951,34.0048],[74.0399,33.9916],[74.0175,34.009],[73.4551,33.9911],[73.4326,34.0084]]],[[[74.8324,33.9315],[74.7904,33.8944],[74.7911,33.8764],[74.835,33.8594],[74.7931,33.8223],[74.7937,33.8043],[74.8375,33.7873],[74.8408,33.6971],[74.8205,33.6605],[74.7259,33.5951],[74.7252,33.6131],[74.799,33.66],[74.7944,33.7862],[74.7499,33.8212],[74.7924,33.8403],[74.7918,33.8583],[74.7472,33.8934],[74.7793,33.9032],[74.7996,33.9397],[74.8324,33.9315]]],[[[73.9778,33.692],[73.9898,33.6653],[73.9467,33.664],[73.9157,33.636],[73.95,33.5919],[73.9285,33.5913],[73.8605,33.6614],[73.8175,33.66],[73.7976,33.6233],[73.7433,33.6306],[73.7528,33.658],[73.7959,33.6593],[73.8373,33.6967],[73.9778,33.692]]],[[[75.1578,33.9027],[75.1595,33.8486],[75.1169,33.8297],[75.1175,33.8116],[75.1612,33.7945],[75.163,33.7404],[75.1204,33.7215],[75.1222,33.6674],[75.0902,33.6577],[75.0698,33.6211],[75.0779,33.7025],[75.1198,33.7395],[75.0953,33.8292],[75.1151,33.8837],[75.1578,33.9027]]],[[[74.3129,33.9363],[74.3465,33.9101],[74.4113,33.9119],[74.4671,33.8682],[74.4693,33.8141],[74.6023,33.7274],[74.5925,33.7],[74.5494,33.6989],[74.5264,33.7344],[74.4833,33.7333],[74.4276,33.7769],[74.4254,33.831],[74.3696,33.8746],[74.2936,33.8816],[74.2913,33.9357],[74.3129,33.9363]]],[[[74.2095,33.8251],[74.1999,33.7977],[74.1567,33.7965],[74.1152,33.7592],[74.0504,33.7573],[73.9953,33.7828],[74.0264,33.8108],[74.0488,33.7934],[74.1351,33.7959],[74.1552,33.8326],[74.2095,33.8251]]]]}},{"type":"Feature","properties":{"cell":97,"feature":844,"phase":"Developing","min_bt_K":230.5,"area_km2":3156,"cold_core_km2":0,"speed_kmh":14.3,"heading_deg":153,"d_min_bt_30":3.4,"age_min":90,"family":3,"touches_missing":true,"lon":72.3628,"lat":32.3492,"merges_splits_so_far":0},"geometry":{"type":"MultiPolygon","coordinates":[[[[72.1546,32.6772],[72.112,32.6753],[71.9989,32.6071],[71.9929,32.3722],[72.0254,32.3646],[72.2054,32.2102],[72.2478,32.212],[72.337,32.1436],[72.3449,32.1891],[72.3973,32.2003],[72.4408,32.1841],[72.6197,32.029],[72.6621,32.0307],[72.7023,32.0684],[72.7477,32.0161],[72.8102,32.0366],[72.8334,32.0014],[72.8757,32.003],[72.9089,31.9773],[72.9229,31.9146],[72.9632,31.9523],[73.0055,31.9538],[73.0358,31.9821],[73.0127,32.0173],[72.9593,32.0243],[72.8254,32.1455],[72.782,32.1618],[72.7507,32.1516],[72.8183,32.082],[72.8092,32.0546],[72.7305,32.1327],[72.7487,32.1876],[72.6587,32.2742],[72.6535,32.3643],[72.61,32.3805],[72.6238,32.5074],[72.5904,32.5331],[72.5478,32.5314],[72.5244,32.5665],[72.4605,32.5639],[72.4371,32.599],[72.3732,32.5963],[72.3508,32.6134],[72.3205,32.5851],[72.325,32.5131],[72.2936,32.5027],[72.278,32.5833],[72.2981,32.6022],[72.2746,32.6373],[72.2208,32.644],[72.2118,32.6165],[72.1805,32.6061],[72.1894,32.6336],[72.1546,32.6772]]]]}},{"type":"Feature","properties":{"cell":108,"feature":846,"phase":"Developing","min_bt_K":231.3,"area_km2":22860,"cold_core_km2":0,"speed_kmh":103.7,"heading_deg":84,"d_min_bt_30":-2.2,"age_min":90,"family":3,"touches_missing":true,"lon":79.6241,"lat":33.0895,"merges_splits_so_far":10},"geometry":{"type":"MultiPolygon","coordinates":[[[[80.315,33.9941],[79.666,34.0037],[79.5888,33.9234],[79.5869,33.8152],[79.5646,33.7794],[79.5856,33.743],[79.6284,33.7245],[79.6267,33.6343],[79.6691,33.5977],[79.6366,33.5891],[79.6264,33.6163],[79.5942,33.6257],[79.4847,33.5187],[79.3878,33.5107],[79.3431,33.4029],[79.3412,33.2766],[79.3086,33.2499],[79.1368,33.2334],[79.1255,33.1884],[79.0718,33.1798],[79.0285,33.1441],[78.9644,33.1626],[78.8787,33.1632],[78.8571,33.1453],[78.7831,33.263],[78.7512,33.2903],[78.7082,33.2905],[78.6972,33.2454],[78.557,33.1288],[78.3641,33.1115],[78.3319,33.0845],[78.353,33.0123],[78.2886,32.9222],[78.2884,32.8861],[78.3845,32.8588],[78.4483,32.8045],[78.6191,32.8038],[78.6293,32.7406],[78.7036,32.6952],[78.9381,32.6937],[78.9383,32.7118],[78.9064,32.721],[78.9177,32.7841],[78.9702,32.7025],[78.9485,32.6666],[78.9693,32.6123],[79.1076,32.6022],[79.1603,32.5567],[79.1598,32.5206],[79.0956,32.4851],[79.1587,32.4304],[79.1582,32.3943],[79.2528,32.3123],[79.3815,32.4012],[79.424,32.4008],[79.5318,32.4898],[79.5947,32.4349],[79.6588,32.4522],[79.6689,32.425],[79.6261,32.4075],[79.6575,32.38],[79.8274,32.3778],[79.9348,32.4304],[79.9352,32.4485],[79.9035,32.4579],[79.905,32.5301],[79.9696,32.5652],[79.9715,32.6554],[79.9506,32.6737],[79.9723,32.6915],[79.9847,32.7725],[80.0914,32.7708],[80.2177,32.6966],[80.2816,32.6956],[80.3021,32.6591],[80.3873,32.6576],[80.4001,32.7386],[80.3579,32.7574],[80.3621,32.9197],[80.3303,32.9293],[80.3189,32.9024],[80.2975,32.9028],[80.3212,32.9926],[80.3863,33.0275],[80.3626,32.9377],[80.4143,32.8736],[80.4571,32.8729],[80.5008,32.9081],[80.6926,32.8864],[80.7369,32.9396],[80.8865,32.9364],[80.9195,32.9628],[80.8987,32.9813],[80.9027,33.1075],[80.8605,33.1264],[80.8935,33.1528],[80.9033,33.1255],[80.9664,33.088],[80.9491,33.2147],[80.9711,33.2323],[80.9735,33.3044],[81.0176,33.3395],[80.9857,33.3492],[80.9422,33.3322],[80.8795,33.3877],[80.7303,33.4269],[80.6228,33.429],[80.6008,33.4114],[80.5693,33.4391],[80.5709,33.4932],[80.5499,33.5116],[80.573,33.5653],[80.5194,33.5754],[80.4673,33.6395],[80.4899,33.6751],[80.4363,33.6852],[80.4157,33.7216],[80.3931,33.6859],[80.3395,33.6959],[80.3625,33.7496],[80.3203,33.7865],[80.3649,33.8398],[80.3332,33.8674],[80.2781,33.8233],[80.2762,33.7511],[80.3175,33.6782],[80.3161,33.6241],[80.3481,33.6146],[80.3582,33.5873],[80.2945,33.6245],[80.2959,33.6786],[80.2533,33.6974],[80.2565,33.8236],[80.2785,33.8413],[80.2583,33.8958],[80.2804,33.9134],[80.2818,33.9676],[80.3145,33.976],[80.315,33.9941]]],[[[80.5987,32.9694],[80.5873,32.9426],[80.5555,32.9522],[80.5669,32.979],[80.5987,32.9694]]],[[[80.6526,33.3472],[80.6516,33.3112],[80.6076,33.276],[80.594,33.177],[80.5861,33.2764],[80.6081,33.294],[80.6097,33.3481],[80.6526,33.3472]]]]}},{"type":"Feature","properties":{"cell":109,"feature":848,"phase":"Developing","min_bt_K":228.3,"area_km2":2252,"cold_core_km2":0,"speed_kmh":25.6,"heading_deg":309,"d_min_bt_30":-1.1,"age_min":90,"family":3,"touches_missing":true,"lon":76.0929,"lat":33.4216,"merges_splits_so_far":2},"geometry":{"type":"MultiPolygon","coordinates":[[[[76.426,33.6981],[76.3398,33.697],[76.3189,33.6607],[76.2338,33.6055],[76.1038,33.6398],[76.0619,33.585],[75.9977,33.5661],[75.9028,33.4834],[75.861,33.4286],[75.8619,33.3925],[75.8093,33.3466],[75.7129,33.3359],[75.6714,33.2811],[75.7161,33.2097],[75.7914,33.202],[75.8338,33.2207],[75.8452,33.1938],[75.9431,33.1322],[76.0066,33.1693],[76.1325,33.2974],[76.2195,33.2444],[76.2824,33.3174],[76.3359,33.3271],[76.3353,33.3632],[76.3776,33.3998],[76.3981,33.4542],[76.3759,33.49],[76.481,33.6356],[76.426,33.6981]]]]}},{"type":"Feature","properties":{"cell":123,"feature":847,"phase":"Developing","min_bt_K":233.0,"area_km2":9328,"cold_core_km2":0,"speed_kmh":45.7,"heading_deg":249,"d_min_bt_30":-0.1,"age_min":60,"family":3,"touches_missing":false,"lon":76.4451,"lat":32.9717,"merges_splits_so_far":3},"geometry":{"type":"MultiPolygon","coordinates":[[[[76.6198,33.7183],[76.5341,33.6813],[76.5026,33.6358],[76.4386,33.599],[76.4392,33.5629],[76.3759,33.49],[76.3981,33.4542],[76.3353,33.3632],[76.3369,33.273],[76.3805,33.2375],[76.2852,33.1731],[76.2209,33.1723],[76.2089,33.2353],[76.1547,33.2616],[76.0919,33.1885],[75.9851,33.1689],[75.9326,33.123],[75.9334,33.087],[75.8709,33.0138],[75.8285,32.9951],[75.808,32.9587],[75.8198,32.9137],[75.8621,32.9325],[75.9262,32.9335],[75.948,32.9158],[76.0331,32.9351],[76.0657,32.9085],[76.0665,32.8724],[76.004,32.7994],[76.0277,32.6915],[75.9657,32.6003],[75.8931,32.518],[75.8296,32.499],[75.7671,32.4438],[75.7142,32.4339],[75.7164,32.3437],[75.749,32.3172],[75.7914,32.3179],[75.9589,32.4288],[76.0118,32.4387],[75.9685,32.4741],[75.9669,32.5462],[75.9987,32.5557],[76.0192,32.5921],[76.0629,32.5386],[76.1163,32.5304],[76.129,32.4313],[76.2774,32.4514],[76.2984,32.4697],[76.5111,32.4722],[76.626,32.6088],[76.6894,32.6455],[76.6881,32.7357],[76.73,32.7902],[76.9416,32.9544],[77.0259,33.0633],[77.0792,33.0907],[77.1321,33.1542],[77.1318,33.1903],[77.1743,33.2267],[77.174,33.2628],[77.2164,33.3171],[77.2151,33.4615],[77.0753,33.4696],[76.9899,33.4148],[76.9254,33.4143],[76.9037,33.4322],[76.8177,33.4315],[76.7527,33.467],[76.71,33.4485],[76.6466,33.3757],[76.6351,33.4207],[76.5916,33.4563],[76.5904,33.5285],[76.5686,33.5463],[76.5887,33.6367],[76.6313,33.6733],[76.6198,33.7183]]]]}},{"type":"Feature","properties":{"cell":126,"feature":829,"phase":"Unclassified","min_bt_K":238.3,"area_km2":6508,"cold_core_km2":0,"speed_kmh":120.1,"heading_deg":7,"d_min_bt_30":1.3,"age_min":30,"family":126,"touches_missing":true,"lon":83.5107,"lat":31.8039,"merges_splits_so_far":0},"geometry":{"type":"MultiPolygon","coordinates":[[[[83.9546,32.3836],[83.9322,32.3665],[83.8472,32.3703],[83.7913,32.3276],[83.7768,32.2651],[83.7343,32.2669],[83.6016,32.1823],[83.5269,32.1764],[83.5237,32.1224],[83.6274,32.082],[83.5829,32.0478],[83.5797,31.9937],[83.4808,31.9347],[83.3962,31.9382],[83.373,31.903],[83.3096,31.9056],[83.3026,31.969],[83.3258,32.0042],[83.3692,32.0205],[83.3712,32.0565],[83.341,32.0848],[83.2674,32.0967],[83.2796,32.1233],[83.5089,32.2313],[83.492,32.3042],[83.4022,32.4071],[83.3274,32.4011],[83.3253,32.3651],[83.2807,32.3308],[83.2777,32.2768],[83.211,32.2253],[83.2089,32.1892],[83.1404,32.1017],[82.9974,32.0079],[82.957,32.0455],[82.9248,32.0377],[82.9238,32.0196],[82.9652,32.0001],[82.9623,31.946],[82.9402,31.9288],[82.9705,31.9006],[82.9926,31.9178],[83.0983,31.9138],[83.1255,31.8316],[83.0794,31.7612],[83.0363,31.7448],[83.0343,31.7087],[82.9902,31.6743],[82.9994,31.6469],[83.1057,31.6609],[83.2693,31.7538],[83.3277,31.8507],[83.38,31.8396],[83.3758,31.7675],[83.3537,31.7504],[83.3717,31.6955],[83.3285,31.6792],[83.3265,31.6432],[83.2944,31.6355],[83.2382,31.5745],[83.2362,31.5385],[83.1922,31.5042],[83.1892,31.4501],[83.1672,31.433],[83.2034,31.3233],[83.1794,31.2701],[83.1875,31.2246],[83.2504,31.2222],[83.3164,31.2737],[83.3804,31.2891],[83.4354,31.332],[83.4595,31.3852],[83.5236,31.4006],[83.6704,31.5658],[83.7125,31.564],[83.7425,31.5356],[83.7171,31.4646],[83.7691,31.4533],[83.778,31.4258],[83.8289,31.3965],[83.8854,31.4572],[83.9507,31.4904],[83.9519,31.5084],[83.891,31.5472],[83.9143,31.5823],[83.9199,31.6722],[83.9011,31.7092],[83.8711,31.7376],[83.8267,31.7034],[83.7745,31.7147],[83.899,31.8446],[83.9957,31.8674],[83.9892,31.9308],[83.9446,31.8967],[83.8924,31.9081],[83.8958,31.9621],[83.985,32.0303],[83.9942,32.1742],[83.7399,32.1854],[83.8504,32.2528],[83.8751,32.3059],[83.9634,32.3561],[83.9546,32.3836]]]]}},{"type":"Feature","properties":{"cell":131,"feature":838,"phase":"Developing","min_bt_K":233.3,"area_km2":23772,"cold_core_km2":0,"speed_kmh":119.9,"heading_deg":30,"d_min_bt_30":-0.7,"age_min":30,"family":3,"touches_missing":true,"lon":80.4801,"lat":29.9659,"merges_splits_so_far":2},"geometry":{"type":"MultiPolygon","coordinates":[[[[81.0878,30.6225],[80.9835,30.6249],[80.961,30.5713],[80.836,30.574],[80.8146,30.5565],[80.7938,30.5569],[80.7739,30.5934],[80.6905,30.5951],[80.6702,30.6136],[80.5659,30.6156],[80.5232,30.5804],[80.4815,30.5812],[80.4611,30.5996],[80.3986,30.6007],[80.3577,30.6375],[80.2952,30.6386],[80.2616,30.54],[80.1263,30.5512],[80.1141,30.4703],[80.0297,30.4174],[80.1315,30.3076],[80.1303,30.2535],[80.0668,30.2004],[80.0657,30.1463],[79.9819,30.1115],[79.9707,30.0665],[79.9084,30.0674],[79.8469,30.1044],[79.7435,30.1238],[79.7233,30.1602],[79.661,30.161],[79.5976,30.0896],[79.5564,30.1081],[79.4526,30.1093],[79.4314,30.0734],[79.3901,30.0919],[79.2657,30.0932],[79.2447,30.0753],[79.1617,30.0761],[79.1508,30.0311],[79.2124,29.9764],[79.2117,29.9223],[79.2834,29.8585],[79.3455,29.8578],[79.3762,29.8305],[79.3757,29.7944],[79.4568,29.6853],[79.5692,29.6028],[79.6097,29.5482],[79.6509,29.5476],[79.8334,29.3648],[79.9769,29.3266],[80.1019,29.3969],[80.1427,29.3782],[80.3285,29.3931],[80.5368,29.4795],[80.6605,29.477],[80.7013,29.4582],[80.6999,29.4041],[80.7209,29.4217],[80.7823,29.4024],[80.9471,29.3988],[81.0094,29.4154],[81.0311,29.451],[81.196,29.4471],[81.2072,29.4739],[81.249,29.491],[81.2502,29.527],[81.3238,29.5703],[81.4889,29.566],[81.5102,29.5835],[81.5302,29.5649],[81.6673,29.6424],[81.6706,29.7325],[81.5711,29.8435],[81.6645,29.85],[81.7721,29.9552],[81.8763,29.9703],[81.9192,30.0051],[81.9399,30.0045],[81.9592,29.9678],[82.0628,29.9647],[82.1057,29.9994],[82.2408,30.0042],[82.2431,30.0583],[82.1732,30.1236],[82.0064,30.1108],[81.9428,30.0766],[81.8391,30.0796],[81.7541,30.0279],[81.6919,30.0297],[81.6423,30.0942],[81.6738,30.1024],[81.728,30.164],[81.6872,30.1832],[81.6885,30.2192],[81.649,30.2745],[81.5778,30.3215],[81.5148,30.3052],[81.4846,30.333],[81.467,30.4237],[81.3647,30.4805],[81.3363,30.5624],[81.1695,30.5665],[81.0878,30.6225]]],[[[80.5246,30.2285],[80.545,30.2101],[80.5431,30.1379],[80.5837,30.1011],[80.5721,30.0562],[80.5413,30.0658],[80.5426,30.1199],[80.5016,30.1387],[80.5039,30.2289],[80.5246,30.2285]]],[[[81.3806,30.3357],[81.3788,30.2816],[81.4197,30.2625],[81.4588,30.1894],[81.4154,30.1364],[81.3732,30.1194],[81.3607,30.0566],[81.3525,30.1199],[81.4166,30.1724],[81.4185,30.2265],[81.3876,30.2363],[81.3378,30.3007],[81.339,30.3368],[81.3806,30.3357]]],[[[80.9071,30.5094],[80.8643,30.4742],[80.8638,30.4562],[80.9049,30.4372],[80.8622,30.4021],[80.85,30.3392],[80.8414,30.4025],[80.8633,30.4381],[80.8435,30.4746],[80.8761,30.519],[80.9071,30.5094]]]]}},{"type":"Feature","properties":{"cell":135,"feature":841,"phase":"Developing","min_bt_K":233.0,"area_km2":53356,"cold_core_km2":0,"speed_kmh":23.6,"heading_deg":345,"d_min_bt_30":-1.0,"age_min":30,"family":3,"touches_missing":true,"lon":80.1464,"lat":31.6013,"merges_splits_so_far":3},"geometry":{"type":"MultiPolygon","coordinates":[[[[80.629,32.9057],[80.5008,32.9081],[80.4571,32.8729],[80.4034,32.8648],[80.4006,32.7566],[80.4423,32.7198],[80.4408,32.6657],[80.3973,32.6304],[80.4171,32.5759],[80.384,32.5314],[80.3741,32.5586],[80.3963,32.5943],[80.3542,32.6131],[80.3873,32.6576],[80.3021,32.6591],[80.2816,32.6956],[80.2177,32.6966],[80.0914,32.7708],[79.9847,32.7725],[79.9723,32.6915],[79.9506,32.6737],[79.9715,32.6554],[79.9696,32.5652],[79.905,32.5301],[79.9035,32.4579],[79.9456,32.4393],[79.8274,32.3778],[79.6575,32.38],[79.6365,32.3983],[79.6245,32.3173],[79.5593,32.2279],[79.5476,32.1649],[79.5163,32.1923],[79.4962,32.2647],[79.5174,32.2644],[79.5276,32.2373],[79.5596,32.2459],[79.5605,32.3],[79.6033,32.3176],[79.6048,32.4077],[79.6264,32.4255],[79.5318,32.4898],[79.424,32.4008],[79.3815,32.4012],[79.3172,32.3658],[79.274,32.3121],[79.1582,32.3943],[79.1587,32.4304],[79.1061,32.476],[79.0524,32.4313],[79.0627,32.4041],[78.9138,32.3872],[78.8502,32.4057],[78.84,32.4508],[78.8081,32.4601],[78.7766,32.5053],[78.6601,32.5691],[78.5959,32.5333],[78.5535,32.5516],[78.4679,32.4617],[78.3828,32.462],[78.3508,32.435],[78.372,32.4169],[78.3505,32.3448],[78.446,32.3355],[78.4671,32.3174],[78.5733,32.317],[78.605,32.2898],[78.583,32.1636],[78.6463,32.1272],[78.6461,32.0911],[78.6987,32.0458],[78.7834,32.0453],[78.8466,32.0088],[78.899,31.9634],[78.9404,31.8729],[79.0244,31.8181],[79.024,31.7821],[78.9177,31.7107],[78.9386,31.6925],[78.9165,31.5844],[78.8846,31.5576],[78.8425,31.5578],[78.7683,31.4952],[78.7674,31.3869],[78.8719,31.3141],[78.9129,31.2056],[78.9443,31.1964],[79.0078,31.25],[79.1967,31.2484],[79.2687,31.1305],[79.3308,31.0758],[79.3508,31.0034],[79.5375,30.8931],[79.5366,30.839],[79.4943,30.8034],[79.701,30.6747],[79.6581,30.603],[79.813,30.5198],[79.8755,30.5189],[79.9581,30.4817],[79.9987,30.4269],[80.0403,30.4263],[80.1141,30.4703],[80.1263,30.5512],[80.251,30.5311],[80.2952,30.6386],[80.3577,30.6375],[80.3986,30.6007],[80.4611,30.5996],[80.4815,30.5812],[80.5232,30.5804],[80.5659,30.6156],[80.6702,30.6136],[80.6905,30.5951],[80.7739,30.5934],[80.7938,30.5569],[80.836,30.574],[80.961,30.5713],[80.9835,30.6249],[81.0878,30.6225],[81.1695,30.5665],[81.3363,30.5624],[81.3298,30.6798],[81.3741,30.7509],[81.3766,30.823],[81.4304,30.8667],[81.5788,30.9169],[81.6233,30.9879],[81.7482,30.9664],[81.7806,30.9925],[81.7255,31.1925],[81.6314,31.2042],[81.6118,31.2408],[81.5272,31.225],[81.3841,31.337],[81.372,31.2922],[81.4134,31.2731],[81.3816,31.2649],[81.2713,31.421],[81.2948,31.4926],[81.2432,31.5209],[81.2317,31.4942],[81.1998,31.4859],[81.1306,31.6229],[81.1529,31.6584],[81.133,31.695],[81.1445,31.7218],[81.1541,31.6945],[81.1957,31.6754],[81.1517,31.6224],[81.1933,31.6033],[81.2017,31.54],[81.2788,31.6373],[81.2385,31.6925],[81.271,31.7187],[81.3554,31.7166],[81.397,31.6975],[81.4065,31.6702],[81.2986,31.6008],[81.3497,31.5544],[81.4129,31.5528],[81.4727,31.461],[81.5359,31.4593],[81.5806,31.5303],[81.6221,31.5111],[81.6417,31.4745],[81.7171,31.5175],[81.7084,31.5629],[81.6452,31.5646],[81.6357,31.592],[81.5024,31.6948],[81.4909,31.668],[81.4589,31.6598],[81.4929,31.7221],[81.4104,31.7784],[81.4131,31.8505],[81.4566,31.8854],[81.4586,31.9395],[81.5132,31.9832],[81.5337,31.9646],[81.5657,31.9728],[81.5685,32.0449],[81.5268,32.064],[81.533,32.2262],[81.5761,32.2431],[81.5768,32.2611],[81.4515,32.3186],[81.4535,32.3727],[81.4754,32.3901],[81.4582,32.4988],[81.3758,32.5731],[81.3771,32.6092],[81.3262,32.6736],[81.2835,32.6747],[81.2532,32.7205],[81.1801,32.7674],[81.0948,32.7694],[81.0429,32.8157],[81.0338,32.861],[80.991,32.862],[80.8814,32.7742],[80.796,32.776],[80.7139,32.8859],[80.6498,32.8872],[80.629,32.9057]]],[[[79.7296,31.1073],[79.8118,31.016],[79.7696,30.9985],[79.7686,30.9444],[79.7473,30.9266],[79.7463,30.8725],[79.7875,30.8359],[79.7762,30.7909],[79.745,30.8004],[79.746,30.8545],[79.7045,30.8731],[79.7051,30.9091],[79.7476,30.9447],[79.7486,30.9988],[79.7699,31.0165],[79.7499,31.0709],[79.7083,31.0895],[79.7193,31.1164],[79.7296,31.1073]]],[[[79.6053,31.199],[79.6041,31.1269],[79.6552,31.0451],[79.6342,31.0453],[79.6038,31.1088],[79.5622,31.1274],[79.5634,31.1995],[79.6053,31.199]]],[[[81.3447,32.3033],[81.3331,32.2765],[81.3016,32.2863],[81.3132,32.3131],[81.3447,32.3033]]]]}},{"type":"Feature","properties":{"cell":140,"feature":851,"phase":"Unclassified","min_bt_K":217.2,"area_km2":3336,"cold_core_km2":224,"speed_kmh":36.4,"heading_deg":161,"d_min_bt_30":3.1,"age_min":30,"family":3,"touches_missing":false,"lon":83.0534,"lat":26.3899,"merges_splits_so_far":1},"geometry":{"type":"MultiPolygon","coordinates":[[[[82.8676,26.7785],[82.7872,26.7815],[82.7447,26.7289],[82.5892,26.617],[82.5647,26.5095],[82.5342,26.5015],[82.5231,26.4748],[82.5914,26.4273],[82.613,26.4627],[82.6739,26.4786],[82.7784,26.3393],[82.7961,26.2845],[82.9042,26.2354],[82.9226,26.1985],[83.0026,26.1955],[83.0106,26.1501],[83.0586,26.1031],[83.0994,26.1196],[83.1785,26.0984],[83.2409,26.1501],[83.3009,26.1477],[83.3226,26.1829],[83.3617,26.1633],[83.3834,26.1985],[83.4434,26.1961],[83.4626,26.1772],[83.5165,26.2562],[83.4469,26.2682],[83.3694,26.3255],[83.2693,26.3296],[83.2301,26.3492],[83.2022,26.3955],[83.2255,26.4668],[83.1391,26.5515],[83.0596,26.5726],[83.0131,26.6557],[82.8676,26.7785]]]]}},{"type":"Feature","properties":{"cell":145,"feature":837,"phase":"Unclassified","min_bt_K":232.3,"area_km2":26104,"cold_core_km2":0,"speed_kmh":null,"heading_deg":null,"d_min_bt_30":null,"age_min":0,"family":3,"touches_missing":true,"lon":81.2955,"lat":29.0772,"merges_splits_so_far":1},"geometry":{"type":"MultiPolygon","coordinates":[[[[82.0843,29.9821],[82.0628,29.9647],[81.9385,29.9684],[81.9164,29.933],[81.8335,29.9354],[81.8107,29.882],[81.7279,29.8843],[81.7059,29.8489],[81.6859,29.8675],[81.6231,29.8511],[81.6112,29.8064],[81.6706,29.7325],[81.6673,29.6424],[81.6141,29.5988],[81.5728,29.5999],[81.5402,29.5557],[81.4665,29.5125],[81.4252,29.5136],[81.3609,29.443],[81.3197,29.4441],[81.2773,29.409],[81.2155,29.4106],[81.196,29.4471],[81.0311,29.451],[81.0094,29.4154],[80.9471,29.3988],[80.7823,29.4024],[80.7391,29.3311],[80.6362,29.3332],[80.5941,29.2979],[80.5735,29.2983],[80.5538,29.3348],[80.471,29.3183],[80.4596,29.2734],[80.4075,29.2473],[80.2228,29.2686],[80.2026,29.287],[80.0578,29.2532],[80.017,29.2719],[79.9239,29.2462],[79.9117,29.1472],[79.8298,29.1664],[79.7881,29.1308],[79.7264,29.1317],[79.7258,29.0956],[79.7669,29.095],[79.8074,29.0584],[79.869,29.0575],[80.0923,28.9279],[80.1535,28.9088],[80.2154,28.9259],[80.3673,28.842],[80.3669,28.824],[80.2942,28.7801],[80.1307,28.8009],[80.0786,28.7566],[80.0779,28.7206],[80.1181,28.6838],[80.1174,28.6477],[80.0865,28.6392],[80.0757,28.6123],[80.1765,28.5385],[80.1345,28.485],[80.2255,28.4384],[80.2867,28.4374],[80.3075,28.4551],[80.3275,28.4367],[80.3888,28.4356],[80.4483,28.3623],[80.5829,28.4409],[80.5234,28.5143],[80.5347,28.5592],[80.596,28.558],[80.7201,28.6096],[80.7814,28.6083],[80.9475,28.695],[81.0708,28.7102],[81.1333,28.7448],[81.2152,28.7429],[81.2573,28.7779],[81.3392,28.7759],[81.369,28.748],[81.3562,28.6672],[81.4386,28.6831],[81.4783,28.6459],[81.5601,28.6438],[81.58,28.6252],[81.7231,28.6212],[81.7653,28.6561],[81.8458,28.6177],[81.9487,28.6327],[82.1292,28.5369],[82.192,28.571],[82.3343,28.5484],[82.3971,28.5824],[82.4788,28.5797],[82.4918,28.6424],[82.4736,28.6972],[82.4949,28.7145],[82.5011,28.8587],[82.5634,28.8746],[82.5445,28.9113],[82.5879,28.964],[82.5509,29.0555],[82.554,29.1276],[82.5145,29.165],[82.5588,29.2357],[82.5415,29.3085],[82.5867,29.3971],[82.5908,29.4872],[82.5594,29.4793],[82.5503,29.5067],[82.4702,29.5636],[82.5131,29.5982],[82.5163,29.6703],[82.4782,29.7437],[82.5013,29.7971],[82.4607,29.8165],[82.493,29.8425],[82.5518,29.7683],[82.6064,29.8296],[82.5873,29.8663],[82.5468,29.8858],[82.5393,29.9492],[82.4978,29.9506],[82.4341,29.9167],[82.2891,29.9214],[82.27,29.9582],[82.1042,29.9634],[82.0843,29.9821]]],[[[81.5875,29.1393],[81.6068,29.1027],[81.4687,28.9711],[81.4594,28.9984],[81.5651,29.0858],[81.567,29.1399],[81.5875,29.1393]]],[[[80.6607,29.0891],[80.6288,29.0446],[80.5777,29.0546],[80.5891,29.0995],[80.6607,29.0891]]],[[[80.9915,29.1542],[81.0526,29.1347],[81.021,29.1084],[80.8967,29.0751],[80.8045,29.0861],[80.8576,29.1481],[80.9915,29.1542]]]]}},{"type":"Feature","properties":{"cell":147,"feature":840,"phase":"Unclassified","min_bt_K":233.0,"area_km2":3880,"cold_core_km2":0,"speed_kmh":null,"heading_deg":null,"d_min_bt_30":null,"age_min":0,"family":3,"touches_missing":false,"lon":79.1539,"lat":30.9637,"merges_splits_so_far":1},"geometry":{"type":"MultiPolygon","coordinates":[[[[78.7779,31.3778],[78.7463,31.369],[78.7667,31.2967],[78.7029,31.1888],[78.7021,31.0806],[78.7435,31.0082],[78.68,30.9184],[78.7112,30.8911],[78.7739,30.8908],[78.8362,30.8363],[78.8989,30.8359],[78.92,30.8538],[79.0134,30.7899],[79.0339,30.7537],[79.0129,30.7358],[79.0439,30.7085],[79.0861,30.7443],[79.1278,30.7439],[79.2731,30.6704],[79.44,30.6687],[79.5641,30.5952],[79.6475,30.5941],[79.701,30.6747],[79.4943,30.8034],[79.5366,30.839],[79.5375,30.8931],[79.3508,31.0034],[79.3308,31.0758],[79.2274,31.185],[79.2279,31.2211],[79.1967,31.2484],[79.0078,31.25],[78.9233,31.1965],[78.8716,31.278],[78.8719,31.3141],[78.7779,31.3778]]]]}},{"type":"Feature","properties":{"cell":149,"feature":843,"phase":"Unclassified","min_bt_K":232.0,"area_km2":5076,"cold_core_km2":0,"speed_kmh":null,"heading_deg":null,"d_min_bt_30":null,"age_min":0,"family":3,"touches_missing":true,"lon":78.589,"lat":31.7781,"merges_splits_so_far":1},"geometry":{"type":"MultiPolygon","coordinates":[[[[78.446,32.3355],[78.3292,32.3268],[78.3078,32.2908],[78.3076,32.2367],[78.3288,32.2186],[78.2862,32.1826],[78.2861,32.1285],[78.2648,32.1105],[78.2859,32.0743],[78.2222,32.0023],[78.2009,31.9302],[78.1586,31.9122],[78.1585,31.8581],[78.264,31.8218],[78.2428,31.7678],[78.3059,31.7135],[78.2847,31.6594],[78.3477,31.6052],[78.3475,31.551],[78.3791,31.5419],[78.4105,31.4967],[78.3893,31.4607],[78.452,31.3703],[78.4308,31.3343],[78.4832,31.3071],[78.6094,31.3426],[78.6307,31.3786],[78.7674,31.3869],[78.7683,31.4952],[78.8425,31.5578],[78.8846,31.5576],[78.9165,31.5844],[78.9379,31.6203],[78.9386,31.6925],[78.9177,31.7107],[79.024,31.7821],[79.0244,31.8181],[78.9404,31.8729],[78.899,31.9634],[78.8466,32.0088],[78.7834,32.0453],[78.6987,32.0458],[78.6461,32.0911],[78.6463,32.1272],[78.583,32.1636],[78.605,32.2898],[78.5733,32.317],[78.4671,32.3174],[78.446,32.3355]]],[[[78.5382,31.7488],[78.5373,31.5865],[78.5793,31.5683],[78.5786,31.46],[78.5363,31.4241],[78.5255,31.361],[78.4941,31.3882],[78.5364,31.4422],[78.5372,31.5684],[78.4952,31.6047],[78.496,31.749],[78.5382,31.7488]]]]}}]}