{"type":"FeatureCollection","features":[{"type":"Feature","properties":{"cell":47,"feature":895,"phase":"Developing","min_bt_K":218.1,"area_km2":53872,"cold_core_km2":364,"speed_kmh":66.9,"heading_deg":141,"d_min_bt_30":3.9,"age_min":300,"family":3,"touches_missing":true,"lon":83.331,"lat":27.456,"merges_splits_so_far":22},"geometry":{"type":"MultiPolygon","coordinates":[[[[83.2866,29.5605],[83.1825,29.5466],[83.1385,29.4941],[83.0766,29.4965],[83.0641,29.4519],[83.0211,29.4174],[83.0399,29.3806],[82.9871,29.3556],[82.9433,29.3031],[82.7868,29.2637],[82.7843,29.2097],[82.6979,29.1225],[82.7373,29.085],[82.7315,28.9589],[82.6782,28.9157],[82.6159,28.8998],[82.5823,28.8378],[82.5775,28.7297],[82.6153,28.6562],[82.4985,28.5609],[82.4576,28.5623],[82.4258,28.5363],[82.3918,28.4562],[82.2897,28.4596],[82.1898,28.517],[82.1067,28.4835],[81.9835,28.4692],[81.9681,28.3343],[81.9162,28.3088],[81.8142,28.3118],[81.7406,28.2507],[81.7349,28.0884],[81.7546,28.0698],[81.7521,27.9977],[81.7816,27.9698],[81.8222,27.9686],[82.0116,27.8637],[82.0096,27.8096],[82.0684,27.7536],[82.0663,27.6995],[82.1146,27.6348],[82.2571,27.6483],[82.3067,27.6197],[82.3046,27.5656],[82.3443,27.5462],[82.3407,27.4561],[82.2988,27.4213],[82.2953,27.3312],[82.3343,27.2938],[82.3314,27.2216],[82.3696,27.1662],[82.3674,27.1121],[82.4258,27.056],[82.4042,27.0206],[82.4513,26.9378],[82.4833,26.9818],[82.4661,27.0546],[82.5594,27.1146],[82.5989,27.0952],[82.6199,27.1125],[82.74,27.0902],[82.7974,27.0159],[82.9988,27.0084],[83.0471,26.9614],[83.0003,26.8187],[82.9263,26.7402],[82.866,26.7425],[82.8243,26.7079],[82.764,26.7101],[82.7424,26.6748],[82.6115,26.6704],[82.6219,26.4352],[82.6516,26.4252],[82.6701,26.3884],[82.7302,26.3862],[82.8065,26.2932],[82.8465,26.2917],[82.8842,26.2361],[83.0034,26.2136],[83.041,26.1579],[83.1002,26.1376],[83.32,26.1289],[83.3583,26.0912],[83.4782,26.0862],[83.6198,26.1164],[83.6389,26.0975],[83.672,26.1593],[83.7329,26.1747],[83.7347,26.2107],[83.7966,26.2442],[83.8194,26.2973],[83.8708,26.3221],[83.8927,26.3573],[84.0034,26.3613],[83.9978,26.6325],[83.9586,26.6523],[83.9605,26.6884],[84.0026,26.7226],[84.0095,26.8487],[83.9903,26.8676],[84.01,27.2279],[83.9908,27.2468],[84.0097,27.589],[83.9905,27.6079],[84.0096,27.9501],[83.9903,27.969],[84.0099,28.6722],[83.9905,28.6911],[84.0009,28.8712],[83.9814,28.8901],[84.004,28.9252],[84.0093,29.0152],[83.9898,29.0341],[84.0056,29.3041],[83.8996,29.2548],[83.8738,29.1657],[83.8317,29.1495],[83.8081,29.0964],[83.804,29.0244],[83.6281,29.0049],[83.5792,29.0521],[83.5812,29.0881],[83.6232,29.1044],[83.6056,29.1593],[83.6781,29.1652],[83.6899,29.1918],[83.732,29.208],[83.7556,29.2611],[83.841,29.3115],[83.8441,29.3655],[83.7725,29.3777],[83.7539,29.4146],[83.6715,29.4182],[83.6597,29.3916],[83.5744,29.3411],[83.5724,29.3051],[83.5195,29.2802],[83.4724,29.3634],[83.4743,29.3994],[83.4046,29.4474],[83.3634,29.4491],[83.3555,29.4945],[83.3053,29.5236],[83.2866,29.5605]]],[[[83.4469,26.4759],[83.446,26.4578],[83.5236,26.4004],[83.4286,26.305],[83.4199,26.3325],[83.4504,26.3403],[83.4826,26.3841],[83.426,26.4587],[83.4269,26.4767],[83.4469,26.4759]]],[[[83.588,28.8351],[83.5754,28.7906],[83.5139,28.7931],[83.4915,28.758],[83.4408,28.7691],[83.4418,28.7871],[83.4935,28.794],[83.5159,28.8292],[83.588,28.8351]]]]}},{"type":"Feature","properties":{"cell":55,"feature":890,"phase":"Mature","min_bt_K":220.7,"area_km2":29076,"cold_core_km2":4,"speed_kmh":10.5,"heading_deg":215,"d_min_bt_30":3.5,"age_min":270,"family":3,"touches_missing":true,"lon":74.3192,"lat":33.5371,"merges_splits_so_far":17},"geometry":{"type":"MultiPolygon","coordinates":[[[[72.9341,34.0085],[72.9022,33.9983],[72.9054,33.9443],[72.8848,33.9254],[72.8737,33.7445],[72.9178,33.7281],[72.9507,33.5308],[73.0398,33.48],[73.0428,33.426],[73.0897,33.3555],[73.0508,33.2819],[72.968,33.2247],[73.0893,33.166],[73.2246,33.0446],[73.4422,32.98],[73.4756,32.9541],[73.456,32.9174],[73.5793,32.8042],[73.6433,32.8063],[73.7747,32.7384],[73.8173,32.7397],[73.8789,32.7957],[74.0069,32.7996],[74.048,32.837],[74.1129,32.8208],[74.1548,32.8401],[74.4758,32.8309],[74.5171,32.8681],[74.5605,32.8511],[74.6025,32.8703],[74.7488,32.9641],[74.8343,32.9662],[74.9217,32.9141],[74.9632,32.9511],[74.9852,32.9336],[74.995,32.9609],[74.9278,33.0496],[74.9994,33.1504],[75.0214,33.1329],[75.0625,33.1879],[75.1054,33.1889],[75.1257,33.2254],[75.2103,33.2633],[75.2972,33.229],[75.383,33.2307],[75.4243,33.2856],[75.4563,33.2952],[75.4547,33.3493],[75.5496,33.4142],[75.6151,33.3793],[75.6891,33.4258],[75.6557,33.4703],[75.5917,33.4511],[75.5797,33.496],[75.7179,33.5616],[75.7697,33.6436],[75.8123,33.6624],[75.9277,33.7995],[75.9924,33.8005],[76.1015,33.748],[76.1117,33.7752],[76.1757,33.8122],[76.1962,33.8666],[76.239,33.8852],[76.2273,33.9301],[76.206,33.9118],[76.1196,33.9106],[76.0556,33.8736],[76.0442,33.9005],[76.0654,33.9189],[76.0744,34.0002],[75.5336,33.9914],[75.4682,34.0082],[75.4824,33.8912],[75.5266,33.8559],[75.4945,33.8463],[75.4387,33.9084],[75.4582,33.9809],[75.4033,34.0069],[74.0399,33.9916],[74.0175,34.009],[73.4551,33.9911],[73.4326,34.0084],[72.9568,33.9913],[72.9341,34.0085]]],[[[75.142,33.7219],[75.1863,33.6868],[75.1659,33.6503],[75.1891,33.5966],[75.1367,33.5504],[75.1251,33.5772],[75.0815,33.5943],[75.1228,33.6493],[75.1653,33.6683],[75.1647,33.6863],[75.121,33.7034],[75.1204,33.7215],[75.142,33.7219]]]]}},{"type":"Feature","properties":{"cell":97,"feature":886,"phase":"Developing","min_bt_K":231.3,"area_km2":2612,"cold_core_km2":0,"speed_kmh":18.3,"heading_deg":166,"d_min_bt_30":0.8,"age_min":120,"family":3,"touches_missing":true,"lon":72.3858,"lat":32.269,"merges_splits_so_far":0},"geometry":{"type":"MultiPolygon","coordinates":[[[[72.0728,32.6194],[72.0551,32.5645],[72.0001,32.5891],[72.0095,32.4451],[71.9906,32.4082],[72.0825,32.304],[72.1484,32.2708],[72.173,32.2178],[72.2166,32.2016],[72.2199,32.1476],[72.2523,32.14],[72.2757,32.1049],[72.337,32.1436],[72.4483,32.0581],[72.5129,32.0427],[72.5795,31.9913],[72.7296,31.9612],[72.8565,31.9662],[72.8656,31.9936],[72.8324,32.0194],[72.8132,31.9826],[72.7124,32.0779],[72.7537,32.0975],[72.7527,32.1156],[72.6385,32.2554],[72.6587,32.2742],[72.6131,32.3265],[72.6089,32.3985],[72.6706,32.4371],[72.6371,32.4628],[72.5632,32.4508],[72.5707,32.3248],[72.6152,32.2905],[72.5839,32.2802],[72.5494,32.3239],[72.5308,32.4585],[72.4458,32.455],[72.3574,32.5054],[72.2948,32.4847],[72.2511,32.5009],[72.2276,32.536],[72.185,32.5341],[72.166,32.4972],[72.1448,32.4963],[72.11,32.5398],[72.1065,32.5938],[72.0728,32.6194]]]]}},{"type":"Feature","properties":{"cell":108,"feature":893,"phase":"Developing","min_bt_K":232.1,"area_km2":19772,"cold_core_km2":0,"speed_kmh":89.9,"heading_deg":16,"d_min_bt_30":0.8,"age_min":120,"family":3,"touches_missing":true,"lon":79.7572,"lat":33.4791,"merges_splits_so_far":14},"geometry":{"type":"MultiPolygon","coordinates":[[[[80.4231,33.9921],[80.3799,33.9929],[80.3789,33.9568],[80.3577,33.9753],[80.3251,33.9668],[80.3352,33.9396],[80.3673,33.93],[80.3232,33.8947],[80.3544,33.849],[80.2799,33.8954],[80.3236,33.9127],[80.2818,33.9676],[80.3145,33.976],[80.315,33.9941],[79.428,34.0064],[79.4153,33.8893],[79.4792,33.8345],[79.468,33.8075],[79.4576,33.8347],[79.3721,33.8897],[79.3727,33.9258],[79.4168,33.9795],[79.3631,34.0071],[78.822,33.9935],[78.811,33.9665],[78.8539,33.9301],[78.8103,33.8943],[78.8316,33.8581],[78.7877,33.7862],[78.6791,33.6966],[78.7218,33.6422],[78.6998,33.5882],[78.7425,33.5339],[78.7419,33.4617],[78.7095,33.4529],[78.6986,33.4259],[78.7733,33.3623],[78.7947,33.3622],[78.8165,33.3981],[78.9886,33.415],[79.0314,33.3966],[79.0525,33.3604],[79.1384,33.3597],[79.1596,33.3415],[79.2033,33.3952],[79.2248,33.395],[79.2352,33.3678],[79.2779,33.3494],[79.2344,33.3137],[79.2327,33.1875],[79.3076,33.1777],[79.3179,33.1506],[79.4239,33.0773],[79.4436,32.9688],[79.4861,32.9503],[79.4641,32.9145],[79.5589,32.8322],[79.6232,32.8495],[79.6867,32.8127],[79.772,32.8115],[79.8346,32.7385],[79.9537,32.818],[79.9548,32.8721],[79.9129,32.9088],[79.9459,32.9535],[79.9891,32.9709],[80.1815,32.9679],[80.2575,33.0117],[80.2593,33.0838],[80.3026,33.1011],[80.2925,33.1284],[80.5063,33.1065],[80.6604,33.2478],[80.7132,33.2197],[80.7121,33.1837],[80.6902,33.1661],[80.6869,33.0579],[80.6206,32.987],[80.641,32.9505],[80.7145,32.904],[80.7999,32.9022],[80.8219,32.9198],[80.9495,32.899],[81.0038,32.9248],[80.983,32.9433],[81.0056,32.9789],[80.9854,33.0154],[81.008,33.051],[80.989,33.1236],[81.011,33.1412],[81.0146,33.2493],[81.0581,33.2664],[81.06,33.3205],[80.9759,33.3765],[81.001,33.4842],[80.9592,33.5212],[81.0041,33.5744],[80.9831,33.5929],[81.0059,33.6285],[80.9856,33.665],[81.0096,33.7366],[80.9565,33.7649],[80.9005,33.703],[80.8982,33.6308],[80.8219,33.6054],[80.801,33.6239],[80.7363,33.6252],[80.7071,33.7251],[80.6534,33.7352],[80.6408,33.6723],[80.6833,33.6534],[80.6674,33.4823],[80.6612,33.6358],[80.6192,33.6727],[80.6213,33.7448],[80.503,33.7561],[80.4292,33.8206],[80.4523,33.8743],[80.4101,33.9112],[80.4231,33.9921]]]]}},{"type":"Feature","properties":{"cell":109,"feature":894,"phase":"Developing","min_bt_K":234.0,"area_km2":2288,"cold_core_km2":0,"speed_kmh":32.6,"heading_deg":48,"d_min_bt_30":5.7,"age_min":120,"family":3,"touches_missing":true,"lon":76.2243,"lat":33.5191,"merges_splits_so_far":2},"geometry":{"type":"MultiPolygon","coordinates":[[[[76.5536,33.8078],[76.4673,33.8068],[76.446,33.7885],[76.4241,33.8063],[76.3162,33.805],[76.2306,33.7678],[76.1779,33.7039],[76.1352,33.6853],[76.1359,33.6492],[76.0936,33.6126],[76.0948,33.5584],[76.0208,33.4942],[75.9673,33.4844],[75.9685,33.4303],[75.9272,33.3575],[75.9503,33.2857],[75.8868,33.2486],[75.8998,33.1496],[76.0705,33.1882],[76.1544,33.2796],[76.2402,33.2808],[76.3987,33.4181],[76.4405,33.4908],[76.4395,33.5449],[76.4822,33.5634],[76.4804,33.6716],[76.5445,33.7084],[76.5436,33.7626],[76.5864,33.7811],[76.5536,33.8078]]]]}},{"type":"Feature","properties":{"cell":123,"feature":891,"phase":"Developing","min_bt_K":233.0,"area_km2":6708,"cold_core_km2":0,"speed_kmh":2.8,"heading_deg":297,"d_min_bt_30":-0.0,"age_min":90,"family":3,"touches_missing":false,"lon":76.4318,"lat":32.9775,"merges_splits_so_far":3},"geometry":{"type":"MultiPolygon","coordinates":[[[[76.6237,33.4657],[76.5068,33.3833],[76.4968,33.338],[76.4109,33.337],[76.367,33.3906],[76.2402,33.2808],[76.1544,33.2796],[76.1126,33.2249],[76.0385,33.1787],[76.0611,33.125],[76.0191,33.0882],[75.9997,32.9978],[76.0327,32.9531],[76.0864,32.9449],[76.0654,32.9266],[76.0665,32.8724],[76.0883,32.8547],[76.068,32.8003],[76.0901,32.7645],[76.0692,32.7462],[76.0715,32.638],[76.0506,32.6196],[76.0722,32.6019],[76.0528,32.5114],[76.0853,32.4848],[76.213,32.4866],[76.3412,32.4522],[76.4673,32.5439],[76.5099,32.5444],[76.521,32.5174],[76.553,32.5088],[76.5837,32.5903],[76.6258,32.6268],[76.6457,32.7172],[76.7087,32.79],[76.7722,32.8267],[76.7929,32.881],[76.8462,32.8905],[76.8565,32.9176],[76.899,32.936],[76.8979,33.0262],[77.0041,33.0992],[76.9929,33.1442],[76.9503,33.1259],[76.918,33.1346],[76.9176,33.1707],[76.9815,33.2073],[76.9811,33.2434],[76.938,33.2611],[76.9152,33.3692],[76.7752,33.395],[76.7328,33.3585],[76.6237,33.4657]]]]}},{"type":"Feature","properties":{"cell":126,"feature":869,"phase":"Unclassified","min_bt_K":239.4,"area_km2":1292,"cold_core_km2":0,"speed_kmh":135.4,"heading_deg":5,"d_min_bt_30":1.0,"age_min":60,"family":126,"touches_missing":true,"lon":83.5705,"lat":32.4123,"merges_splits_so_far":0},"geometry":{"type":"MultiPolygon","coordinates":[[[[83.8063,32.733],[83.7423,32.7358],[83.6727,32.6485],[83.5294,32.5733],[83.4793,32.4491],[83.4469,32.4414],[83.39,32.3805],[83.3858,32.3085],[83.3636,32.2914],[83.3827,32.2545],[83.3382,32.2202],[83.3796,32.2005],[83.4077,32.1362],[83.4734,32.1696],[83.547,32.1575],[83.5438,32.1035],[83.5215,32.0864],[83.5284,32.023],[83.6051,32.0649],[83.6975,32.1873],[83.6663,32.1976],[83.6206,32.1454],[83.5782,32.1472],[83.5703,32.1927],[83.6193,32.2989],[83.4718,32.3231],[83.5376,32.3564],[83.5499,32.383],[83.6806,32.4316],[83.7176,32.5113],[83.8285,32.5786],[83.8063,32.733]]]]}},{"type":"Feature","properties":{"cell":135,"feature":882,"phase":"Developing","min_bt_K":234.0,"area_km2":38928,"cold_core_km2":0,"speed_kmh":164.3,"heading_deg":130,"d_min_bt_30":1.0,"age_min":60,"family":3,"touches_missing":true,"lon":80.8104,"lat":31.1278,"merges_splits_so_far":11},"geometry":{"type":"MultiPolygon","coordinates":[[[[81.5404,33.2455],[81.4533,33.2117],[81.3889,33.2133],[81.3682,33.2319],[81.196,33.2181],[81.1175,33.1207],[81.1162,33.0846],[81.0612,33.0408],[81.0074,33.033],[81.0484,32.9779],[81.005,32.9609],[81.0038,32.9248],[80.9714,32.9165],[80.927,32.8634],[80.8848,32.8823],[80.8202,32.8657],[80.6816,32.8776],[80.6795,32.8054],[80.6352,32.7522],[80.6555,32.7157],[80.6976,32.6968],[80.707,32.6515],[80.8337,32.6128],[80.8429,32.5675],[80.9678,32.4746],[80.9879,32.438],[80.9631,32.3303],[81.0038,32.2753],[81.0021,32.2212],[81.0416,32.1301],[80.9871,32.0862],[80.859,32.053],[80.7825,31.9734],[80.8454,31.954],[80.8405,31.7918],[80.7869,31.7658],[80.7647,31.7302],[80.6612,31.8045],[80.5557,31.8066],[80.535,31.825],[80.4712,31.8082],[80.4276,31.7548],[80.3638,31.7379],[80.2458,31.6588],[80.3472,31.4947],[80.4094,31.4575],[80.4286,31.385],[80.6349,31.2367],[80.6329,31.1646],[80.7153,31.1088],[80.7143,31.0727],[80.7557,31.0538],[80.7546,31.0178],[80.8159,30.9624],[80.7725,30.9092],[80.7709,30.8551],[80.697,30.8295],[80.5089,30.8332],[80.4434,30.7262],[80.3808,30.7273],[80.2781,30.8013],[80.2154,30.8024],[80.1196,30.7227],[80.1082,30.6778],[80.0877,30.6962],[80.0456,30.6788],[80.0251,30.6972],[80.0038,30.6794],[79.8372,30.6999],[79.7733,30.6286],[79.6493,30.7024],[79.5861,30.6671],[79.5444,30.6676],[79.5332,30.6226],[79.5744,30.586],[79.5726,30.4778],[79.6246,30.4681],[79.655,30.4227],[79.6237,30.414],[79.5823,30.4326],[79.5621,30.4689],[79.4788,30.4698],[79.4052,30.4255],[79.3416,30.336],[79.4235,30.2449],[79.4229,30.2089],[79.5152,30.1266],[79.5774,30.1259],[79.6081,30.0985],[79.6075,30.0624],[79.6686,29.9895],[79.668,29.9534],[79.7814,29.9249],[79.7913,29.8977],[79.8426,29.8699],[79.9043,29.851],[79.9254,29.8687],[80.0082,29.8675],[80.071,29.9026],[80.1742,29.8829],[80.1937,29.8284],[80.2351,29.8278],[80.2984,29.8808],[80.4019,29.879],[80.4429,29.8602],[80.5891,29.9115],[80.6537,30.0005],[80.7366,29.9988],[80.7578,30.0164],[80.8811,29.9777],[80.9847,29.9754],[81.0065,30.0109],[81.0895,30.009],[81.1085,29.9545],[81.2322,29.9335],[81.379,29.9839],[81.4449,30.0905],[81.4864,30.0894],[81.5292,30.1243],[81.6129,30.1401],[81.6771,30.1925],[81.7294,30.2001],[81.7348,30.3443],[81.7563,30.3617],[81.706,30.4082],[81.5805,30.3936],[81.5717,30.439],[81.4493,30.5144],[81.4753,30.658],[81.5607,30.7099],[81.562,30.746],[81.6482,30.8158],[81.6287,30.8524],[81.5875,30.8716],[81.5902,30.9437],[81.6341,30.9966],[81.6767,31.0135],[81.6794,31.0856],[81.6402,31.1588],[81.6423,31.2129],[81.5692,31.2239],[81.5468,31.1884],[81.4636,31.2087],[81.4127,31.2551],[81.4147,31.3092],[81.3644,31.3736],[81.3109,31.3479],[81.3102,31.3298],[81.3516,31.3108],[81.3491,31.2387],[81.3173,31.2304],[81.3096,31.3118],[81.2688,31.3489],[81.3007,31.3571],[81.3121,31.3839],[81.2713,31.421],[81.2726,31.4571],[81.1908,31.5312],[81.2227,31.5395],[81.2834,31.4658],[81.3153,31.4741],[81.3274,31.5189],[81.432,31.4982],[81.4727,31.461],[81.5372,31.4954],[81.6533,31.5013],[81.6329,31.5199],[81.635,31.5739],[81.6037,31.5838],[81.5738,31.6297],[81.6201,31.7367],[81.6229,31.8088],[81.5712,31.8373],[81.5582,31.7745],[81.5153,31.7576],[81.5038,31.7308],[81.4942,31.7581],[81.5609,31.8466],[81.563,31.9007],[81.6059,31.9175],[81.5862,31.9542],[81.619,31.9803],[81.638,31.9257],[81.6926,31.9693],[81.6722,31.9879],[81.6757,32.078],[81.6976,32.0955],[81.68,32.1862],[81.7026,32.2216],[81.6617,32.2588],[81.7048,32.2757],[81.707,32.3298],[81.8264,32.3895],[81.8681,32.3703],[81.8901,32.3877],[81.9428,32.3771],[81.9451,32.4312],[81.9152,32.4772],[81.8719,32.4604],[81.8301,32.4796],[81.7648,32.4454],[81.7039,32.5193],[81.5976,32.5222],[81.4829,32.5884],[81.4644,32.6611],[81.5979,32.8019],[81.5566,32.8391],[81.558,32.8751],[81.6022,32.91],[81.5608,32.9472],[81.605,32.9821],[81.6057,33.0001],[81.5637,33.0193],[81.6086,33.0722],[81.6101,33.1083],[81.5894,33.1269],[81.5922,33.199],[81.5404,33.2455]]],[[[81.6315,30.3652],[81.6295,30.3111],[81.6704,30.2919],[81.6275,30.257],[81.6148,30.1942],[81.6067,30.2576],[81.6288,30.2931],[81.5886,30.3303],[81.5899,30.3663],[81.6315,30.3652]]],[[[81.5222,30.8012],[81.4139,30.6957],[81.4133,30.6777],[81.4544,30.6586],[81.4114,30.6236],[81.407,30.4974],[81.448,30.4783],[81.4449,30.3882],[81.5262,30.3319],[81.5155,30.3232],[81.4241,30.3887],[81.3862,30.498],[81.3887,30.5701],[81.3685,30.5886],[81.412,30.6416],[81.3722,30.6968],[81.4576,30.7487],[81.4912,30.811],[81.5222,30.8012]]],[[[81.3438,32.8626],[81.3851,32.8255],[81.3721,32.7627],[81.3088,32.7823],[81.257,32.8287],[81.2907,32.8729],[81.3438,32.8626]]],[[[81.1327,32.9399],[81.121,32.9131],[81.1113,32.9404],[81.1327,32.9399]]]]}},{"type":"Feature","properties":{"cell":145,"feature":876,"phase":"Unclassified","min_bt_K":234.0,"area_km2":34408,"cold_core_km2":0,"speed_kmh":33.9,"heading_deg":279,"d_min_bt_30":1.7,"age_min":30,"family":3,"touches_missing":true,"lon":81.1231,"lat":29.0999,"merges_splits_so_far":2},"geometry":{"type":"MultiPolygon","coordinates":[[[[82.2953,30.0656],[82.2615,30.0035],[82.2807,29.9668],[82.2585,29.9315],[82.2769,29.8767],[82.2454,29.8687],[82.2125,29.8247],[82.2072,29.6985],[82.1744,29.6544],[82.0895,29.603],[82.0483,29.6042],[81.901,29.5365],[81.7572,29.5587],[81.7146,29.5238],[81.6315,29.5081],[81.5996,29.4819],[81.5527,29.3207],[81.5208,29.2945],[81.375,29.2442],[81.3115,29.1916],[81.2287,29.1757],[81.0821,29.0889],[80.9588,29.0917],[80.9167,29.0566],[80.8862,29.0663],[80.8882,29.1384],[80.828,29.1939],[80.8521,29.3197],[80.8948,29.3729],[80.902,29.6253],[80.9756,29.6688],[81.017,29.6679],[81.0392,29.7215],[81.0806,29.7205],[81.1443,29.7732],[81.2276,29.7892],[81.2394,29.834],[81.3026,29.8686],[81.2949,29.9499],[81.1494,29.9355],[81.0984,29.9637],[81.0895,30.009],[81.0065,30.0109],[80.9736,29.9485],[80.921,29.9226],[80.8392,29.9605],[80.8195,29.997],[80.7775,29.9799],[80.7573,29.9983],[80.6537,30.0005],[80.6219,29.974],[80.6209,29.938],[80.5684,29.9119],[80.5468,29.8763],[80.5058,29.8951],[80.4429,29.8602],[80.4019,29.879],[80.2984,29.8808],[80.2347,29.8097],[80.0067,29.7953],[79.9745,29.7327],[80.0252,29.6868],[80.0767,29.677],[80.0241,29.6327],[79.7665,29.6634],[79.7957,29.5638],[79.8569,29.5269],[79.8982,29.5263],[79.908,29.4991],[79.9594,29.4893],[79.9793,29.4529],[80.0412,29.452],[80.0817,29.4153],[80.1233,29.4326],[80.2146,29.368],[80.2236,29.3047],[80.161,29.2696],[80.0791,29.289],[80.0477,29.2624],[80.1274,29.1348],[80.1266,29.0988],[80.0852,29.0814],[80.0844,29.0453],[80.1251,29.0266],[80.124,28.9725],[80.1442,28.9541],[80.1229,28.9184],[80.1635,28.8997],[80.2231,28.8084],[80.2216,28.7363],[80.3003,28.5905],[80.3303,28.5629],[80.453,28.5607],[80.503,28.5147],[80.4813,28.4609],[80.5616,28.4052],[80.5603,28.3511],[80.651,28.3042],[80.7008,28.2581],[80.7098,28.2128],[80.8728,28.2093],[80.8941,28.2449],[80.9976,28.2968],[81.0791,28.2949],[81.1209,28.33],[81.2014,28.292],[81.3651,28.306],[81.4862,28.2667],[81.5659,28.2104],[81.585,28.1738],[81.6461,28.1721],[81.7244,28.0797],[81.7406,28.2507],[81.8142,28.3118],[81.9162,28.3088],[81.9681,28.3343],[81.9835,28.4692],[82.1067,28.4835],[82.1694,28.5176],[82.2503,28.497],[82.2897,28.4596],[82.3918,28.4562],[82.4258,28.5363],[82.4576,28.5623],[82.4985,28.5609],[82.6153,28.6562],[82.5775,28.7297],[82.5823,28.8378],[82.6052,28.8912],[82.7315,28.9589],[82.7373,29.085],[82.688,29.1319],[82.6658,29.0966],[82.5943,29.1081],[82.5984,29.1982],[82.5605,29.2717],[82.5826,29.307],[82.5241,29.3813],[82.5257,29.4173],[82.4944,29.4093],[82.4754,29.4461],[82.4425,29.4021],[82.4615,29.3653],[82.5019,29.3459],[82.4979,29.2558],[82.4758,29.2205],[82.5153,29.183],[82.5098,29.0569],[82.4687,29.0583],[82.475,29.2025],[82.4354,29.2399],[82.4774,29.2565],[82.4797,29.3106],[82.4508,29.3567],[82.3982,29.3314],[82.3989,29.3494],[82.4409,29.366],[82.4417,29.3841],[82.4013,29.4034],[82.4235,29.4388],[82.4052,29.4936],[82.5131,29.5982],[82.5155,29.6522],[82.537,29.6696],[82.4782,29.7437],[82.5021,29.8151],[82.5435,29.8137],[82.5419,29.7777],[82.5104,29.7697],[82.4989,29.743],[82.5295,29.733],[82.5783,29.6681],[82.5362,29.6515],[82.5437,29.5881],[82.6072,29.622],[82.7427,29.6443],[82.7229,29.663],[82.7486,29.7704],[82.718,29.7805],[82.6991,29.8173],[82.5964,29.8389],[82.5186,29.9499],[82.4142,29.9354],[82.3843,29.9634],[82.3859,29.9995],[82.3544,29.9915],[82.2953,30.0656]]],[[[81.7363,28.7021],[81.6717,28.6136],[81.6302,28.5967],[81.6283,28.5426],[81.5973,28.5345],[81.5887,28.5798],[81.6736,28.6677],[81.7363,28.7021]]]]}},{"type":"Feature","properties":{"cell":147,"feature":878,"phase":"Developing","min_bt_K":232.3,"area_km2":5268,"cold_core_km2":0,"speed_kmh":52.0,"heading_deg":124,"d_min_bt_30":-0.7,"age_min":30,"family":3,"touches_missing":true,"lon":79.3792,"lat":30.8321,"merges_splits_so_far":1},"geometry":{"type":"MultiPolygon","coordinates":[[[[79.1552,31.2849],[79.0712,31.2856],[79.0394,31.2588],[79.0388,31.2047],[78.9964,31.1689],[79.0378,31.1145],[79.0163,31.0605],[79.0787,31.024],[79.0574,30.988],[79.0771,30.8796],[79.0038,30.8712],[78.9936,30.8983],[78.9416,30.9258],[78.8884,30.8269],[78.9713,30.7542],[78.9709,30.7181],[79.0123,30.6817],[79.0117,30.6276],[79.1771,30.4999],[79.1767,30.4639],[79.2387,30.4272],[79.2382,30.3911],[79.2894,30.3275],[79.331,30.3271],[79.4369,30.4523],[79.5726,30.4778],[79.5744,30.586],[79.5332,30.6226],[79.5444,30.6676],[79.5861,30.6671],[79.6493,30.7024],[79.7733,30.6286],[79.8372,30.6999],[79.9207,30.6987],[79.9412,30.6804],[80.0038,30.6794],[80.0251,30.6972],[80.0456,30.6788],[80.0983,30.705],[80.027,30.7873],[79.9852,30.788],[79.8615,30.88],[79.8416,30.9344],[79.7998,30.9349],[79.7586,30.9716],[79.5911,30.9737],[79.4663,31.0293],[79.4459,31.0656],[79.3831,31.0662],[79.2694,31.1846],[79.2069,31.2213],[79.2073,31.2574],[79.1552,31.2849]]],[[[79.1848,31.1313],[79.226,31.0768],[79.3091,31.0219],[79.298,30.9769],[79.2668,30.9862],[79.2672,31.0223],[79.2053,31.095],[79.1636,31.1134],[79.1638,31.1315],[79.1848,31.1313]]]]}},{"type":"Feature","properties":{"cell":149,"feature":883,"phase":"Unclassified","min_bt_K":232.0,"area_km2":5692,"cold_core_km2":0,"speed_kmh":42.8,"heading_deg":28,"d_min_bt_30":0.0,"age_min":30,"family":3,"touches_missing":true,"lon":78.695,"lat":31.9488,"merges_splits_so_far":1},"geometry":{"type":"MultiPolygon","coordinates":[[[[78.7035,32.6771],[78.6714,32.6683],[78.671,32.6142],[78.6283,32.5963],[78.6279,32.5422],[78.4996,32.4345],[78.4991,32.3443],[78.4778,32.3263],[78.4988,32.2722],[78.4773,32.2181],[78.4983,32.182],[78.5617,32.1456],[78.5404,32.1277],[78.54,32.0736],[78.4763,32.0377],[78.4761,32.0016],[78.5078,31.9925],[78.5604,31.9292],[78.5286,31.9203],[78.4655,31.9927],[78.4232,31.9928],[78.4123,31.9297],[78.3806,31.9208],[78.3593,31.8847],[78.3491,31.984],[78.3069,32.0021],[78.2965,32.0653],[78.2541,32.0654],[78.2223,32.0384],[78.2221,31.9662],[78.2009,31.9482],[78.2008,31.8941],[78.264,31.8218],[78.2428,31.7678],[78.2743,31.7406],[78.3589,31.7765],[78.3802,31.8306],[78.4752,31.8212],[78.4748,31.731],[78.4536,31.7131],[78.4745,31.6769],[78.4321,31.623],[78.4741,31.5867],[78.4527,31.5327],[78.4946,31.4784],[78.4732,31.4063],[78.5362,31.4061],[78.5147,31.316],[78.5461,31.2888],[78.6515,31.3424],[78.7145,31.3421],[78.7463,31.369],[78.7255,31.4052],[78.7573,31.4321],[78.8412,31.4135],[78.9583,31.548],[78.875,31.6569],[78.8757,31.729],[78.9182,31.7648],[78.9621,31.9269],[78.9307,31.9541],[78.8669,31.9185],[78.8354,31.9457],[78.8466,32.0088],[78.8891,32.0266],[78.9099,31.9904],[78.9417,31.9992],[78.9001,32.0716],[78.9214,32.0895],[78.9009,32.1618],[78.9443,32.2517],[78.9023,32.3061],[78.9048,32.5587],[78.8307,32.6042],[78.7668,32.6046],[78.7035,32.6771]]],[[[78.7498,31.82],[78.7284,31.784],[78.7277,31.6938],[78.7904,31.6213],[78.7373,31.5765],[78.727,31.6036],[78.7587,31.6125],[78.7695,31.6395],[78.7379,31.6487],[78.6857,31.7121],[78.6862,31.7842],[78.7498,31.82]]],[[[78.7528,32.1988],[78.7314,32.1628],[78.7523,32.1266],[78.7515,32.0364],[78.7301,32.0005],[78.6983,31.9916],[78.7304,32.0366],[78.7311,32.1268],[78.6888,32.145],[78.7423,32.2079],[78.7528,32.1988]]]]}},{"type":"Feature","properties":{"cell":156,"feature":874,"phase":"Unclassified","min_bt_K":239.6,"area_km2":1180,"cold_core_km2":0,"speed_kmh":null,"heading_deg":null,"d_min_bt_30":null,"age_min":0,"family":156,"touches_missing":false,"lon":82.8351,"lat":33.0429,"merges_splits_so_far":0},"geometry":{"type":"MultiPolygon","coordinates":[[[[82.9001,33.3649],[82.8093,33.278],[82.745,33.2803],[82.7226,33.2631],[82.6806,33.2826],[82.6265,33.2754],[82.6004,33.1861],[82.6293,33.1219],[82.8298,33.2592],[82.8362,33.1778],[82.8138,33.1605],[82.8333,33.1237],[82.7224,33.0555],[82.7205,33.0195],[82.6192,32.9238],[82.5226,32.9181],[82.4994,32.8828],[82.5274,32.8006],[82.5728,32.8532],[82.7,32.8307],[82.7344,32.8746],[82.778,32.8911],[82.8134,32.953],[83.0526,33.0164],[83.131,33.0765],[83.133,33.1126],[83.0606,33.1604],[82.9964,33.1629],[82.9301,33.1292],[82.8586,33.195],[82.8634,33.2851],[82.9298,33.3187],[82.9001,33.3649]]]]}},{"type":"Feature","properties":{"cell":165,"feature":888,"phase":"Unclassified","min_bt_K":234.1,"area_km2":2100,"cold_core_km2":0,"speed_kmh":null,"heading_deg":null,"d_min_bt_30":null,"age_min":0,"family":3,"touches_missing":true,"lon":79.5611,"lat":32.482,"merges_splits_so_far":1},"geometry":{"type":"MultiPolygon","coordinates":[[[[79.4535,32.9236],[79.441,32.8065],[79.1399,32.629],[79.1388,32.5388],[79.2134,32.5472],[79.2352,32.5831],[79.2993,32.6005],[79.4694,32.5807],[79.4985,32.409],[79.3915,32.356],[79.57,32.2368],[79.6131,32.2723],[79.6764,32.2535],[79.8013,32.1256],[79.8649,32.1247],[79.8767,32.1877],[79.835,32.2244],[79.8365,32.2965],[79.9013,32.3497],[79.902,32.3858],[79.8707,32.4133],[79.8069,32.4142],[79.7546,32.46],[79.7557,32.5141],[79.6604,32.5424],[79.5873,32.6244],[79.5879,32.6605],[79.5252,32.7334],[79.5483,32.8414],[79.4535,32.9236]]]]}},{"type":"Feature","properties":{"cell":167,"feature":892,"phase":"Unclassified","min_bt_K":234.0,"area_km2":4612,"cold_core_km2":0,"speed_kmh":null,"heading_deg":null,"d_min_bt_30":null,"age_min":0,"family":3,"touches_missing":true,"lon":79.0779,"lat":33.0202,"merges_splits_so_far":1},"geometry":{"type":"MultiPolygon","coordinates":[[[[78.6879,33.4349],[78.6123,33.3902],[78.6121,33.3541],[78.5688,33.3002],[78.6439,33.2908],[78.6328,33.2458],[78.6648,33.2186],[78.7612,33.209],[78.7611,33.191],[78.718,33.1732],[78.7393,33.155],[78.7172,33.0649],[78.7809,33.0105],[78.8441,32.9018],[78.8226,32.8839],[78.8216,32.7757],[78.7254,32.7492],[78.6502,32.6864],[78.7035,32.6771],[78.7458,32.6408],[79.0017,32.6572],[79.0756,32.5935],[79.096,32.5211],[79.1278,32.5119],[79.1399,32.629],[79.441,32.8065],[79.4316,32.8878],[79.3664,32.8163],[79.3348,32.8437],[79.367,32.8524],[79.443,32.9328],[79.423,33.0232],[79.3805,33.0417],[79.3808,33.0597],[79.4128,33.0504],[79.4239,33.0773],[79.3496,33.1232],[79.3076,33.1777],[79.2433,33.1783],[79.2322,33.1514],[79.2748,33.1329],[79.2954,33.0786],[79.2629,33.0519],[79.231,33.0612],[79.2632,33.0699],[79.2743,33.0969],[79.1896,33.1698],[79.1915,33.3141],[79.1384,33.3597],[79.0525,33.3604],[79.042,33.3875],[78.9886,33.415],[78.8165,33.3981],[78.8055,33.3711],[78.7733,33.3623],[78.6879,33.4349]]]]}}]}