{"type":"FeatureCollection","features":[{"type":"Feature","properties":{"cell":47,"feature":923,"phase":"Decaying","min_bt_K":229.0,"area_km2":45716,"cold_core_km2":0,"speed_kmh":74.6,"heading_deg":4,"d_min_bt_30":10.9,"age_min":330,"family":3,"touches_missing":true,"lon":83.3555,"lat":27.7918,"merges_splits_so_far":23},"geometry":{"type":"MultiPolygon","coordinates":[[[[83.487,29.823],[83.4456,29.8247],[83.423,29.7896],[83.3393,29.7749],[83.3275,29.7483],[83.2852,29.732],[83.2941,29.7046],[83.4289,29.7081],[83.425,29.6361],[83.4654,29.6164],[83.4595,29.5083],[83.4271,29.4826],[83.3339,29.4774],[83.3292,29.3873],[83.4626,29.3728],[83.4606,29.3368],[83.3783,29.3402],[83.3558,29.305],[83.2941,29.3075],[83.2805,29.2449],[83.2277,29.2199],[83.1838,29.1675],[83.082,29.1895],[83.0596,29.1543],[82.9569,29.1582],[82.8935,29.1244],[82.8524,29.126],[82.8614,29.0986],[82.8186,29.064],[82.8152,28.992],[82.752,28.9582],[82.7504,28.9221],[82.7192,28.9142],[82.6331,28.827],[82.6143,28.8638],[82.5323,28.8666],[82.5248,28.93],[82.4944,28.9401],[82.4755,28.9768],[82.3942,28.9976],[82.2248,28.8768],[82.1018,28.8807],[82.0389,28.8465],[82.0262,28.7838],[81.9832,28.7309],[81.9818,28.6949],[82.0207,28.6395],[82.101,28.601],[82.0771,28.5115],[81.9913,28.4058],[82.0497,28.3318],[82.0463,28.2417],[81.9733,28.1988],[81.9621,28.172],[82.0414,28.1155],[82.0492,28.0521],[82.0702,28.0695],[82.1313,28.0676],[82.1705,28.0302],[82.2315,28.0283],[82.2428,28.055],[82.2947,28.0804],[82.3964,28.077],[82.404,28.0136],[82.5026,27.938],[82.5003,27.884],[82.5394,27.8465],[82.5356,27.7564],[82.5754,27.737],[82.6324,27.6447],[82.6316,27.6267],[82.5483,27.5754],[82.5055,27.5227],[82.504,27.4867],[82.4621,27.452],[82.4606,27.4159],[82.4995,27.3785],[82.5355,27.2689],[82.4936,27.2343],[82.4921,27.1982],[82.4301,27.1642],[82.4034,27.0026],[82.4937,26.9905],[82.5146,27.0078],[82.5952,27.005],[82.6146,26.9863],[82.675,26.9842],[82.7265,27.0094],[82.6893,27.083],[82.6908,27.119],[82.7222,27.145],[82.7819,27.1248],[82.8231,27.1413],[82.8448,27.1766],[82.9255,27.1736],[82.9739,27.1267],[82.9682,27.0005],[83.0077,26.9809],[83.0052,26.9269],[82.9529,26.8837],[82.9022,26.8766],[82.8789,26.8052],[82.7745,26.7187],[82.7729,26.6827],[82.8918,26.6422],[82.8806,26.6155],[82.8405,26.617],[82.8092,26.5911],[82.8045,26.4829],[82.9281,26.3248],[82.9882,26.3225],[83.0074,26.3037],[83.1388,26.3257],[83.1004,26.3634],[83.102,26.3994],[83.175,26.4598],[83.3563,26.4706],[83.3676,26.4972],[83.4295,26.5308],[83.4374,26.693],[83.4191,26.7299],[83.4925,26.79],[83.678,26.8724],[83.7384,26.8698],[83.817,26.8302],[83.8591,26.8645],[83.8993,26.8627],[83.9425,26.9149],[83.9933,26.9216],[84.01,27.2279],[83.9908,27.2468],[84.0097,27.589],[83.9905,27.6079],[84.0096,27.9501],[83.9903,27.969],[84.0097,28.3112],[83.9903,28.3301],[84.0099,28.6722],[83.9905,28.6911],[84.0056,29.3041],[83.9341,29.3164],[83.8971,29.3902],[83.8755,29.3732],[83.8137,29.3759],[83.8286,29.4565],[83.7992,29.4848],[83.7539,29.4146],[83.6921,29.4173],[83.6833,29.4447],[83.6431,29.4645],[83.6549,29.4911],[83.7276,29.497],[83.7307,29.551],[83.6816,29.5982],[83.6197,29.6009],[83.6059,29.5383],[83.5852,29.5392],[83.5882,29.5932],[83.5479,29.6129],[83.5736,29.7021],[83.5332,29.7218],[83.5362,29.7759],[83.487,29.823]]]]}},{"type":"Feature","properties":{"cell":55,"feature":933,"phase":"Mature","min_bt_K":221.3,"area_km2":32488,"cold_core_km2":0,"speed_kmh":14.4,"heading_deg":128,"d_min_bt_30":0.6,"age_min":300,"family":3,"touches_missing":true,"lon":74.3808,"lat":33.4975,"merges_splits_so_far":18},"geometry":{"type":"MultiPolygon","coordinates":[[[[72.9341,34.0085],[72.8476,34.0052],[72.7962,33.9581],[72.8048,33.814],[72.8994,33.6733],[72.8799,33.6364],[72.924,33.6201],[72.9487,33.5669],[72.9292,33.53],[72.9968,33.4784],[72.9783,33.4236],[73.0028,33.3704],[72.9944,33.1354],[73.0913,33.13],[73.1147,33.0948],[73.2022,33.0619],[73.2664,33.0642],[73.3567,33.1846],[73.4294,33.2322],[73.5308,33.1364],[73.5567,33.0471],[73.6021,32.9944],[73.6047,32.9404],[73.5433,32.8842],[73.545,32.8482],[73.4614,32.8093],[73.4641,32.7552],[73.6023,32.7689],[73.7124,32.7003],[73.928,32.6529],[74.0322,32.7102],[74.1631,32.6418],[74.291,32.6455],[74.3321,32.6827],[74.3534,32.6833],[74.3762,32.6478],[74.6312,32.6725],[74.6925,32.7462],[74.8595,32.8585],[74.9241,32.842],[74.965,32.897],[75.1967,33.0104],[75.2379,33.0654],[75.2807,33.0662],[75.4678,33.2684],[75.4897,33.2508],[75.5541,33.2519],[75.585,33.2976],[75.6485,33.3348],[75.6676,33.4254],[75.7417,33.4718],[75.7834,33.5266],[75.8699,33.5099],[75.9863,33.5929],[75.9636,33.6467],[75.9594,33.8271],[76.0022,33.8458],[76.001,33.8999],[76.0544,33.9277],[76.0858,33.9733],[76.0744,34.0002],[74.0399,33.9916],[74.0175,34.009],[73.4551,33.9911],[73.4326,34.0084],[72.9568,33.9913],[72.9341,34.0085]]],[[[75.2879,33.1837],[75.278,33.1564],[75.2027,33.1639],[75.2554,33.192],[75.2879,33.1837]]]]}},{"type":"Feature","properties":{"cell":97,"feature":927,"phase":"Developing","min_bt_K":230.7,"area_km2":3068,"cold_core_km2":0,"speed_kmh":24.1,"heading_deg":150,"d_min_bt_30":-0.6,"age_min":150,"family":3,"touches_missing":true,"lon":72.4507,"lat":32.1752,"merges_splits_so_far":0},"geometry":{"type":"MultiPolygon","coordinates":[[[[72.0895,32.6923],[72.0504,32.6365],[72.0279,32.6535],[71.9977,32.6251],[71.9999,32.2642],[72.0536,32.2576],[72.0983,32.2235],[72.1719,32.2358],[72.1674,32.3078],[72.1439,32.3428],[72.1003,32.3589],[72.0968,32.4129],[72.0744,32.43],[72.081,32.4934],[72.0957,32.4309],[72.211,32.2916],[72.2143,32.2376],[72.173,32.2178],[72.2266,32.2111],[72.318,32.1067],[72.3816,32.1094],[72.4149,32.0838],[72.4404,32.0126],[72.506,31.9793],[72.5525,31.909],[72.5858,31.8833],[72.6491,31.8859],[72.7146,31.8524],[72.7568,31.854],[72.801,31.8197],[72.8644,31.8222],[72.8845,31.841],[72.9488,31.8254],[72.9762,31.9076],[72.944,31.9154],[72.9089,31.9773],[72.8656,31.9936],[72.7951,32.1172],[72.7174,32.1773],[72.6326,32.1739],[72.577,32.2168],[72.5749,32.2528],[72.5171,32.3316],[72.4332,32.3101],[72.4188,32.3727],[72.439,32.3916],[72.4055,32.4172],[72.3976,32.3718],[72.3562,32.352],[72.3507,32.442],[72.3708,32.4609],[72.3138,32.5216],[72.2489,32.5369],[72.2298,32.5],[72.2186,32.5085],[72.2365,32.5634],[72.1704,32.5966],[72.1569,32.6412],[72.1278,32.5948],[72.1336,32.5048],[72.1123,32.5039],[72.1042,32.6298],[72.1456,32.6497],[72.0895,32.6923]]]]}},{"type":"Feature","properties":{"cell":108,"feature":930,"phase":"Developing","min_bt_K":233.0,"area_km2":30048,"cold_core_km2":0,"speed_kmh":93.9,"heading_deg":117,"d_min_bt_30":0.9,"age_min":150,"family":3,"touches_missing":true,"lon":80.2056,"lat":33.2847,"merges_splits_so_far":15},"geometry":{"type":"MultiPolygon","coordinates":[[[[80.9212,34.0003],[80.7697,34.0035],[80.8008,33.9577],[80.7885,33.9129],[80.7021,33.9146],[80.6362,33.8799],[80.594,33.9168],[80.5803,33.8178],[80.6345,33.8258],[80.644,33.7805],[80.5898,33.7725],[80.5798,33.7998],[80.5477,33.8094],[80.5361,33.7825],[80.5672,33.7368],[80.5351,33.7465],[80.515,33.801],[80.5371,33.8186],[80.5403,33.9268],[80.5851,33.9801],[80.5318,34.0082],[80.4664,33.9914],[79.1684,34.009],[79.1465,33.9911],[78.9409,33.9837],[78.9624,33.9655],[78.9405,33.9476],[78.9618,33.9114],[78.9396,33.8574],[78.9608,33.8212],[78.9172,33.7854],[78.9384,33.7491],[78.8949,33.7134],[78.8945,33.6773],[78.9588,33.6407],[78.9582,33.5866],[79.0003,33.4961],[79.054,33.4867],[79.1069,33.4231],[79.0631,33.3513],[79.1054,33.2968],[79.1592,33.3054],[79.1811,33.3413],[79.2458,33.3587],[79.3203,33.3129],[79.3197,33.2768],[79.3621,33.2403],[79.3713,33.141],[79.435,33.1043],[79.4996,33.1216],[79.5635,33.1028],[79.7107,32.9567],[79.7538,32.9742],[79.9125,32.8908],[79.9117,32.8547],[79.8574,32.8104],[79.7934,32.8113],[79.7392,32.7669],[79.7595,32.7125],[79.7364,32.6226],[79.7682,32.6131],[79.862,32.5126],[79.8599,32.4044],[79.8912,32.3769],[79.9773,32.4298],[80.0198,32.4292],[80.1661,32.3186],[80.2307,32.3536],[80.3468,32.3246],[80.3713,32.4504],[80.2989,32.5329],[80.2355,32.552],[80.2255,32.5792],[80.1625,32.6164],[80.1437,32.7249],[80.1763,32.7514],[80.347,32.7485],[80.4517,32.6745],[80.5157,32.6733],[80.5806,32.7081],[80.6441,32.6889],[80.7725,32.7043],[80.8157,32.7214],[80.871,32.7834],[80.8842,32.8643],[80.991,32.862],[81.013,32.8795],[81.1833,32.8575],[81.2926,32.927],[81.3561,32.9074],[81.4492,32.8238],[81.4581,32.7785],[81.5008,32.7774],[81.5559,32.821],[81.558,32.8751],[81.6029,32.928],[81.636,32.9542],[81.7215,32.9518],[81.7562,33.014],[81.8219,33.0483],[81.867,33.1011],[81.905,33.2353],[81.9257,33.2167],[81.9693,33.2334],[82.0972,33.2115],[82.1306,33.2376],[82.1244,33.337],[82.0798,33.3023],[82.0154,33.3042],[81.9956,33.3409],[81.9527,33.3422],[81.9407,33.3155],[81.9081,33.3074],[81.7521,33.4292],[81.7432,33.4745],[81.7002,33.4757],[81.6691,33.5037],[81.7151,33.5746],[81.7693,33.5821],[81.7812,33.6088],[81.6238,33.7124],[81.5681,33.6688],[81.5659,33.6147],[81.5332,33.6066],[81.5103,33.5711],[81.4158,33.6367],[81.4395,33.6902],[81.4082,33.7181],[81.365,33.7192],[81.3206,33.6842],[81.2664,33.6765],[81.2422,33.6049],[81.1418,33.5081],[80.9948,33.6197],[80.9505,33.5846],[80.8982,33.6308],[80.9098,33.6577],[80.9757,33.6923],[81.1266,33.6889],[81.1599,33.7151],[81.0977,33.7888],[81.0237,33.8356],[80.9053,33.8472],[80.9059,33.8653],[80.9497,33.8823],[80.9503,33.9004],[80.9077,33.9193],[80.9083,33.9374],[80.9521,33.9545],[80.9212,34.0003]]],[[[81.6115,33.1443],[81.6529,33.1071],[81.619,33.0629],[81.5687,33.1455],[81.6115,33.1443]]],[[[80.2437,33.3186],[80.2209,33.2649],[80.2415,33.2285],[80.2839,33.2097],[80.2716,33.1468],[80.2401,33.1744],[80.2205,33.2469],[80.178,33.2656],[80.1784,33.2836],[80.2437,33.3186]]],[[[81.6046,33.5054],[81.6246,33.4688],[81.5913,33.4426],[81.5483,33.4438],[81.5615,33.5066],[81.6046,33.5054]]],[[[81.586,33.5781],[81.5741,33.5513],[81.5644,33.5787],[81.586,33.5781]]],[[[79.5453,33.9059],[79.5665,33.8876],[79.534,33.879],[79.5227,33.852],[79.5653,33.8155],[79.5327,33.8068],[79.5215,33.7799],[79.553,33.7344],[79.4783,33.7804],[79.5221,33.816],[79.5224,33.834],[79.4795,33.8525],[79.5346,33.915],[79.5453,33.9059]]]]}},{"type":"Feature","properties":{"cell":123,"feature":920,"phase":"Developing","min_bt_K":237.0,"area_km2":7076,"cold_core_km2":0,"speed_kmh":2.3,"heading_deg":11,"d_min_bt_30":4.0,"age_min":120,"family":3,"touches_missing":false,"lon":76.4341,"lat":32.9878,"merges_splits_so_far":3},"geometry":{"type":"MultiPolygon","coordinates":[[[[76.925,33.4504],[76.7745,33.4491],[76.6895,33.3762],[76.6036,33.3753],[76.5386,33.4107],[76.3448,33.4265],[76.2705,33.3804],[76.2078,33.2894],[76.1231,33.2341],[76.104,33.1256],[76.0619,33.0889],[76.1059,33.0354],[76.0856,32.981],[76.1081,32.9272],[76.0677,32.8183],[76.0901,32.7645],[76.0269,32.7275],[76.0711,32.656],[76.0079,32.619],[75.9987,32.5557],[75.9352,32.5367],[75.8709,32.5537],[75.8184,32.5258],[75.8747,32.3914],[75.9172,32.3921],[75.9392,32.3564],[76.003,32.3573],[76.0872,32.3947],[76.236,32.3967],[76.2575,32.379],[76.2785,32.3973],[76.3422,32.3981],[76.372,32.5157],[76.5204,32.5535],[76.5831,32.6264],[76.6241,32.735],[76.6663,32.7715],[76.6657,32.8076],[76.7712,32.8988],[76.7708,32.9349],[76.8344,32.9716],[76.9613,33.0989],[76.9503,33.1259],[76.8533,33.1702],[76.8528,33.2063],[76.9923,33.1984],[77.0242,33.2257],[77.0132,33.2526],[76.9059,33.2518],[76.8948,33.2788],[76.948,33.3243],[77.0336,33.343],[77.0652,33.4064],[76.9899,33.4148],[76.925,33.4504]]],[[[76.3078,32.5329],[76.2558,32.4691],[76.16,32.4769],[76.1592,32.5129],[76.2119,32.5407],[76.3078,32.5329]]]]}},{"type":"Feature","properties":{"cell":145,"feature":924,"phase":"Unclassified","min_bt_K":234.0,"area_km2":76088,"cold_core_km2":0,"speed_kmh":252.3,"heading_deg":345,"d_min_bt_30":0.0,"age_min":60,"family":3,"touches_missing":true,"lon":80.7775,"lat":30.1974,"merges_splits_so_far":10},"geometry":{"type":"MultiPolygon","coordinates":[[[[78.9581,32.5673],[78.9257,32.5224],[78.9252,32.4683],[78.8081,32.4601],[78.7114,32.3253],[78.753,32.2168],[78.8058,32.1895],[78.8372,32.1442],[78.8158,32.1263],[78.8154,32.0722],[78.7407,32.0094],[78.6987,32.0458],[78.6245,32.0371],[78.603,31.9831],[78.6446,31.8746],[78.6441,31.8025],[78.5702,31.8118],[78.5382,31.7488],[78.5906,31.6855],[78.7603,31.8109],[78.8551,31.7833],[78.8127,31.7655],[78.8122,31.7114],[78.7487,31.6757],[78.7484,31.6396],[78.7167,31.6307],[78.7059,31.6037],[78.8007,31.5942],[78.853,31.5488],[78.8526,31.5127],[78.7677,31.423],[78.746,31.3329],[78.8296,31.2783],[78.8288,31.1881],[78.8496,31.1699],[78.8281,31.116],[78.9522,30.9347],[79.0247,30.871],[79.0666,30.8707],[79.172,30.942],[79.224,30.9144],[79.2651,30.8599],[79.2644,30.8058],[79.3573,30.7237],[79.4831,30.7585],[79.4932,30.7313],[79.617,30.6396],[79.6158,30.5675],[79.6982,30.5123],[79.7172,30.4038],[79.7783,30.3309],[79.7566,30.277],[79.7975,30.2404],[79.7757,30.1866],[79.8163,30.1319],[79.8255,30.0686],[79.9696,30.0124],[80.0103,29.9757],[80.0725,29.9747],[80.0936,29.9925],[80.259,29.9717],[80.3098,29.9257],[80.2975,29.8447],[80.1941,29.8465],[80.0586,29.8036],[80.0579,29.7675],[80.0989,29.7488],[80.097,29.6586],[80.0332,29.5694],[80.0936,29.4963],[80.0726,29.4786],[80.0715,29.4244],[80.1532,29.387],[80.1296,29.2431],[80.1801,29.1971],[80.2313,29.1873],[80.2301,29.1331],[80.3002,29.0507],[80.392,29.022],[80.3907,28.9679],[80.4309,28.9311],[80.4092,28.8773],[80.4493,28.8405],[80.4485,28.8044],[80.5077,28.7131],[80.486,28.6594],[80.5056,28.6229],[80.546,28.6041],[80.5443,28.5319],[80.7149,28.4112],[80.8787,28.4258],[80.9379,28.3523],[81.0383,28.2958],[81.2841,28.3261],[81.3062,28.3796],[81.347,28.3786],[81.3895,28.4317],[81.4718,28.4476],[81.5144,28.5006],[81.5757,28.499],[81.5874,28.5438],[81.6388,28.5514],[81.6605,28.5869],[81.7522,28.5753],[81.7502,28.5212],[81.7904,28.502],[81.7984,28.4386],[81.8392,28.4374],[81.8787,28.4001],[81.9807,28.3971],[82.0771,28.5115],[82.0792,28.5656],[82.1003,28.5829],[82.101,28.601],[82.0305,28.6302],[81.9818,28.6949],[81.9832,28.7309],[82.0262,28.7838],[82.0283,28.8378],[82.1018,28.8807],[82.2248,28.8768],[82.3942,28.9976],[82.4352,28.9963],[82.4581,29.0496],[82.5197,29.0475],[82.5572,29.1996],[82.6,29.2343],[82.5605,29.2717],[82.6032,29.3063],[82.6065,29.3784],[82.5875,29.4152],[82.4877,29.4908],[82.5305,29.5254],[82.5329,29.5795],[82.5544,29.5968],[82.5362,29.6515],[82.5585,29.6869],[82.4699,29.7891],[82.4293,29.8086],[82.3979,29.8006],[82.3963,29.7645],[82.4766,29.7077],[82.475,29.6717],[82.5147,29.6342],[82.5131,29.5982],[82.4817,29.5902],[82.4742,29.6536],[82.4337,29.6731],[82.4353,29.7091],[82.3557,29.7839],[82.3581,29.838],[82.3175,29.8574],[82.3505,29.9014],[82.4564,29.952],[82.4978,29.9506],[82.5102,29.9953],[82.4174,30.0075],[82.3783,30.0629],[82.2754,30.0843],[82.2454,30.1123],[82.247,30.1484],[82.1662,30.2051],[82.1685,30.2591],[82.0152,30.327],[82.0238,30.2817],[82.1847,30.1504],[82.1524,30.1243],[81.9335,30.3656],[81.8725,30.4034],[81.8308,30.4047],[81.8215,30.432],[81.7504,30.4791],[81.6469,30.5001],[81.659,30.5448],[81.6294,30.5908],[81.462,30.5772],[81.3906,30.6242],[81.4127,30.6597],[81.4658,30.6854],[81.486,30.6668],[81.6125,30.6995],[81.7162,30.6786],[81.7593,30.7134],[81.822,30.7117],[81.8651,30.7465],[81.9069,30.7453],[82.0292,30.6694],[82.0486,30.6328],[82.0903,30.6315],[82.1714,30.5748],[82.2965,30.5708],[82.3715,30.6135],[82.3964,30.7029],[82.3554,30.7223],[82.2264,30.8798],[82.2047,30.8625],[82.0808,30.9024],[82.0505,30.9304],[82.0528,30.9845],[82.0334,31.0212],[81.9922,31.0404],[82.0147,31.0758],[82.0053,31.1032],[81.9641,31.1225],[81.8586,31.1075],[81.8282,31.1355],[81.8297,31.1715],[81.779,31.2181],[81.7566,31.1826],[81.7472,31.21],[81.6653,31.2664],[81.6159,31.3489],[81.5732,31.332],[81.4471,31.3354],[81.3013,31.3752],[81.2605,31.4123],[81.1139,31.4338],[81.0604,31.408],[81.0257,31.3096],[80.8577,31.3133],[80.7957,31.3507],[80.7527,31.3155],[80.7106,31.3164],[80.5856,31.3549],[80.4688,31.3121],[80.4562,31.2311],[80.4357,31.2495],[80.3303,31.2334],[80.2163,31.2985],[80.2184,31.3887],[80.1982,31.4251],[80.0219,31.5451],[79.9587,31.5461],[79.9381,31.5644],[79.6221,31.5687],[79.612,31.5958],[79.5387,31.6238],[79.435,31.7332],[79.3824,31.7427],[79.404,31.7786],[79.2895,31.897],[79.2154,31.8887],[79.2142,31.7985],[79.1929,31.7807],[79.2135,31.7444],[79.17,31.6365],[79.1906,31.6003],[79.148,31.5646],[79.1895,31.5101],[79.1884,31.4199],[79.251,31.3832],[79.2191,31.3565],[79.1771,31.3569],[79.1673,31.4201],[79.1051,31.4928],[79.0736,31.5021],[78.9991,31.4215],[78.9775,31.3675],[78.9979,31.3132],[78.9656,31.2323],[78.9141,31.3319],[78.9146,31.386],[78.9358,31.4039],[78.9363,31.458],[78.9788,31.4938],[78.9579,31.512],[78.9791,31.5298],[78.959,31.6202],[78.9803,31.6381],[78.9808,31.6922],[79.0445,31.7278],[79.0459,31.8541],[79.0894,31.962],[79.058,31.9893],[78.9728,31.9358],[78.9092,31.9182],[78.8564,31.9276],[78.8777,31.9455],[78.8891,32.0266],[78.9314,32.0263],[79.0378,32.0796],[79.1437,32.0788],[79.1765,32.1596],[79.1138,32.2323],[79.1144,32.2865],[79.0295,32.2871],[79.0301,32.3413],[79.0091,32.3595],[79.052,32.3952],[79.0524,32.4313],[79.0103,32.4677],[79.0109,32.5218],[78.979,32.5311],[78.9581,32.5673]]],[[[81.0031,28.8471],[81.043,28.8101],[81.0409,28.738],[81.0808,28.701],[81.0698,28.6741],[81.0603,28.7014],[81.0199,28.7204],[81.0225,28.8106],[80.9821,28.8295],[80.9826,28.8476],[81.0031,28.8471]]],[[[81.9149,29.0939],[81.9341,29.0573],[81.8917,29.0224],[81.8777,28.9236],[81.8479,28.9515],[81.8506,29.0236],[81.8923,29.0405],[81.8944,29.0945],[81.9149,29.0939]]],[[[82.4052,29.4936],[82.4615,29.3653],[82.5019,29.3459],[82.4805,29.3286],[82.475,29.2025],[82.4209,29.1411],[82.3912,29.1692],[82.4331,29.1858],[82.4386,29.312],[82.4607,29.3473],[82.4417,29.3841],[82.4013,29.4034],[82.4036,29.4575],[82.3632,29.4769],[82.3746,29.5036],[82.4052,29.4936]]],[[[82.4702,29.5636],[82.4686,29.5275],[82.4373,29.5195],[82.429,29.5649],[82.4702,29.5636]]],[[[81.4086,29.938],[81.3848,29.8484],[81.3109,29.8052],[81.289,29.7697],[81.2796,29.797],[81.344,29.8675],[81.386,29.8845],[81.3879,29.9386],[81.4086,29.938]]],[[[81.6552,29.8773],[81.6438,29.8506],[81.5817,29.8523],[81.5598,29.8168],[81.5084,29.8272],[81.5623,29.8889],[81.6552,29.8773]]],[[[79.9461,30.4007],[80.0702,30.3627],[80.0891,30.2722],[80.1715,30.2348],[80.1805,30.1715],[80.0351,30.1738],[80.014,30.1561],[79.9936,30.1744],[79.9313,30.1754],[79.8186,30.2581],[79.7994,30.3486],[79.8414,30.3661],[79.842,30.4021],[79.9461,30.4007]]],[[[81.2974,30.3378],[81.3164,30.2832],[81.2208,30.2224],[81.0956,30.2074],[81.0445,30.2356],[81.0563,30.2805],[81.1833,30.3496],[81.2974,30.3378]]],[[[80.322,30.4487],[80.2685,30.3865],[80.1542,30.3974],[80.2077,30.4597],[80.322,30.4487]]],[[[80.9756,30.7063],[81.0675,30.6411],[81.1093,30.6401],[81.129,30.6035],[81.2124,30.6015],[81.2219,30.5742],[81.063,30.4968],[81.0214,30.4978],[80.9775,30.4266],[80.7699,30.4491],[80.6149,30.4974],[80.6163,30.5515],[80.5751,30.5703],[80.6508,30.6681],[80.7342,30.6664],[80.8401,30.7183],[80.9756,30.7063]]],[[[79.3321,31.166],[79.3313,31.1119],[79.4144,31.0569],[79.372,31.0212],[79.4027,30.9758],[79.3508,31.0034],[79.3725,31.0573],[79.3103,31.1121],[79.3111,31.1662],[79.3321,31.166]]],[[[79.7918,31.0704],[79.8537,31.0154],[79.8427,30.9885],[79.7696,30.9985],[79.7499,31.0709],[79.7918,31.0704]]]]}},{"type":"Feature","properties":{"cell":156,"feature":921,"phase":"Developing","min_bt_K":239.3,"area_km2":4816,"cold_core_km2":0,"speed_kmh":45.9,"heading_deg":81,"d_min_bt_30":-0.3,"age_min":30,"family":156,"touches_missing":true,"lon":83.0782,"lat":33.0741,"merges_splits_so_far":0},"geometry":{"type":"MultiPolygon","coordinates":[[[[83.5053,33.7565],[83.4826,33.7394],[83.3306,33.7275],[83.2832,33.6572],[83.2627,33.676],[83.1857,33.652],[83.161,33.5988],[83.1169,33.5824],[83.0677,33.476],[83.0841,33.3851],[83.0064,33.343],[82.9268,33.2647],[82.9473,33.2459],[82.9014,33.1934],[82.9535,33.1645],[83.0188,33.1801],[83.0494,33.1518],[83.022,33.0446],[82.9772,33.0102],[82.9966,32.9734],[82.9519,32.9389],[82.9722,32.9201],[82.9489,32.8849],[82.9411,32.7408],[82.9188,32.7236],[82.9382,32.6868],[82.7982,32.6648],[82.7788,32.7016],[82.7148,32.7039],[82.674,32.7414],[82.5776,32.7358],[82.6026,32.8071],[82.636,32.833],[82.7223,32.848],[82.7418,32.8112],[82.7845,32.8097],[82.8179,32.8356],[82.7149,32.9114],[82.7372,32.9287],[82.7186,32.9835],[82.7633,33.018],[82.7652,33.054],[82.8333,33.1237],[82.8352,33.1598],[82.88,33.1942],[82.8493,33.2224],[82.7635,33.2255],[82.7504,33.1809],[82.7066,33.1644],[82.7252,33.1096],[82.6991,33.0203],[82.6424,32.9591],[82.5997,32.9606],[82.5662,32.9346],[82.584,32.8619],[82.5395,32.8273],[82.5377,32.7913],[82.4488,32.7221],[82.4666,32.6493],[82.5176,32.6025],[82.6019,32.5815],[82.6889,32.6146],[82.75,32.5583],[82.8138,32.556],[82.9579,32.4605],[83.0338,32.4847],[83.065,32.664],[83.1198,32.689],[83.1837,32.6865],[83.1959,32.7131],[83.2843,32.7638],[83.2896,32.8538],[83.3354,32.9061],[83.3365,32.9241],[83.2948,32.9438],[83.3397,32.9781],[83.3418,33.0141],[83.4295,33.0467],[83.4317,33.0827],[83.4001,33.093],[83.3605,33.1487],[83.3177,33.1505],[83.2555,33.189],[83.2004,33.1641],[83.2689,33.2336],[83.2721,33.2876],[83.4717,33.3879],[83.4219,33.4531],[83.2951,33.4943],[83.2676,33.5766],[83.3931,33.6889],[83.4566,33.6683],[83.4759,33.6314],[83.5405,33.6287],[83.5745,33.6544],[83.5779,33.7084],[83.5053,33.7565]]],[[[83.2266,32.8743],[83.2011,32.8031],[83.1452,32.7602],[83.1147,32.7884],[83.1391,32.8416],[83.2266,32.8743]]]]}},{"type":"Feature","properties":{"cell":165,"feature":932,"phase":"Developing","min_bt_K":232.8,"area_km2":3204,"cold_core_km2":0,"speed_kmh":13.2,"heading_deg":290,"d_min_bt_30":-1.3,"age_min":30,"family":3,"touches_missing":true,"lon":79.4952,"lat":32.5025,"merges_splits_so_far":2},"geometry":{"type":"MultiPolygon","coordinates":[[[[79.3451,32.8165],[79.2383,32.8176],[79.1954,32.7999],[79.0979,32.6835],[79.1825,32.6286],[79.1818,32.5745],[79.2237,32.52],[79.2019,32.4841],[79.2005,32.3759],[79.1149,32.3225],[79.1138,32.2323],[79.1346,32.1961],[79.1872,32.1686],[79.2516,32.2221],[79.3364,32.2213],[79.3692,32.2841],[79.3487,32.3384],[79.403,32.419],[79.4232,32.3467],[79.4447,32.3645],[79.6147,32.3625],[79.6568,32.344],[79.6663,32.2807],[79.7084,32.2621],[79.7182,32.2169],[79.761,32.2344],[79.8879,32.2146],[79.9202,32.2412],[79.9225,32.3494],[79.8599,32.4044],[79.862,32.5126],[79.7682,32.6131],[79.6627,32.6686],[79.5774,32.6697],[79.4933,32.7428],[79.3872,32.78],[79.3451,32.8165]]]]}},{"type":"Feature","properties":{"cell":167,"feature":934,"phase":"Unclassified","min_bt_K":234.1,"area_km2":4544,"cold_core_km2":0,"speed_kmh":54.1,"heading_deg":107,"d_min_bt_30":0.1,"age_min":30,"family":3,"touches_missing":false,"lon":79.355,"lat":32.9501,"merges_splits_so_far":1},"geometry":{"type":"MultiPolygon","coordinates":[[[[79.2458,33.3587],[79.1811,33.3413],[79.17,33.3143],[79.116,33.2877],[79.1056,33.3149],[79.0523,33.3424],[79.0197,33.3155],[79.0622,33.2791],[79.0618,33.243],[79.0183,33.1893],[78.878,33.091],[78.7387,33.0829],[78.7811,33.0285],[78.7803,32.9383],[78.7367,32.8303],[78.79,32.821],[78.8639,32.7393],[78.8203,32.6314],[78.8731,32.5859],[78.937,32.5855],[79.0553,32.6838],[79.0143,32.8285],[79.1102,32.8187],[79.1752,32.8903],[79.2175,32.8538],[79.2815,32.8532],[79.3024,32.817],[79.3451,32.8165],[79.3872,32.78],[79.4933,32.7428],[79.5774,32.6697],[79.6627,32.6686],[79.7259,32.6317],[79.7591,32.6944],[79.7392,32.7669],[79.7934,32.8113],[79.8574,32.8104],[79.9117,32.8547],[79.9125,32.8908],[79.8386,32.9369],[79.7959,32.9375],[79.7538,32.9742],[79.7107,32.9567],[79.5635,33.1028],[79.521,33.1213],[79.435,33.1043],[79.3713,33.141],[79.3621,33.2403],[79.3197,33.2768],[79.3203,33.3129],[79.2458,33.3587]]]]}},{"type":"Feature","properties":{"cell":168,"feature":908,"phase":"Unclassified","min_bt_K":244.0,"area_km2":40,"cold_core_km2":0,"speed_kmh":null,"heading_deg":null,"d_min_bt_30":null,"age_min":0,"family":168,"touches_missing":false,"lon":72.4261,"lat":27.0309,"merges_splits_so_far":0},"geometry":{"type":"MultiPolygon","coordinates":[[[[72.4537,27.0586],[72.3837,27.0466],[72.4162,27.0029],[72.4661,27.014],[72.4537,27.0586]]]]}},{"type":"Feature","properties":{"cell":174,"feature":931,"phase":"Unclassified","min_bt_K":233.2,"area_km2":10208,"cold_core_km2":0,"speed_kmh":null,"heading_deg":null,"d_min_bt_30":null,"age_min":0,"family":3,"touches_missing":true,"lon":80.997,"lat":32.4675,"merges_splits_so_far":1},"geometry":{"type":"MultiPolygon","coordinates":[[[[81.1198,32.8771],[80.8842,32.8643],[80.871,32.7834],[80.8267,32.7302],[80.7725,32.7043],[80.6872,32.706],[80.6654,32.6884],[80.5806,32.7081],[80.5157,32.6733],[80.4517,32.6745],[80.347,32.7485],[80.1763,32.7514],[80.1437,32.7249],[80.1625,32.6164],[80.2151,32.5884],[80.2355,32.552],[80.2989,32.5329],[80.3713,32.4504],[80.3468,32.3246],[80.4407,32.2597],[80.5049,32.2766],[80.5147,32.2493],[80.5877,32.2028],[80.6307,32.22],[80.6596,32.1202],[80.733,32.0917],[80.7732,32.0187],[80.879,32.0164],[80.9437,32.0511],[80.986,32.0502],[81.1936,32.2348],[81.2167,32.2884],[81.3138,32.3311],[81.3762,32.2934],[81.5672,32.2885],[81.7604,32.3373],[82.0137,32.2938],[82.0467,32.3199],[82.0601,32.3826],[82.145,32.38],[82.2284,32.3413],[82.2708,32.3399],[82.3039,32.3659],[82.3056,32.402],[82.275,32.43],[82.2317,32.4134],[82.1789,32.424],[82.1634,32.5508],[82.0807,32.6075],[82.0823,32.6436],[82.1257,32.6603],[82.106,32.697],[82.1179,32.7237],[81.8627,32.7493],[81.8422,32.768],[81.7531,32.6803],[81.6672,32.6647],[81.6466,32.6833],[81.5613,32.6856],[81.5304,32.7135],[81.5228,32.7948],[81.5008,32.7774],[81.4368,32.779],[81.3928,32.7441],[81.3314,32.8178],[81.1198,32.8771]]]]}},{"type":"Feature","properties":{"cell":177,"feature":937,"phase":"Unclassified","min_bt_K":212.1,"area_km2":5040,"cold_core_km2":172,"speed_kmh":null,"heading_deg":null,"d_min_bt_30":null,"age_min":0,"family":3,"touches_missing":true,"lon":83.7483,"lat":26.4779,"merges_splits_so_far":1},"geometry":{"type":"MultiPolygon","coordinates":[[[[83.9827,26.9131],[83.9425,26.9149],[83.8993,26.8627],[83.8591,26.8645],[83.817,26.8302],[83.7384,26.8698],[83.678,26.8724],[83.4925,26.79],[83.4191,26.7299],[83.4374,26.693],[83.4295,26.5308],[83.3676,26.4972],[83.3563,26.4706],[83.175,26.4598],[83.102,26.3994],[83.1004,26.3634],[83.1484,26.3163],[83.2093,26.332],[83.2851,26.2386],[83.3651,26.2354],[83.4417,26.16],[83.4626,26.1772],[83.5425,26.1738],[83.5807,26.1361],[83.6607,26.1327],[83.7234,26.1841],[83.9614,26.1374],[83.9928,26.1631],[84.0091,26.4694],[83.99,26.4883],[84.0095,26.8487],[83.9827,26.9131]]]]}}]}