{"type":"FeatureCollection","features":[{"type":"Feature","properties":{"cell":47,"feature":983,"phase":"Decaying","min_bt_K":231.0,"area_km2":36620,"cold_core_km2":0,"speed_kmh":16.8,"heading_deg":70,"d_min_bt_30":2.0,"age_min":360,"family":3,"touches_missing":true,"lon":83.4354,"lat":27.8181,"merges_splits_so_far":23},"geometry":{"type":"MultiPolygon","coordinates":[[[[83.8624,29.8611],[83.8211,29.8629],[83.7885,29.8372],[83.8256,29.7634],[83.8137,29.7369],[83.7952,29.7738],[83.6809,29.7697],[83.7151,29.6419],[83.6217,29.6369],[83.5744,29.5306],[83.544,29.5409],[83.5371,29.6044],[83.4644,29.5984],[83.4615,29.5443],[83.5017,29.5246],[83.4782,29.4715],[83.5763,29.3771],[83.5332,29.3428],[83.6136,29.3033],[83.6126,29.2853],[83.5704,29.2691],[83.589,29.2322],[83.5831,29.1241],[83.5401,29.0899],[83.5167,29.0367],[83.5343,28.9818],[83.5128,28.9647],[83.5099,28.9106],[83.467,28.8763],[83.4651,28.8403],[83.5051,28.8206],[83.5042,28.8026],[83.4623,28.7863],[83.4692,28.7228],[83.4078,28.7253],[83.399,28.7528],[83.3589,28.7724],[83.3673,28.9346],[83.3272,28.9542],[83.3319,29.0443],[83.2605,29.0562],[83.2418,29.093],[83.1195,29.1159],[83.0766,29.0814],[83.015,29.0838],[82.991,29.0125],[82.9089,29.0156],[82.8973,28.9889],[82.8554,28.9724],[82.8529,28.9184],[82.7807,28.912],[82.7585,28.8767],[82.7175,28.8782],[82.6593,28.9524],[82.6175,28.9359],[82.4534,28.9415],[82.4474,29.041],[82.417,29.051],[82.2475,28.9302],[82.1435,28.8974],[81.9993,28.8838],[81.957,28.849],[81.916,28.8503],[81.945,28.8043],[81.8709,28.7433],[81.8194,28.7358],[81.828,28.6904],[81.9784,28.6047],[81.9559,28.5513],[82.0651,28.4667],[82.1264,28.4648],[82.1475,28.4822],[82.3517,28.4756],[82.4137,28.4916],[82.4569,28.5443],[82.5182,28.5422],[82.5257,28.4788],[82.5657,28.4594],[82.5618,28.3692],[82.6426,28.3484],[82.6394,28.2763],[82.6982,28.22],[82.695,28.148],[82.7438,28.1011],[82.8049,28.0989],[82.8545,28.07],[82.7073,27.967],[82.7464,27.9295],[82.7042,27.8949],[82.8025,27.8191],[82.8106,27.7737],[82.9006,27.7433],[82.8974,27.6712],[82.7847,27.6483],[82.7118,27.6058],[82.7087,27.5337],[82.7857,27.4406],[82.7833,27.3865],[82.7009,27.3534],[82.718,27.2806],[82.6535,27.1926],[82.6819,27.1464],[82.8238,27.1594],[82.8626,27.1218],[82.9029,27.1203],[82.9142,27.147],[82.8763,27.2026],[82.9675,27.2082],[82.9537,27.1274],[82.9908,27.0538],[83.0311,27.0523],[83.0479,26.9794],[83.0165,26.9535],[82.936,26.9566],[82.9038,26.9126],[82.9335,26.9025],[82.9553,26.9378],[83.0124,26.8634],[83.1122,26.8415],[83.1595,26.7764],[83.1562,26.7043],[83.185,26.6761],[83.2068,26.7114],[83.3064,26.6893],[83.3492,26.7418],[83.3885,26.7221],[83.4952,26.8441],[83.5756,26.8407],[83.6186,26.893],[83.7173,26.8527],[83.7931,26.7591],[83.8534,26.7564],[84.0075,26.8126],[83.9903,26.8676],[84.01,27.2279],[83.9908,27.2468],[84.0097,27.589],[83.9905,27.6079],[84.0096,27.9501],[83.9903,27.969],[84.0097,28.3112],[83.9903,28.3301],[84.0099,28.6722],[83.9905,28.6911],[84.0093,29.0152],[83.9898,29.0341],[84.0031,29.6111],[83.9507,29.7759],[83.9203,29.7863],[83.8624,29.8611]]],[[[82.9143,27.5984],[82.8722,27.5638],[82.8714,27.5458],[82.9111,27.5263],[82.9078,27.4542],[82.8771,27.4463],[82.8706,27.5278],[82.8317,27.5653],[82.8625,27.5732],[82.8844,27.6085],[82.9143,27.5984]]],[[[82.1725,28.8514],[82.1703,28.7973],[82.2105,28.778],[82.2084,28.7239],[82.2387,28.7139],[82.2873,28.6492],[82.2456,28.6325],[82.2328,28.5697],[82.2252,28.6332],[82.2471,28.6685],[82.2069,28.6879],[82.1498,28.798],[82.152,28.8521],[82.1725,28.8514]]],[[[83.8974,28.8578],[83.9168,28.8388],[83.8912,28.7497],[83.8385,28.725],[83.8124,28.8074],[83.8974,28.8578]]]]}},{"type":"Feature","properties":{"cell":55,"feature":990,"phase":"Mature","min_bt_K":222.5,"area_km2":34816,"cold_core_km2":0,"speed_kmh":11.2,"heading_deg":155,"d_min_bt_30":1.2,"age_min":330,"family":3,"touches_missing":true,"lon":74.4068,"lat":33.4517,"merges_splits_so_far":19},"geometry":{"type":"MultiPolygon","coordinates":[[[[73.4326,34.0084],[72.9568,33.9913],[72.9064,33.9262],[72.9085,33.8902],[72.9969,33.8575],[72.9764,33.8386],[72.9825,33.7306],[72.9404,33.7109],[72.9435,33.6569],[72.923,33.6381],[72.9466,33.6029],[72.9907,33.5865],[73.0193,33.4612],[73.0735,33.4542],[73.1297,33.4112],[73.1019,33.3289],[73.0795,33.3461],[73.0048,33.3344],[73.0488,33.3179],[73.0405,33.2725],[73.0078,33.2803],[73.0058,33.3163],[72.9844,33.3155],[72.9874,33.2615],[73.064,33.2373],[73.1049,33.2749],[73.16,33.2498],[73.12,33.1942],[73.1434,33.159],[73.1984,33.1339],[73.2505,33.1628],[73.3185,33.0931],[73.2981,33.0743],[73.3269,32.9309],[73.4022,32.9245],[73.4792,32.8821],[73.4401,32.8085],[73.5503,32.7401],[73.5521,32.704],[73.6075,32.6608],[73.6502,32.6622],[73.6945,32.6275],[73.7797,32.6302],[73.8239,32.5956],[73.9517,32.5995],[73.9927,32.6368],[74.0361,32.6201],[74.1418,32.6412],[74.277,32.4646],[74.2982,32.4652],[74.3181,32.5019],[74.3819,32.5036],[74.5033,32.6692],[74.5673,32.6709],[74.6512,32.7091],[74.7339,32.7833],[74.7766,32.7844],[74.8315,32.7406],[74.8328,32.7045],[74.887,32.6787],[74.8955,32.7421],[74.9473,32.7884],[75.0113,32.7898],[75.0205,32.8352],[75.0626,32.8541],[75.0395,32.9077],[75.0811,32.9447],[75.0799,32.9808],[75.1528,33.0455],[75.1962,33.0284],[75.3026,33.0486],[75.3302,33.2026],[75.4668,33.3044],[75.5526,33.306],[75.575,33.2704],[75.618,33.2711],[75.6199,33.199],[75.7489,33.1832],[75.9701,33.3581],[76.0326,33.4493],[76.0963,33.4863],[76.0956,33.5224],[76.1378,33.5591],[76.1367,33.6132],[76.1579,33.6315],[76.125,33.6581],[76.0717,33.6303],[76.0874,33.9012],[76.1291,33.9739],[76.1177,34.0008],[74.6895,33.9912],[74.6672,34.0087],[74.0399,33.9916],[74.0175,34.009],[73.4551,33.9911],[73.4326,34.0084]]]]}},{"type":"Feature","properties":{"cell":97,"feature":989,"phase":"Developing","min_bt_K":229.6,"area_km2":2524,"cold_core_km2":0,"speed_kmh":61.3,"heading_deg":307,"d_min_bt_30":-1.1,"age_min":180,"family":3,"touches_missing":true,"lon":72.1905,"lat":32.3408,"merges_splits_so_far":1},"geometry":{"type":"MultiPolygon","coordinates":[[[[72.0611,32.7994],[72.0185,32.7975],[71.9894,32.751],[72.0011,32.2462],[72.0335,32.2386],[72.1017,32.1695],[72.1552,32.1628],[72.1575,32.1268],[72.3035,31.9978],[72.4325,31.9672],[72.4605,32.0315],[72.4573,32.0855],[72.435,32.1026],[72.4397,32.2021],[72.4731,32.1764],[72.4562,32.1035],[72.4885,32.0958],[72.5187,32.1242],[72.5166,32.1602],[72.471,32.2124],[72.489,32.2673],[72.4433,32.3196],[72.4825,32.3753],[72.448,32.419],[72.4055,32.4172],[72.3719,32.4429],[72.3697,32.4789],[72.3037,32.5122],[72.3015,32.5482],[72.2253,32.572],[72.1456,32.6497],[72.1972,32.679],[72.2196,32.662],[72.2914,32.7102],[72.2903,32.7282],[72.2352,32.7529],[72.15,32.7492],[72.1433,32.6857],[72.1019,32.6658],[72.129,32.5768],[72.1615,32.5692],[72.2186,32.5085],[72.2198,32.4905],[72.1784,32.4707],[72.175,32.5247],[72.1425,32.5323],[72.1065,32.5938],[72.0628,32.6099],[72.0604,32.6459],[72.1007,32.6838],[72.0611,32.7994]]]]}},{"type":"Feature","properties":{"cell":108,"feature":991,"phase":"Developing","min_bt_K":234.0,"area_km2":22180,"cold_core_km2":0,"speed_kmh":90.5,"heading_deg":112,"d_min_bt_30":1.0,"age_min":180,"family":3,"touches_missing":true,"lon":80.6547,"lat":33.1295,"merges_splits_so_far":16},"geometry":{"type":"MultiPolygon","coordinates":[[[[81.7005,33.999],[80.813,34.0026],[80.8124,33.9845],[80.8557,33.9836],[80.8978,33.9466],[80.9638,33.9813],[81.0163,33.935],[80.8936,33.8204],[80.851,33.8394],[80.6999,33.8425],[80.5729,33.9352],[80.4633,33.8831],[80.4518,33.8563],[80.5045,33.8102],[80.5698,33.827],[80.6429,33.7444],[80.5756,33.6555],[80.4658,33.5854],[80.4318,33.5228],[80.3677,33.542],[80.3343,33.4975],[80.2688,33.4626],[80.2245,33.4092],[80.2122,33.3462],[79.9533,33.2961],[79.9311,33.2604],[79.8772,33.2521],[79.8521,33.0721],[79.8187,33.0094],[79.7977,33.0277],[79.7335,33.0285],[79.7117,33.0108],[79.6475,33.0116],[79.5933,32.9671],[79.5926,32.9311],[79.7192,32.8393],[79.6755,32.7857],[79.7591,32.6944],[79.7584,32.6584],[79.8415,32.549],[79.8729,32.5215],[79.9367,32.5206],[79.9576,32.5023],[80.0861,32.5364],[80.127,32.4636],[80.1695,32.4629],[80.2129,32.4983],[80.2767,32.4972],[80.3184,32.4604],[80.3609,32.4596],[80.4658,32.4036],[80.4861,32.3672],[80.5206,32.4657],[80.575,32.5098],[80.6809,32.4897],[80.8217,32.5679],[80.5717,32.7715],[80.5852,32.8704],[80.6279,32.8696],[80.6931,32.9044],[80.9068,32.8999],[80.9501,32.917],[80.9916,32.88],[81.1839,32.8755],[81.3321,32.8358],[81.4182,32.8517],[81.4382,32.8151],[81.5242,32.8309],[81.5869,32.7931],[81.6295,32.792],[81.642,32.8368],[81.7193,32.8978],[81.8063,32.9314],[81.8403,32.9755],[81.7252,33.042],[81.661,33.0437],[81.5997,33.1176],[81.5879,33.0908],[81.5665,33.0914],[81.5901,33.1449],[81.5286,33.2187],[81.5722,33.2356],[81.5848,33.2804],[81.6499,33.2967],[81.692,33.2775],[81.7231,33.2495],[81.6994,33.1961],[81.7305,33.1681],[81.8384,33.1831],[81.9272,33.2527],[81.9701,33.2514],[82.0947,33.1575],[82.1067,33.1842],[82.2172,33.2529],[82.1768,33.3083],[82.2008,33.3617],[82.1439,33.5259],[82.069,33.5372],[82.0061,33.5752],[81.9447,33.6492],[81.837,33.6523],[81.797,33.7257],[81.7323,33.7275],[81.7011,33.7554],[81.7034,33.8095],[81.7593,33.853],[81.8225,33.8152],[81.8552,33.8232],[81.88,33.8947],[81.924,33.9115],[81.9256,33.9475],[81.8079,33.978],[81.7735,33.9338],[81.7184,33.9083],[81.6655,33.9368],[81.7095,33.9537],[81.7005,33.999]]],[[[80.3454,33.1004],[80.3231,33.0647],[80.3207,32.9745],[80.363,32.9557],[80.3516,32.9289],[80.3303,32.9293],[80.2784,32.9933],[80.2798,33.0474],[80.324,33.1008],[80.3454,33.1004]]],[[[80.4515,33.0624],[80.4182,33.0179],[80.3645,33.0098],[80.3763,33.0547],[80.4196,33.072],[80.4515,33.0624]]],[[[81.897,33.2987],[81.8851,33.272],[81.789,33.2838],[81.8008,33.3105],[81.897,33.2987]]],[[[81.9096,33.5871],[81.9503,33.5317],[81.9256,33.4603],[81.8699,33.4168],[81.8054,33.4186],[81.7387,33.3664],[81.6528,33.3688],[81.6224,33.4147],[81.655,33.4228],[81.6676,33.4676],[81.7114,33.4844],[81.7359,33.5559],[81.7693,33.5821],[81.9096,33.5871]]],[[[81.5809,33.4519],[81.5691,33.4252],[81.5372,33.435],[81.549,33.4618],[81.5809,33.4519]]],[[[81.273,33.8568],[81.3782,33.782],[81.3017,33.7568],[81.1723,33.76],[81.1409,33.7878],[81.1422,33.8238],[81.1755,33.8501],[81.2194,33.8671],[81.273,33.8568]]]]}},{"type":"Feature","properties":{"cell":145,"feature":985,"phase":"Unclassified","min_bt_K":234.2,"area_km2":49180,"cold_core_km2":0,"speed_kmh":111.8,"heading_deg":123,"d_min_bt_30":0.2,"age_min":90,"family":3,"touches_missing":true,"lon":81.2605,"lat":29.9185,"merges_splits_so_far":11},"geometry":{"type":"MultiPolygon","coordinates":[[[[82.3415,31.1107],[82.2995,31.112],[82.2234,31.0513],[82.221,30.9973],[82.1885,30.9712],[82.0838,30.9745],[82.0334,31.0212],[82.0248,31.0665],[81.9604,31.0324],[81.9186,31.0336],[81.8752,30.9988],[81.7915,31.0012],[81.7691,30.9658],[81.5389,30.9721],[81.4329,30.9388],[81.3683,30.8863],[81.3056,30.8879],[81.2834,30.8524],[81.1789,30.8549],[81.0941,30.8209],[80.9693,30.8418],[80.8873,30.8977],[80.7408,30.9008],[80.7194,30.8832],[80.6781,30.9021],[80.5526,30.9046],[80.4787,30.8789],[80.4782,30.8609],[80.5196,30.842],[80.5177,30.7699],[80.4857,30.7434],[80.423,30.7446],[80.4017,30.727],[80.3395,30.7461],[80.2559,30.7476],[80.2346,30.7299],[80.2142,30.7483],[80.1393,30.6683],[80.1479,30.587],[80.2313,30.5856],[80.2518,30.5672],[80.4607,30.5815],[80.4904,30.5178],[80.4686,30.4822],[80.3734,30.4208],[80.2693,30.4226],[80.2281,30.4413],[80.1754,30.4151],[80.1746,30.3791],[80.215,30.3243],[80.1938,30.3066],[80.2134,30.2521],[80.182,30.2436],[80.1605,30.2079],[80.0664,30.1823],[80.0657,30.1463],[80.1068,30.1276],[80.1045,30.0193],[80.0627,30.002],[80.1234,29.9288],[80.0605,29.8937],[80.0808,29.8754],[80.059,29.8216],[80.0789,29.7852],[80.1402,29.7481],[80.1395,29.7121],[80.1999,29.6389],[80.1785,29.6032],[80.3314,29.5193],[80.3403,29.456],[80.4517,29.3728],[80.5648,29.3616],[80.5826,29.253],[80.6229,29.2161],[80.6219,29.1801],[80.5904,29.1536],[80.4767,29.1287],[80.537,29.0735],[80.5357,29.0193],[80.6064,28.9729],[80.6861,28.881],[80.7986,28.8697],[80.7977,28.8336],[80.8572,28.7601],[80.8133,28.6528],[80.9435,28.5507],[81.0053,28.5673],[81.1854,28.4368],[81.2262,28.4358],[81.2549,28.3719],[81.2846,28.3441],[81.3458,28.3425],[81.4047,28.2688],[81.4256,28.2863],[81.4868,28.2847],[81.5467,28.247],[81.6282,28.2448],[81.7432,28.3228],[81.6845,28.3967],[81.7292,28.5037],[81.7132,28.6305],[81.766,28.6741],[81.8174,28.6817],[81.7785,28.737],[81.8201,28.7538],[81.8214,28.7899],[81.8631,28.8067],[81.8644,28.8428],[81.7527,28.873],[81.7229,28.901],[81.7546,28.9271],[81.9604,28.9392],[82.0254,29.0274],[82.0665,29.0262],[82.1443,28.9155],[82.2058,28.9135],[82.3752,29.0344],[82.4375,29.0503],[82.545,29.1549],[82.5639,29.1182],[82.5951,29.1261],[82.5927,29.0721],[82.633,29.0526],[82.6305,28.9986],[82.6814,28.9877],[82.7447,29.0216],[82.8062,29.0194],[82.8195,29.082],[82.8614,29.0986],[82.8417,29.1173],[82.8836,29.1338],[82.8862,29.1879],[82.8468,29.2254],[82.8386,29.2708],[82.7975,29.2723],[82.7786,29.3091],[82.6139,29.315],[82.6049,29.3424],[82.5645,29.3618],[82.5867,29.3971],[82.5776,29.4245],[82.4845,29.4187],[82.4893,29.5268],[82.4504,29.5823],[82.4099,29.6017],[82.413,29.6738],[82.3848,29.7379],[82.3526,29.7118],[82.3273,29.6044],[82.2837,29.5517],[82.2631,29.5524],[82.2876,29.6418],[82.3296,29.6585],[82.332,29.7125],[82.3534,29.7299],[82.3343,29.7666],[82.3589,29.856],[82.4003,29.8546],[82.3987,29.8186],[82.3557,29.7839],[82.355,29.7659],[82.3856,29.7559],[82.4401,29.8172],[82.4202,29.8359],[82.4433,29.8893],[82.4134,29.9174],[82.3819,29.9094],[82.3153,30.0469],[82.2838,30.0389],[82.2784,29.9128],[82.3091,29.9028],[82.3183,29.8754],[82.2577,29.9134],[82.2615,30.0035],[82.2231,30.077],[82.1424,30.1336],[82.1432,30.1517],[82.1855,30.1684],[82.1862,30.1864],[82.1454,30.2057],[82.1592,30.2865],[81.9736,30.3283],[81.9335,30.3656],[81.8919,30.3668],[81.8308,30.4047],[81.7604,30.4698],[81.7833,30.5233],[81.8372,30.5669],[81.9802,30.4905],[82.0843,30.4873],[82.1044,30.4686],[82.1267,30.504],[82.1892,30.5021],[82.2741,30.5354],[82.449,30.7101],[82.5442,30.734],[82.4848,30.8082],[82.4873,30.8622],[82.5417,30.9055],[82.6028,30.8673],[82.6764,30.8737],[82.6271,30.9386],[82.5024,30.961],[82.448,30.9177],[82.4347,30.855],[82.3301,30.8584],[82.3008,30.9045],[82.3241,30.9579],[82.2831,30.9772],[82.3265,31.0119],[82.3415,31.1107]]],[[[81.5974,28.8323],[81.6346,28.7229],[81.5614,28.6798],[81.5936,28.7241],[81.5955,28.7782],[81.5552,28.7973],[81.5564,28.8334],[81.5974,28.8323]]],[[[81.338,29.0556],[81.3374,29.0376],[81.3779,29.0185],[81.3761,28.9644],[81.4066,28.9546],[81.4259,28.918],[81.4961,28.8711],[81.4856,28.8623],[81.3356,28.9835],[81.3368,29.0196],[81.2969,29.0567],[81.338,29.0556]]],[[[81.4098,29.3606],[81.4491,29.3054],[81.4479,29.2694],[81.4878,29.2322],[81.4866,29.1962],[81.4554,29.188],[81.4231,29.1437],[81.4107,29.0808],[81.3802,29.0907],[81.3814,29.1267],[81.4455,29.1972],[81.4473,29.2513],[81.4067,29.2704],[81.4085,29.3245],[81.3886,29.3431],[81.3998,29.3699],[81.4098,29.3606]]],[[[80.72,30.5314],[80.8964,30.5006],[80.9252,30.4187],[80.8932,30.3924],[80.81,30.3942],[80.7074,30.4504],[80.6449,30.4517],[80.5732,30.4982],[80.5737,30.5162],[80.6265,30.5423],[80.72,30.5314]]]]}},{"type":"Feature","properties":{"cell":167,"feature":992,"phase":"Unclassified","min_bt_K":234.1,"area_km2":3040,"cold_core_km2":0,"speed_kmh":68.7,"heading_deg":146,"d_min_bt_30":-0.0,"age_min":60,"family":3,"touches_missing":false,"lon":79.5619,"lat":32.6946,"merges_splits_so_far":2},"geometry":{"type":"MultiPolygon","coordinates":[[[[79.5415,33.067],[79.4556,33.0499],[79.4122,33.0143],[79.3694,33.0147],[79.3797,32.9876],[79.3253,32.925],[79.2826,32.9254],[79.2617,32.9617],[79.1754,32.9083],[79.1226,32.9539],[79.1442,32.9718],[79.123,32.99],[79.0697,32.9994],[78.9721,32.8829],[79.0572,32.8462],[79.0352,32.7922],[79.0563,32.774],[79.0557,32.7199],[79.0874,32.6926],[79.194,32.6917],[79.2592,32.7813],[79.3019,32.7809],[79.3237,32.8167],[79.3878,32.8161],[79.4822,32.7159],[79.5027,32.6615],[79.4811,32.6437],[79.4802,32.5896],[79.3939,32.5184],[79.3713,32.4284],[79.6153,32.3986],[79.7202,32.3251],[79.7408,32.2888],[79.7832,32.2882],[79.7947,32.3332],[79.8804,32.3681],[79.8397,32.4588],[79.8624,32.5307],[79.6755,32.7857],[79.7192,32.8393],[79.5926,32.9311],[79.615,32.9849],[79.5415,33.067]]]]}},{"type":"Feature","properties":{"cell":168,"feature":982,"phase":"Developing","min_bt_K":234.0,"area_km2":704,"cold_core_km2":0,"speed_kmh":7.2,"heading_deg":120,"d_min_bt_30":-10.0,"age_min":30,"family":168,"touches_missing":true,"lon":72.4574,"lat":27.0148,"merges_splits_so_far":0},"geometry":{"type":"MultiPolygon","coordinates":[[[[72.5877,27.2087],[72.5684,27.1898],[72.4474,27.1848],[72.4185,27.1565],[72.4203,27.1204],[72.3644,27.0278],[72.3672,26.9737],[72.2904,26.8981],[72.3229,26.8544],[72.3814,26.893],[72.5625,26.9007],[72.5992,26.9744],[72.6491,26.9855],[72.5449,27.0534],[72.5843,27.0731],[72.6018,27.128],[72.5877,27.2087]]]]}},{"type":"Feature","properties":{"cell":174,"feature":988,"phase":"Unclassified","min_bt_K":234.0,"area_km2":35672,"cold_core_km2":0,"speed_kmh":138.2,"heading_deg":226,"d_min_bt_30":0.8,"age_min":30,"family":3,"touches_missing":true,"lon":80.4731,"lat":32.0318,"merges_splits_so_far":5},"geometry":{"type":"MultiPolygon","coordinates":[[[[82.0874,32.9953],[82.043,32.9605],[82.0224,32.9792],[81.9788,32.9625],[81.9582,32.9811],[81.8513,32.9843],[81.8166,32.9221],[81.857,32.8668],[81.8239,32.8407],[81.7819,32.8599],[81.7495,32.8518],[81.7686,32.7972],[81.7348,32.753],[81.6708,32.7548],[81.6509,32.7914],[81.5869,32.7931],[81.5242,32.8309],[81.4382,32.8151],[81.4182,32.8517],[81.3321,32.8358],[81.1839,32.8755],[80.9916,32.88],[80.9501,32.917],[80.9068,32.8999],[80.6931,32.9044],[80.6279,32.8696],[80.5852,32.8704],[80.5717,32.7715],[80.8217,32.5679],[80.6809,32.4897],[80.575,32.5098],[80.5206,32.4657],[80.4861,32.3672],[80.4658,32.4036],[80.3609,32.4596],[80.3184,32.4604],[80.2767,32.4972],[80.2129,32.4983],[80.1695,32.4629],[80.127,32.4636],[80.0861,32.5364],[79.9789,32.5019],[79.9367,32.5206],[79.8729,32.5215],[79.8512,32.5038],[79.8397,32.4588],[79.8804,32.3681],[79.848,32.3414],[79.8055,32.342],[79.7832,32.2882],[79.7408,32.2888],[79.7307,32.316],[79.6153,32.3986],[79.35,32.4286],[79.3067,32.3749],[79.3275,32.3386],[79.3057,32.3028],[79.3264,32.2665],[79.3024,32.0683],[79.1647,32.0605],[79.1112,32.0159],[79.1106,31.9618],[79.0572,31.9171],[78.9831,31.9087],[78.9819,31.8004],[78.9606,31.7825],[79.0025,31.7462],[78.981,31.7102],[79.0435,31.6376],[79.022,31.6017],[79.1055,31.5289],[79.1051,31.4928],[79.1465,31.4383],[79.1456,31.3662],[79.1766,31.3208],[79.2396,31.3202],[79.2599,31.2659],[79.2916,31.2746],[79.3452,31.3553],[79.3867,31.3188],[79.4287,31.3183],[79.459,31.2368],[79.5214,31.2],[79.5208,31.1639],[79.5826,31.0911],[79.5714,31.0461],[79.613,31.0276],[79.7599,31.0437],[79.7908,31.0163],[79.7902,30.9802],[79.8516,30.9072],[79.8296,30.8534],[79.8903,30.7443],[79.8885,30.6541],[79.9394,30.5902],[79.9819,30.6256],[80.0645,30.5883],[80.1271,30.5873],[80.1393,30.6683],[80.2031,30.7214],[80.1933,30.7486],[80.131,30.7677],[80.0684,30.7687],[80.0471,30.7509],[79.9958,30.7968],[80.0178,30.8506],[79.9984,30.9231],[80.0421,31.0126],[80.0551,31.1297],[80.097,31.129],[80.1583,31.0559],[80.284,31.0538],[80.3692,31.1064],[80.4106,31.0876],[80.4321,31.1053],[80.589,31.0933],[80.5729,31.274],[80.4286,31.385],[80.459,31.7452],[80.5788,31.8783],[80.6844,31.8762],[80.8101,31.8375],[80.874,31.8542],[80.9283,31.8981],[80.9202,31.9795],[81.0048,31.9776],[81.1076,31.885],[81.171,31.8835],[81.2792,31.9531],[81.3632,31.9329],[81.5801,32.0716],[81.7029,31.96],[81.7452,31.9588],[81.7758,31.9309],[81.7109,31.8966],[81.7095,31.8606],[81.7605,31.814],[81.8676,31.847],[81.9223,31.8905],[81.9026,31.9272],[81.9347,31.9353],[81.9426,31.8719],[82.0248,31.8153],[82.0225,31.7613],[82.0546,31.7693],[82.1374,31.7307],[82.2149,31.8094],[82.2173,31.8635],[82.2604,31.8801],[82.2409,31.9169],[82.4134,31.9834],[82.4379,32.0548],[82.3982,32.1102],[82.4422,32.1449],[82.4898,32.2515],[82.4279,32.2897],[82.4093,32.3444],[82.4951,32.3596],[82.3362,32.3739],[82.3056,32.402],[82.3286,32.4373],[82.2256,32.5128],[82.2519,32.6202],[82.32,32.7083],[82.3021,32.781],[82.3576,32.8243],[82.4003,32.8229],[82.4123,32.8496],[82.3815,32.8777],[82.2747,32.8811],[82.2551,32.9179],[82.1688,32.9025],[82.0874,32.9953]]],[[[79.9219,31.285],[79.9194,31.1588],[79.8771,31.1413],[79.8767,31.1233],[79.9183,31.1047],[79.9073,31.0778],[79.8561,31.1416],[79.8774,31.1594],[79.8795,31.2676],[79.9219,31.285]]],[[[79.5093,31.7594],[79.5509,31.7228],[79.5292,31.687],[79.5497,31.6507],[79.528,31.6149],[79.5485,31.5786],[79.5376,31.5516],[79.5275,31.5788],[79.4856,31.5973],[79.5283,31.6329],[79.5286,31.6509],[79.4867,31.6695],[79.5295,31.7051],[79.5298,31.7231],[79.4879,31.7416],[79.4882,31.7596],[79.5093,31.7594]]],[[[79.9074,31.61],[79.9491,31.5913],[79.9381,31.5644],[79.8859,31.5922],[79.8863,31.6103],[79.9074,31.61]]],[[[79.5974,31.9749],[79.5958,31.8847],[79.6375,31.8481],[79.6255,31.7671],[79.594,31.7765],[79.5955,31.8666],[79.5536,31.8852],[79.5548,31.9573],[79.5974,31.9749]]],[[[79.4062,31.9229],[79.3944,31.8418],[79.3425,31.9055],[79.3746,31.9322],[79.4062,31.9229]]],[[[82.0192,32.1763],[82.1448,32.1364],[82.1172,31.9929],[82.0843,31.9669],[82.0005,31.9875],[81.9604,32.0428],[81.8663,32.0726],[81.8678,32.1087],[81.9,32.1167],[81.9666,32.1869],[82.0192,32.1763]]],[[[79.6666,32.2987],[79.6232,32.2452],[79.7071,32.19],[79.6953,32.127],[79.664,32.1544],[79.6647,32.1905],[79.602,32.2454],[79.6023,32.2634],[79.6666,32.2987]]],[[[81.6547,32.6199],[81.726,32.5367],[81.8111,32.5343],[81.8316,32.5157],[81.8772,32.5865],[81.9411,32.5847],[81.9931,32.556],[81.9892,32.4659],[81.9436,32.3951],[81.9413,32.3411],[81.9618,32.3224],[81.9288,32.2963],[81.8014,32.3],[81.7597,32.3193],[81.7151,32.2664],[81.6507,32.2501],[81.5453,32.271],[81.5015,32.2361],[81.4919,32.2634],[81.5145,32.2989],[81.4946,32.3355],[81.5159,32.3349],[81.5255,32.3076],[81.5576,32.3158],[81.5597,32.3699],[81.6036,32.4048],[81.6064,32.4769],[81.5749,32.4867],[81.4829,32.5884],[81.5152,32.5966],[81.5379,32.6321],[81.6547,32.6199]]],[[[82.1749,32.334],[82.2369,32.2959],[82.2242,32.2512],[82.1606,32.2532],[82.1096,32.2999],[82.1222,32.3446],[82.1749,32.334]]]]}},{"type":"Feature","properties":{"cell":177,"feature":981,"phase":"Decaying","min_bt_K":222.0,"area_km2":1928,"cold_core_km2":0,"speed_kmh":49.4,"heading_deg":138,"d_min_bt_30":9.9,"age_min":30,"family":3,"touches_missing":false,"lon":83.9132,"lat":26.3117,"merges_splits_so_far":2},"geometry":{"type":"MultiPolygon","coordinates":[[[[83.997,26.8041],[83.7826,26.7505],[83.8104,26.7041],[83.8601,26.6929],[83.8582,26.6568],[83.7741,26.5883],[83.7723,26.5523],[83.7303,26.518],[83.7485,26.4811],[83.7439,26.391],[83.763,26.3721],[83.7412,26.3369],[83.7603,26.318],[83.7575,26.2639],[83.7357,26.2288],[83.7738,26.191],[83.7865,26.0459],[83.8341,25.9986],[83.9339,25.9942],[83.9757,26.0284],[84.0052,26.018],[83.997,26.8041]]]]}},{"type":"Feature","properties":{"cell":181,"feature":956,"phase":"Unclassified","min_bt_K":239.0,"area_km2":364,"cold_core_km2":0,"speed_kmh":null,"heading_deg":null,"d_min_bt_30":null,"age_min":0,"family":181,"touches_missing":false,"lon":78.0208,"lat":30.8412,"merges_splits_so_far":0},"geometry":{"type":"MultiPolygon","coordinates":[[[[78.0837,30.9832],[78.0,30.9472],[77.9477,30.866],[77.9269,30.7758],[77.9791,30.7307],[78.0836,30.7667],[78.1149,30.8118],[78.136,30.902],[78.0837,30.9832]]]]}},{"type":"Feature","properties":{"cell":186,"feature":984,"phase":"Unclassified","min_bt_K":221.7,"area_km2":1156,"cold_core_km2":0,"speed_kmh":null,"heading_deg":null,"d_min_bt_30":null,"age_min":0,"family":168,"touches_missing":true,"lon":72.1811,"lat":27.0971,"merges_splits_so_far":0},"geometry":{"type":"MultiPolygon","coordinates":[[[[72.1399,27.2617],[72.0813,27.223],[72.039,27.2572],[71.992,27.1918],[71.9959,27.1198],[72.0824,27.0154],[72.0844,26.9793],[72.1467,26.946],[72.1275,26.9271],[72.1313,26.855],[72.2424,26.8509],[72.1888,26.9118],[72.2588,26.9239],[72.3,26.9076],[72.3672,26.9737],[72.3644,27.0278],[72.4194,27.1384],[72.3974,27.1736],[72.3465,27.1805],[72.2822,27.2499],[72.1611,27.2446],[72.1399,27.2617]]],[[[72.2782,27.1324],[72.2811,27.0783],[72.3118,27.0706],[72.3232,27.044],[72.2839,27.0243],[72.2867,26.9702],[72.2569,26.9599],[72.2436,27.0225],[72.2829,27.0423],[72.282,27.0603],[72.2389,27.1126],[72.2782,27.1324]]]]}},{"type":"Feature","properties":{"cell":189,"feature":993,"phase":"Unclassified","min_bt_K":233.0,"area_km2":9052,"cold_core_km2":0,"speed_kmh":null,"heading_deg":null,"d_min_bt_30":null,"age_min":0,"family":3,"touches_missing":true,"lon":79.7765,"lat":33.5179,"merges_splits_so_far":1},"geometry":{"type":"MultiPolygon","coordinates":[[[[80.5534,34.0078],[80.4885,34.009],[80.4664,33.9914],[80.2501,33.9952],[80.2496,33.9771],[80.2818,33.9676],[80.2809,33.9315],[80.2036,33.8696],[80.1296,33.934],[80.1525,33.9877],[80.0987,33.9976],[80.0427,33.9173],[80.0634,33.8809],[80.1062,33.8622],[80.1049,33.8081],[80.1477,33.7893],[80.1146,33.7628],[80.0622,33.8268],[80.0423,33.8992],[79.9995,33.9179],[80.0554,33.9983],[79.3847,34.0069],[79.3937,33.8895],[79.3393,33.863],[79.2529,33.8638],[79.2414,33.8188],[79.3267,33.7459],[79.3046,33.71],[79.3897,33.637],[79.4514,33.4559],[79.3864,33.4205],[79.3621,33.2403],[79.319,33.2227],[79.2859,33.1599],[79.2216,33.1605],[79.1891,33.1337],[79.1667,33.0618],[79.1129,33.0352],[79.1019,33.0082],[79.1548,32.9626],[79.2189,32.9621],[79.2401,32.9438],[79.2836,32.9975],[79.4122,33.0143],[79.5201,33.0672],[79.5415,33.067],[79.6044,32.9941],[79.7335,33.0285],[79.7977,33.0277],[79.8187,33.0094],[79.8521,33.0721],[79.8772,33.2521],[79.9311,33.2604],[79.9533,33.2961],[80.2122,33.3462],[80.2245,33.4092],[80.2688,33.4626],[80.3343,33.4975],[80.3677,33.542],[80.4318,33.5228],[80.5099,33.6206],[80.5109,33.6567],[80.4688,33.6936],[80.4714,33.7838],[80.494,33.8194],[80.389,33.9296],[80.4432,33.9376],[80.5529,33.9897],[80.5534,34.0078]]]]}}]}