{"type":"FeatureCollection","features":[{"type":"Feature","properties":{"cell":55,"feature":1047,"phase":"Mature","min_bt_K":220.5,"area_km2":37208,"cold_core_km2":4,"speed_kmh":18.3,"heading_deg":192,"d_min_bt_30":-1.9,"age_min":360,"family":3,"touches_missing":true,"lon":74.3872,"lat":33.371,"merges_splits_so_far":19},"geometry":{"type":"MultiPolygon","coordinates":[[[[73.4326,34.0084],[73.0546,33.9859],[73.0999,33.9515],[73.1019,33.9155],[73.0597,33.8959],[73.1059,33.8434],[73.0698,33.7158],[73.0963,33.6265],[73.1301,33.6007],[73.2827,33.57],[73.2959,33.5254],[73.3408,33.4909],[73.3427,33.4548],[73.3016,33.4173],[73.3035,33.3813],[73.2615,33.3617],[73.2643,33.3077],[73.199,33.3234],[73.2019,33.2694],[73.2774,33.2631],[73.2915,33.2004],[73.2403,33.1535],[73.1137,33.1128],[73.0626,33.0658],[73.0675,32.9757],[73.1458,32.9155],[73.2535,32.9013],[73.2981,32.8668],[73.3603,32.905],[73.3938,32.8791],[73.3529,32.8416],[73.3557,32.7876],[73.3139,32.7681],[73.326,32.7414],[73.5401,32.7307],[73.5854,32.6781],[73.6945,32.6275],[73.801,32.6309],[73.9312,32.5808],[74.0369,32.6021],[74.1141,32.5412],[74.1179,32.4511],[74.1721,32.4256],[74.1927,32.4442],[74.2147,32.4268],[74.2997,32.4292],[74.3195,32.4658],[74.469,32.4518],[74.5095,32.507],[74.5527,32.4901],[74.5933,32.5453],[74.6771,32.5835],[74.7403,32.6031],[74.7623,32.5856],[74.8262,32.5871],[74.8882,32.6427],[75.08,32.647],[75.1099,32.7108],[75.0857,32.8005],[75.1273,32.8375],[75.1261,32.8736],[75.1683,32.8925],[75.1984,32.9563],[75.2412,32.9572],[75.2724,32.9849],[75.2818,33.0302],[75.3559,33.0587],[75.4175,33.1501],[75.3924,33.276],[75.4343,33.3129],[75.4118,33.3485],[75.4537,33.3854],[75.4527,33.4215],[75.5377,33.4591],[75.5147,33.5128],[75.5462,33.5405],[75.6533,33.5605],[75.7536,33.4269],[75.7115,33.3901],[75.7129,33.3359],[75.6709,33.2991],[75.6723,33.245],[75.568,33.1349],[75.5714,33.0087],[75.5932,32.991],[75.5206,32.9085],[75.4779,32.9077],[75.4257,32.8616],[75.4267,32.8256],[75.3846,32.8067],[75.3856,32.7706],[75.344,32.7337],[75.3455,32.6796],[75.3247,32.6612],[75.3793,32.6172],[75.4219,32.618],[75.4422,32.6545],[75.4952,32.6645],[75.4918,32.7907],[75.5444,32.8188],[75.5648,32.8552],[75.6502,32.8567],[75.7448,32.9215],[75.763,33.0481],[75.7945,33.0757],[75.8373,33.0764],[75.8683,33.122],[75.9318,33.1591],[75.952,33.2135],[75.9944,33.2322],[75.9936,33.2683],[76.0986,33.3781],[76.0979,33.4142],[76.1929,33.4967],[76.2786,33.5158],[76.31,33.5613],[76.2342,33.5874],[76.2228,33.6143],[76.1575,33.6495],[76.1991,33.7223],[76.0901,33.7749],[76.0893,33.811],[76.1321,33.8296],[76.131,33.8837],[76.2376,33.9573],[76.2258,34.0023],[74.6895,33.9912],[74.6672,34.0087],[74.0399,33.9916],[74.0175,34.009],[73.4551,33.9911],[73.4326,34.0084]]]]}},{"type":"Feature","properties":{"cell":97,"feature":1043,"phase":"Developing","min_bt_K":227.9,"area_km2":5384,"cold_core_km2":0,"speed_kmh":68.2,"heading_deg":175,"d_min_bt_30":-1.7,"age_min":210,"family":3,"touches_missing":true,"lon":72.22,"lat":32.0345,"merges_splits_so_far":2},"geometry":{"type":"MultiPolygon","coordinates":[[[[72.0492,32.6545],[71.9977,32.6251],[72.0095,32.4451],[71.9894,32.4262],[72.0083,31.4705],[72.1313,31.3587],[72.1633,31.3511],[72.1655,31.3151],[72.2218,31.2544],[72.2417,31.2733],[72.3467,31.2778],[72.3688,31.2607],[72.3513,31.3773],[72.4112,31.4339],[72.377,31.4776],[72.3371,31.4398],[72.3117,31.5109],[72.2907,31.51],[72.2718,31.4731],[72.2165,31.5158],[72.2044,31.7138],[72.1811,31.7489],[72.221,31.7867],[72.2188,31.8227],[72.1744,31.8569],[72.2455,31.9051],[72.3046,31.9798],[72.3168,31.9533],[72.2756,31.9335],[72.3501,31.9276],[72.3945,31.8934],[72.5625,31.9184],[72.6069,31.8841],[72.6381,31.8944],[72.6159,31.9116],[72.6128,31.9656],[72.644,31.9759],[72.653,32.0033],[72.6086,32.0376],[72.6399,32.0479],[72.6489,32.0753],[72.6156,32.1011],[72.6066,32.0736],[72.5854,32.0728],[72.6045,32.1096],[72.5812,32.1448],[72.5759,32.2348],[72.5325,32.2511],[72.5282,32.3231],[72.5834,32.4697],[72.551,32.4774],[72.5096,32.4577],[72.4436,32.491],[72.4033,32.4532],[72.3787,32.5063],[72.3261,32.4951],[72.3228,32.5491],[72.2892,32.5747],[72.2253,32.572],[72.2017,32.607],[72.1615,32.5692],[72.1278,32.5948],[72.1468,32.6317],[72.1143,32.6393],[72.1054,32.6118],[72.074,32.6014],[72.0492,32.6545]]],[[[72.2567,32.2394],[72.2478,32.212],[72.2355,32.2385],[72.2567,32.2394]]]]}},{"type":"Feature","properties":{"cell":145,"feature":1045,"phase":"Developing","min_bt_K":234.0,"area_km2":69260,"cold_core_km2":0,"speed_kmh":158.2,"heading_deg":14,"d_min_bt_30":-0.2,"age_min":120,"family":3,"touches_missing":true,"lon":81.4552,"lat":30.6119,"merges_splits_so_far":13},"geometry":{"type":"MultiPolygon","coordinates":[[[[81.1814,32.19],[80.9259,32.1598],[80.9219,32.0336],[80.7737,32.0367],[80.7304,32.0015],[80.3495,32.0088],[80.2855,31.9919],[80.2734,31.9289],[80.2941,31.9106],[80.2928,31.8565],[80.313,31.82],[80.4168,31.746],[80.4154,31.6919],[80.3624,31.6838],[80.3297,31.6393],[80.3275,31.5492],[80.379,31.5031],[80.4524,31.4928],[80.4202,31.4663],[80.3996,31.4847],[80.3781,31.4671],[80.2729,31.4689],[80.2295,31.4155],[80.1887,31.4703],[80.1466,31.471],[80.1347,31.4081],[80.0701,31.3369],[80.0277,31.3195],[80.0269,31.2835],[79.9841,31.248],[80.0559,31.1658],[80.0769,31.1654],[80.12,31.2189],[80.1825,31.1998],[80.192,31.1546],[80.1184,31.1467],[80.1073,31.1198],[80.3037,30.9993],[80.367,31.0162],[80.3977,30.9886],[80.3759,30.9529],[80.4475,30.8885],[80.4894,30.8877],[80.5298,30.8328],[80.6022,30.8044],[80.6017,30.7863],[80.5595,30.7691],[80.5799,30.7507],[80.5673,30.6697],[80.693,30.6853],[80.7755,30.6475],[80.9424,30.6439],[80.9931,30.5976],[80.9696,30.508],[80.9994,30.4622],[80.749,30.4496],[80.6047,30.5066],[80.5645,30.5615],[80.4806,30.5451],[80.419,30.5823],[80.4097,30.6276],[80.2764,30.7292],[80.2645,30.6662],[80.233,30.6577],[80.19,30.6043],[80.1483,30.605],[80.1165,30.5785],[80.1369,30.5601],[80.1357,30.506],[80.1766,30.4692],[80.1542,30.3974],[80.215,30.3243],[80.2138,30.2702],[80.2338,30.2337],[80.2749,30.215],[80.2737,30.1609],[80.333,30.0336],[80.3943,29.9964],[80.393,29.9423],[80.3503,29.8889],[80.4217,29.8425],[80.4631,29.8417],[80.5155,29.8678],[80.5169,29.9219],[80.5482,29.9304],[80.5979,29.8482],[80.659,29.8109],[80.658,29.7748],[80.7191,29.7375],[80.7076,29.6926],[80.6038,29.6767],[80.551,29.6326],[80.5712,29.6141],[80.5464,29.4522],[80.5977,29.4422],[80.6582,29.3869],[80.6994,29.386],[80.7415,29.4213],[80.8034,29.42],[80.8732,29.3373],[80.954,29.2813],[80.953,29.2453],[80.9925,29.1902],[81.0099,29.0816],[80.9478,29.0649],[80.9468,29.0289],[80.9862,28.9738],[81.0778,28.9447],[81.0872,28.9174],[81.1277,28.8984],[81.1554,28.7984],[81.2158,28.7609],[81.2368,28.7784],[81.2982,28.7769],[81.307,28.7316],[81.407,28.6568],[81.4059,28.6208],[81.4567,28.6104],[81.4759,28.5738],[81.5168,28.5727],[81.5559,28.5175],[81.6599,28.5688],[81.6797,28.5502],[81.9658,28.5419],[82.0595,28.5842],[82.0432,28.693],[82.0862,28.7458],[82.046,28.7651],[82.0495,28.8552],[81.9477,28.8764],[81.9498,28.9305],[81.9095,28.9497],[81.891,29.0044],[81.8944,29.0945],[81.854,29.1138],[81.8766,29.1672],[81.8587,29.24],[81.9012,29.2748],[81.882,29.3115],[81.9764,29.3538],[82.0254,29.2891],[82.0219,29.199],[81.9999,29.1636],[82.0679,29.0622],[82.109,29.061],[82.1281,29.0243],[82.2512,29.0204],[82.2604,28.993],[82.3007,28.9736],[82.3083,28.9102],[82.4108,28.9068],[82.4549,28.9775],[82.5986,28.9726],[82.6159,28.8998],[82.6372,28.9171],[82.6987,28.9149],[82.7061,28.8515],[82.7872,28.8305],[82.7429,28.7599],[82.7724,28.7318],[82.8338,28.7296],[82.8453,28.7562],[82.8871,28.7727],[82.8896,28.8268],[82.8495,28.8463],[82.8554,28.9724],[82.8973,28.9889],[82.9632,29.0767],[82.9042,29.1331],[82.8961,29.1785],[82.8434,29.1534],[82.8665,29.2067],[82.8271,29.2442],[82.8099,29.317],[82.7507,29.3733],[82.7359,29.5002],[82.6254,29.5672],[82.5635,29.5694],[82.5163,29.6703],[82.4651,29.681],[82.446,29.7178],[82.4146,29.7098],[82.4178,29.7819],[82.4393,29.7992],[82.421,29.8539],[82.4433,29.8893],[82.4134,29.9174],[82.3919,29.9],[82.3827,29.9274],[82.3222,29.9655],[82.3038,30.0202],[82.2523,30.0309],[82.2331,30.0676],[82.1801,30.0422],[82.1794,30.0242],[82.2201,30.0049],[82.1764,29.9521],[82.2569,29.8954],[82.2554,29.8594],[82.2117,29.8066],[82.1911,29.8073],[82.2155,29.8967],[82.1557,29.9528],[82.1786,30.0062],[82.1387,30.0435],[82.1702,30.0516],[82.1817,30.0783],[82.1409,30.0976],[82.1447,30.1877],[82.0646,30.2624],[82.1069,30.2791],[82.0768,30.3071],[82.0353,30.3084],[81.955,30.383],[81.8524,30.4221],[81.8229,30.468],[81.8552,30.4942],[81.8968,30.493],[81.9371,30.4557],[82.0203,30.4532],[82.0813,30.4152],[82.1229,30.4139],[82.1345,30.4406],[82.0943,30.478],[82.0958,30.514],[82.1498,30.5574],[82.19,30.5201],[82.2741,30.5354],[82.2833,30.5081],[82.3542,30.4607],[82.4167,30.4586],[82.4841,30.5646],[82.5691,30.5978],[82.6308,30.5776],[82.6391,30.5322],[82.6174,30.5149],[82.6765,30.4407],[82.7771,30.3649],[82.7736,30.2928],[82.8324,30.2185],[82.8099,30.1832],[82.8596,30.1363],[82.8804,30.1355],[82.9029,30.1708],[82.9652,30.1685],[82.995,30.1403],[82.9913,30.0682],[82.9481,30.0338],[82.967,29.997],[82.9967,29.9688],[83.0607,30.0024],[83.1427,29.9812],[83.1724,29.953],[83.1677,29.863],[83.2053,29.7893],[83.2359,29.7791],[83.2941,29.7046],[83.3974,29.7004],[83.4506,29.7253],[83.4535,29.7793],[83.4023,29.7904],[83.3806,29.7733],[83.3511,29.8015],[83.3333,29.8564],[83.3578,29.9276],[83.3183,29.9653],[83.3409,30.0005],[83.3014,30.0381],[83.3892,30.1248],[83.3921,30.1788],[83.4347,30.1951],[83.4376,30.2492],[83.4079,30.2775],[83.304,30.2817],[83.2762,30.3459],[83.3524,30.406],[83.4892,30.4275],[83.4922,30.4815],[83.514,30.4987],[83.4993,30.6075],[83.5858,30.6581],[83.5899,30.7301],[83.5382,30.7413],[83.4886,30.7885],[83.4906,30.8245],[83.4598,30.8348],[83.4448,30.7542],[83.3682,30.6941],[83.3414,30.7764],[83.4289,30.845],[83.4319,30.8991],[83.4021,30.9274],[83.2766,30.9324],[83.2566,30.9512],[83.2347,30.9341],[83.172,30.9365],[83.152,30.9553],[83.1083,30.921],[83.0246,30.9241],[82.97,30.8811],[82.989,30.8443],[82.9454,30.8098],[82.9417,30.7378],[82.8664,30.6955],[82.8364,30.7236],[82.8654,30.885],[82.8054,30.9413],[82.7972,30.9867],[82.7444,30.9796],[82.7417,30.9255],[82.7099,30.9177],[82.6872,30.8824],[82.6454,30.8838],[82.5652,30.9588],[82.5233,30.9602],[82.5041,30.997],[82.3382,31.0386],[82.2367,31.1141],[82.173,31.098],[82.0705,31.1553],[82.0316,31.2287],[81.9064,31.2505],[81.876,31.2784],[81.9093,31.3226],[81.9513,31.3213],[82.0331,31.2647],[82.1101,31.3436],[82.1124,31.3976],[81.8652,31.5314],[81.887,31.5488],[81.89,31.6209],[82.0515,31.6972],[82.0937,31.6959],[82.1062,31.7407],[82.0116,31.7526],[81.9709,31.7899],[81.9076,31.7917],[81.877,31.8197],[81.9208,31.8545],[81.923,31.9086],[81.8713,31.9371],[81.8312,31.9924],[81.7678,31.9943],[81.6789,31.8885],[81.6046,31.8815],[81.6025,31.8274],[81.5807,31.81],[81.5984,31.7193],[81.5657,31.6931],[81.5064,31.8029],[81.4649,31.8221],[81.4527,31.7773],[81.4104,31.7784],[81.4131,31.8505],[81.5118,31.9471],[81.5214,31.9198],[81.4784,31.9029],[81.488,31.8756],[81.6278,31.935],[81.5862,31.9542],[81.5473,32.0454],[81.4947,32.0558],[81.4756,32.1105],[81.2843,32.0973],[81.222,32.1349],[81.1814,32.19]]],[[[81.8064,29.4941],[81.8058,29.4761],[81.8862,29.4196],[81.8841,29.3655],[81.8529,29.3574],[81.8203,29.3133],[81.8395,29.2766],[81.8156,29.1871],[81.7738,29.1702],[81.7718,29.1161],[81.7506,29.0987],[81.7698,29.0621],[81.7473,29.0086],[81.8069,28.9527],[81.7844,28.8992],[81.8439,28.8433],[81.8221,28.8079],[81.8412,28.7712],[81.83,28.7445],[81.8208,28.7718],[81.7805,28.791],[81.8234,28.8439],[81.7434,28.9004],[81.7864,28.9533],[81.7063,29.0097],[81.7069,29.0277],[81.7486,29.0446],[81.7493,29.0626],[81.7089,29.0818],[81.7095,29.0999],[81.7513,29.1167],[81.732,29.1534],[81.7745,29.1882],[81.7764,29.2423],[81.8183,29.2592],[81.7791,29.3144],[81.8103,29.3226],[81.8429,29.3667],[81.8449,29.4208],[81.7851,29.4767],[81.7858,29.4947],[81.8064,29.4941]]],[[[82.6526,29.4851],[82.6922,29.4476],[82.6502,29.431],[82.6889,29.3755],[82.6576,29.3676],[82.646,29.3409],[82.6765,29.3308],[82.7251,29.2659],[82.6938,29.258],[82.6823,29.2314],[82.7226,29.2119],[82.7184,29.1218],[82.7981,29.0648],[82.7865,29.0381],[82.766,29.0389],[82.6781,29.1413],[82.6814,29.2133],[82.6617,29.2321],[82.6847,29.2854],[82.6444,29.3049],[82.6254,29.3416],[82.6485,29.395],[82.6081,29.4144],[82.651,29.449],[82.6518,29.4671],[82.6114,29.4865],[82.6526,29.4851]]],[[[82.3503,29.6578],[82.3464,29.5677],[82.377,29.5577],[82.406,29.5116],[82.3517,29.4502],[82.1861,29.4375],[82.122,29.3854],[82.0396,29.3879],[82.0098,29.4159],[82.0524,29.4507],[82.076,29.5222],[82.108,29.5482],[82.1699,29.5463],[82.2784,29.6692],[82.3503,29.6578]]],[[[81.2991,29.7604],[81.2961,29.6702],[81.3368,29.6512],[81.3244,29.5883],[81.3156,29.6337],[81.2755,29.6707],[81.2784,29.7609],[81.2991,29.7604]]],[[[81.878,29.7447],[81.9172,29.6894],[81.8838,29.6272],[81.8532,29.6371],[81.8959,29.672],[81.8966,29.69],[81.8559,29.7092],[81.8573,29.7453],[81.878,29.7447]]],[[[80.7422,29.8272],[80.7518,29.8],[80.721,29.8096],[80.7321,29.8365],[80.7422,29.8272]]],[[[81.9664,29.8864],[81.9242,29.8696],[81.9207,29.7795],[81.8894,29.7714],[81.8821,29.8528],[81.9357,29.8963],[81.9664,29.8864]]],[[[83.2452,30.5457],[83.2116,30.5019],[83.1619,30.5489],[83.2452,30.5457]]],[[[83.1762,30.8191],[83.1752,30.8011],[83.1325,30.7847],[83.1932,30.7462],[83.1666,30.639],[83.1429,30.5858],[83.0785,30.5522],[83.0667,30.5255],[83.0577,30.553],[82.9771,30.6102],[82.9816,30.7002],[83.0243,30.7166],[83.0262,30.7527],[83.058,30.7605],[83.1244,30.8301],[83.1762,30.8191]]],[[[80.9794,30.8325],[80.9992,30.796],[80.9247,30.7525],[80.853,30.7992],[80.8856,30.8436],[80.9794,30.8325]]],[[[80.6744,31.1457],[80.7056,31.1361],[80.746,31.0811],[80.8292,31.0613],[80.8389,31.034],[80.8067,31.0077],[80.5559,31.0308],[80.4921,30.9959],[80.4195,31.0243],[80.4213,31.0964],[80.4535,31.1229],[80.6744,31.1457]]],[[[80.9049,31.8264],[80.888,31.6193],[80.8588,31.7012],[80.8621,31.8093],[80.9049,31.8264]]]]}},{"type":"Feature","properties":{"cell":174,"feature":1046,"phase":"Unclassified","min_bt_K":234.1,"area_km2":36692,"cold_core_km2":0,"speed_kmh":264.4,"heading_deg":49,"d_min_bt_30":0.1,"age_min":60,"family":3,"touches_missing":true,"lon":81.5351,"lat":32.8125,"merges_splits_so_far":7},"geometry":{"type":"MultiPolygon","coordinates":[[[[81.8736,33.9942],[81.3328,34.0087],[81.3105,33.9912],[80.8019,33.9938],[80.8446,33.9748],[80.896,33.8925],[80.9713,33.8819],[80.9598,33.5393],[80.8493,33.4515],[80.847,33.3793],[80.6489,33.221],[80.6248,33.1313],[80.582,33.1321],[80.5738,32.8436],[80.5291,32.7723],[80.5276,32.7182],[80.591,32.6989],[80.589,32.6268],[80.6098,32.6083],[80.5454,32.5916],[80.5439,32.5375],[80.4351,32.4493],[80.452,32.2866],[80.387,32.2337],[80.3706,32.0084],[80.7304,32.0015],[80.7737,32.0367],[80.9219,32.0336],[80.9345,32.0964],[80.915,32.151],[80.99,32.1764],[81.096,32.174],[81.1178,32.1915],[81.1814,32.19],[81.1911,32.1627],[81.2843,32.0973],[81.4756,32.1105],[81.4845,32.0651],[81.5371,32.0547],[81.5862,31.9542],[81.638,31.9257],[81.6838,32.0146],[81.8312,31.9924],[81.8917,31.9185],[81.9128,31.9179],[82.0012,32.0055],[82.2348,32.0163],[82.3812,31.9755],[82.4142,32.0014],[82.4185,32.0915],[82.3982,32.1102],[82.4422,32.1449],[82.3804,32.183],[82.4024,32.2003],[82.4058,32.2724],[82.523,32.2775],[82.5672,32.3121],[82.6742,32.3264],[82.7315,32.4056],[82.7342,32.4596],[82.7047,32.5058],[82.5983,32.5095],[82.554,32.4749],[82.4826,32.5405],[82.4861,32.6125],[82.4333,32.6233],[82.4035,32.6694],[82.407,32.7415],[82.4514,32.7761],[82.4643,32.8208],[82.5386,32.8093],[82.5145,32.7559],[82.5452,32.7278],[82.6092,32.7256],[82.6759,32.7775],[82.6842,32.732],[82.6184,32.6983],[82.5944,32.6449],[82.6268,32.6528],[82.7916,32.5388],[82.9193,32.5341],[82.9638,32.5685],[82.9841,32.5497],[83.0175,32.5756],[83.0204,32.6296],[83.0894,32.7172],[83.2112,32.7937],[83.2742,32.7732],[83.3179,32.7895],[83.4774,32.774],[83.5535,32.9694],[83.6649,33.0369],[83.6829,33.1535],[83.5544,33.1589],[83.4945,33.2335],[83.4088,33.237],[83.2156,33.0552],[83.1788,32.9754],[83.1147,32.9779],[83.0841,33.0061],[83.0882,33.0782],[83.0576,33.1064],[82.9291,33.1112],[82.8883,33.1488],[82.8313,33.0877],[82.8265,32.9977],[82.8469,32.9789],[82.8134,32.953],[82.726,32.9201],[82.6842,32.9396],[82.6619,32.9223],[82.5551,32.926],[82.5476,32.9894],[82.5708,33.0247],[82.5307,33.0802],[82.5772,33.1508],[82.5873,33.349],[82.5462,33.3865],[82.5377,33.4319],[82.3693,33.5097],[82.2824,33.4944],[82.1774,33.5519],[82.0699,33.5552],[81.987,33.6299],[81.908,33.551],[81.9041,33.4609],[81.85,33.4535],[81.8404,33.4808],[81.7774,33.5187],[81.7797,33.5728],[81.8554,33.5796],[81.9112,33.6231],[81.912,33.6411],[81.849,33.6791],[81.9152,33.7132],[81.896,33.7679],[81.8121,33.8245],[81.8136,33.8605],[81.8824,33.9488],[81.8736,33.9942]]],[[[82.0073,32.8804],[82.016,32.835],[82.0817,32.8691],[82.1244,32.8678],[82.1749,32.8031],[82.0436,32.735],[82.0634,32.6983],[82.0397,32.6449],[82.1437,32.5875],[82.1192,32.5161],[82.0648,32.4907],[82.0254,32.5641],[81.9246,32.4498],[81.8264,32.3895],[81.7421,32.41],[81.7223,32.4466],[81.7003,32.4292],[81.6366,32.4309],[81.6078,32.5129],[81.6298,32.5303],[81.632,32.5844],[81.676,32.6193],[81.6782,32.6734],[81.7002,32.6908],[81.6803,32.7274],[81.7134,32.7536],[81.7561,32.7524],[81.8391,32.6959],[81.9244,32.6934],[81.9797,32.7369],[81.9836,32.827],[81.952,32.837],[81.9219,32.883],[82.0073,32.8804]]],[[[81.7105,32.9431],[81.7849,32.932],[81.8364,32.8854],[81.8349,32.8494],[81.8769,32.8301],[81.8643,32.7854],[81.7789,32.7878],[81.7568,32.7704],[81.6751,32.8629],[81.6007,32.874],[81.6029,32.928],[81.636,32.9542],[81.7105,32.9431]]],[[[82.3141,33.0333],[82.3012,32.9886],[82.2713,33.0346],[82.3141,33.0333]]],[[[82.1718,33.2002],[82.2344,33.1621],[82.2121,33.1448],[82.2302,33.072],[82.1762,33.0647],[82.1557,33.0834],[82.0898,33.0493],[82.047,33.0506],[82.0193,33.1507],[82.0733,33.1581],[82.1186,33.2109],[82.1718,33.2002]]],[[[82.4246,33.1018],[82.4451,33.0831],[82.4331,33.0564],[82.3809,33.0852],[82.4246,33.1018]]],[[[81.6239,33.4507],[81.6432,33.3961],[81.5891,33.3885],[81.5587,33.4345],[81.592,33.4606],[81.6239,33.4507]]]]}},{"type":"Feature","properties":{"cell":181,"feature":1015,"phase":"Developing","min_bt_K":237.5,"area_km2":1124,"cold_core_km2":0,"speed_kmh":23.6,"heading_deg":55,"d_min_bt_30":-1.5,"age_min":30,"family":181,"touches_missing":false,"lon":78.1223,"lat":30.9017,"merges_splits_so_far":0},"geometry":{"type":"MultiPolygon","coordinates":[[[[78.2097,31.1454],[78.0943,31.0824],[78.0523,30.9742],[77.9895,30.9381],[77.9269,30.8118],[77.9269,30.7758],[77.9582,30.7487],[78.1253,30.7126],[78.3451,30.8836],[78.3034,30.9378],[78.3245,30.9919],[78.2619,31.0461],[78.262,31.1002],[78.2097,31.1454]]]]}},{"type":"Feature","properties":{"cell":186,"feature":1052,"phase":"Developing","min_bt_K":217.8,"area_km2":6508,"cold_core_km2":84,"speed_kmh":50.4,"heading_deg":112,"d_min_bt_30":-3.8,"age_min":30,"family":168,"touches_missing":true,"lon":72.417,"lat":27.0132,"merges_splits_so_far":3},"geometry":{"type":"MultiPolygon","coordinates":[[[[72.5035,27.6746],[72.4349,27.6266],[72.4367,27.5906],[72.3779,27.552],[72.4,27.5168],[72.3016,27.4584],[72.3054,27.3864],[72.3372,27.3606],[72.3776,27.3624],[72.4524,27.2843],[72.435,27.2294],[72.3648,27.2174],[72.3428,27.2525],[72.3024,27.2508],[72.2803,27.286],[72.2197,27.2833],[72.1707,27.2541],[72.163,27.2086],[72.1121,27.2153],[72.1352,27.1622],[72.0862,27.1329],[72.0594,27.0685],[72.02,27.0487],[72.0662,26.9424],[72.0153,26.9491],[72.0087,26.8856],[72.0403,26.86],[72.0997,26.8807],[72.1179,26.9176],[72.1294,26.8911],[72.0624,26.8248],[72.0317,26.8325],[72.0202,26.859],[71.9905,26.8487],[72.0013,26.6505],[72.051,26.6618],[72.0921,26.6456],[72.1799,26.505],[72.2191,26.5248],[72.3394,26.53],[72.3577,26.567],[72.3873,26.5773],[72.3216,26.6828],[72.3887,26.7489],[72.4097,26.7317],[72.5696,26.7565],[72.6019,26.7127],[72.6168,26.6139],[72.636,26.6328],[72.7966,26.6393],[72.9418,26.7623],[72.8774,26.8501],[72.9135,26.9418],[72.9085,27.05],[72.8375,27.0562],[72.8698,27.0123],[72.84,27.0021],[72.8287,27.0288],[72.7779,27.0358],[72.714,27.1055],[72.6737,27.1038],[72.6421,27.1297],[72.7017,27.1501],[72.6368,27.2378],[72.6351,27.2738],[72.6939,27.3123],[72.6921,27.3484],[72.7493,27.4229],[72.7282,27.4401],[72.7643,27.5318],[72.6489,27.6084],[72.6057,27.6608],[72.5371,27.6128],[72.5803,27.5605],[72.5504,27.5502],[72.5389,27.5768],[72.4975,27.5931],[72.5362,27.6309],[72.5035,27.6746]]],[[[72.7113,26.9519],[72.7156,26.8618],[72.7567,26.8453],[72.7592,26.7913],[72.691,26.7434],[72.6797,26.77],[72.719,26.7897],[72.7165,26.8437],[72.6745,26.8782],[72.6937,26.897],[72.6912,26.9511],[72.7113,26.9519]]],[[[72.094,26.7992],[72.0854,26.7717],[72.0356,26.7604],[72.094,26.7992]]]]}},{"type":"Feature","properties":{"cell":189,"feature":1051,"phase":"Unclassified","min_bt_K":233.1,"area_km2":7452,"cold_core_km2":0,"speed_kmh":82.0,"heading_deg":56,"d_min_bt_30":0.1,"age_min":30,"family":3,"touches_missing":true,"lon":80.1435,"lat":33.7238,"merges_splits_so_far":1},"geometry":{"type":"MultiPolygon","coordinates":[[[[80.6832,34.0052],[80.6183,34.0065],[80.5962,33.9889],[80.5751,34.0074],[80.4885,34.009],[80.4664,33.9914],[79.6011,34.0045],[79.5895,33.9595],[79.4585,33.8888],[79.436,33.8349],[79.4343,33.7267],[79.4552,33.6904],[79.5305,33.6805],[79.5408,33.6534],[79.5836,33.6348],[79.5811,33.4905],[79.5265,33.446],[79.3981,33.4835],[79.3224,33.4572],[79.3219,33.4211],[79.3858,33.3844],[79.4056,33.276],[79.4588,33.2483],[79.502,33.2659],[79.5461,33.3376],[79.6743,33.2999],[79.7408,33.4073],[79.9127,33.405],[80.0112,33.4847],[79.9913,33.5572],[79.9279,33.6122],[79.9291,33.6664],[80.0271,33.71],[80.1349,33.7083],[80.1446,33.6631],[80.1978,33.6352],[80.2198,33.6528],[80.2844,33.6517],[80.3907,33.5958],[80.4003,33.5505],[80.5163,33.4672],[80.8604,33.4602],[80.9598,33.5393],[80.9713,33.8819],[80.875,33.911],[80.7663,33.8953],[80.6927,33.9599],[80.6832,34.0052]]]]}},{"type":"Feature","properties":{"cell":190,"feature":1012,"phase":"Unclassified","min_bt_K":240.6,"area_km2":144,"cold_core_km2":0,"speed_kmh":null,"heading_deg":null,"d_min_bt_30":null,"age_min":0,"family":190,"touches_missing":false,"lon":73.8346,"lat":26.4028,"merges_splits_so_far":0},"geometry":{"type":"MultiPolygon","coordinates":[[[[73.8895,26.4432],[73.8094,26.4407],[73.7209,26.3927],[73.8928,26.353],[73.9613,26.4003],[73.8895,26.4432]]]]}},{"type":"Feature","properties":{"cell":192,"feature":1014,"phase":"Unclassified","min_bt_K":233.1,"area_km2":760,"cold_core_km2":0,"speed_kmh":null,"heading_deg":null,"d_min_bt_30":null,"age_min":0,"family":3,"touches_missing":true,"lon":72.6585,"lat":28.777,"merges_splits_so_far":0},"geometry":{"type":"MultiPolygon","coordinates":[[[[72.7068,28.8924],[72.492,28.8746],[72.4939,28.8386],[72.5573,28.8051],[72.5629,28.697],[72.5853,28.6619],[72.7187,28.6583],[72.7409,28.623],[72.8023,28.6255],[72.8236,28.6083],[72.8441,28.6091],[72.8627,28.6459],[72.9446,28.6491],[72.8681,28.7454],[72.7193,28.8478],[72.7068,28.8924]]]]}},{"type":"Feature","properties":{"cell":193,"feature":1018,"phase":"Unclassified","min_bt_K":234.2,"area_km2":728,"cold_core_km2":0,"speed_kmh":null,"heading_deg":null,"d_min_bt_30":null,"age_min":0,"family":3,"touches_missing":true,"lon":82.5893,"lat":31.4465,"merges_splits_so_far":0},"geometry":{"type":"MultiPolygon","coordinates":[[[[82.6366,31.5698],[82.4782,31.5662],[82.4731,31.4582],[82.4193,31.4329],[82.3857,31.3889],[82.4555,31.3054],[82.542,31.3566],[82.5832,31.3371],[82.6882,31.3334],[82.7859,31.3931],[82.7566,31.4393],[82.7255,31.4494],[82.7703,31.5019],[82.6366,31.5698]]]]}},{"type":"Feature","properties":{"cell":197,"feature":1036,"phase":"Unclassified","min_bt_K":236.5,"area_km2":592,"cold_core_km2":0,"speed_kmh":null,"heading_deg":null,"d_min_bt_30":null,"age_min":0,"family":197,"touches_missing":false,"lon":77.9545,"lat":33.3585,"merges_splits_so_far":0},"geometry":{"type":"MultiPolygon","coordinates":[[[[78.1076,33.5449],[78.0215,33.5269],[77.9033,33.4457],[77.8603,33.3915],[77.8604,33.3374],[77.8176,33.3013],[77.8391,33.2833],[77.8284,33.2381],[77.9142,33.2382],[78.0215,33.3104],[78.0966,33.3194],[78.1612,33.4095],[78.0967,33.4457],[78.1183,33.4998],[78.1076,33.5449]]]]}},{"type":"Feature","properties":{"cell":200,"feature":1042,"phase":"Unclassified","min_bt_K":231.2,"area_km2":3476,"cold_core_km2":0,"speed_kmh":null,"heading_deg":null,"d_min_bt_30":null,"age_min":0,"family":200,"touches_missing":false,"lon":77.4954,"lat":31.2372,"merges_splits_so_far":0},"geometry":{"type":"MultiPolygon","coordinates":[[[[78.0,31.8311],[77.9155,31.795],[77.905,31.7319],[77.8313,31.6867],[77.768,31.6686],[77.7258,31.7046],[77.6414,31.7043],[77.6204,31.6682],[77.5362,31.6499],[77.4837,31.6046],[77.4419,31.5503],[77.4421,31.5142],[77.4001,31.496],[77.4008,31.3878],[77.4219,31.3698],[77.4015,31.2795],[77.2553,31.1706],[77.2357,30.9901],[77.2884,30.9452],[77.3511,30.9636],[77.5396,30.9464],[77.6963,31.0099],[77.7169,31.1363],[77.7588,31.1544],[77.7587,31.2085],[77.7796,31.2266],[77.7374,31.3167],[77.7583,31.3528],[77.6951,31.3888],[77.8422,31.4792],[77.8946,31.5966],[78.0421,31.5785],[78.0948,31.6056],[78.116,31.6958],[77.9684,31.7138],[77.9683,31.768],[78.0106,31.786],[78.0,31.8311]]]]}},{"type":"Feature","properties":{"cell":202,"feature":1048,"phase":"Unclassified","min_bt_K":233.0,"area_km2":15724,"cold_core_km2":0,"speed_kmh":null,"heading_deg":null,"d_min_bt_30":null,"age_min":0,"family":3,"touches_missing":true,"lon":79.9644,"lat":32.2922,"merges_splits_so_far":2},"geometry":{"type":"MultiPolygon","coordinates":[[[[80.5292,33.1602],[80.4539,33.1526],[80.451,33.0444],[80.4172,32.9818],[80.3317,32.9834],[80.3098,32.9657],[80.2889,32.9841],[80.2033,32.9855],[80.1387,32.9685],[80.1165,32.9328],[80.0096,32.9345],[79.9879,32.9168],[79.9024,32.918],[79.7973,33.0097],[79.7331,33.0105],[79.6466,32.9575],[79.5824,32.9583],[79.5303,33.04],[79.4984,33.0494],[79.4866,32.9864],[79.5288,32.9499],[79.5276,32.8777],[79.6115,32.7865],[79.6105,32.7324],[79.5669,32.6788],[79.6299,32.6239],[79.5972,32.5792],[79.533,32.5619],[79.5111,32.5261],[79.4691,32.5627],[79.2988,32.5644],[79.223,32.4659],[79.2225,32.4298],[79.1795,32.3941],[79.1788,32.34],[79.2416,32.2673],[79.2196,32.2134],[79.2406,32.1951],[79.2399,32.141],[79.3024,32.0683],[79.3017,32.0142],[79.3432,31.9596],[79.3216,31.9238],[79.4051,31.8508],[79.4045,31.8147],[79.4358,31.7873],[79.4572,31.8051],[79.5203,31.7863],[79.5946,31.8125],[79.6151,31.7762],[79.5723,31.7406],[79.6551,31.6494],[79.7177,31.6126],[79.7371,31.5221],[79.8096,31.458],[79.9255,31.4654],[79.9458,31.429],[79.9436,31.3208],[79.9738,31.2572],[80.0269,31.2835],[80.0284,31.3556],[80.1137,31.4084],[80.1375,31.5343],[80.1801,31.5517],[80.1921,31.6146],[80.2226,31.569],[80.1797,31.5336],[80.1784,31.4795],[80.2295,31.4155],[80.2729,31.4689],[80.3889,31.4759],[80.3893,31.4939],[80.2858,31.5679],[80.2875,31.6401],[80.3194,31.6485],[80.3306,31.6754],[80.248,31.749],[80.2798,31.7574],[80.3414,31.6842],[80.4154,31.6919],[80.4168,31.746],[80.3234,31.8108],[80.2928,31.8565],[80.2747,31.983],[80.3278,31.9911],[80.3819,32.0353],[80.387,32.2337],[80.452,32.2866],[80.4351,32.4493],[80.5439,32.5375],[80.5454,32.5916],[80.6098,32.6083],[80.589,32.6268],[80.591,32.6989],[80.5276,32.7182],[80.5291,32.7723],[80.5738,32.8436],[80.582,33.1321],[80.5292,33.1602]]],[[[80.1702,32.0389],[80.1698,32.0209],[80.2117,32.0022],[80.1685,31.9668],[80.1681,31.9487],[80.21,31.93],[80.1954,31.7589],[80.1884,31.9123],[80.147,31.9491],[80.1689,31.9848],[80.149,32.0393],[80.1702,32.0389]]],[[[79.8998,32.2776],[79.9199,32.2232],[79.8455,32.2152],[79.8145,32.2607],[79.8681,32.287],[79.8998,32.2776]]],[[[79.7783,32.5859],[79.778,32.5679],[79.8202,32.5493],[79.8066,32.3961],[79.7748,32.4056],[79.7776,32.5499],[79.7357,32.5865],[79.7783,32.5859]]]]}},{"type":"Feature","properties":{"cell":203,"feature":1049,"phase":"Unclassified","min_bt_K":221.4,"area_km2":848,"cold_core_km2":0,"speed_kmh":null,"heading_deg":null,"d_min_bt_30":null,"age_min":0,"family":3,"touches_missing":true,"lon":72.6479,"lat":32.8474,"merges_splits_so_far":0},"geometry":{"type":"MultiPolygon","coordinates":[[[[72.757,32.9729],[72.6074,32.967],[72.5241,32.9275],[72.5016,32.9446],[72.4509,32.8974],[72.4351,32.8065],[72.5573,32.7303],[72.6852,32.7355],[72.7736,32.6848],[72.8396,32.8408],[72.7948,32.8752],[72.8263,32.8854],[72.8355,32.9128],[72.757,32.9729]]]]}}]}