{"type":"FeatureCollection","features":[{"type":"Feature","properties":{"cell":55,"feature":1095,"phase":"Mature","min_bt_K":221.0,"area_km2":35920,"cold_core_km2":0,"speed_kmh":21.1,"heading_deg":212,"d_min_bt_30":0.5,"age_min":390,"family":3,"touches_missing":true,"lon":74.3267,"lat":33.2903,"merges_splits_so_far":20},"geometry":{"type":"MultiPolygon","coordinates":[[[[73.4326,34.0084],[73.2163,34.0008],[73.1853,33.9727],[73.1873,33.9366],[73.2325,33.9022],[73.2354,33.8481],[73.3031,33.7964],[73.305,33.7603],[73.3735,33.6905],[73.3548,33.6357],[73.3772,33.6185],[73.4118,33.367],[73.1945,33.206],[73.1414,33.195],[73.1667,33.1237],[73.1045,33.0854],[73.0656,33.0118],[73.0889,32.9765],[73.0501,32.9029],[73.0846,32.8591],[73.3232,32.7955],[73.364,32.833],[73.4067,32.8345],[73.4188,32.8078],[73.4846,32.774],[73.5316,32.6853],[73.5871,32.6421],[73.6936,32.6455],[73.7703,32.6029],[73.7719,32.5668],[73.7089,32.5468],[73.8296,32.4694],[73.9769,32.51],[74.0682,32.3684],[74.1311,32.3883],[74.2176,32.3547],[74.3238,32.3577],[74.3458,32.3402],[74.367,32.3408],[74.4074,32.396],[74.4506,32.3791],[74.4704,32.4158],[74.5561,32.4],[74.6385,32.4742],[74.7016,32.4939],[74.7655,32.4954],[74.8105,32.4243],[74.8524,32.4434],[74.8724,32.4799],[74.915,32.4809],[75.0184,32.5735],[75.1663,32.6128],[75.2095,32.5957],[75.3778,32.6713],[75.3861,32.7526],[75.4069,32.7711],[75.3851,32.7887],[75.4267,32.8256],[75.4242,32.9157],[75.4764,32.9618],[75.5191,32.9626],[75.5519,32.9362],[75.5534,32.8821],[75.6516,32.8026],[75.7583,32.8045],[75.7893,32.8501],[75.7238,32.9031],[75.7225,32.9572],[75.6574,32.9922],[75.6346,33.0459],[75.7184,33.1195],[75.717,33.1736],[75.7804,33.2108],[75.7787,33.2829],[75.7997,33.3013],[75.776,33.3911],[75.722,33.3993],[75.6781,33.4346],[75.6681,33.4073],[75.5416,33.3149],[75.5641,33.2792],[75.5222,33.2423],[75.5446,33.2067],[75.5256,33.1161],[75.3893,33.0143],[75.3141,33.0218],[75.2681,33.1291],[75.3214,33.1392],[75.3307,33.1845],[75.2433,33.2369],[75.2752,33.2466],[75.327,33.3107],[75.3248,33.3829],[75.4212,33.3938],[75.4522,33.4395],[75.5787,33.5321],[75.6188,33.641],[75.5748,33.6763],[75.6265,33.7585],[75.7357,33.7062],[75.8651,33.7083],[75.8959,33.772],[75.9708,33.8002],[76.014,33.8009],[76.0795,33.7657],[76.1541,33.8119],[76.1727,33.9565],[76.2368,33.9934],[75.5336,33.9914],[75.5115,34.009],[74.6895,33.9912],[74.6672,34.0087],[74.0399,33.9916],[74.0175,34.009],[73.4551,33.9911],[73.4326,34.0084]]]]}},{"type":"Feature","properties":{"cell":97,"feature":1093,"phase":"Developing","min_bt_K":223.6,"area_km2":10820,"cold_core_km2":0,"speed_kmh":23.9,"heading_deg":150,"d_min_bt_30":-4.3,"age_min":240,"family":3,"touches_missing":true,"lon":72.2838,"lat":31.9413,"merges_splits_so_far":3},"geometry":{"type":"MultiPolygon","coordinates":[[[[72.0744,33.2512],[72.0315,33.2493],[72.0011,33.2209],[72.0095,33.0949],[71.9893,33.0759],[72.0096,32.77],[71.9894,32.751],[72.0095,32.4451],[71.9894,32.4262],[72.0104,32.1023],[71.9904,32.0833],[72.01,31.7774],[71.9901,31.7584],[72.0032,31.2176],[72.0352,31.21],[72.1147,31.2858],[72.1567,31.2876],[72.1655,31.3151],[72.1965,31.3255],[72.2086,31.2989],[72.1887,31.28],[72.2439,31.2373],[72.2969,31.2306],[72.2781,31.1937],[72.3772,31.1167],[72.4181,31.1365],[72.4621,31.1022],[72.504,31.104],[72.5939,30.9994],[72.6866,31.0302],[72.6826,31.1022],[72.6387,31.1365],[72.6577,31.1734],[72.6147,31.1897],[72.6137,31.2077],[72.6547,31.2274],[72.6096,31.2797],[72.6296,31.2986],[72.5856,31.3329],[72.5774,31.4769],[72.6185,31.4966],[72.6092,31.6587],[72.6614,31.6698],[72.7397,31.7812],[72.7819,31.7829],[72.8482,31.7313],[72.8573,31.7587],[72.8985,31.7784],[72.8725,31.8676],[72.8292,31.884],[72.8253,31.956],[72.8656,31.9936],[72.8324,32.0194],[72.7598,31.9895],[72.7568,32.0435],[72.6427,32.1834],[72.674,32.1936],[72.7527,32.1156],[72.7669,32.0529],[72.7981,32.0632],[72.7931,32.1532],[72.8334,32.1909],[72.8011,32.1987],[72.7779,32.2338],[72.7376,32.1962],[72.595,32.2717],[72.6343,32.3274],[72.5239,32.3951],[72.5441,32.414],[72.5297,32.4765],[72.4984,32.4662],[72.5005,32.4302],[72.4591,32.4104],[72.4624,32.3564],[72.421,32.3367],[72.4667,32.2844],[72.4008,32.3178],[72.476,32.4833],[72.4324,32.4996],[72.4292,32.5536],[72.362,32.6049],[72.371,32.6323],[72.4024,32.6427],[72.4002,32.6787],[72.3239,32.7025],[72.3037,32.6836],[72.2802,32.7187],[72.2162,32.716],[72.2252,32.7434],[72.1903,32.787],[72.1476,32.7852],[72.1286,32.7482],[72.0724,32.7909],[72.0665,32.8808],[72.0214,32.9149],[72.0482,32.9973],[72.0653,32.8988],[72.1104,32.8647],[72.0937,32.7918],[72.1263,32.7842],[72.1306,32.8837],[72.171,32.9215],[72.1485,32.9386],[72.157,33.1375],[72.122,33.1811],[72.0904,33.1707],[72.0987,33.0447],[72.1426,33.0286],[72.1123,33.0002],[72.0773,33.0438],[72.069,33.1697],[72.0238,33.2038],[72.0553,33.2143],[72.0791,33.1792],[72.0744,33.2512]]],[[[72.5364,31.4572],[72.5436,31.3312],[72.5656,31.314],[72.5467,31.2771],[72.5697,31.242],[72.5607,31.2146],[72.5487,31.2411],[72.5057,31.2574],[72.5047,31.2754],[72.5456,31.2952],[72.5005,31.3474],[72.4943,31.4554],[72.5364,31.4572]]],[[[72.467,31.5626],[72.5112,31.5283],[72.4822,31.482],[72.468,31.5446],[72.4249,31.5608],[72.467,31.5626]]],[[[72.583,31.7478],[72.5671,31.6569],[72.518,31.5918],[72.5049,31.6363],[72.546,31.6561],[72.5408,31.7461],[72.583,31.7478]]],[[[72.5696,32.3428],[72.5606,32.3154],[72.5484,32.3419],[72.5696,32.3428]]]]}},{"type":"Feature","properties":{"cell":145,"feature":1088,"phase":"Developing","min_bt_K":234.0,"area_km2":86056,"cold_core_km2":0,"speed_kmh":252.8,"heading_deg":9,"d_min_bt_30":0.0,"age_min":150,"family":3,"touches_missing":true,"lon":81.671,"lat":31.7369,"merges_splits_so_far":17},"geometry":{"type":"MultiPolygon","coordinates":[[[[81.8952,33.9935],[80.8563,34.0017],[80.8761,33.9471],[80.9836,33.9267],[81.0145,33.8809],[80.9491,33.8643],[80.9473,33.8102],[80.8586,33.74],[80.8574,33.7039],[80.8895,33.6942],[80.8994,33.6669],[80.8452,33.659],[80.837,33.7404],[80.805,33.7501],[80.7043,33.6349],[80.7032,33.5988],[80.7452,33.5619],[80.8058,33.4343],[80.8041,33.3802],[80.825,33.3618],[80.8029,33.3442],[80.8233,33.3077],[80.6918,33.2202],[80.7127,33.2017],[80.7105,33.1296],[80.6666,33.0944],[80.6655,33.0583],[80.6974,33.0486],[80.7073,33.0214],[80.6749,33.013],[80.6326,33.0319],[80.5993,32.9874],[80.5977,32.9333],[80.6613,32.914],[80.6337,32.6981],[80.535,32.6008],[80.4389,32.5935],[80.5839,32.4465],[80.6259,32.4276],[80.5379,32.3211],[80.5364,32.267],[80.4718,32.2321],[80.4709,32.196],[80.5019,32.1684],[80.5443,32.1676],[80.6064,32.1123],[80.67,32.111],[80.6901,32.0745],[80.7428,32.0644],[80.7792,31.8652],[80.8204,31.8283],[80.8188,31.7742],[80.775,31.721],[80.8691,31.6919],[80.9204,31.6457],[80.9188,31.5916],[80.8658,31.5837],[80.7471,31.487],[80.7455,31.4329],[80.8049,31.3054],[80.7613,31.2522],[80.7598,31.1981],[80.7281,31.1897],[80.7168,31.1629],[80.748,31.1532],[80.8599,31.0336],[80.8674,30.9342],[80.9726,30.9499],[81.1054,30.8477],[81.093,30.7848],[81.032,30.8403],[80.9585,30.833],[80.9778,30.7784],[80.9552,30.7248],[81.0568,30.6323],[81.0134,30.5791],[81.0529,30.5061],[81.1058,30.5319],[81.1469,30.5129],[81.21,30.5294],[81.2404,30.5016],[81.2082,30.4753],[81.1458,30.4768],[81.1339,30.432],[81.0175,30.3716],[80.7688,30.4131],[80.7364,30.3686],[80.7962,30.2772],[80.7638,30.2328],[80.6599,30.2349],[80.5962,30.182],[80.544,30.174],[80.574,30.1283],[80.6363,30.1271],[80.6662,30.0814],[80.6551,30.0546],[80.5721,30.0562],[80.5399,30.0117],[80.5703,29.9841],[80.6325,29.9828],[80.6744,30.0],[80.6961,30.0357],[80.7795,30.052],[80.7881,29.9887],[80.8482,29.9152],[80.9396,29.8501],[81.0414,29.7936],[81.1667,29.8268],[81.2169,29.7804],[81.1951,29.7449],[81.2755,29.6707],[81.2536,29.6352],[81.3132,29.5615],[81.2914,29.526],[81.3503,29.4343],[81.401,29.4059],[81.4503,29.3415],[81.398,29.3158],[81.3762,29.2802],[81.335,29.2813],[81.3233,29.2365],[81.3538,29.2267],[81.453,29.1158],[81.4941,29.1148],[81.534,29.0776],[81.6771,29.0556],[81.6857,29.0103],[81.7652,28.9359],[81.7632,28.8818],[81.8432,28.8253],[81.9013,28.7334],[81.9,28.6973],[81.9917,28.6856],[82.0595,28.5842],[82.0581,28.5482],[82.1074,28.5015],[82.1482,28.5002],[82.1694,28.5176],[82.3124,28.513],[82.3562,28.5838],[82.4281,28.5904],[82.4304,28.6445],[82.3297,28.6839],[82.3319,28.738],[82.2939,28.8114],[82.2962,28.8655],[82.3592,28.8995],[82.3607,28.9356],[82.3311,28.9636],[82.3182,28.9009],[82.2779,28.9202],[82.3212,28.973],[82.3265,29.0991],[82.3668,29.0797],[82.3752,29.0344],[82.4063,29.0423],[82.4087,29.0964],[82.4505,29.113],[82.494,29.1657],[82.4544,29.2032],[82.4797,29.3106],[82.5958,29.3698],[82.6576,29.3676],[82.6304,29.4498],[82.7235,29.4555],[82.7665,29.49],[82.8077,29.4885],[82.8408,29.5325],[82.8004,29.552],[82.8029,29.606],[82.8244,29.6233],[82.8072,29.6961],[82.7098,29.8259],[82.68,29.8541],[82.6378,29.8375],[82.608,29.8656],[82.6097,29.9016],[82.5194,29.9679],[82.3943,29.9541],[82.313,29.9929],[82.3045,30.0382],[82.2239,30.095],[82.197,30.1951],[82.1824,30.0963],[82.2016,30.0596],[82.1794,30.0242],[82.2201,30.0049],[82.1227,29.9087],[82.1127,29.918],[82.1779,29.9882],[82.1387,30.0435],[82.1702,30.0516],[82.1817,30.0783],[82.1409,30.0976],[82.1447,30.1877],[82.1046,30.225],[82.1362,30.2331],[82.1554,30.1964],[82.1685,30.2591],[82.0553,30.2897],[82.026,30.3357],[81.9249,30.4109],[81.9363,30.4377],[82.0311,30.4619],[81.9917,30.5172],[81.9752,30.626],[81.9961,30.6253],[82.0054,30.598],[82.0587,30.6234],[82.0855,30.7669],[82.1072,30.7843],[82.0886,30.839],[82.2078,30.9345],[82.2497,30.9332],[82.2931,30.9679],[82.3559,30.9658],[82.3902,31.0279],[82.3934,31.0999],[82.3532,31.1373],[82.3548,31.1734],[82.2446,31.2942],[82.1925,31.3049],[82.2183,31.4124],[82.1397,31.5411],[82.0453,31.5531],[82.0235,31.5357],[81.9299,31.5656],[81.9336,31.6557],[82.0655,31.778],[82.006,31.87],[82.0389,31.8961],[82.1438,31.8748],[82.1531,31.8475],[82.0671,31.814],[82.1195,31.8034],[82.1601,31.766],[82.236,31.8088],[82.2376,31.8448],[82.2063,31.8548],[82.197,31.8822],[82.3499,31.9855],[82.3304,32.0222],[82.3346,32.1123],[82.3033,32.1224],[82.2532,32.1871],[82.2871,32.2311],[82.3736,32.2644],[82.4372,32.2623],[82.4576,32.2436],[82.5433,32.2587],[82.6264,32.2198],[82.6927,32.2716],[82.7352,32.2701],[82.7942,32.1778],[82.8587,32.1935],[82.9517,32.1449],[82.9286,32.1097],[82.9469,32.0549],[82.9017,32.0024],[82.9522,31.9554],[83.0368,31.9523],[83.0762,31.8966],[83.1386,31.8762],[83.2029,31.8917],[83.3246,31.7967],[83.3789,31.8216],[83.3851,31.9296],[83.3238,31.9681],[83.3067,32.041],[83.2563,32.0881],[83.1928,32.0906],[83.0596,32.177],[83.0837,32.2302],[83.026,32.3406],[83.0279,32.3767],[82.9541,32.3884],[82.9135,32.426],[82.8497,32.4284],[82.8054,32.3939],[82.7416,32.3962],[82.6797,32.4345],[82.6372,32.4359],[82.615,32.4187],[82.5513,32.4209],[82.484,32.351],[82.3982,32.3358],[82.3252,32.3652],[82.3269,32.4013],[82.2963,32.4293],[82.1695,32.4514],[82.0775,32.5355],[82.0688,32.5808],[81.9198,32.5853],[81.8859,32.5412],[81.9064,32.5225],[81.8829,32.4691],[81.8294,32.4616],[81.8066,32.4262],[81.7641,32.4274],[81.7142,32.51],[81.8426,32.5244],[81.8228,32.561],[81.7399,32.6175],[81.7421,32.6716],[81.7002,32.6908],[81.6818,32.7635],[81.7789,32.7878],[81.8231,32.8227],[82.0089,32.6729],[82.0744,32.707],[82.0831,32.6616],[82.1146,32.6516],[82.1343,32.6149],[82.1769,32.6136],[82.2375,32.5395],[82.3873,32.5527],[82.4742,32.5859],[82.601,32.5635],[82.6667,32.5973],[82.7083,32.5778],[82.9435,32.5873],[82.9575,32.65],[83.2011,32.8031],[83.2612,32.9181],[83.3263,32.9335],[83.3467,32.9147],[83.4535,32.9104],[83.5861,32.9771],[83.6716,32.9735],[83.7493,33.0152],[83.7527,33.0692],[83.7753,33.0863],[83.7573,33.1412],[83.8036,33.1934],[83.8071,33.2474],[83.9042,33.2522],[83.962,33.3128],[83.9203,33.3327],[83.9137,33.3961],[83.8188,33.4274],[83.8212,33.4634],[83.8767,33.488],[83.9334,33.5306],[83.9358,33.5666],[84.0028,33.5997],[84.0077,33.6717],[83.9532,33.6651],[83.9066,33.6131],[83.8193,33.5988],[83.6843,33.5144],[83.6221,33.5531],[83.5666,33.5284],[83.6548,33.3893],[83.7407,33.3856],[83.7712,33.3572],[83.7486,33.3402],[83.7506,33.2047],[83.7078,33.2065],[83.6626,33.1724],[83.5781,33.194],[83.4539,33.2713],[83.3531,33.3837],[83.3101,33.3854],[83.2661,33.3691],[83.175,33.2824],[83.0882,33.2677],[82.9974,33.1809],[82.9545,33.1825],[82.7962,33.2334],[82.759,33.343],[82.7834,33.3962],[82.7321,33.4432],[82.6256,33.465],[82.5592,33.4311],[82.5284,33.4593],[82.5517,33.4946],[82.5217,33.5407],[82.4357,33.5436],[82.3729,33.5817],[82.2868,33.5845],[82.1386,33.6433],[82.0947,33.6266],[81.9671,33.6666],[81.8889,33.6057],[81.9312,33.5864],[81.9296,33.5504],[81.8969,33.5423],[81.8738,33.5069],[81.83,33.4901],[81.7232,33.5112],[81.7136,33.5385],[81.7678,33.546],[81.8131,33.5989],[81.8905,33.6418],[81.9144,33.6952],[81.8968,33.7859],[81.8545,33.8052],[81.8608,33.9494],[81.8952,33.9935]]],[[[82.2552,28.8668],[82.2537,28.8308],[82.2226,28.8227],[82.2113,28.796],[82.2902,28.7213],[82.2887,28.6852],[82.2577,28.6772],[82.2358,28.6418],[82.25,28.7406],[82.1703,28.7973],[82.2127,28.8321],[82.2142,28.8681],[82.2552,28.8668]]],[[[82.2769,29.3895],[82.3166,29.3521],[82.28,29.2179],[82.2495,29.228],[82.2533,29.3181],[82.2952,29.3348],[82.296,29.3528],[82.2556,29.3721],[82.2563,29.3902],[82.2769,29.3895]]],[[[82.1622,29.6097],[82.1821,29.591],[82.1776,29.4829],[82.1463,29.4749],[82.1242,29.4395],[82.1415,29.6104],[82.1622,29.6097]]],[[[82.3526,29.7118],[82.3518,29.6938],[82.3924,29.6744],[82.3694,29.6211],[82.3885,29.5843],[82.429,29.5649],[82.4052,29.4936],[82.3731,29.4675],[82.3655,29.531],[82.3877,29.5663],[82.3686,29.603],[82.3281,29.6224],[82.3503,29.6578],[82.332,29.7125],[82.3526,29.7118]]],[[[82.5163,29.6703],[82.5147,29.6342],[82.5544,29.5968],[82.5429,29.5701],[82.4917,29.5809],[82.4957,29.671],[82.5163,29.6703]]],[[[81.4916,30.5313],[81.5925,30.4384],[81.5388,30.3947],[81.4348,30.3975],[81.3938,30.4166],[81.3641,30.4624],[81.4398,30.5417],[81.4916,30.5313]]],[[[81.1611,30.6298],[81.1498,30.603],[81.1188,30.6128],[81.1611,30.6298]]],[[[81.1547,32.9574],[81.143,32.9306],[81.1333,32.9579],[81.1547,32.9574]]],[[[82.0359,33.042],[82.0565,33.0233],[82.0121,32.9885],[82.0105,32.9525],[81.9567,32.9451],[81.9495,33.0265],[82.0042,33.0519],[82.0359,33.042]]],[[[82.2738,33.0887],[82.2927,33.0339],[82.2696,32.9986],[82.2371,32.9906],[82.2096,33.0907],[82.2738,33.0887]]],[[[82.1899,33.1274],[82.1779,33.1007],[82.1684,33.1281],[82.1899,33.1274]]]]}},{"type":"Feature","properties":{"cell":186,"feature":1099,"phase":"Mature","min_bt_K":218.7,"area_km2":6484,"cold_core_km2":48,"speed_kmh":59.2,"heading_deg":116,"d_min_bt_30":0.8,"age_min":60,"family":168,"touches_missing":true,"lon":72.6858,"lat":26.8973,"merges_splits_so_far":7},"geometry":{"type":"MultiPolygon","coordinates":[[[[72.707,27.2497],[72.6088,27.1915],[72.5464,27.225],[72.4446,27.2388],[72.457,27.1942],[72.407,27.1831],[72.3887,27.1462],[72.3282,27.1436],[72.3099,27.1067],[72.2091,27.1023],[72.188,27.1194],[72.1083,27.0978],[72.0862,27.1329],[72.0795,27.0694],[72.1323,27.0266],[72.2033,27.0207],[72.2061,26.9667],[72.2272,26.9496],[72.209,26.9126],[72.2799,26.9067],[72.3114,26.881],[72.338,26.7557],[72.401,26.7043],[72.4037,26.6502],[72.4352,26.6244],[72.5365,26.6106],[72.6098,26.5504],[72.5906,26.5316],[72.6054,26.4329],[72.6838,26.4722],[72.825,26.4598],[72.9035,26.499],[72.9444,26.4825],[73.1048,26.4886],[73.1442,26.5081],[73.165,26.4908],[73.2132,26.5377],[73.1885,26.6452],[73.2657,26.7202],[73.2634,26.7743],[73.2828,26.7931],[73.1728,27.0058],[73.1704,27.0598],[73.0995,27.0662],[73.0125,26.9817],[73.0238,26.9551],[73.0544,26.9472],[73.056,26.9111],[73.0174,26.8735],[73.0206,26.8014],[72.9917,26.7732],[72.9771,26.872],[73.0165,26.8916],[73.0141,26.9457],[72.9722,26.9802],[73.0117,26.9997],[73.0495,27.0553],[72.9559,27.115],[72.9341,27.1503],[72.8736,27.1479],[72.8097,27.2176],[72.729,27.2144],[72.707,27.2497]]]]}},{"type":"Feature","properties":{"cell":189,"feature":1098,"phase":"Unclassified","min_bt_K":234.2,"area_km2":10596,"cold_core_km2":0,"speed_kmh":49.1,"heading_deg":175,"d_min_bt_30":1.1,"age_min":60,"family":3,"touches_missing":true,"lon":80.1674,"lat":33.5032,"merges_splits_so_far":2},"geometry":{"type":"MultiPolygon","coordinates":[[[[80.8346,34.0021],[79.6983,33.9943],[79.7405,33.9396],[79.6756,33.9404],[79.6725,33.7781],[79.6506,33.7603],[79.6496,33.7062],[79.6058,33.6706],[79.6035,33.5444],[79.5817,33.5266],[79.6026,33.4902],[79.5589,33.4547],[79.5583,33.4186],[79.6006,33.382],[79.5788,33.3642],[79.5993,33.3099],[79.5772,33.274],[79.757,33.1365],[79.8216,33.1537],[79.8532,33.1262],[79.8608,32.9727],[79.9249,32.9718],[80.0326,33.0063],[80.2466,33.0029],[80.3098,32.9657],[80.3212,32.9926],[80.3645,33.0098],[80.3649,33.0279],[80.3226,33.0467],[80.3359,33.1457],[80.4315,33.1169],[80.4306,33.0808],[80.4729,33.062],[80.4809,32.9626],[80.5147,33.0251],[80.5167,33.0973],[80.5391,33.1329],[80.5825,33.1501],[80.5971,33.2852],[80.6039,33.1497],[80.5376,33.0788],[80.5909,33.0688],[80.6556,33.0856],[80.7105,33.1296],[80.7127,33.2017],[80.6918,33.2202],[80.8233,33.3077],[80.8029,33.3442],[80.825,33.3618],[80.7656,33.5254],[80.7032,33.5988],[80.7496,33.7062],[80.6977,33.7704],[80.6434,33.7624],[80.6429,33.7444],[80.6855,33.7255],[80.685,33.7075],[80.6413,33.6903],[80.6397,33.6362],[80.6176,33.6186],[80.6591,33.5636],[80.6265,33.5553],[80.6165,33.5825],[80.574,33.6014],[80.6181,33.6366],[80.6197,33.6907],[80.6418,33.7083],[80.6213,33.7448],[80.644,33.7805],[80.6235,33.8169],[80.6462,33.8526],[80.6262,33.9071],[80.7043,33.9868],[80.7248,33.9503],[80.8113,33.9485],[80.8446,33.9748],[80.8346,34.0021]]]]}},{"type":"Feature","properties":{"cell":190,"feature":1061,"phase":"Unclassified","min_bt_K":240.1,"area_km2":136,"cold_core_km2":0,"speed_kmh":4.7,"heading_deg":125,"d_min_bt_30":-0.5,"age_min":30,"family":190,"touches_missing":false,"lon":73.8538,"lat":26.3906,"merges_splits_so_far":0},"geometry":{"type":"MultiPolygon","coordinates":[[[[73.8688,26.4606],[73.8501,26.4239],[73.79,26.422],[73.7817,26.3766],[73.8127,26.3505],[73.9135,26.3356],[73.9426,26.3636],[73.9206,26.4171],[73.8688,26.4606]]]]}},{"type":"Feature","properties":{"cell":192,"feature":1085,"phase":"Developing","min_bt_K":231.0,"area_km2":1492,"cold_core_km2":0,"speed_kmh":27.5,"heading_deg":82,"d_min_bt_30":-2.1,"age_min":30,"family":3,"touches_missing":true,"lon":72.7976,"lat":28.7946,"merges_splits_so_far":0},"geometry":{"type":"MultiPolygon","coordinates":[[[[72.8449,29.0062],[72.794,28.9952],[72.7869,28.9317],[72.7557,28.9395],[72.7441,28.9661],[72.6825,28.9636],[72.5964,28.8428],[72.602,28.7348],[72.5629,28.697],[72.6145,28.6901],[72.6582,28.6378],[72.7205,28.6222],[72.7428,28.587],[72.7516,28.6144],[72.8014,28.6435],[72.8218,28.6443],[72.8441,28.6091],[73.0281,28.6161],[73.118,28.6646],[73.0737,28.7352],[73.0702,28.8072],[72.9724,28.9209],[72.8904,28.9177],[72.869,28.9349],[72.8601,28.9075],[72.9028,28.8731],[72.8636,28.8355],[72.8654,28.7994],[72.8351,28.7892],[72.7773,28.7147],[72.7666,28.7233],[72.8618,28.8715],[72.8387,28.9247],[72.8779,28.9624],[72.8449,29.0062]]],[[[72.7471,28.7045],[72.7382,28.6771],[72.7266,28.7037],[72.7471,28.7045]]]]}},{"type":"Feature","properties":{"cell":193,"feature":1094,"phase":"Developing","min_bt_K":230.6,"area_km2":2848,"cold_core_km2":0,"speed_kmh":13.9,"heading_deg":25,"d_min_bt_30":-3.6,"age_min":30,"family":3,"touches_missing":true,"lon":82.6199,"lat":31.5034,"merges_splits_so_far":0},"geometry":{"type":"MultiPolygon","coordinates":[[[[82.5469,31.8977],[82.4835,31.8999],[82.4497,31.8559],[82.448,31.8199],[82.4885,31.7824],[82.4808,31.6203],[82.4378,31.6037],[82.4546,31.5129],[82.421,31.4689],[82.368,31.4617],[82.3428,31.3723],[82.3714,31.3082],[82.4966,31.2859],[82.5243,31.2038],[82.5016,31.1685],[82.5746,31.157],[82.6226,31.2816],[82.7066,31.2787],[82.7942,31.3477],[82.8563,31.3274],[82.8983,31.3259],[82.9212,31.3611],[83.0262,31.3572],[83.0463,31.3384],[83.0802,31.3822],[82.9918,31.5028],[82.9286,31.5052],[82.8774,31.5341],[82.839,31.6077],[82.8427,31.6798],[82.8867,31.7142],[82.8886,31.7503],[82.7546,31.8183],[82.627,31.8047],[82.5469,31.8977]]]]}},{"type":"Feature","properties":{"cell":197,"feature":1076,"phase":"Unclassified","min_bt_K":238.2,"area_km2":1520,"cold_core_km2":0,"speed_kmh":38.3,"heading_deg":64,"d_min_bt_30":1.7,"age_min":30,"family":197,"touches_missing":true,"lon":78.1398,"lat":33.4338,"merges_splits_so_far":0},"geometry":{"type":"MultiPolygon","coordinates":[[[[78.1508,33.6351],[77.9892,33.6081],[77.9892,33.554],[77.9247,33.5359],[77.9033,33.4096],[77.8176,33.3013],[77.8713,33.2743],[77.9141,33.3104],[77.9571,33.3104],[78.043,33.3826],[78.0859,33.3825],[78.1288,33.3284],[78.1934,33.4005],[78.2579,33.4184],[78.3223,33.4002],[78.3329,33.3551],[78.2253,33.2832],[78.2465,33.1929],[78.343,33.1837],[78.4074,33.2015],[78.4397,33.2285],[78.4401,33.3187],[78.376,33.3911],[78.4191,33.409],[78.484,33.499],[78.4305,33.5623],[78.3444,33.5625],[78.3013,33.5266],[78.2582,33.5267],[78.2045,33.5538],[78.2046,33.5899],[78.1508,33.6351]]]]}},{"type":"Feature","properties":{"cell":200,"feature":1092,"phase":"Unclassified","min_bt_K":232.2,"area_km2":2244,"cold_core_km2":0,"speed_kmh":51.6,"heading_deg":18,"d_min_bt_30":0.9,"age_min":30,"family":200,"touches_missing":false,"lon":77.5793,"lat":31.4585,"merges_splits_so_far":1},"geometry":{"type":"MultiPolygon","coordinates":[[[[77.704,31.921],[77.6301,31.8937],[77.6303,31.8396],[77.5671,31.8033],[77.5673,31.7673],[77.5251,31.7491],[77.5049,31.5867],[77.4212,31.4961],[77.3798,31.3877],[77.338,31.3514],[77.3382,31.3153],[77.3699,31.2884],[77.58,31.2712],[77.6011,31.2532],[77.7481,31.2536],[77.7584,31.2987],[77.7899,31.3078],[77.8214,31.3529],[77.8003,31.3709],[77.8633,31.4251],[77.9052,31.5334],[77.8842,31.5514],[77.9051,31.6777],[77.789,31.7047],[77.7784,31.7317],[77.6939,31.7857],[77.704,31.921]]]]}},{"type":"Feature","properties":{"cell":202,"feature":1097,"phase":"Unclassified","min_bt_K":234.0,"area_km2":18604,"cold_core_km2":0,"speed_kmh":78.1,"heading_deg":127,"d_min_bt_30":1.0,"age_min":30,"family":3,"touches_missing":true,"lon":80.2955,"lat":32.0806,"merges_splits_so_far":2},"geometry":{"type":"MultiPolygon","coordinates":[[[[80.4211,33.1261],[80.3673,33.118],[80.3858,33.0095],[80.3526,32.9649],[80.2884,32.9661],[80.2466,33.0029],[80.0326,33.0063],[79.8821,32.9724],[79.7297,32.8301],[79.687,32.8307],[79.5898,32.7687],[79.5774,32.6697],[79.6414,32.6689],[79.6847,32.7044],[79.7378,32.6947],[79.7371,32.6587],[79.6719,32.5873],[79.6712,32.5513],[79.6391,32.5426],[79.5129,32.6343],[79.416,32.5722],[79.4155,32.5362],[79.3724,32.5005],[79.4467,32.4907],[79.4782,32.4633],[79.4555,32.3734],[79.4974,32.3368],[79.4965,32.2827],[79.5596,32.2459],[79.5587,32.1918],[79.6425,32.1367],[79.652,32.0734],[79.7162,32.1087],[79.7794,32.0898],[79.8961,32.0972],[79.8946,32.0251],[79.7444,31.9189],[79.7223,31.8651],[79.7428,31.8287],[79.6999,31.7932],[79.6989,31.7391],[79.6775,31.7213],[79.6976,31.6669],[79.8535,31.5476],[79.9166,31.5467],[80.0024,31.6176],[80.0445,31.617],[80.1276,31.5615],[80.1702,31.5789],[80.2437,31.5686],[80.2403,31.4244],[80.3222,31.3328],[80.2999,31.279],[80.1924,31.1726],[80.1702,31.1188],[80.1895,31.0464],[80.2622,31.0181],[80.367,31.0162],[80.3977,30.9886],[80.4061,30.9073],[80.4587,30.9153],[80.4921,30.9959],[80.5764,31.0123],[80.5852,30.949],[80.6878,30.8748],[80.6868,30.8388],[80.5804,30.7687],[80.6318,30.7406],[80.6741,30.7578],[80.7241,30.6756],[80.7963,30.6471],[80.8503,30.709],[80.8305,30.7456],[80.8336,30.8537],[80.876,30.8709],[80.8776,30.925],[80.8572,30.9434],[80.8599,31.0336],[80.7991,31.1071],[80.7168,31.1629],[80.7173,31.1809],[80.7598,31.1981],[80.7613,31.2522],[80.8049,31.3054],[80.7455,31.4329],[80.7471,31.487],[80.8658,31.5837],[80.9188,31.5916],[80.9204,31.6457],[80.8691,31.6919],[80.775,31.721],[80.8188,31.7742],[80.8204,31.8283],[80.7792,31.8652],[80.7428,32.0644],[80.6901,32.0745],[80.67,32.111],[80.6064,32.1123],[80.5443,32.1676],[80.5019,32.1684],[80.4709,32.196],[80.4718,32.2321],[80.5364,32.267],[80.5379,32.3211],[80.6259,32.4276],[80.5943,32.4373],[80.4389,32.5935],[80.535,32.6008],[80.6337,32.6981],[80.6613,32.914],[80.5654,32.9249],[80.5028,32.9803],[80.4913,32.9534],[80.5321,32.8805],[80.5206,32.8536],[80.5107,32.8809],[80.4685,32.8997],[80.4699,32.9538],[80.4281,32.9907],[80.4211,33.1261]]],[[[80.5127,31.3834],[80.5099,31.2752],[80.467,31.2399],[80.4665,31.2219],[80.508,31.2031],[80.4763,31.1947],[80.425,31.2407],[80.4674,31.258],[80.4707,31.3842],[80.5127,31.3834]]],[[[79.8602,32.4225],[79.8811,32.4041],[79.8678,32.269],[79.7742,32.3695],[79.8285,32.4319],[79.8602,32.4225]]]]}},{"type":"Feature","properties":{"cell":203,"feature":1096,"phase":"Unclassified","min_bt_K":223.2,"area_km2":2632,"cold_core_km2":0,"speed_kmh":23.7,"heading_deg":144,"d_min_bt_30":1.8,"age_min":30,"family":3,"touches_missing":true,"lon":72.7228,"lat":32.7613,"merges_splits_so_far":0},"geometry":{"type":"MultiPolygon","coordinates":[[[[72.7101,33.0433],[72.6031,33.039],[72.5726,33.0107],[72.5759,32.9567],[72.4937,32.8992],[72.4958,32.8632],[72.425,32.797],[72.4036,32.7961],[72.2902,32.8996],[72.2587,32.8893],[72.2812,32.8722],[72.3127,32.7111],[72.3463,32.6854],[72.389,32.6872],[72.3969,32.7327],[72.4182,32.7336],[72.4237,32.6436],[72.3833,32.6058],[72.427,32.5896],[72.5085,32.4757],[72.5882,32.5692],[72.6106,32.552],[72.6308,32.5709],[72.6947,32.5734],[72.7352,32.6111],[72.7564,32.612],[72.7798,32.5768],[72.8426,32.5973],[72.9095,32.5457],[73.0372,32.5505],[73.0556,32.6054],[73.1509,32.6179],[73.1267,32.6711],[73.0831,32.6876],[73.1016,32.7424],[73.0478,32.7494],[73.0284,32.7126],[73.0172,32.7212],[73.0143,32.7753],[72.9473,32.8269],[72.9423,32.9169],[72.9097,32.9247],[72.8904,32.8879],[72.8446,32.9402],[72.6929,32.9704],[72.7224,33.0167],[72.7101,33.0433]]]]}},{"type":"Feature","properties":{"cell":206,"feature":1067,"phase":"Unclassified","min_bt_K":239.2,"area_km2":188,"cold_core_km2":0,"speed_kmh":null,"heading_deg":null,"d_min_bt_30":null,"age_min":0,"family":168,"touches_missing":false,"lon":74.0676,"lat":28.7298,"merges_splits_so_far":0},"geometry":{"type":"MultiPolygon","coordinates":[[[[74.0649,28.8136],[73.9949,28.7664],[73.9977,28.6943],[74.0683,28.7235],[74.0803,28.6787],[74.0605,28.66],[74.1529,28.6538],[74.1601,28.7352],[74.0649,28.8136]]]]}},{"type":"Feature","properties":{"cell":210,"feature":1081,"phase":"Unclassified","min_bt_K":230.1,"area_km2":3332,"cold_core_km2":0,"speed_kmh":null,"heading_deg":null,"d_min_bt_30":null,"age_min":0,"family":210,"touches_missing":true,"lon":75.0972,"lat":26.1228,"merges_splits_so_far":0},"geometry":{"type":"MultiPolygon","coordinates":[[[[75.2357,26.352],[75.0564,26.312],[75.0374,26.2755],[74.9173,26.2727],[74.8983,26.2361],[74.8783,26.2357],[74.8572,26.2713],[74.8172,26.2703],[74.8193,26.1981],[74.6393,26.1936],[74.5987,26.2107],[74.5512,26.1281],[74.4632,26.0626],[74.3833,26.0604],[74.3639,26.0418],[74.3034,26.0582],[74.2749,26.0122],[74.4849,26.009],[74.5054,25.9915],[75.5839,25.9977],[75.5929,26.043],[75.6227,26.0526],[75.6638,25.9991],[75.7135,26.009],[75.5918,26.0972],[75.6012,26.1244],[75.631,26.134],[75.6299,26.1882],[75.5789,26.2324],[75.5589,26.232],[75.5397,26.1955],[75.4781,26.2666],[75.4381,26.2658],[75.3972,26.3011],[75.3372,26.2999],[75.2357,26.352]]]]}},{"type":"Feature","properties":{"cell":213,"feature":1084,"phase":"Unclassified","min_bt_K":226.0,"area_km2":1980,"cold_core_km2":0,"speed_kmh":null,"heading_deg":null,"d_min_bt_30":null,"age_min":0,"family":168,"touches_missing":true,"lon":72.7743,"lat":27.5333,"merges_splits_so_far":1},"geometry":{"type":"MultiPolygon","coordinates":[[[[72.7837,27.7583],[72.5722,27.7226],[72.5362,27.6309],[72.4579,27.5734],[72.4588,27.5554],[72.5002,27.5391],[72.503,27.485],[72.5347,27.4593],[72.554,27.4781],[72.6288,27.4],[72.7439,27.3234],[72.8045,27.3258],[72.8432,27.3634],[72.8837,27.365],[72.9872,27.3148],[73.068,27.3179],[73.1561,27.3843],[73.1335,27.4376],[73.1513,27.4925],[73.0889,27.5263],[73.1075,27.5631],[72.9561,27.5483],[72.9447,27.575],[72.9641,27.5938],[72.9122,27.6189],[72.9034,27.5914],[72.8637,27.5718],[72.8663,27.5178],[72.8364,27.5076],[72.8241,27.5522],[72.8629,27.5899],[72.8409,27.6251],[72.8586,27.68],[72.7837,27.7583]]]]}},{"type":"Feature","properties":{"cell":214,"feature":1086,"phase":"Unclassified","min_bt_K":233.7,"area_km2":11680,"cold_core_km2":0,"speed_kmh":null,"heading_deg":null,"d_min_bt_30":null,"age_min":0,"family":3,"touches_missing":true,"lon":83.0966,"lat":30.5642,"merges_splits_so_far":1},"geometry":{"type":"MultiPolygon","coordinates":[[[[83.4188,31.5944],[83.3134,31.5986],[83.2994,31.536],[83.2132,31.5033],[83.2083,31.4133],[83.1753,31.3875],[83.0912,31.3908],[83.0582,31.365],[83.0353,31.3298],[83.0544,31.2929],[83.1155,31.2545],[83.1136,31.2185],[83.0916,31.2013],[83.0878,31.1293],[83.023,31.0956],[83.0202,31.0416],[82.9428,30.9633],[82.859,30.9664],[82.8007,31.0588],[82.7169,31.0618],[82.6205,31.02],[82.6607,30.9825],[82.6572,30.9105],[82.6973,30.873],[82.6746,30.8377],[82.7347,30.7814],[82.7112,30.7281],[82.6017,30.6237],[82.6208,30.587],[82.5983,30.5517],[82.6183,30.5329],[82.5924,30.4256],[82.6315,30.3701],[82.6289,30.316],[82.6589,30.2879],[82.7229,30.3217],[82.732,30.2943],[82.7727,30.2748],[82.7874,30.148],[82.8751,30.0275],[82.9165,30.0259],[82.9562,29.9884],[83.0787,29.9476],[83.1362,29.8552],[83.219,29.8519],[83.2585,29.8143],[83.3205,29.8118],[83.3323,29.8384],[83.3855,29.8633],[83.488,29.841],[83.5629,29.883],[83.555,29.9285],[83.4416,29.9422],[83.4238,29.9971],[83.4515,30.1223],[83.4159,30.232],[83.4475,30.2397],[83.4881,30.22],[83.502,30.2826],[83.5653,30.298],[83.511,30.4446],[83.5161,30.5347],[83.5379,30.5518],[83.544,30.6598],[83.6525,30.7274],[83.6546,30.7634],[83.6149,30.8012],[83.6578,30.8174],[83.6808,30.8525],[83.6719,30.88],[83.6092,30.8827],[83.5694,30.9204],[83.5276,30.9222],[83.5207,30.9856],[83.4799,31.0054],[83.5249,31.0576],[83.4871,31.1314],[83.5531,31.1828],[83.5363,31.2557],[83.5063,31.284],[83.4643,31.2857],[83.3993,31.2523],[83.3543,31.2],[83.3443,31.2094],[83.3494,31.2994],[83.4154,31.3509],[83.3754,31.3886],[83.3785,31.4426],[83.4236,31.4949],[83.4188,31.5944]]],[[[83.2248,30.9435],[83.2109,30.8809],[83.181,30.9091],[83.1829,30.9451],[83.2248,30.9435]]]]}},{"type":"Feature","properties":{"cell":215,"feature":1087,"phase":"Unclassified","min_bt_K":234.1,"area_km2":888,"cold_core_km2":0,"speed_kmh":null,"heading_deg":null,"d_min_bt_30":null,"age_min":0,"family":3,"touches_missing":true,"lon":82.2011,"lat":30.6647,"merges_splits_so_far":1},"geometry":{"type":"MultiPolygon","coordinates":[[[[82.1644,30.8998],[82.0886,30.839],[82.1072,30.7843],[82.0371,30.606],[82.0426,30.4886],[82.065,30.524],[82.1066,30.5227],[82.1676,30.4847],[82.2741,30.5354],[82.325,30.5067],[82.329,30.5968],[82.2896,30.6522],[82.3153,30.7597],[82.1644,30.8998]]]]}}]}