{"type":"FeatureCollection","features":[{"type":"Feature","properties":{"cell":55,"feature":1150,"phase":"Mature","min_bt_K":219.0,"area_km2":34228,"cold_core_km2":60,"speed_kmh":56.3,"heading_deg":246,"d_min_bt_30":-2.1,"age_min":420,"family":3,"touches_missing":true,"lon":74.0517,"lat":33.1858,"merges_splits_so_far":23},"geometry":{"type":"MultiPolygon","coordinates":[[[[74.0175,34.009],[73.4551,33.9911],[73.4701,33.9104],[73.4513,33.8556],[73.4842,33.8477],[73.5237,33.9212],[73.5575,33.8953],[73.5274,33.8492],[73.4954,33.8391],[73.4766,33.7843],[73.5207,33.7677],[73.5253,33.6776],[73.5926,33.6257],[73.5944,33.5897],[73.5343,33.4975],[73.537,33.4434],[73.5809,33.4268],[73.5285,33.398],[73.4986,33.3519],[73.4826,33.2431],[73.4303,33.2142],[73.366,33.212],[73.2367,33.018],[73.1623,33.0063],[73.1429,32.9695],[73.0573,32.9663],[73.0116,33.0188],[72.9912,33.0],[72.977,33.0626],[72.9312,33.115],[72.8772,33.122],[72.8088,33.1915],[72.7016,33.1873],[72.6416,33.1127],[72.5774,33.1101],[72.5705,33.0467],[72.5288,33.0269],[72.5299,33.0089],[72.6186,32.9584],[72.624,32.8684],[72.5946,32.8221],[72.5519,32.8203],[72.4912,32.7637],[72.4362,32.7885],[72.4237,32.6436],[72.4562,32.6359],[72.4764,32.6548],[72.5222,32.6025],[72.6287,32.6069],[72.7829,32.5228],[72.8952,32.4189],[72.9802,32.4221],[73.0237,32.4057],[73.0691,32.3532],[73.1116,32.3548],[73.1559,32.3203],[73.1873,32.3305],[73.226,32.404],[73.2972,32.4697],[73.3822,32.4727],[73.411,32.5369],[73.4527,32.5563],[73.3972,32.5995],[73.3342,32.5793],[73.2694,32.5951],[73.25,32.5583],[73.2046,32.6108],[73.162,32.6093],[73.1277,32.6531],[73.1331,32.7526],[73.1554,32.7353],[73.2193,32.7376],[73.2425,32.7024],[73.3704,32.7069],[73.3936,32.6716],[73.4362,32.6731],[73.4815,32.6205],[73.6493,32.6802],[73.6834,32.6362],[73.7387,32.5929],[73.7813,32.5942],[73.8595,32.5155],[73.8824,32.4801],[73.8754,32.3987],[73.9604,32.4013],[74.0643,32.4585],[74.0989,32.3964],[74.1311,32.3883],[74.1494,32.461],[74.2344,32.4634],[74.2865,32.492],[74.2851,32.528],[74.3159,32.5559],[74.3585,32.5571],[74.3989,32.6123],[74.4841,32.6146],[74.5384,32.589],[74.5465,32.3727],[74.5794,32.3464],[74.6424,32.3661],[74.7036,32.4398],[74.8937,32.4804],[74.9138,32.517],[75.019,32.5555],[75.0287,32.5827],[75.0708,32.6017],[75.0679,32.6919],[75.1913,32.8389],[75.1897,32.8929],[75.1677,32.9105],[75.1869,32.9831],[75.1649,33.0007],[75.2263,33.0922],[75.2247,33.1463],[75.2774,33.1744],[75.3187,33.2294],[75.372,33.2395],[75.3495,33.2751],[75.3699,33.3116],[75.2598,33.3996],[75.2764,33.5623],[75.3509,33.5909],[75.4386,33.5385],[75.4806,33.5754],[75.4732,33.4579],[75.5492,33.4323],[75.5587,33.4776],[75.6222,33.5148],[75.5767,33.6042],[75.5748,33.6763],[75.6385,33.7136],[75.6375,33.7496],[75.6797,33.7865],[75.6764,33.9127],[75.7081,33.9403],[75.7729,33.9414],[75.7955,33.9057],[75.8387,33.9064],[75.8704,33.934],[75.8484,33.9517],[75.8691,33.9881],[75.5336,33.9914],[75.5115,34.009],[74.0399,33.9916],[74.0175,34.009]]],[[[72.6336,33.0673],[72.6459,33.0407],[72.6133,33.0484],[72.6122,33.0664],[72.6336,33.0673]]]]}},{"type":"Feature","properties":{"cell":97,"feature":1134,"phase":"Developing","min_bt_K":219.3,"area_km2":16868,"cold_core_km2":68,"speed_kmh":127.1,"heading_deg":178,"d_min_bt_30":-4.3,"age_min":270,"family":3,"touches_missing":true,"lon":72.305,"lat":31.3686,"merges_splits_so_far":5},"geometry":{"type":"MultiPolygon","coordinates":[[[[72.0775,32.5474],[72.0036,32.5351],[72.0095,32.4451],[71.9894,32.4262],[72.0104,32.1023],[71.9904,32.0833],[72.01,31.7774],[71.9901,31.7584],[72.0095,31.4525],[71.9896,31.4336],[72.0099,31.1096],[71.9901,31.0907],[72.0102,30.7667],[71.9904,30.7478],[71.9994,30.2609],[72.0529,30.2363],[72.0726,30.2552],[72.1557,30.2589],[72.1994,30.2247],[72.2596,30.2634],[72.3053,30.1932],[72.3894,30.1788],[72.4122,30.1437],[72.42,30.1891],[72.3972,30.2242],[72.4377,30.244],[72.4347,30.298],[72.4555,30.2989],[72.4585,30.2449],[72.4299,30.1985],[72.4922,30.2011],[72.5218,30.2294],[72.5198,30.2655],[72.4742,30.3357],[72.4425,30.3434],[72.387,30.4043],[72.4573,30.4523],[72.5157,30.527],[72.5276,30.5004],[72.5088,30.4635],[72.5306,30.4464],[72.5336,30.3924],[72.5019,30.4001],[72.4722,30.3718],[72.496,30.3186],[72.5277,30.3109],[72.5951,30.4129],[72.5713,30.4661],[72.6109,30.5038],[72.5434,30.5913],[72.5007,30.6075],[72.4956,30.6976],[72.4727,30.7327],[72.5125,30.7704],[72.4806,30.7782],[72.4686,30.8047],[72.5333,30.7713],[72.4946,30.7156],[72.5374,30.6993],[72.5523,30.6187],[72.5593,30.6821],[72.5891,30.7104],[72.6109,30.6933],[72.7143,30.7155],[72.7233,30.7429],[72.6805,30.7593],[72.6785,30.7953],[72.7174,30.851],[72.6736,30.8853],[72.7305,30.9958],[72.7255,31.0859],[72.7655,31.1235],[72.7725,31.187],[72.7964,31.1338],[72.8384,31.1354],[72.8684,31.1637],[72.8655,31.2177],[72.8335,31.2255],[72.8145,31.1886],[72.8025,31.2152],[72.8216,31.2521],[72.7986,31.2873],[72.7556,31.3036],[72.7957,31.3413],[72.7837,31.3679],[72.7517,31.3756],[72.7497,31.4117],[72.7797,31.4399],[72.7937,31.3773],[72.8267,31.3515],[72.8567,31.3798],[72.8348,31.3969],[72.849,31.5238],[72.7948,31.5488],[72.7106,31.5454],[72.6986,31.572],[72.7287,31.6003],[72.7728,31.566],[72.7919,31.6028],[72.8982,31.5889],[72.9484,31.6359],[72.9024,31.7063],[72.9225,31.7251],[72.9196,31.7792],[72.8764,31.7956],[72.9157,31.8512],[72.9108,31.9412],[72.8555,31.9842],[72.8132,31.9826],[72.783,31.9543],[72.8152,31.9466],[72.8715,31.8856],[72.8302,31.8659],[72.8352,31.7759],[72.794,31.7563],[72.8612,31.6867],[72.8521,31.6593],[72.796,31.7202],[72.7528,31.7366],[72.7518,31.7546],[72.793,31.7743],[72.789,31.8463],[72.8283,31.902],[72.7618,31.9535],[72.8011,32.0092],[72.7689,32.0169],[72.7124,32.0779],[72.7537,32.0975],[72.7507,32.1516],[72.7921,32.1712],[72.7688,32.2064],[72.787,32.2613],[72.7213,32.2948],[72.7081,32.3394],[72.6768,32.3291],[72.6799,32.2751],[72.7234,32.2588],[72.6921,32.2485],[72.6587,32.2742],[72.6545,32.3462],[72.611,32.3625],[72.6312,32.3814],[72.5946,32.4611],[72.467,32.4559],[72.448,32.419],[72.3853,32.3983],[72.3194,32.4316],[72.2344,32.428],[72.1683,32.4612],[72.0775,32.5474]]],[[[72.5033,30.9325],[72.4954,30.887],[72.4426,30.8939],[72.4505,30.9393],[72.5033,30.9325]]],[[[72.5387,31.7821],[72.6061,31.7127],[72.6113,31.6227],[72.6544,31.6064],[72.6575,31.5523],[72.6285,31.5061],[72.6123,31.6047],[72.5681,31.6389],[72.565,31.693],[72.5851,31.7118],[72.5397,31.7641],[72.4965,31.7804],[72.5387,31.7821]]]]}},{"type":"Feature","properties":{"cell":145,"feature":1137,"phase":"Developing","min_bt_K":231.0,"area_km2":31868,"cold_core_km2":0,"speed_kmh":225.7,"heading_deg":177,"d_min_bt_30":-3.0,"age_min":180,"family":3,"touches_missing":true,"lon":81.7355,"lat":30.7205,"merges_splits_so_far":20},"geometry":{"type":"MultiPolygon","coordinates":[[[[81.5145,32.0192],[81.417,31.9586],[81.4375,31.94],[81.4355,31.886],[81.4124,31.8324],[81.3695,31.8155],[81.3669,31.7434],[81.3874,31.7248],[81.3433,31.6718],[81.3414,31.6177],[81.245,31.575],[81.201,31.522],[80.8803,31.3669],[80.8362,31.2957],[80.7414,31.2887],[80.7194,31.253],[80.7593,31.1801],[80.7373,31.1444],[80.7347,31.0543],[80.8067,31.0077],[80.8491,31.0248],[80.9205,30.9601],[80.9184,30.888],[80.9585,30.833],[80.9365,30.7974],[80.9327,30.6712],[80.9113,30.6536],[80.9525,30.6346],[81.0022,30.5523],[81.0861,30.5684],[81.1516,30.6571],[81.2243,30.6464],[81.2213,30.5562],[81.2523,30.5464],[81.3225,30.4635],[81.3207,30.4094],[81.2992,30.3919],[81.3194,30.3734],[81.2974,30.3378],[81.2956,30.2837],[81.3158,30.2652],[81.2944,30.2477],[81.2926,30.1936],[81.3128,30.175],[81.2677,30.0679],[81.3601,30.0385],[81.4908,29.9179],[81.4895,29.8818],[81.5497,29.8261],[81.5666,29.7173],[81.6873,29.6238],[81.6847,29.5517],[81.8058,29.4761],[81.8031,29.404],[81.8429,29.3667],[81.8409,29.3127],[81.951,29.2282],[81.9822,29.2363],[81.9942,29.281],[82.0247,29.2711],[82.0176,29.0908],[82.0488,29.0989],[82.0573,29.0535],[82.1068,29.0069],[82.1578,28.9963],[82.1358,28.9609],[82.1322,28.8707],[82.1703,28.7973],[82.2698,28.722],[82.2774,28.6585],[82.4092,28.6271],[82.4077,28.5911],[82.4478,28.5717],[82.4553,28.5083],[82.5779,28.5041],[82.5959,28.4493],[82.6768,28.4284],[82.6882,28.4551],[82.7299,28.4716],[82.6424,28.574],[82.6015,28.5754],[82.5925,28.6028],[82.5523,28.6223],[82.535,28.6951],[82.5775,28.7297],[82.5382,28.7671],[82.5807,28.8018],[82.552,28.8479],[82.5011,28.8587],[82.5066,28.9848],[82.5493,29.0194],[82.5524,29.0915],[82.573,29.0908],[82.5714,29.0548],[82.6018,29.0447],[82.6149,29.1074],[82.5351,29.1643],[82.5367,29.2004],[82.5794,29.235],[82.5835,29.3251],[82.5035,29.382],[82.5067,29.454],[82.5495,29.4887],[82.5627,29.5514],[82.5447,29.3805],[82.6337,29.2962],[82.6452,29.3229],[82.5883,29.4332],[82.6114,29.4865],[82.5932,29.5413],[82.6386,29.6299],[82.6221,29.7207],[82.6436,29.738],[82.6701,29.8634],[82.6006,29.929],[82.5592,29.9305],[82.521,30.0039],[82.4596,30.0241],[82.3759,30.0088],[82.1939,30.123],[82.1509,30.0883],[82.1017,30.153],[82.1032,30.189],[82.003,30.2823],[82.0159,30.345],[82.0238,30.2817],[82.0546,30.2717],[82.0739,30.235],[82.1069,30.2791],[82.0869,30.2978],[82.0891,30.3518],[82.1314,30.3686],[82.1352,30.4587],[82.0958,30.514],[82.1011,30.6402],[82.081,30.6588],[82.0825,30.6949],[82.1258,30.7296],[82.1334,30.9098],[82.1567,30.9632],[82.1164,31.0006],[82.1202,31.0907],[82.0472,31.1019],[82.0169,31.1299],[82.0184,31.166],[81.9461,31.1952],[81.9143,31.1871],[81.902,31.1424],[81.8955,31.2418],[81.8543,31.261],[81.9093,31.3226],[81.9296,31.3039],[81.9513,31.3213],[82.0774,31.3175],[82.1396,31.2976],[82.1489,31.2702],[82.2002,31.2415],[82.2321,31.2495],[82.2361,31.3396],[82.2806,31.3923],[82.262,31.4471],[82.3494,31.5164],[82.2263,31.5925],[82.2514,31.682],[82.2944,31.6986],[82.2993,31.8067],[82.247,31.8174],[82.186,31.8735],[82.0804,31.8768],[82.0373,31.86],[81.9755,31.898],[81.6796,31.9065],[81.5773,31.9995],[81.5145,32.0192]]],[[[82.5311,28.6049],[82.5197,28.5783],[82.4895,28.5883],[82.5008,28.615],[82.5311,28.6049]]],[[[82.5346,29.6155],[82.5214,29.5528],[82.5139,29.6162],[82.5346,29.6155]]]]}},{"type":"Feature","properties":{"cell":186,"feature":1153,"phase":"Developing","min_bt_K":217.6,"area_km2":12964,"cold_core_km2":272,"speed_kmh":31.2,"heading_deg":170,"d_min_bt_30":-1.1,"age_min":90,"family":168,"touches_missing":true,"lon":72.7134,"lat":26.7586,"merges_splits_so_far":9},"geometry":{"type":"MultiPolygon","coordinates":[[[[72.9999,27.4778],[72.9144,27.3571],[72.8748,27.3375],[72.8959,27.3203],[72.887,27.2929],[72.7659,27.2881],[72.7474,27.2513],[72.6868,27.2488],[72.6298,27.1743],[72.5299,27.1521],[72.5238,27.0706],[72.5449,27.0534],[72.5151,27.0432],[72.4968,27.0063],[72.396,27.002],[72.3777,26.9651],[72.3663,26.9917],[72.3356,26.9994],[72.2972,26.9616],[72.2569,26.9599],[72.2387,26.923],[72.1783,26.9203],[72.1218,26.8456],[72.0911,26.8532],[72.1141,26.8001],[72.0557,26.7613],[72.0576,26.7253],[72.0013,26.6505],[72.0042,26.5964],[72.0873,26.546],[72.029,26.5073],[72.05,26.4902],[72.0357,26.3811],[72.0567,26.364],[72.0186,26.3262],[72.0824,26.2568],[72.0853,26.2028],[72.0662,26.1838],[72.0976,26.1582],[72.4792,26.1386],[72.5949,26.2338],[72.6549,26.2362],[72.6757,26.219],[72.7757,26.223],[72.8582,26.1721],[72.9182,26.1744],[72.9862,26.2222],[73.0038,26.277],[73.0711,26.3428],[73.1704,26.3646],[73.2772,26.4497],[73.1746,26.5002],[73.1491,26.6257],[73.2062,26.7],[73.2039,26.7541],[73.1251,26.7151],[73.1243,26.7331],[73.1637,26.7526],[73.1613,26.8067],[73.1308,26.8146],[73.0777,26.8758],[73.1075,26.886],[73.2136,26.7635],[73.3751,26.7512],[73.384,26.7786],[73.4429,26.8168],[73.4384,26.925],[73.4175,26.9423],[73.5078,26.9544],[73.5167,26.9818],[73.4735,27.0526],[73.3697,27.1212],[73.3472,27.1746],[73.3166,27.1825],[73.2949,27.2178],[73.244,27.225],[73.2529,27.2524],[73.2828,27.2625],[73.2118,27.269],[73.19,27.3043],[73.0752,27.3813],[73.0736,27.4174],[72.9999,27.4778]]],[[[72.8296,26.5773],[72.8329,26.5052],[72.7937,26.4856],[72.7962,26.4315],[72.7665,26.4213],[72.7544,26.466],[72.7928,26.5037],[72.7895,26.5758],[72.8296,26.5773]]],[[[73.1625,27.2401],[73.1649,27.186],[73.1858,27.1687],[73.1801,27.0692],[73.1487,27.0952],[73.1657,27.168],[73.1245,27.1845],[73.1221,27.2386],[73.1625,27.2401]]]]}},{"type":"Feature","properties":{"cell":192,"feature":1133,"phase":"Developing","min_bt_K":219.9,"area_km2":1904,"cold_core_km2":8,"speed_kmh":49.5,"heading_deg":60,"d_min_bt_30":-11.1,"age_min":60,"family":3,"touches_missing":true,"lon":73.0178,"lat":28.9059,"merges_splits_so_far":0},"geometry":{"type":"MultiPolygon","coordinates":[[[[72.9029,29.0806],[72.8216,29.0594],[72.7726,29.0124],[72.8172,28.9419],[72.8431,28.8347],[72.9171,28.7924],[73.0203,28.7783],[73.0745,28.7172],[73.037,28.6435],[73.0413,28.5535],[73.3592,28.538],[73.3619,28.7095],[73.3988,28.8011],[73.2833,28.8602],[73.1758,28.9646],[73.1266,28.9176],[73.1496,28.8643],[73.1915,28.8478],[73.1923,28.8298],[73.162,28.8197],[73.1283,28.8816],[73.0865,28.8981],[73.1249,28.9537],[73.0937,28.9615],[73.0394,29.0227],[73.0377,29.0587],[72.9243,29.0634],[72.9029,29.0806]]],[[[73.2194,28.6864],[73.2104,28.659],[73.1384,28.6654],[73.1474,28.6928],[73.2194,28.6864]]]]}},{"type":"Feature","properties":{"cell":197,"feature":1125,"phase":"Developing","min_bt_K":238.0,"area_km2":2512,"cold_core_km2":0,"speed_kmh":23.2,"heading_deg":129,"d_min_bt_30":-0.2,"age_min":60,"family":197,"touches_missing":false,"lon":78.2363,"lat":33.3673,"merges_splits_so_far":0},"geometry":{"type":"MultiPolygon","coordinates":[[[[78.6475,33.796],[78.5283,33.7153],[78.4524,33.6344],[78.3661,33.5986],[78.3446,33.6167],[78.2585,33.6169],[78.1829,33.5358],[78.1827,33.4276],[78.1289,33.3825],[78.0859,33.3645],[78.0645,33.3826],[77.9893,33.3014],[77.9142,33.2563],[77.8713,33.2562],[77.8283,33.2923],[77.7748,33.2471],[77.7963,33.193],[77.7538,33.0847],[77.8073,33.0577],[77.893,33.0578],[77.9893,33.1751],[78.0429,33.2022],[78.1072,33.166],[78.15,33.166],[78.2359,33.22],[78.3217,33.2198],[78.4506,33.2736],[78.515,33.2733],[78.5473,33.3003],[78.5486,33.4987],[78.5918,33.5346],[78.5922,33.5887],[78.614,33.6247],[78.6465,33.6516],[78.6896,33.6514],[78.7223,33.6964],[78.7011,33.7506],[78.6475,33.796]]]]}},{"type":"Feature","properties":{"cell":200,"feature":1142,"phase":"Developing","min_bt_K":231.4,"area_km2":4236,"cold_core_km2":0,"speed_kmh":12.7,"heading_deg":211,"d_min_bt_30":-0.8,"age_min":60,"family":200,"touches_missing":true,"lon":77.545,"lat":31.4096,"merges_splits_so_far":2},"geometry":{"type":"MultiPolygon","coordinates":[[[[77.7248,32.0293],[77.6298,31.9659],[77.6299,31.9298],[77.5459,31.8213],[77.5672,31.7853],[77.5251,31.7491],[77.5254,31.695],[77.4728,31.6677],[77.3995,31.5862],[77.3999,31.5321],[77.358,31.4958],[77.3586,31.4056],[77.3798,31.3877],[77.3592,31.3154],[77.3806,31.2614],[77.151,31.0978],[77.1722,31.0799],[77.1517,31.0256],[77.2251,31.0171],[77.2987,30.9724],[77.3204,30.8642],[77.3519,30.8373],[77.3937,30.8375],[77.4457,30.8829],[77.4451,30.9911],[77.424,31.0271],[77.4761,31.0724],[77.518,31.0726],[77.7271,31.2536],[77.8005,31.2627],[77.8003,31.3529],[77.7792,31.389],[77.8212,31.4251],[77.8211,31.4612],[77.9579,31.5785],[78.0316,31.6056],[78.0316,31.6417],[77.9895,31.6778],[77.9894,31.7319],[77.9156,31.777],[77.8734,31.7589],[77.8416,31.84],[77.7145,31.93],[77.7779,31.9662],[77.7248,32.0293]]]]}},{"type":"Feature","properties":{"cell":206,"feature":1132,"phase":"Developing","min_bt_K":229.5,"area_km2":1656,"cold_core_km2":0,"speed_kmh":39.4,"heading_deg":75,"d_min_bt_30":-9.6,"age_min":30,"family":168,"touches_missing":true,"lon":74.2627,"lat":28.7746,"merges_splits_so_far":0},"geometry":{"type":"MultiPolygon","coordinates":[[[[73.9342,29.0082],[73.8854,28.9435],[73.9505,28.8552],[73.9519,28.8192],[74.0571,28.7502],[74.0901,28.688],[74.1925,28.691],[74.2525,28.7288],[74.3667,28.6869],[74.3686,28.6328],[74.3283,28.6136],[74.3395,28.5869],[74.4002,28.6066],[74.5253,28.5378],[74.6782,28.5507],[74.6566,28.5863],[74.6152,28.6033],[74.6146,28.6213],[74.6549,28.6404],[74.6438,28.6672],[74.6029,28.6661],[74.5608,28.7011],[74.469,28.6897],[74.5093,28.7088],[74.4659,28.7798],[74.4641,28.8339],[74.3803,28.8858],[74.305,28.983],[74.254,28.9725],[74.2758,28.937],[74.3175,28.9201],[74.3181,28.9021],[74.2778,28.8829],[74.2711,28.7835],[74.2394,28.8097],[74.2381,28.8457],[74.2771,28.901],[74.2441,28.9632],[73.9979,28.956],[73.9576,28.9367],[73.9661,28.9821],[73.9342,29.0082]]]]}},{"type":"Feature","properties":{"cell":210,"feature":1129,"phase":"Unclassified","min_bt_K":231.9,"area_km2":5212,"cold_core_km2":0,"speed_kmh":74.9,"heading_deg":85,"d_min_bt_30":1.8,"age_min":30,"family":210,"touches_missing":true,"lon":75.4699,"lat":26.154,"merges_splits_so_far":0},"geometry":{"type":"MultiPolygon","coordinates":[[[[75.7543,26.4703],[75.5743,26.449],[75.5448,26.4214],[75.6552,26.4144],[75.6559,26.3783],[75.4957,26.3753],[75.4564,26.3384],[75.3563,26.3365],[75.3555,26.3726],[75.4855,26.3841],[75.4749,26.411],[75.3947,26.4095],[75.2954,26.3713],[75.1156,26.3494],[75.0369,26.2935],[74.9568,26.2917],[74.8588,26.2171],[74.7587,26.2147],[74.749,26.2054],[74.7793,26.1971],[74.831,26.1352],[74.7813,26.1249],[74.7505,26.1513],[74.7495,26.1874],[74.7193,26.1957],[74.6716,26.1132],[74.6927,26.0776],[74.6737,26.041],[74.725,25.9971],[76.1829,26.0073],[76.1421,26.0609],[76.112,26.0695],[76.1504,26.1604],[76.12,26.1871],[76.1108,26.1418],[76.0809,26.1323],[76.0615,26.0959],[76.0314,26.1045],[76.0708,26.1412],[76.0699,26.1954],[76.0397,26.2039],[76.0203,26.1675],[75.9902,26.1761],[76.0292,26.2309],[75.9991,26.2395],[75.9682,26.2841],[75.9873,26.3386],[75.9564,26.3833],[75.8563,26.3817],[75.8355,26.4175],[75.7955,26.4168],[75.7561,26.38],[75.7058,26.3882],[75.7153,26.4154],[75.7853,26.4257],[75.7543,26.4703]]]]}},{"type":"Feature","properties":{"cell":213,"feature":1131,"phase":"Unclassified","min_bt_K":232.2,"area_km2":2424,"cold_core_km2":0,"speed_kmh":56.5,"heading_deg":81,"d_min_bt_30":6.2,"age_min":30,"family":168,"touches_missing":true,"lon":73.0563,"lat":27.5749,"merges_splits_so_far":1},"geometry":{"type":"MultiPolygon","coordinates":[[[[72.714,27.936],[72.6637,27.9249],[72.7105,27.8005],[72.6303,27.7792],[72.6814,27.7722],[72.7555,27.712],[72.7573,27.676],[72.7194,27.6203],[72.7616,27.5859],[72.7739,27.5412],[72.8347,27.5436],[72.8663,27.5178],[72.8697,27.4457],[72.9418,27.4214],[72.9999,27.4778],[73.0736,27.4174],[73.0752,27.3813],[73.148,27.3389],[73.2118,27.269],[73.3127,27.2726],[73.371,27.3289],[73.4114,27.3303],[73.4398,27.3764],[73.4376,27.4305],[73.4166,27.4478],[73.4345,27.5026],[73.3334,27.4991],[73.3446,27.4724],[73.3754,27.4644],[73.3664,27.437],[73.3365,27.4269],[73.3792,27.3743],[73.3493,27.3642],[73.317,27.4082],[73.3357,27.445],[73.3131,27.4983],[73.3318,27.5351],[73.2808,27.5423],[73.2314,27.5135],[73.2403,27.5409],[73.2606,27.5416],[73.2792,27.5784],[73.3197,27.5798],[73.3287,27.6072],[73.1764,27.6107],[73.1545,27.6461],[73.0418,27.6689],[73.1204,27.726],[73.0774,27.7786],[73.0749,27.8327],[73.0238,27.8398],[73.0149,27.8123],[72.9752,27.7928],[72.9794,27.7027],[72.9105,27.6549],[72.9388,27.7011],[72.9329,27.8273],[72.9109,27.8625],[72.7785,27.8664],[72.714,27.936]]]]}},{"type":"Feature","properties":{"cell":214,"feature":1135,"phase":"Unclassified","min_bt_K":234.0,"area_km2":16832,"cold_core_km2":0,"speed_kmh":63.0,"heading_deg":43,"d_min_bt_30":0.4,"age_min":30,"family":3,"touches_missing":true,"lon":83.3198,"lat":30.7724,"merges_splits_so_far":2},"geometry":{"type":"MultiPolygon","coordinates":[[[[83.9796,32.1117],[83.9361,32.0956],[83.8457,32.0094],[83.721,32.0509],[83.6843,31.9713],[83.651,31.9456],[83.6087,31.9474],[83.4977,31.8618],[83.4364,31.9004],[83.3509,31.8859],[83.3367,31.8233],[83.2482,31.7546],[83.2462,31.7186],[83.1378,31.6687],[83.097,31.4988],[83.0338,31.5012],[83.0276,31.5827],[82.915,31.65],[82.8729,31.6516],[82.8179,31.6085],[82.8152,31.5545],[82.8655,31.5075],[82.9176,31.4966],[82.9148,31.4425],[82.9541,31.3869],[82.9494,31.2969],[82.8837,31.2452],[82.9,31.1544],[83.0149,31.1411],[83.0368,31.1583],[83.2045,31.1518],[83.2265,31.169],[83.2277,30.9975],[83.2048,30.9623],[83.162,30.9459],[83.1591,30.8919],[83.1372,30.8747],[83.1334,30.8027],[83.1116,30.7855],[83.1277,30.6946],[83.095,30.6688],[82.9363,30.6297],[82.9317,30.5397],[82.8665,30.4879],[82.8395,30.3626],[82.7537,30.3116],[82.7511,30.2575],[82.7186,30.2316],[82.6771,30.2331],[82.6438,30.1892],[82.7143,30.1416],[82.7559,30.1401],[82.7749,30.1033],[82.8164,30.1018],[82.9337,29.9531],[83.0373,29.9492],[83.0778,29.9296],[83.1075,29.9014],[83.1047,29.8474],[83.0318,29.8411],[83.0201,29.8145],[83.1109,29.7659],[83.1523,29.7643],[83.1964,29.8167],[83.2998,29.8126],[83.3087,29.7852],[83.3984,29.7184],[83.4417,29.7527],[83.5027,29.7321],[83.5175,29.8127],[83.5697,29.8196],[83.6239,29.8624],[83.627,29.9164],[83.6715,29.9686],[83.6637,30.0141],[83.6103,29.9893],[83.6134,30.0433],[83.5936,30.0622],[83.6797,30.1127],[83.66,30.1316],[83.6828,30.1667],[83.7689,30.2171],[83.8024,30.4322],[83.7618,30.452],[83.765,30.506],[83.8537,30.5924],[83.8558,30.6284],[83.8986,30.6445],[83.8591,30.6824],[83.8634,30.7544],[83.8238,30.7922],[83.848,30.8453],[83.8281,30.8642],[83.8314,30.9182],[83.7719,30.9749],[83.796,31.028],[83.6736,31.0875],[83.68,31.1955],[83.6234,31.3061],[83.6455,31.3233],[83.654,31.4673],[83.6883,31.5109],[83.7414,31.5177],[83.7225,31.5546],[83.7491,31.6436],[83.8589,31.711],[83.8245,31.8389],[83.8901,31.8721],[83.8924,31.9081],[83.9246,31.9157],[83.9481,31.9507],[83.9792,31.9403],[84.0096,32.0833],[83.9796,32.1117]]],[[[83.4168,30.25],[83.4366,30.2312],[83.4248,30.2046],[83.3951,30.2329],[83.3961,30.2509],[83.4168,30.25]]],[[[83.6967,31.8264],[83.7589,31.8056],[83.7134,31.7535],[83.7102,31.6995],[83.5873,31.5874],[83.5451,31.5892],[83.5183,31.6715],[83.5636,31.7237],[83.6069,31.74],[83.6312,31.7931],[83.6967,31.8264]]]]}},{"type":"Feature","properties":{"cell":215,"feature":1136,"phase":"Developing","min_bt_K":234.0,"area_km2":1336,"cold_core_km2":0,"speed_kmh":15.9,"heading_deg":35,"d_min_bt_30":-0.1,"age_min":30,"family":3,"touches_missing":false,"lon":82.2489,"lat":30.7235,"merges_splits_so_far":1},"geometry":{"type":"MultiPolygon","coordinates":[[[[82.2505,30.9512],[82.1559,30.9452],[82.1334,30.9098],[82.1258,30.7296],[82.0825,30.6949],[82.0958,30.514],[82.1437,30.4133],[82.2293,30.4647],[82.2517,30.5001],[82.3558,30.4967],[82.3883,30.5227],[82.3683,30.5414],[82.3723,30.6315],[82.4148,30.6481],[82.4181,30.7202],[82.3779,30.7576],[82.4029,30.847],[82.3124,30.9312],[82.2505,30.9512]]]]}},{"type":"Feature","properties":{"cell":226,"feature":1140,"phase":"Unclassified","min_bt_K":233.0,"area_km2":3012,"cold_core_km2":0,"speed_kmh":null,"heading_deg":null,"d_min_bt_30":null,"age_min":0,"family":200,"touches_missing":false,"lon":78.3312,"lat":31.033,"merges_splits_so_far":0},"geometry":{"type":"MultiPolygon","coordinates":[[[[78.4207,31.4336],[78.3785,31.3976],[78.3154,31.3978],[78.2733,31.3618],[78.2312,31.3619],[78.2205,31.2807],[78.1784,31.2267],[78.0944,31.1726],[78.0839,31.1275],[78.0314,31.1185],[78.0523,30.9381],[78.0837,30.9471],[78.1569,30.8839],[78.188,30.7847],[78.2507,30.7846],[78.2717,30.8026],[78.3237,30.7393],[78.3758,30.7121],[78.4909,30.7568],[78.4911,30.7929],[78.6379,30.8825],[78.6381,30.9186],[78.6801,30.9364],[78.6804,30.9725],[78.7225,31.0083],[78.6814,31.1168],[78.629,31.1261],[78.5667,31.2165],[78.5248,31.2348],[78.4827,31.2169],[78.4304,31.2622],[78.4207,31.4336]]]]}},{"type":"Feature","properties":{"cell":227,"feature":1141,"phase":"Unclassified","min_bt_K":229.7,"area_km2":9692,"cold_core_km2":0,"speed_kmh":null,"heading_deg":null,"d_min_bt_30":null,"age_min":0,"family":3,"touches_missing":false,"lon":82.7113,"lat":31.1263,"merges_splits_so_far":3},"geometry":{"type":"MultiPolygon","coordinates":[[[[82.7178,31.9279],[82.6737,31.8933],[82.6535,31.9121],[82.4624,31.9006],[82.4505,31.8739],[82.4074,31.8573],[82.3804,31.7319],[82.3585,31.7146],[82.4732,31.6837],[82.4816,31.6383],[82.4378,31.6037],[82.4361,31.5677],[82.262,31.4471],[82.2603,31.411],[82.363,31.3536],[82.3395,31.3002],[82.4009,31.2621],[82.3976,31.19],[82.3447,31.1827],[82.3044,31.2201],[82.2414,31.2222],[82.2289,31.1775],[82.2491,31.1588],[82.1202,31.0907],[82.1164,31.0006],[82.1668,30.9539],[82.3124,30.9312],[82.3929,30.8564],[82.4572,30.8903],[82.5827,30.886],[82.6755,30.8557],[82.6085,30.7678],[82.6268,30.7131],[82.5825,30.6605],[82.5783,30.5704],[82.5558,30.5351],[82.5866,30.525],[82.6158,30.4789],[82.6132,30.4248],[82.6506,30.3333],[82.6813,30.3232],[82.7403,30.2489],[82.7537,30.3116],[82.8395,30.3626],[82.8665,30.4879],[82.9317,30.5397],[82.9363,30.6297],[83.095,30.6688],[83.1277,30.6946],[83.1116,30.7855],[83.1334,30.8027],[83.162,30.9459],[83.1939,30.9537],[83.2277,30.9975],[83.2365,31.1596],[82.9101,31.145],[82.8837,31.2452],[82.9494,31.2969],[82.9541,31.3869],[82.9148,31.4425],[82.9176,31.4966],[82.8655,31.5075],[82.8152,31.5545],[82.8179,31.6085],[82.8729,31.6516],[82.915,31.65],[83.0377,31.5733],[83.1008,31.5709],[83.1378,31.6687],[83.1699,31.6765],[83.204,31.7202],[83.1739,31.7485],[83.0895,31.7518],[83.0089,31.827],[82.9427,31.7753],[82.9024,31.8129],[82.7573,31.8723],[82.7178,31.9279]]]]}},{"type":"Feature","properties":{"cell":229,"feature":1144,"phase":"Unclassified","min_bt_K":233.2,"area_km2":5200,"cold_core_km2":0,"speed_kmh":null,"heading_deg":null,"d_min_bt_30":null,"age_min":0,"family":3,"touches_missing":false,"lon":80.4113,"lat":31.9214,"merges_splits_so_far":1},"geometry":{"type":"MultiPolygon","coordinates":[[[[80.5675,32.2393],[80.5458,32.2217],[80.4186,32.2241],[80.3969,32.2064],[80.2484,32.209],[80.1831,32.1379],[80.0348,32.1403],[80.0024,32.1137],[80.0016,32.0776],[79.9047,31.9979],[79.8304,31.9899],[79.7871,31.9364],[79.7857,31.8642],[79.7642,31.8465],[79.8054,31.7918],[79.7833,31.738],[79.8352,31.6922],[79.9421,31.7628],[80.0039,31.6897],[80.068,31.7248],[80.1102,31.7242],[80.2032,31.6415],[80.2437,31.5686],[80.2213,31.5149],[80.3244,31.4229],[80.3231,31.3688],[80.3437,31.3504],[80.3316,31.2875],[80.3848,31.3136],[80.3861,31.3677],[80.4286,31.385],[80.4081,31.4034],[80.4099,31.4755],[80.4955,31.5281],[80.496,31.5461],[80.3925,31.6202],[80.3934,31.6562],[80.437,31.7096],[80.4899,31.7176],[80.5336,31.7709],[80.6612,31.8045],[80.7272,31.8934],[80.8535,31.8727],[80.8729,31.8181],[80.95,31.9157],[80.9305,31.9702],[80.8888,31.9892],[80.8916,32.0793],[80.8623,32.1611],[80.8411,32.1616],[80.7971,32.1084],[80.7123,32.1102],[80.6612,32.1743],[80.5675,32.2393]]]]}},{"type":"Feature","properties":{"cell":231,"feature":1146,"phase":"Unclassified","min_bt_K":234.0,"area_km2":18156,"cold_core_km2":0,"speed_kmh":null,"heading_deg":null,"d_min_bt_30":null,"age_min":0,"family":3,"touches_missing":false,"lon":81.5434,"lat":32.3147,"merges_splits_so_far":1},"geometry":{"type":"MultiPolygon","coordinates":[[[[82.4169,33.1652],[82.4023,33.0845],[82.2892,32.9619],[82.2867,32.9078],[82.1901,32.9019],[82.1482,32.9212],[82.0928,32.8778],[82.1125,32.8411],[82.0563,32.7797],[81.9915,32.7636],[81.9607,32.7916],[81.9622,32.8276],[81.9219,32.883],[81.9242,32.937],[81.8727,32.9836],[81.7658,32.9867],[81.7201,32.9158],[81.5801,32.8926],[81.5655,32.7937],[81.5022,32.8134],[81.4581,32.7785],[81.4375,32.7971],[81.3734,32.7987],[81.3075,32.7462],[81.2435,32.7478],[81.2105,32.7215],[81.208,32.6494],[81.1738,32.5871],[81.1313,32.5881],[81.0662,32.5535],[80.981,32.5555],[80.9603,32.574],[80.9385,32.5564],[80.8746,32.5578],[80.8309,32.5226],[80.8102,32.5411],[80.725,32.5429],[80.7032,32.5253],[80.6072,32.5182],[80.6057,32.4641],[80.5399,32.3932],[80.5369,32.285],[80.5572,32.2485],[80.6508,32.1836],[80.7123,32.1102],[80.7971,32.1084],[80.8411,32.1616],[80.8726,32.1519],[80.8888,31.9892],[80.9202,31.9795],[80.9505,31.9337],[80.8838,31.8269],[80.9352,31.7807],[81.0618,31.7778],[81.1113,31.6774],[81.183,31.6126],[81.2878,31.592],[81.3414,31.6177],[81.3433,31.6718],[81.3874,31.7248],[81.3669,31.7434],[81.3695,31.8155],[81.4124,31.8324],[81.4355,31.886],[81.4375,31.94],[81.417,31.9586],[81.4934,32.0198],[81.5773,31.9995],[81.6796,31.9065],[81.9755,31.898],[82.0585,31.8594],[82.0804,31.8768],[82.186,31.8735],[82.1978,31.9002],[82.2519,31.9255],[82.3576,31.9221],[82.5623,31.9964],[82.5319,32.0245],[82.5099,32.0073],[82.4049,32.0288],[82.3965,32.0742],[82.2744,32.1864],[82.2769,32.2405],[82.3532,32.2831],[82.4169,32.281],[82.4788,32.2429],[82.6309,32.3099],[82.6733,32.3084],[82.7176,32.3429],[82.8035,32.3579],[82.8193,32.4566],[82.8739,32.4816],[82.8859,32.5083],[82.8443,32.5278],[82.8472,32.5819],[82.8065,32.6194],[82.7982,32.6648],[82.7324,32.6311],[82.559,32.7905],[82.5515,32.8539],[82.4892,32.8921],[82.467,32.8748],[82.414,32.8856],[82.4175,32.9577],[82.4714,32.9649],[82.528,33.0262],[82.5325,33.1162],[82.5017,33.1444],[82.4375,33.1465],[82.4169,33.1652]]],[[[82.6945,32.5151],[82.7564,32.4769],[82.7546,32.4408],[82.7,32.4157],[82.6797,32.4345],[82.6159,32.4367],[82.5292,32.4036],[82.4017,32.4078],[82.3286,32.4373],[82.3439,32.5361],[82.491,32.4951],[82.5761,32.4922],[82.663,32.5253],[82.6945,32.5151]]],[[[82.001,32.7363],[81.9576,32.7195],[81.9694,32.7462],[82.001,32.7363]]],[[[82.3456,32.7976],[82.2253,32.7384],[82.1732,32.7671],[82.25,32.8097],[82.3456,32.7976]]]]}},{"type":"Feature","properties":{"cell":232,"feature":1147,"phase":"Unclassified","min_bt_K":231.1,"area_km2":556,"cold_core_km2":0,"speed_kmh":null,"heading_deg":null,"d_min_bt_30":null,"age_min":0,"family":232,"touches_missing":true,"lon":74.8064,"lat":32.3922,"merges_splits_so_far":0},"geometry":{"type":"MultiPolygon","coordinates":[[[[75.0196,32.5374],[74.9557,32.536],[74.946,32.5087],[74.8937,32.4804],[74.7036,32.4398],[74.6527,32.3754],[74.6547,32.3213],[74.7299,32.2961],[74.7718,32.3152],[74.8361,32.2987],[74.8882,32.3269],[74.938,32.4273],[75.0455,32.3937],[75.0748,32.4755],[75.0196,32.5374]]]]}},{"type":"Feature","properties":{"cell":234,"feature":1149,"phase":"Unclassified","min_bt_K":234.1,"area_km2":48504,"cold_core_km2":0,"speed_kmh":null,"heading_deg":null,"d_min_bt_30":null,"age_min":0,"family":3,"touches_missing":true,"lon":81.5797,"lat":33.1494,"merges_splits_so_far":3},"geometry":{"type":"MultiPolygon","coordinates":[[[[82.1123,34.0051],[81.9825,34.009],[81.9601,33.9916],[81.3328,34.0087],[81.3105,33.9912],[80.4885,34.009],[80.4664,33.9914],[79.8064,33.9929],[79.8679,33.8296],[79.8451,33.7758],[79.7903,33.7314],[79.7146,33.7234],[79.7118,33.5791],[79.69,33.5613],[79.7105,33.507],[79.6886,33.4892],[79.6876,33.4351],[79.7841,33.4248],[79.8158,33.3973],[79.8154,33.3793],[79.7503,33.3441],[79.7489,33.2719],[79.77,33.2536],[79.7482,33.2358],[79.7471,33.1817],[79.7682,33.1634],[79.7461,33.1276],[79.7777,33.1001],[79.863,33.0809],[79.9155,33.0351],[79.9144,32.981],[79.9556,32.9082],[79.9339,32.8905],[79.9521,32.7459],[79.8863,32.6566],[79.9281,32.6199],[79.9061,32.5842],[79.9042,32.494],[79.8826,32.4763],[79.9874,32.4026],[80.0055,32.258],[80.0684,32.2209],[80.0251,32.1855],[80.056,32.14],[80.1831,32.1379],[80.2484,32.209],[80.5458,32.2217],[80.5399,32.3932],[80.6057,32.4641],[80.6181,32.527],[80.7032,32.5253],[80.725,32.5429],[80.8102,32.5411],[80.8309,32.5226],[80.8746,32.5578],[80.9385,32.5564],[80.9603,32.574],[80.981,32.5555],[81.0662,32.5535],[81.1313,32.5881],[81.1738,32.5871],[81.208,32.6494],[81.2105,32.7215],[81.2435,32.7478],[81.3075,32.7462],[81.3734,32.7987],[81.4375,32.7971],[81.4581,32.7785],[81.5022,32.8134],[81.5228,32.7948],[81.5765,32.8024],[81.5801,32.8926],[81.6022,32.91],[81.5815,32.9286],[81.5947,32.9914],[81.6161,32.9908],[81.6773,32.917],[81.7201,32.9158],[81.7658,32.9867],[81.8838,32.9923],[81.8632,33.011],[81.8663,33.0831],[81.8995,33.1092],[81.9638,33.1073],[82.0692,33.068],[82.1573,33.1194],[82.2695,33.2242],[82.3758,33.2027],[82.4375,33.1465],[82.5017,33.1444],[82.5325,33.1162],[82.528,33.0262],[82.4834,32.9916],[82.4994,32.8828],[82.5617,32.8446],[82.559,32.7905],[82.7324,32.6311],[82.8084,32.6554],[82.8545,32.5184],[82.8961,32.4989],[82.972,32.5231],[83.0175,32.5756],[83.0021,32.6844],[83.1686,32.7954],[83.197,32.7311],[83.0823,32.5911],[83.0774,32.5011],[83.3678,32.3634],[83.2766,32.2588],[83.2736,32.2047],[83.325,32.1756],[83.3844,32.1011],[83.5083,32.0418],[83.5718,32.0392],[83.6051,32.0649],[83.6296,32.118],[83.5703,32.1927],[83.5937,32.2278],[83.5545,32.2835],[83.5578,32.3376],[83.6125,32.3623],[83.7254,32.4658],[83.8452,32.5057],[83.8733,32.6128],[83.9171,32.6289],[83.897,32.6478],[84.0082,32.7151],[83.9904,32.77],[84.0107,33.0759],[83.9905,33.0949],[83.9965,33.1849],[83.9334,33.2057],[83.9393,33.2957],[84.0049,33.3108],[84.0016,33.5817],[83.9598,33.6017],[83.9622,33.6377],[84.0077,33.6717],[83.9365,33.7381],[83.8515,33.7599],[83.7253,33.648],[83.741,33.5571],[83.7727,33.5467],[83.8169,33.5628],[83.8361,33.5259],[83.9233,33.5401],[83.9513,33.4757],[83.9388,33.4492],[83.8743,33.452],[83.854,33.471],[83.7239,33.4585],[83.7058,33.5135],[83.5802,33.5729],[83.4897,33.5045],[83.4037,33.508],[83.3628,33.5457],[83.2563,33.568],[83.2101,33.5157],[83.1456,33.5182],[83.079,33.4846],[82.95,33.4894],[82.8239,33.5482],[82.7378,33.5513],[82.6967,33.5888],[82.5872,33.5565],[82.546,33.594],[82.4393,33.6157],[82.3764,33.6538],[82.1395,33.6614],[82.0723,33.6093],[81.9655,33.6305],[81.8921,33.6778],[81.9376,33.7306],[81.8864,33.7953],[81.8001,33.7977],[81.7554,33.7629],[81.6476,33.7659],[81.6059,33.8031],[81.5411,33.8048],[81.4965,33.7699],[81.4645,33.7798],[81.4897,33.8694],[81.6111,33.9293],[81.7585,33.835],[81.8233,33.8332],[81.936,33.9382],[82.0416,33.8809],[82.0537,33.9076],[82.0329,33.9263],[82.0977,33.9243],[82.0786,33.979],[82.1115,33.9871],[82.1123,34.0051]]],[[[80.0604,32.8164],[80.0383,32.7807],[80.0588,32.7443],[80.0355,32.6544],[79.9599,32.6105],[79.9936,32.6911],[80.0371,32.7266],[80.0375,32.7446],[79.9952,32.7633],[80.05,32.8256],[80.0604,32.8164]]],[[[80.6821,32.8956],[80.703,32.8771],[80.6701,32.8507],[80.6175,32.8788],[80.6821,32.8956]]],[[[80.1278,32.9597],[80.1165,32.9328],[80.1065,32.96],[80.1278,32.9597]]],[[[83.8001,33.1394],[83.862,33.1006],[83.8597,33.0646],[83.8259,33.039],[83.7605,33.0238],[83.72,33.0616],[83.6356,33.0833],[83.6232,33.0567],[83.5568,33.0234],[83.5951,32.9496],[83.54,32.9248],[83.4882,32.954],[83.5118,32.9892],[83.4981,33.1161],[83.5544,33.1589],[83.5961,33.1391],[83.6153,33.1022],[83.7258,33.1516],[83.7663,33.1138],[83.7787,33.1403],[83.8001,33.1394]]],[[[80.1338,33.2122],[80.1102,33.1224],[80.067,33.105],[80.0548,33.042],[80.0238,33.0876],[80.0674,33.123],[80.0686,33.1771],[80.1338,33.2122]]],[[[83.2615,33.1076],[83.2584,33.0535],[83.1788,32.9754],[83.1269,33.0045],[83.1188,33.0499],[83.0322,33.0352],[83.0016,33.0634],[83.0362,33.1072],[83.1004,33.1048],[83.1402,33.0491],[83.1636,33.0843],[83.2278,33.0818],[83.2401,33.1084],[83.2615,33.1076]]],[[[80.4359,33.2792],[80.3697,33.2082],[80.3897,33.1537],[80.3349,33.1096],[80.3249,33.1368],[80.3573,33.1453],[80.3687,33.1721],[80.3368,33.1817],[80.3268,33.209],[80.3701,33.2262],[80.404,33.2888],[80.4359,33.2792]]],[[[80.4564,33.2427],[80.5197,33.2055],[80.4863,33.161],[80.4121,33.1894],[80.4349,33.2431],[80.4564,33.2427]]],[[[80.6709,33.2386],[80.6703,33.2206],[80.7127,33.2017],[80.7012,33.1749],[80.6484,33.203],[80.6494,33.239],[80.6709,33.2386]]],[[[81.6424,33.3781],[81.6417,33.36],[81.6839,33.3408],[81.6721,33.3141],[81.6306,33.3513],[81.5773,33.3618],[81.5891,33.3885],[81.6424,33.3781]]],[[[80.7729,33.7598],[80.8667,33.6586],[80.9529,33.6567],[81.0188,33.6913],[81.0705,33.627],[81.0693,33.5909],[80.9481,33.5125],[80.9051,33.5134],[80.8609,33.4783],[80.7964,33.4796],[80.765,33.5074],[80.7882,33.561],[80.7358,33.6072],[80.7236,33.5623],[80.68,33.5452],[80.6784,33.4911],[80.7093,33.4453],[80.6569,33.4915],[80.6585,33.5456],[80.6806,33.5632],[80.6628,33.6899],[80.7408,33.7695],[80.7729,33.7598]]],[[[81.4748,33.4908],[81.506,33.4629],[81.5927,33.4787],[81.6016,33.4333],[81.5261,33.4263],[81.5053,33.4449],[81.4408,33.4466],[81.4318,33.4919],[81.4748,33.4908]]],[[[81.0787,33.8614],[81.1638,33.8233],[81.1076,33.7615],[80.9917,33.8453],[81.0034,33.8721],[81.0787,33.8614]]],[[[81.296,33.8923],[81.381,33.8541],[81.3051,33.847],[81.2737,33.8748],[81.2744,33.8928],[81.296,33.8923]]]]}},{"type":"Feature","properties":{"cell":236,"feature":1152,"phase":"Unclassified","min_bt_K":226.5,"area_km2":4384,"cold_core_km2":0,"speed_kmh":null,"heading_deg":null,"d_min_bt_30":null,"age_min":0,"family":3,"touches_missing":true,"lon":75.466,"lat":32.9524,"merges_splits_so_far":1},"geometry":{"type":"MultiPolygon","coordinates":[[[[75.76,33.5984],[75.6849,33.5881],[75.6227,33.4968],[75.5387,33.4231],[75.5192,33.3505],[75.4348,33.2948],[75.4044,33.2311],[75.3187,33.2294],[75.2774,33.1744],[75.2247,33.1463],[75.2263,33.0922],[75.1649,33.0007],[75.1869,32.9831],[75.1666,32.9466],[75.1913,32.8389],[75.0679,32.6919],[75.0811,32.611],[75.1231,32.6299],[75.198,32.6225],[75.1139,32.5846],[75.168,32.5587],[75.1904,32.5231],[75.2542,32.5244],[75.2848,32.5702],[75.358,32.6167],[75.4868,32.5831],[75.518,32.6108],[75.4952,32.6645],[75.7152,32.8218],[75.7797,32.8048],[75.8755,32.8154],[75.8751,32.8335],[75.8102,32.8685],[75.8093,32.9046],[75.7211,33.0113],[75.7161,33.2097],[75.7782,33.301],[75.7769,33.3551],[75.7979,33.3735],[75.7751,33.4272],[75.793,33.5719],[75.76,33.5984]]]]}}]}