{"type":"FeatureCollection","features":[{"type":"Feature","properties":{"cell":55,"feature":1222,"phase":"Mature","min_bt_K":218.0,"area_km2":36812,"cold_core_km2":232,"speed_kmh":82.9,"heading_deg":245,"d_min_bt_30":-0.9,"age_min":450,"family":3,"touches_missing":true,"lon":73.6494,"lat":33.0275,"merges_splits_so_far":25},"geometry":{"type":"MultiPolygon","coordinates":[[[[74.0175,34.009],[73.6827,33.9896],[73.7061,33.9543],[73.6889,33.8635],[73.7796,33.7761],[73.7839,33.686],[73.8063,33.6687],[73.8088,33.6146],[73.7881,33.5959],[73.8114,33.5606],[73.7485,33.5225],[73.7709,33.5052],[73.7777,33.361],[73.7588,33.3063],[73.6764,33.2314],[73.6782,33.1954],[73.5643,33.1105],[73.5447,33.0737],[73.4181,33.0334],[73.3985,32.9966],[73.3557,32.9951],[73.299,33.0563],[73.2831,33.155],[73.1974,33.1519],[73.175,33.1692],[73.1332,33.1496],[73.0874,33.2021],[73.0241,33.1817],[73.0006,33.2169],[72.8506,33.2112],[72.8281,33.2284],[72.6995,33.2233],[72.6802,33.1865],[72.6588,33.1856],[72.6421,33.2842],[72.6196,33.3014],[72.6797,33.376],[72.6459,33.4017],[72.5385,33.3973],[72.5192,33.3604],[72.4718,33.4307],[72.4514,33.4118],[72.3214,33.4244],[72.2581,33.4036],[72.2186,33.3478],[72.1352,33.308],[72.1286,33.2446],[72.0678,33.1877],[72.0904,33.1707],[72.0714,33.1337],[72.1415,33.0466],[72.1069,32.9187],[72.1127,32.8287],[72.0926,32.8098],[72.1007,32.6838],[72.1669,32.6506],[72.2164,32.5445],[72.2724,32.5018],[72.3787,32.5063],[72.5096,32.4577],[72.5675,32.3788],[72.6556,32.3282],[72.6698,32.2656],[72.7092,32.3214],[72.9861,32.314],[73.0305,32.2796],[73.0729,32.2812],[73.0961,32.2459],[73.1809,32.249],[73.2252,32.2145],[73.2888,32.2168],[73.3772,32.1477],[73.4086,32.1578],[73.4059,32.2119],[73.4465,32.2494],[73.4014,32.3019],[73.4598,32.4122],[73.4257,32.4562],[73.385,32.4187],[73.3481,32.5166],[73.3046,32.5332],[73.3037,32.5512],[73.3564,32.562],[73.3759,32.5988],[73.4416,32.565],[73.5693,32.5693],[73.5914,32.552],[73.6119,32.5707],[73.634,32.5534],[73.8035,32.5769],[74.0116,32.4479],[73.9934,32.3752],[74.0689,32.3504],[74.1406,32.4156],[74.0958,32.4685],[74.1258,32.5144],[74.1912,32.4802],[74.2337,32.4815],[74.2147,32.4268],[74.2572,32.428],[74.3443,32.3763],[74.3649,32.3949],[74.3978,32.3687],[74.345,32.3583],[74.2952,32.2757],[74.2535,32.2565],[74.2674,32.1757],[74.3097,32.1769],[74.4137,32.2338],[74.478,32.2175],[74.519,32.2547],[74.645,32.294],[74.7171,32.3589],[74.7152,32.413],[74.839,32.5242],[74.8779,32.6334],[74.9826,32.69],[74.971,32.7168],[74.9071,32.7153],[74.8742,32.7416],[74.968,32.8069],[74.9894,32.8074],[75.0338,32.7543],[75.0765,32.7552],[75.1498,32.8019],[75.1279,32.8195],[75.1256,32.8916],[75.1452,32.9461],[75.2077,33.0016],[75.1598,33.163],[75.394,33.2219],[75.4123,33.3305],[75.3568,33.3925],[75.3138,33.3917],[75.2808,33.4181],[75.2769,33.5443],[75.2333,33.5614],[75.2322,33.5975],[75.2957,33.6349],[75.2918,33.7611],[75.2376,33.769],[75.1735,33.7497],[75.1402,33.776],[75.1391,33.8121],[75.201,33.9036],[75.1654,34.0021],[74.0399,33.9916],[74.0175,34.009]]],[[[72.6806,32.997],[72.7469,32.9635],[72.749,32.9275],[72.6971,32.8984],[72.6779,32.8615],[72.6352,32.8598],[72.578,32.9207],[72.6095,32.931],[72.6694,33.0056],[72.6806,32.997]]],[[[75.0181,33.5568],[75.1059,33.5046],[75.0856,33.4681],[75.11,33.3784],[75.0491,33.2688],[75.0503,33.2328],[75.008,33.2138],[74.9988,33.1685],[74.9836,33.3034],[74.9363,33.4287],[74.975,33.5559],[75.0181,33.5568]]]]}},{"type":"Feature","properties":{"cell":97,"feature":1221,"phase":"Developing","min_bt_K":214.6,"area_km2":24576,"cold_core_km2":588,"speed_kmh":26.2,"heading_deg":143,"d_min_bt_30":-4.7,"age_min":300,"family":3,"touches_missing":true,"lon":72.3877,"lat":31.2743,"merges_splits_so_far":5},"geometry":{"type":"MultiPolygon","coordinates":[[[[72.3134,33.5504],[72.2613,33.5211],[72.2773,33.4405],[72.2218,33.4652],[72.2183,33.5192],[72.1843,33.5448],[72.0982,33.5411],[72.0576,33.5032],[72.0146,33.5012],[72.0105,33.4018],[71.9903,33.3828],[72.0095,32.4451],[71.9894,32.4262],[72.0104,32.1023],[71.9904,32.0833],[72.01,31.7774],[71.9901,31.7584],[72.0095,31.4525],[71.9896,31.4336],[72.0099,31.1096],[71.9901,31.0907],[72.0102,30.7667],[71.9904,30.7478],[72.0103,30.4239],[71.9906,30.4049],[72.0092,30.0989],[72.103,30.0941],[72.1249,30.0771],[72.2068,30.0987],[72.2752,29.9934],[72.3166,29.9952],[72.3285,29.9686],[72.3818,29.9438],[72.4637,29.9653],[72.4884,29.8942],[72.5081,29.9131],[72.5909,29.9165],[72.6097,29.9533],[72.6718,29.9558],[72.7269,29.8949],[72.7288,29.8589],[72.7495,29.8597],[72.7575,29.9051],[72.7989,29.9068],[72.7721,29.8245],[72.845,29.8183],[72.8746,29.8466],[72.8511,29.8998],[72.87,29.9366],[72.8598,30.1347],[72.9004,30.1543],[72.9077,30.0103],[72.8879,29.9914],[72.9213,29.9476],[72.94,30.192],[72.8967,30.2264],[72.8613,30.3062],[72.8306,30.296],[72.8225,30.2506],[72.7909,30.2584],[72.7606,30.4376],[72.717,30.472],[72.6913,30.5612],[72.7121,30.562],[72.7567,30.5097],[72.7596,30.4556],[72.8022,30.4393],[72.7833,30.4024],[72.8159,30.3766],[72.8448,30.4229],[72.7529,30.5817],[72.8253,30.5936],[72.8343,30.621],[72.8751,30.6406],[72.9102,30.7683],[72.9411,30.7785],[73.04,30.8905],[73.0918,30.9014],[73.151,30.9758],[73.1483,31.0298],[73.1264,31.0471],[73.1218,31.1371],[73.0899,31.145],[73.0708,31.1082],[73.0161,31.1512],[73.0151,31.1693],[73.0562,31.1888],[73.0552,31.2068],[73.0123,31.2233],[73.0058,31.3494],[72.9838,31.3666],[73.002,31.4214],[72.98,31.4386],[72.9652,31.5192],[72.9442,31.5184],[72.925,31.4816],[72.893,31.4894],[72.9532,31.5459],[72.9513,31.5819],[72.9082,31.5983],[72.9283,31.6171],[72.9254,31.6711],[72.9034,31.6883],[72.8754,31.8136],[72.8423,31.8393],[72.8352,31.7759],[72.794,31.7563],[72.7989,31.6662],[72.8612,31.6867],[72.822,31.631],[72.8541,31.6233],[72.9102,31.5623],[72.8791,31.552],[72.8671,31.5786],[72.824,31.595],[72.7999,31.6482],[72.7568,31.6646],[72.7518,31.7546],[72.793,31.7743],[72.788,31.8643],[72.6762,31.9681],[72.7175,31.9878],[72.6943,32.023],[72.7104,32.1139],[72.6882,32.131],[72.683,32.2211],[72.6152,32.2905],[72.6333,32.3454],[72.5675,32.3788],[72.5096,32.4577],[72.3787,32.5063],[72.2724,32.5018],[72.2164,32.5445],[72.1669,32.6506],[72.1007,32.6838],[72.0926,32.8098],[72.1127,32.8287],[72.1069,32.9187],[72.1438,33.0106],[72.1165,33.0996],[72.0714,33.1337],[72.0904,33.1707],[72.0678,33.1877],[72.1286,33.2446],[72.125,33.2986],[72.2186,33.3478],[72.2581,33.4036],[72.3011,33.4055],[72.3304,33.4518],[72.3926,33.4906],[72.3134,33.5504]]]]}},{"type":"Feature","properties":{"cell":145,"feature":1203,"phase":"Developing","min_bt_K":232.0,"area_km2":11780,"cold_core_km2":0,"speed_kmh":53.0,"heading_deg":350,"d_min_bt_30":1.0,"age_min":210,"family":3,"touches_missing":true,"lon":81.6862,"lat":30.9559,"merges_splits_so_far":24},"geometry":{"type":"MultiPolygon","coordinates":[[[[81.0777,31.6151],[80.9723,31.6175],[80.9507,31.5999],[80.8874,31.6013],[80.855,31.5749],[80.8512,31.4487],[80.8922,31.4118],[80.8911,31.3757],[80.9229,31.384],[80.9531,31.3383],[80.9105,31.3212],[80.9508,31.2661],[80.9492,31.2121],[80.9061,31.1769],[80.9045,31.1228],[80.862,31.1057],[80.8604,31.0516],[80.8916,31.0419],[80.9555,31.0766],[80.9969,31.0576],[81.0885,30.9743],[81.0868,30.9203],[81.1484,30.8827],[81.2487,30.754],[81.2475,30.718],[81.2786,30.7082],[81.3185,30.653],[81.3393,30.6525],[81.4044,30.723],[81.4234,30.6684],[81.5473,30.6291],[81.6892,30.5169],[81.7524,30.5332],[81.9765,30.4004],[82.1214,30.3779],[82.1415,30.3592],[82.2054,30.3933],[82.3086,30.3719],[82.4375,30.4579],[82.5108,30.4644],[82.5191,30.6446],[82.3627,30.8844],[82.3853,30.9198],[82.3651,30.9385],[82.3869,30.9558],[82.3918,31.0639],[82.3423,31.1287],[82.2895,31.1214],[82.2935,31.2115],[82.2624,31.2215],[82.243,31.2582],[82.1598,31.2789],[82.0316,31.2287],[81.9057,31.2325],[81.8622,31.1977],[81.779,31.2181],[81.7356,31.1832],[81.6937,31.1844],[81.6321,31.2222],[81.5901,31.2233],[81.5597,31.2512],[81.5515,31.3146],[81.4255,31.3179],[81.3949,31.3457],[81.3873,31.4271],[81.2611,31.4303],[81.1692,31.5137],[81.1704,31.5498],[81.0777,31.6151]]]]}},{"type":"Feature","properties":{"cell":186,"feature":1194,"phase":"Decaying","min_bt_K":223.4,"area_km2":17844,"cold_core_km2":0,"speed_kmh":47.9,"heading_deg":97,"d_min_bt_30":5.8,"age_min":120,"family":168,"touches_missing":true,"lon":72.9523,"lat":26.731,"merges_splits_so_far":11},"geometry":{"type":"MultiPolygon","coordinates":[[[[73.3984,27.6368],[73.3684,27.6267],[73.391,27.5733],[73.3746,27.4825],[73.4166,27.4478],[73.2603,27.3159],[73.2223,27.2604],[73.2238,27.2243],[73.1843,27.2048],[73.1754,27.1774],[73.1641,27.2041],[73.2029,27.2416],[73.1706,27.2855],[73.1302,27.2841],[73.0712,27.2457],[72.988,27.2968],[72.9695,27.26],[72.9089,27.2576],[72.8614,27.1926],[72.8026,27.1542],[72.8534,27.1471],[72.8929,27.1667],[72.8551,27.1111],[72.7745,27.1079],[72.7359,27.0702],[72.5344,27.062],[72.5133,27.0792],[72.495,27.0423],[72.375,27.0192],[72.3691,26.9377],[72.252,26.8604],[72.2558,26.7883],[72.1973,26.7496],[72.2212,26.6784],[72.1628,26.6397],[72.1885,26.5325],[72.1503,26.4947],[72.1722,26.4595],[72.1531,26.4406],[72.1406,26.2956],[72.2566,26.1833],[72.3993,26.1352],[72.4836,26.0485],[72.6251,26.0182],[72.9047,26.0294],[72.9134,26.0568],[72.943,26.067],[73.0045,26.0332],[73.0444,26.0347],[73.0916,26.0997],[73.0701,26.1351],[73.1574,26.2015],[73.3174,26.2073],[73.4448,26.275],[73.4827,26.3305],[73.4962,26.4935],[73.5445,26.5403],[73.5839,26.5597],[73.6483,26.4535],[73.7859,26.5302],[73.795,26.5576],[73.7528,26.6104],[73.7909,26.6658],[73.9469,26.7972],[73.9651,26.8519],[74.0047,26.8712],[73.9138,26.8774],[73.8826,26.9035],[73.9202,26.9769],[73.8175,27.0278],[73.7945,27.0993],[73.8342,27.1187],[73.7827,27.1441],[73.7737,27.1167],[73.6952,27.06],[73.748,26.9985],[73.7973,27.0272],[73.7792,26.9725],[73.739,26.9712],[73.6757,27.0413],[73.6945,27.078],[73.6722,27.1315],[73.6416,27.1395],[73.5886,27.2009],[73.6185,27.211],[73.6401,27.1756],[73.7208,27.1782],[73.7285,27.2417],[73.6791,27.213],[73.6679,27.2397],[73.6156,27.2831],[73.5752,27.2817],[73.5326,27.3345],[73.5236,27.3071],[73.484,27.2877],[73.5266,27.2349],[73.487,27.2155],[73.4892,27.1614],[73.4593,27.1514],[73.4406,27.1146],[73.41,27.1226],[73.4862,27.2336],[73.4855,27.2516],[73.4443,27.2682],[73.5222,27.3431],[73.5012,27.3605],[73.5087,27.4239],[73.5491,27.4253],[73.6113,27.3913],[73.7123,27.3946],[73.7214,27.422],[73.7611,27.4413],[73.7088,27.4848],[73.6893,27.4661],[73.6257,27.5362],[73.5642,27.5522],[73.5005,27.6222],[73.4195,27.6194],[73.3984,27.6368]]],[[[72.4711,26.5086],[72.4328,26.4708],[72.4346,26.4348],[72.405,26.4245],[72.3927,26.4691],[72.4406,26.5163],[72.4711,26.5086]]],[[[73.2588,26.8825],[73.2642,26.7563],[73.2248,26.7368],[73.2332,26.5384],[73.2035,26.5283],[73.1854,26.7173],[73.224,26.7548],[73.2201,26.845],[73.2483,26.8911],[73.2588,26.8825]]],[[[72.4274,26.579],[72.4292,26.5429],[72.3996,26.5326],[72.3873,26.5773],[72.4274,26.579]]],[[[73.5112,26.6205],[73.5022,26.5931],[73.4911,26.6198],[73.5112,26.6205]]],[[[73.5973,26.9845],[73.5592,26.9291],[73.5897,26.9211],[73.6217,26.877],[73.6267,26.7508],[73.5485,26.694],[73.5409,26.6305],[73.5284,26.6933],[73.5865,26.7494],[73.6016,26.8763],[73.571,26.8843],[73.5182,26.9458],[73.548,26.9558],[73.5667,26.9925],[73.5973,26.9845]]]]}},{"type":"Feature","properties":{"cell":192,"feature":1197,"phase":"Developing","min_bt_K":223.5,"area_km2":2740,"cold_core_km2":0,"speed_kmh":31.4,"heading_deg":90,"d_min_bt_30":3.5,"age_min":90,"family":3,"touches_missing":true,"lon":73.1787,"lat":28.9065,"merges_splits_so_far":0},"geometry":{"type":"MultiPolygon","coordinates":[[[[73.1862,29.1815],[73.0029,29.1386],[72.9546,29.0736],[72.9145,29.054],[72.9233,28.8739],[73.0246,28.6882],[73.0639,28.7258],[73.1499,28.6387],[73.2113,28.641],[73.3789,28.5567],[73.4288,28.5855],[73.4461,28.6583],[73.5831,28.8074],[73.5186,28.8774],[73.5489,28.8874],[73.558,28.9148],[73.5048,28.9581],[73.4638,28.9567],[73.4515,29.0014],[73.3982,29.0447],[73.3678,29.0346],[73.4113,28.982],[73.4137,28.9279],[73.4555,28.9113],[73.4161,28.8739],[73.4382,28.8385],[73.4307,28.7751],[73.4177,28.8378],[73.3751,28.8724],[73.4153,28.8919],[73.3719,28.9445],[73.3695,28.9986],[73.3473,29.0339],[73.2627,29.085],[73.1862,29.1815]]]]}},{"type":"Feature","properties":{"cell":197,"feature":1189,"phase":"Developing","min_bt_K":236.4,"area_km2":3760,"cold_core_km2":0,"speed_kmh":25.7,"heading_deg":5,"d_min_bt_30":-1.6,"age_min":90,"family":197,"touches_missing":false,"lon":78.2491,"lat":33.4827,"merges_splits_so_far":0},"geometry":{"type":"MultiPolygon","coordinates":[[[[78.7351,33.9399],[78.6698,33.8861],[78.6266,33.8863],[78.572,33.8053],[78.4529,33.7246],[78.4208,33.7879],[78.3669,33.797],[78.3455,33.8332],[78.3022,33.8152],[78.2699,33.8243],[78.27,33.8604],[78.3133,33.8784],[78.3026,33.9054],[78.2268,33.8605],[78.2481,33.7522],[78.3342,33.7159],[78.291,33.6799],[78.3124,33.6438],[78.2475,33.5357],[78.1506,33.5088],[78.1184,33.5359],[78.1184,33.572],[78.1615,33.608],[78.1616,33.6621],[78.0862,33.6712],[77.9892,33.5901],[77.9462,33.4818],[77.8173,33.4095],[77.7533,33.2651],[77.8177,33.2111],[77.7964,33.1749],[77.85,33.1299],[77.9357,33.13],[77.9464,33.2112],[78.0429,33.2743],[78.0858,33.2743],[78.1287,33.2382],[78.2145,33.2381],[78.3004,33.274],[78.3862,33.2738],[78.4508,33.3096],[78.5048,33.3726],[78.4836,33.4268],[78.516,33.4537],[78.559,33.4536],[78.5803,33.4174],[78.6775,33.4801],[78.6562,33.5163],[78.6569,33.6065],[78.7542,33.6511],[78.7973,33.6508],[78.8507,33.6054],[78.8073,33.5696],[78.8177,33.5244],[78.8607,33.5241],[78.915,33.5689],[78.9586,33.6227],[78.959,33.6588],[78.9056,33.7043],[78.733,33.6873],[78.7008,33.7145],[78.7011,33.7506],[78.8096,33.8222],[78.8101,33.8763],[78.7351,33.9399]]],[[[78.4197,33.5353],[78.4411,33.5172],[78.4193,33.4631],[78.4406,33.427],[78.3867,33.382],[78.3437,33.3821],[78.3116,33.4093],[78.3118,33.4634],[78.3442,33.5084],[78.4197,33.5353]]]]}},{"type":"Feature","properties":{"cell":200,"feature":1204,"phase":"Developing","min_bt_K":231.2,"area_km2":4760,"cold_core_km2":0,"speed_kmh":7.1,"heading_deg":273,"d_min_bt_30":-0.2,"age_min":90,"family":200,"touches_missing":true,"lon":77.5076,"lat":31.4115,"merges_splits_so_far":3},"geometry":{"type":"MultiPolygon","coordinates":[[[[77.7671,32.0293],[77.6614,32.0111],[77.5455,31.8935],[77.5457,31.8574],[77.5036,31.8212],[77.5038,31.7851],[77.4198,31.7126],[77.3783,31.6042],[77.3995,31.5862],[77.4002,31.478],[77.4214,31.46],[77.2749,31.3511],[77.1916,31.2604],[77.2129,31.2244],[77.1502,31.188],[77.1296,31.1518],[77.1302,31.0796],[77.2255,30.9629],[77.2672,30.9812],[77.3928,30.9818],[77.4137,31.0],[77.6021,31.0007],[77.6125,31.0278],[77.5914,31.0638],[77.6123,31.0819],[77.5912,31.0999],[77.5909,31.172],[77.6118,31.1901],[77.6116,31.2442],[77.6848,31.3256],[77.7689,31.3258],[77.8003,31.3529],[77.7793,31.3709],[77.8423,31.4251],[77.8632,31.4793],[77.9684,31.5335],[77.9684,31.5876],[78.0105,31.6417],[77.9051,31.7138],[77.8838,31.8581],[77.8626,31.8761],[77.8625,31.9844],[77.7671,32.0293]]]]}},{"type":"Feature","properties":{"cell":206,"feature":1196,"phase":"Developing","min_bt_K":219.3,"area_km2":3428,"cold_core_km2":32,"speed_kmh":20.5,"heading_deg":40,"d_min_bt_30":-10.2,"age_min":60,"family":168,"touches_missing":true,"lon":74.3297,"lat":28.8461,"merges_splits_so_far":0},"geometry":{"type":"MultiPolygon","coordinates":[[[[74.0525,29.1381],[73.9498,29.135],[73.9222,29.0529],[73.8825,29.0156],[73.925,28.9808],[73.937,28.936],[74.0728,28.877],[74.1158,28.8241],[74.1185,28.752],[74.2024,28.7003],[74.2043,28.6462],[74.236,28.6201],[74.2769,28.6212],[74.3395,28.5869],[74.3593,28.6055],[74.4411,28.6077],[74.4832,28.5727],[74.5241,28.5738],[74.5877,28.5033],[74.6286,28.5043],[74.6706,28.4693],[74.691,28.4698],[74.7898,28.5806],[74.9428,28.5932],[74.9119,28.6015],[74.8589,28.6634],[74.8982,28.7185],[74.8667,28.7448],[74.7643,28.7424],[74.745,28.7058],[74.6813,28.7764],[74.6403,28.7754],[74.6087,28.8016],[74.6392,28.8114],[74.6684,28.8573],[74.6052,28.9098],[74.604,28.9459],[74.5096,29.0066],[74.4685,29.0055],[74.4467,29.041],[74.4374,29.0137],[74.4069,29.0038],[74.3646,29.0388],[74.303,29.037],[74.2388,29.1074],[74.2183,29.1068],[74.199,29.0702],[74.1566,29.1051],[74.095,29.1032],[74.0525,29.1381]]]]}},{"type":"Feature","properties":{"cell":210,"feature":1169,"phase":"Unclassified","min_bt_K":234.1,"area_km2":7376,"cold_core_km2":0,"speed_kmh":80.0,"heading_deg":83,"d_min_bt_30":2.2,"age_min":60,"family":210,"touches_missing":true,"lon":75.8674,"lat":26.1956,"merges_splits_so_far":1},"geometry":{"type":"MultiPolygon","coordinates":[[[[76.2341,26.5679],[76.0735,26.5656],[76.0146,26.4925],[75.9344,26.4913],[75.915,26.4549],[75.8549,26.4539],[75.7962,26.3807],[75.7561,26.38],[75.6775,26.3064],[75.6166,26.3414],[75.5766,26.3407],[75.5558,26.3764],[75.3955,26.3734],[75.3563,26.3365],[75.3457,26.3633],[75.3755,26.373],[75.3849,26.4002],[75.3342,26.4263],[75.2353,26.3701],[75.1952,26.3692],[75.1463,26.323],[75.0881,26.2495],[75.0904,26.1593],[75.0226,26.0765],[74.9826,26.0755],[74.9417,26.1107],[74.9017,26.1098],[74.8408,26.1445],[74.7731,26.0615],[74.7946,26.0079],[75.2241,26.0086],[75.2445,25.991],[76.862,25.9969],[76.8717,26.0241],[76.7612,26.0863],[76.7012,26.0857],[76.6617,26.0492],[76.6217,26.0488],[76.6022,26.0125],[76.5618,26.0481],[76.5118,26.0566],[76.5214,26.0838],[76.5613,26.0843],[76.5818,26.0484],[76.6116,26.0577],[76.6105,26.148],[76.6503,26.1665],[76.6488,26.2929],[76.6184,26.3197],[76.5687,26.2921],[76.5591,26.2649],[76.4981,26.3364],[76.458,26.3359],[76.3667,26.4161],[76.3662,26.4522],[76.2954,26.4965],[76.2341,26.5679]]],[[[75.3699,26.1832],[75.4507,26.1487],[75.4213,26.121],[75.2614,26.1178],[75.1899,26.1795],[75.2197,26.1891],[75.2406,26.1535],[75.3206,26.1551],[75.3699,26.1832]]]]}},{"type":"Feature","properties":{"cell":213,"feature":1173,"phase":"Unclassified","min_bt_K":235.0,"area_km2":1600,"cold_core_km2":0,"speed_kmh":42.2,"heading_deg":14,"d_min_bt_30":2.8,"age_min":60,"family":168,"touches_missing":true,"lon":73.1078,"lat":27.7597,"merges_splits_so_far":1},"geometry":{"type":"MultiPolygon","coordinates":[[[[73.1,27.9509],[72.9172,27.944],[72.9109,27.8625],[72.932,27.8453],[72.9346,27.7912],[72.864,27.7795],[72.8155,27.7324],[72.8383,27.6792],[72.9747,27.5851],[73.0962,27.5897],[73.1351,27.6273],[73.2769,27.6324],[73.3248,27.6973],[73.354,27.7255],[73.3946,27.7269],[73.4816,27.8292],[73.4501,27.8552],[73.4305,27.8365],[73.3087,27.8322],[73.29,27.7954],[73.2495,27.7939],[73.2381,27.8206],[73.2982,27.8408],[73.2552,27.8934],[73.2739,27.9302],[73.2431,27.9381],[73.204,27.9006],[73.1634,27.8991],[73.122,27.9156],[73.1,27.9509]]]]}},{"type":"Feature","properties":{"cell":214,"feature":1200,"phase":"Unclassified","min_bt_K":234.1,"area_km2":7984,"cold_core_km2":0,"speed_kmh":70.3,"heading_deg":148,"d_min_bt_30":0.1,"age_min":60,"family":3,"touches_missing":true,"lon":83.5152,"lat":30.504,"merges_splits_so_far":6},"geometry":{"type":"MultiPolygon","coordinates":[[[[83.8699,31.0338],[83.8478,31.0167],[83.7222,31.0222],[83.6154,30.9907],[83.5992,30.8921],[83.639,30.8543],[83.5851,30.8295],[83.4608,30.8528],[83.4429,30.9076],[83.4011,30.9093],[83.3354,30.8579],[83.2726,30.8604],[83.2578,30.7798],[83.1932,30.7462],[83.1249,30.6406],[83.1429,30.5858],[83.0993,30.5514],[83.0748,30.4801],[83.0322,30.4637],[83.0285,30.3917],[83.1694,30.296],[83.1845,30.1871],[83.2954,30.1196],[83.3537,30.0451],[83.4663,30.0134],[83.4623,29.9414],[83.418,29.889],[83.5185,29.8307],[83.482,29.733],[83.5234,29.7313],[83.547,29.7844],[83.6297,29.7809],[83.6494,29.762],[83.7233,29.7859],[83.7264,29.8399],[83.686,29.8597],[83.6871,29.8777],[83.7295,29.894],[83.7119,29.9489],[83.7357,30.002],[83.717,30.0389],[83.8238,30.0884],[83.852,30.2134],[83.8957,30.2476],[83.8978,30.2836],[83.9623,30.3168],[83.9645,30.3528],[84.0094,30.4049],[83.9897,30.4239],[83.9963,30.5318],[83.9184,30.6256],[83.9217,30.6796],[83.9876,30.7308],[83.9943,30.8387],[83.9547,30.8766],[83.9767,30.8937],[83.9569,30.9126],[83.9811,30.9657],[83.9316,31.013],[83.8699,31.0338]]]]}},{"type":"Feature","properties":{"cell":226,"feature":1199,"phase":"Developing","min_bt_K":228.5,"area_km2":7128,"cold_core_km2":0,"speed_kmh":43.0,"heading_deg":253,"d_min_bt_30":-4.5,"age_min":30,"family":200,"touches_missing":true,"lon":78.1156,"lat":30.977,"merges_splits_so_far":1},"geometry":{"type":"MultiPolygon","coordinates":[[[[78.5475,31.5413],[78.4422,31.5417],[78.3788,31.4878],[78.3368,31.4879],[78.2418,31.3889],[78.084,31.2719],[78.0735,31.2989],[78.0315,31.317],[78.021,31.3621],[77.958,31.3621],[77.8845,31.2808],[77.8846,31.2267],[77.8217,31.1725],[77.8218,31.1365],[77.6962,31.046],[77.6964,30.9739],[77.6133,30.8293],[77.5611,30.8021],[77.5092,30.7388],[77.5616,30.6939],[77.7495,30.6944],[77.7913,30.6583],[77.8957,30.6404],[77.9583,30.5863],[78.0,30.5863],[78.0313,30.6134],[78.0313,30.7397],[78.0627,30.7667],[78.1462,30.7667],[78.251,30.8748],[78.3347,30.9107],[78.366,30.8835],[78.3449,30.8294],[78.3865,30.7752],[78.3862,30.703],[78.3548,30.6761],[78.3131,30.6762],[78.2714,30.7124],[78.2297,30.7124],[78.1774,30.6494],[78.1773,30.6133],[78.2294,30.5861],[78.3338,30.64],[78.3963,30.6038],[78.438,30.6037],[78.5007,30.6395],[78.5742,30.7204],[78.6167,30.8285],[78.7425,30.8819],[78.7217,30.9001],[78.764,30.954],[78.7433,30.9902],[78.7855,31.026],[78.7661,31.2246],[78.7245,31.2789],[78.7458,31.3149],[78.6726,31.3604],[78.6306,31.3606],[78.5673,31.3248],[78.4098,31.3524],[78.4313,31.4606],[78.5263,31.5054],[78.5475,31.5413]]]]}},{"type":"Feature","properties":{"cell":227,"feature":1205,"phase":"Developing","min_bt_K":229.0,"area_km2":10784,"cold_core_km2":0,"speed_kmh":129.7,"heading_deg":6,"d_min_bt_30":-0.7,"age_min":30,"family":3,"touches_missing":true,"lon":82.7783,"lat":31.7083,"merges_splits_so_far":5},"geometry":{"type":"MultiPolygon","coordinates":[[[[82.9599,32.4965],[82.9062,32.4895],[82.9265,32.4707],[82.8821,32.4362],[82.8802,32.4002],[82.7592,32.3234],[82.7084,32.3703],[82.7102,32.4063],[82.6585,32.4352],[82.5947,32.4374],[82.5283,32.3856],[82.4314,32.3618],[82.4517,32.343],[82.4279,32.2897],[82.4364,32.2443],[82.4779,32.2249],[82.5424,32.2407],[82.6043,32.2025],[82.6679,32.2003],[82.6983,32.1722],[82.6237,32.1657],[82.5667,32.0865],[82.5116,32.0433],[82.4583,32.0361],[82.4768,31.9813],[82.3888,31.9121],[82.3432,31.8414],[82.2563,31.7901],[82.2522,31.7],[82.1576,31.4684],[82.1879,31.4404],[82.2308,31.4571],[82.2931,31.437],[82.3461,31.4443],[82.3226,31.391],[82.363,31.3536],[82.3605,31.2995],[82.4622,31.2239],[82.4865,31.0698],[82.5703,31.0669],[82.5904,31.0482],[82.6349,31.1007],[82.7096,31.1252],[82.7222,31.1698],[82.7852,31.1676],[82.8289,31.2021],[82.8709,31.2006],[82.8937,31.2358],[82.9548,31.1974],[83.0177,31.1951],[83.0568,31.1395],[83.1107,31.1645],[83.1345,31.2177],[83.1355,31.2357],[83.0745,31.2741],[83.0783,31.3462],[83.1232,31.3986],[83.1051,31.4534],[83.1359,31.6327],[83.2231,31.6834],[83.2563,31.8986],[83.3449,31.9673],[83.3248,31.9862],[83.349,32.0393],[83.3209,32.1036],[83.2785,32.1053],[83.2594,32.1421],[83.2069,32.1532],[83.2079,32.1712],[83.2513,32.1876],[83.2362,32.2964],[83.1422,32.3272],[83.0917,32.3742],[83.0946,32.4283],[82.9599,32.4965]]]]}},{"type":"Feature","properties":{"cell":229,"feature":1210,"phase":"Developing","min_bt_K":232.1,"area_km2":10912,"cold_core_km2":0,"speed_kmh":55.5,"heading_deg":92,"d_min_bt_30":-1.0,"age_min":30,"family":3,"touches_missing":true,"lon":80.7044,"lat":31.9121,"merges_splits_so_far":2},"geometry":{"type":"MultiPolygon","coordinates":[[[[80.3247,32.7129],[80.2394,32.7143],[80.2281,32.6874],[80.2486,32.651],[80.1725,32.5891],[80.1086,32.5902],[80.0331,32.5462],[80.0323,32.5102],[80.1157,32.4367],[80.1328,32.256],[80.09,32.2386],[80.0892,32.2026],[80.0463,32.1852],[80.0456,32.1491],[79.9596,32.0963],[79.9366,32.0064],[79.8935,31.971],[79.8928,31.9349],[79.8494,31.8814],[79.9218,31.7992],[80.0496,31.8514],[80.0715,31.8871],[80.135,31.8861],[80.176,31.8314],[80.2186,31.8487],[80.3665,31.8461],[80.3975,31.8185],[80.3966,31.7825],[80.4585,31.7272],[80.4571,31.6731],[80.5606,31.599],[80.6203,31.4715],[80.6188,31.4174],[80.6604,31.3986],[80.6559,31.2363],[80.6764,31.2178],[80.6539,31.1642],[80.6953,31.1453],[80.7148,31.0908],[80.6908,30.983],[80.7515,30.9096],[80.7296,30.874],[80.8229,30.8449],[80.8358,30.9259],[80.7944,30.9448],[80.7965,31.0169],[80.8395,31.0521],[80.8636,31.1598],[80.9067,31.195],[80.9105,31.3212],[80.89,31.3397],[80.8922,31.4118],[80.8512,31.4487],[80.855,31.5749],[80.8874,31.6013],[80.9507,31.5999],[80.9723,31.6175],[81.0777,31.6151],[81.1704,31.5498],[81.1692,31.5137],[81.2611,31.4303],[81.3873,31.4271],[81.4205,31.4714],[81.4289,31.7057],[81.3689,31.7975],[81.3708,31.8515],[81.319,31.8799],[81.2375,31.9721],[81.1952,31.9731],[81.1644,32.0009],[81.0828,32.0931],[81.033,32.1934],[80.9058,32.1963],[80.884,32.1787],[80.821,32.1981],[80.6964,32.2909],[80.612,32.3106],[80.4663,32.4216],[80.4133,32.4316],[80.3982,32.6664],[80.3247,32.7129]]],[[[80.8307,31.4672],[80.8291,31.4131],[80.8706,31.3942],[80.8701,31.3762],[80.8275,31.359],[80.827,31.341],[80.8685,31.3221],[80.8572,31.2953],[80.8362,31.2957],[80.806,31.3415],[80.8286,31.3951],[80.7876,31.432],[80.8205,31.4765],[80.8307,31.4672]]]]}},{"type":"Feature","properties":{"cell":231,"feature":1219,"phase":"Unclassified","min_bt_K":233.7,"area_km2":14128,"cold_core_km2":0,"speed_kmh":108.9,"heading_deg":24,"d_min_bt_30":-0.3,"age_min":30,"family":3,"touches_missing":false,"lon":81.781,"lat":32.7625,"merges_splits_so_far":3},"geometry":{"type":"MultiPolygon","coordinates":[[[[82.3127,33.6739],[82.2696,33.6753],[82.1593,33.6247],[82.069,33.5372],[81.8777,33.597],[81.8443,33.5709],[81.8412,33.4988],[81.7721,33.3925],[81.6299,33.3333],[81.5655,33.335],[81.4975,33.2466],[81.456,33.2838],[81.4117,33.2488],[81.3695,33.2679],[81.3474,33.2504],[81.2402,33.2531],[81.142,33.2103],[81.1402,33.1562],[81.1181,33.1387],[81.1358,33.03],[81.1968,32.9384],[81.3004,32.8456],[81.3585,32.6818],[81.4101,32.6354],[81.4534,32.6523],[81.5276,32.6414],[81.5234,32.5332],[81.5838,32.4414],[81.5824,32.4053],[81.5597,32.3699],[81.4946,32.3355],[81.4858,32.1012],[81.4421,32.0662],[81.4722,32.0203],[81.5357,32.0187],[81.576,31.9635],[81.7021,31.942],[81.8305,31.9744],[81.8641,32.0186],[81.8678,32.1087],[81.9901,32.2404],[82.1394,32.2539],[82.1802,32.2165],[82.2438,32.2145],[82.3108,32.2845],[82.45,32.307],[82.4517,32.343],[82.4212,32.3711],[82.3787,32.3725],[82.3592,32.4092],[82.286,32.4387],[82.269,32.5295],[82.4325,32.6053],[82.475,32.6039],[82.487,32.6306],[82.2594,32.7824],[82.2713,32.8091],[82.314,32.8077],[82.3473,32.8337],[82.285,32.8718],[82.2875,32.9258],[82.2473,32.9813],[82.249,33.0173],[82.3175,33.1053],[82.279,33.1968],[82.2815,33.2508],[82.4549,33.2813],[82.437,33.3541],[82.505,33.424],[82.5142,33.6041],[82.4177,33.6164],[82.3127,33.6739]]]]}},{"type":"Feature","properties":{"cell":232,"feature":1213,"phase":"Developing","min_bt_K":229.2,"area_km2":1416,"cold_core_km2":0,"speed_kmh":23.6,"heading_deg":141,"d_min_bt_30":-1.9,"age_min":30,"family":232,"touches_missing":true,"lon":74.8859,"lat":32.3097,"merges_splits_so_far":0},"geometry":{"type":"MultiPolygon","coordinates":[[[[74.8293,32.497],[74.7152,32.413],[74.7171,32.3589],[74.6656,32.3125],[74.5717,32.265],[74.6148,32.2481],[74.638,32.1946],[74.692,32.1689],[74.7145,32.1333],[74.7786,32.1169],[74.8404,32.1725],[74.8834,32.1554],[74.924,32.2105],[75.0524,32.1773],[75.136,32.2152],[75.2084,32.2799],[75.1866,32.2975],[75.185,32.3516],[75.1316,32.3595],[75.0432,32.4658],[75.0018,32.4288],[74.9593,32.4278],[74.9368,32.4634],[74.873,32.4619],[74.8293,32.497]]]]}},{"type":"Feature","properties":{"cell":234,"feature":1218,"phase":"Unclassified","min_bt_K":232.2,"area_km2":15580,"cold_core_km2":0,"speed_kmh":148.1,"heading_deg":293,"d_min_bt_30":-1.9,"age_min":30,"family":3,"touches_missing":true,"lon":80.8461,"lat":33.4061,"merges_splits_so_far":6},"geometry":{"type":"MultiPolygon","coordinates":[[[[81.7871,33.9966],[79.9472,33.9999],[79.9354,33.955],[79.9999,33.936],[79.9342,33.9008],[79.9334,33.8648],[79.9758,33.8281],[79.9534,33.7923],[79.9726,33.6838],[80.0364,33.6467],[80.0344,33.5565],[80.0753,33.4657],[80.053,33.43],[80.0505,33.3217],[80.1355,33.2843],[80.1128,33.2306],[80.1548,33.1938],[80.1531,33.1217],[80.2156,33.0485],[80.2147,33.0124],[80.3735,32.9465],[80.4048,32.9189],[80.3825,32.8832],[80.3925,32.856],[80.4566,32.8548],[80.5008,32.9081],[80.6717,32.9048],[80.7347,32.8675],[80.7988,32.8661],[80.8825,32.8102],[81.0106,32.8074],[81.0734,32.7699],[81.2021,32.7849],[81.3288,32.7457],[81.3004,32.8456],[81.1968,32.9384],[81.1358,33.03],[81.1162,33.0846],[81.142,33.2103],[81.2402,33.2531],[81.3474,33.2504],[81.3695,33.2679],[81.4117,33.2488],[81.4671,33.2925],[81.4692,33.3466],[81.3645,33.4214],[81.3763,33.4482],[81.42,33.4651],[81.4838,33.4455],[81.549,33.4618],[81.5655,33.335],[81.6299,33.3333],[81.6958,33.3676],[81.7387,33.3664],[81.8173,33.4454],[81.8189,33.4814],[81.7774,33.5187],[81.7797,33.5728],[81.8554,33.5796],[81.8889,33.6057],[81.8251,33.6256],[81.8482,33.661],[81.8386,33.6884],[81.742,33.7001],[81.7539,33.7269],[81.8186,33.725],[81.8521,33.7511],[81.8201,33.7611],[81.8001,33.7977],[81.757,33.799],[81.7011,33.7554],[81.7212,33.7188],[81.6877,33.6926],[81.6245,33.7304],[81.5598,33.7322],[81.5153,33.6973],[81.4617,33.7077],[81.4847,33.7432],[81.4652,33.7978],[81.5872,33.8758],[81.6505,33.838],[81.7184,33.9083],[81.7728,33.9158],[81.7871,33.9966]]],[[[80.2848,33.2458],[80.3682,33.1541],[80.3668,33.1],[80.334,33.0735],[80.3258,33.1729],[80.2629,33.2281],[80.2634,33.2461],[80.2848,33.2458]]],[[[80.5094,33.6026],[80.4653,33.5673],[80.4384,33.3694],[80.3396,33.2899],[80.2675,33.4085],[80.2913,33.4983],[80.3453,33.5063],[80.4343,33.613],[80.5094,33.6026]]],[[[80.4262,33.7124],[80.4247,33.6583],[80.3582,33.5873],[80.3146,33.57],[80.2368,33.4721],[80.2267,33.4994],[80.2492,33.5351],[80.2927,33.5524],[80.3266,33.6149],[80.4032,33.6587],[80.4047,33.7128],[80.4262,33.7124]]],[[[81.1123,33.5899],[81.1547,33.5709],[81.1528,33.5168],[81.1737,33.4983],[81.1184,33.4545],[80.9801,33.5027],[81.0588,33.6002],[81.1123,33.5899]]],[[[80.7524,33.7963],[80.8044,33.7321],[80.858,33.7219],[80.8353,33.6863],[80.8557,33.6498],[80.8429,33.5869],[80.7998,33.5878],[80.7579,33.6248],[80.6717,33.6265],[80.6192,33.6727],[80.6634,33.7079],[80.665,33.762],[80.7203,33.806],[80.7524,33.7963]]],[[[80.6456,33.8346],[80.6203,33.7087],[80.5766,33.6915],[80.6181,33.6366],[80.5856,33.6282],[80.5756,33.6555],[80.533,33.6743],[80.6224,33.7809],[80.624,33.835],[80.6456,33.8346]]],[[[81.2508,33.8393],[81.2717,33.8207],[81.269,33.7486],[81.2357,33.7224],[81.1925,33.7234],[81.1402,33.7697],[81.1415,33.8058],[81.2187,33.8491],[81.2508,33.8393]]]]}},{"type":"Feature","properties":{"cell":236,"feature":1217,"phase":"Unclassified","min_bt_K":228.2,"area_km2":6396,"cold_core_km2":0,"speed_kmh":20.5,"heading_deg":127,"d_min_bt_30":1.7,"age_min":30,"family":3,"touches_missing":true,"lon":75.5541,"lat":32.8973,"merges_splits_so_far":1},"geometry":{"type":"MultiPolygon","coordinates":[[[[75.7545,33.8148],[75.733,33.8144],[75.7017,33.7688],[75.7247,33.7151],[75.672,33.669],[75.6289,33.6683],[75.5767,33.6042],[75.5792,33.514],[75.4627,33.4487],[75.4532,33.4034],[75.3898,33.3661],[75.4123,33.3305],[75.394,33.2219],[75.245,33.1828],[75.267,33.1652],[75.2247,33.1463],[75.2477,33.0926],[75.206,33.0557],[75.2077,33.0016],[75.1452,32.9461],[75.1256,32.8916],[75.1486,32.8379],[75.1279,32.8195],[75.1498,32.8019],[75.129,32.7834],[75.1509,32.7658],[75.1324,32.6752],[75.2537,32.5425],[75.3165,32.5798],[75.3591,32.5807],[75.4027,32.5454],[75.5729,32.5487],[75.721,32.5874],[75.8262,32.6432],[75.8885,32.7164],[75.9738,32.7177],[75.9835,32.763],[76.0257,32.7816],[76.025,32.8177],[76.1512,32.9097],[76.1295,32.9275],[76.1479,33.0721],[76.1152,33.0987],[75.9569,32.9971],[75.9153,32.9423],[75.9371,32.9246],[75.9275,32.8794],[75.8952,32.8879],[75.8399,32.9682],[75.7862,32.9763],[75.7849,33.0304],[75.7525,33.0389],[75.7193,33.0835],[75.7175,33.1556],[75.6714,33.2811],[75.7787,33.2829],[75.7769,33.3551],[75.8189,33.3918],[75.7746,33.4452],[75.8167,33.482],[75.8154,33.5361],[75.8365,33.5545],[75.8136,33.6083],[75.8558,33.645],[75.8114,33.6985],[75.8312,33.771],[75.7545,33.8148]]]]}},{"type":"Feature","properties":{"cell":238,"feature":1175,"phase":"Unclassified","min_bt_K":232.5,"area_km2":944,"cold_core_km2":0,"speed_kmh":null,"heading_deg":null,"d_min_bt_30":null,"age_min":0,"family":238,"touches_missing":true,"lon":72.1326,"lat":28.1758,"merges_splits_so_far":0},"geometry":{"type":"MultiPolygon","coordinates":[[[[72.0724,28.4864],[72.0219,28.4751],[72.025,28.421],[72.0668,28.4049],[72.1117,28.3347],[72.0923,28.3158],[72.0963,28.2437],[72.0566,28.2239],[72.0616,28.1339],[72.0316,28.1235],[72.0036,28.0771],[72.0087,27.987],[72.06,27.9803],[72.0793,27.9993],[72.123,27.9471],[72.1636,27.9489],[72.2516,28.0159],[72.2497,28.0519],[72.3059,28.1447],[72.2632,28.1789],[72.2806,28.2338],[72.2496,28.2415],[72.2156,28.3032],[72.1738,28.3194],[72.1708,28.3734],[72.1066,28.4247],[72.1046,28.4607],[72.0724,28.4864]]]]}},{"type":"Feature","properties":{"cell":245,"feature":1193,"phase":"Unclassified","min_bt_K":226.0,"area_km2":920,"cold_core_km2":0,"speed_kmh":null,"heading_deg":null,"d_min_bt_30":null,"age_min":0,"family":210,"touches_missing":true,"lon":74.3581,"lat":26.2809,"merges_splits_so_far":0},"geometry":{"type":"MultiPolygon","coordinates":[[[[74.1708,26.4337],[74.1422,26.3877],[74.1472,26.2433],[74.2593,26.1834],[74.461,26.1348],[74.5004,26.1539],[74.5874,26.2555],[74.576,26.3004],[74.5571,26.2637],[74.5468,26.2725],[74.5657,26.3091],[74.5549,26.3359],[74.4342,26.3508],[74.413,26.3863],[74.2728,26.3824],[74.1708,26.4337]]]]}},{"type":"Feature","properties":{"cell":246,"feature":1195,"phase":"Unclassified","min_bt_K":222.0,"area_km2":2416,"cold_core_km2":0,"speed_kmh":null,"heading_deg":null,"d_min_bt_30":null,"age_min":0,"family":168,"touches_missing":true,"lon":74.8593,"lat":28.3033,"merges_splits_so_far":0},"geometry":{"type":"MultiPolygon","coordinates":[[[[74.9722,28.639],[74.9418,28.6293],[74.9638,28.5757],[74.9345,28.5299],[74.9036,28.5382],[74.9329,28.584],[74.7898,28.5806],[74.7009,28.4791],[74.7242,28.3894],[74.6845,28.3523],[74.6856,28.3163],[74.5843,28.2956],[74.6477,28.2251],[74.6384,28.1977],[74.5878,28.1874],[74.5895,28.1333],[74.6104,28.1158],[74.5912,28.0792],[74.6424,28.0715],[74.6638,28.0359],[74.7051,28.0189],[74.7452,28.038],[74.7661,28.0204],[75.0304,28.0267],[75.019,28.0715],[75.078,28.1451],[75.1183,28.164],[75.076,28.2172],[75.1561,28.2731],[75.175,28.3277],[75.1238,28.3356],[75.1039,28.3171],[75.0924,28.362],[75.0088,28.4323],[74.9853,28.54],[75.0246,28.5951],[74.9937,28.6034],[74.9722,28.639]]]]}},{"type":"Feature","properties":{"cell":247,"feature":1198,"phase":"Unclassified","min_bt_K":234.2,"area_km2":7404,"cold_core_km2":0,"speed_kmh":null,"heading_deg":null,"d_min_bt_30":null,"age_min":0,"family":3,"touches_missing":false,"lon":83.0387,"lat":30.6338,"merges_splits_so_far":1},"geometry":{"type":"MultiPolygon","coordinates":[[[[82.9147,31.235],[82.7852,31.1676],[82.7113,31.1612],[82.7296,31.1064],[82.7898,31.0501],[82.7862,30.9781],[82.9182,30.892],[82.9272,30.8646],[82.8418,30.8317],[82.8182,30.7784],[82.8364,30.7236],[82.8076,30.5623],[82.7316,30.5019],[82.6274,30.5055],[82.5733,30.4623],[82.6124,30.4068],[82.589,30.3535],[82.6489,30.2973],[82.6264,30.262],[82.6463,30.2432],[82.6222,30.1719],[82.7135,30.1235],[82.7831,30.0579],[82.7598,30.0046],[82.7896,29.9765],[82.8923,29.9546],[82.9301,29.8811],[83.0327,29.8591],[83.0462,29.9218],[83.1192,29.928],[83.1757,29.8175],[83.1983,29.8527],[83.2397,29.8511],[83.2585,29.8143],[83.3196,29.7938],[83.3727,29.8187],[83.3746,29.8547],[83.4623,29.9414],[83.4663,30.0134],[83.3537,30.0451],[83.2954,30.1196],[83.1845,30.1871],[83.1694,30.296],[83.0285,30.3917],[83.0322,30.4637],[83.0748,30.4801],[83.0766,30.5161],[83.1429,30.5858],[83.1249,30.6406],[83.1932,30.7462],[83.2578,30.7798],[83.2726,30.8604],[83.3354,30.8579],[83.4011,30.9093],[83.4429,30.9076],[83.4608,30.8528],[83.5851,30.8295],[83.639,30.8543],[83.5992,30.8921],[83.6024,30.9461],[83.5307,30.9762],[83.483,31.0594],[83.3733,31.1631],[83.1216,31.1731],[83.0568,31.1395],[83.0177,31.1951],[82.9548,31.1974],[82.9147,31.235]]]]}},{"type":"Feature","properties":{"cell":252,"feature":1208,"phase":"Unclassified","min_bt_K":233.0,"area_km2":5964,"cold_core_km2":0,"speed_kmh":null,"heading_deg":null,"d_min_bt_30":null,"age_min":0,"family":3,"touches_missing":true,"lon":81.8914,"lat":31.7981,"merges_splits_so_far":1},"geometry":{"type":"MultiPolygon","coordinates":[[[[82.1394,32.2539],[81.9901,32.2404],[81.9352,32.1969],[81.8678,32.1087],[81.8641,32.0186],[81.8414,31.9831],[81.7875,31.9576],[81.6599,31.9431],[81.6394,31.9617],[81.576,31.9635],[81.5357,32.0187],[81.4722,32.0203],[81.4524,32.0569],[81.4196,32.0307],[81.4362,31.904],[81.3702,31.8335],[81.3689,31.7975],[81.4289,31.7057],[81.4205,31.4714],[81.4925,31.4244],[81.5772,31.4402],[81.6424,31.4925],[81.6831,31.4553],[81.8304,31.4512],[81.8739,31.486],[82.0002,31.4823],[82.0197,31.4456],[82.1038,31.443],[82.1264,31.4784],[82.1576,31.4684],[82.2522,31.7],[82.2563,31.7901],[82.3432,31.8414],[82.3669,31.8947],[82.4777,31.9993],[82.265,32.2138],[82.1802,32.2165],[82.1394,32.2539]]]]}},{"type":"Feature","properties":{"cell":259,"feature":1220,"phase":"Unclassified","min_bt_K":233.1,"area_km2":13372,"cold_core_km2":0,"speed_kmh":null,"heading_deg":null,"d_min_bt_30":null,"age_min":0,"family":3,"touches_missing":false,"lon":83.3084,"lat":33.2151,"merges_splits_so_far":1},"geometry":{"type":"MultiPolygon","coordinates":[[[[83.9365,33.7381],[83.7105,33.5855],[83.6674,33.5873],[83.5643,33.6638],[83.5246,33.7196],[83.3478,33.6546],[83.2186,33.6597],[83.1734,33.6254],[83.0636,33.5935],[82.8729,33.6547],[82.7182,33.5881],[82.6752,33.5896],[82.6302,33.555],[82.5872,33.5565],[82.5245,33.5948],[82.505,33.424],[82.5471,33.4045],[82.5658,33.3497],[82.4996,33.3159],[82.4866,33.2712],[82.2927,33.2595],[82.279,33.1968],[82.3278,33.096],[82.3706,33.0946],[82.4117,33.0571],[82.5196,33.0716],[82.5922,33.024],[82.5885,32.9519],[82.6285,32.8964],[82.4985,32.8648],[82.5145,32.7559],[82.5869,32.7084],[82.6314,32.7429],[82.8243,32.7541],[82.9474,32.6594],[82.9614,32.722],[82.9939,32.7298],[83.007,32.7745],[83.073,32.8081],[83.1106,32.9059],[83.1533,32.9042],[83.1625,32.8768],[83.2143,32.8477],[83.3039,32.9164],[83.3467,32.9147],[83.3659,32.8778],[83.4289,32.8572],[83.4683,32.8015],[83.5537,32.7979],[83.5447,32.8254],[83.5772,32.833],[83.6592,32.7754],[83.7705,32.8429],[83.8803,32.7208],[83.8745,32.6308],[83.9485,32.6185],[83.9922,32.6346],[84.0082,32.7151],[83.9881,32.734],[84.0107,33.0759],[83.9905,33.0949],[84.0028,33.5997],[83.9622,33.6377],[83.9671,33.7097],[83.9365,33.7381]]]]}}]}