{"type":"FeatureCollection","features":[{"type":"Feature","properties":{"cell":55,"feature":1290,"phase":"Mature","min_bt_K":217.4,"area_km2":39232,"cold_core_km2":1044,"speed_kmh":62.2,"heading_deg":229,"d_min_bt_30":-0.6,"age_min":480,"family":3,"touches_missing":true,"lon":73.3997,"lat":32.8423,"merges_splits_so_far":25},"geometry":{"type":"MultiPolygon","coordinates":[[[[73.9958,34.0084],[73.7908,33.9931],[73.8392,33.8863],[73.9065,33.8342],[73.9082,33.7982],[73.9745,33.7641],[73.9786,33.674],[74.0704,33.5504],[74.0784,33.3702],[74.0362,33.3509],[74.0386,33.2968],[73.975,33.2769],[73.9767,33.2408],[73.8925,33.2022],[73.8942,33.1661],[73.853,33.1288],[73.8443,33.0834],[73.7159,33.0793],[73.6919,33.1327],[73.5643,33.1105],[73.5411,33.1458],[73.4983,33.1444],[73.475,33.1797],[73.4536,33.1789],[73.393,33.1047],[73.325,33.1745],[73.2831,33.155],[73.27,33.1996],[73.159,33.2678],[73.1326,33.3571],[73.099,33.383],[72.9803,33.3876],[72.9865,33.469],[72.9353,33.422],[72.9374,33.386],[72.8944,33.3843],[72.8924,33.4203],[72.9343,33.44],[72.9067,33.5472],[72.8626,33.5636],[72.8369,33.6348],[72.803,33.6606],[72.7507,33.6314],[72.7529,33.5954],[72.7211,33.5852],[72.712,33.5577],[72.7458,33.532],[72.8104,33.5345],[72.8227,33.5079],[72.6641,33.4565],[72.534,33.4693],[72.5137,33.4505],[72.1281,33.416],[72.0803,33.4861],[72.06,33.4672],[72.0158,33.4832],[72.0105,33.4018],[71.9903,33.3828],[72.0095,33.0949],[71.9893,33.0759],[72.0096,32.77],[71.9894,32.751],[72.0095,32.4451],[71.9918,32.3902],[72.0242,32.3826],[72.0701,32.3305],[72.345,32.3605],[72.3706,32.2894],[72.4555,32.293],[72.489,32.2673],[72.5208,32.0882],[72.6308,32.0205],[72.644,31.9759],[72.7497,31.9801],[72.7699,31.9989],[72.792,31.9818],[72.8766,31.985],[73.0074,31.9178],[73.0137,31.9993],[73.0449,32.0095],[73.0579,31.9648],[73.0386,31.928],[73.0708,31.9202],[73.1011,31.9484],[73.0973,32.0204],[73.1663,32.1222],[73.1874,32.123],[73.2105,32.0877],[73.2731,32.108],[73.3799,32.0937],[73.4699,31.9885],[73.5756,31.9921],[73.6764,32.1037],[73.7188,32.105],[73.7807,32.1431],[73.8442,32.1451],[73.8748,32.1731],[73.892,32.2639],[73.859,32.2899],[73.8386,32.2712],[73.7835,32.3146],[73.7794,32.4047],[73.8108,32.4147],[73.8305,32.4514],[73.8525,32.434],[73.9155,32.454],[73.9336,32.5268],[73.9557,32.5094],[74.062,32.5126],[74.1874,32.5704],[74.2872,32.4739],[74.3415,32.4484],[74.5294,32.5436],[74.5939,32.5272],[74.6997,32.5479],[74.6861,32.6288],[74.7281,32.6479],[74.8095,32.7581],[74.8619,32.7864],[74.9339,32.8693],[74.9315,32.9414],[74.9926,33.033],[74.9914,33.0691],[74.959,33.0773],[74.9253,33.1217],[74.9872,33.1953],[75.0503,33.2328],[75.07,33.2873],[75.0456,33.377],[75.1298,33.433],[75.167,33.6142],[75.1123,33.6401],[75.1024,33.6128],[75.0704,33.6031],[74.9929,33.6645],[74.9689,33.7362],[74.8807,33.7883],[74.8775,33.8784],[74.8193,33.9943],[74.6895,33.9912],[74.6672,34.0087],[74.0832,33.9929],[74.0736,33.9655],[74.0415,33.9556],[73.9958,34.0084]]]]}},{"type":"Feature","properties":{"cell":97,"feature":1288,"phase":"Developing","min_bt_K":214.9,"area_km2":20280,"cold_core_km2":3028,"speed_kmh":37.9,"heading_deg":77,"d_min_bt_30":0.3,"age_min":330,"family":3,"touches_missing":true,"lon":72.5818,"lat":31.3128,"merges_splits_so_far":8},"geometry":{"type":"MultiPolygon","coordinates":[[[[72.0242,32.3826],[71.9929,32.3722],[72.0104,32.1023],[71.9904,32.0833],[72.01,31.7774],[71.9901,31.7584],[72.0095,31.4525],[71.9896,31.4336],[72.0024,30.8927],[72.0354,30.8671],[72.1818,30.8736],[72.2048,30.8386],[72.2874,30.8602],[72.3522,30.8269],[72.5193,30.8339],[72.5621,30.8176],[72.6915,30.7507],[72.7471,30.6897],[72.6954,30.6786],[72.605,30.6118],[72.5861,30.575],[72.601,30.4944],[72.726,30.4994],[72.7715,30.429],[72.8973,30.4159],[72.9851,30.329],[73.1099,30.3337],[73.1289,30.3705],[73.1705,30.372],[73.2147,30.3195],[73.2996,30.2864],[73.3494,30.3333],[73.3409,30.5134],[73.4359,30.4897],[73.445,30.5171],[73.4859,30.5365],[73.4842,30.5725],[73.5326,30.6554],[73.5543,30.6381],[73.6061,30.6488],[73.5996,30.793],[73.5444,30.8543],[73.5135,30.8442],[73.5043,30.8168],[73.4926,30.8435],[73.4499,30.8601],[73.3812,30.984],[73.3376,31.0186],[73.3786,31.0381],[73.3861,31.1015],[73.4179,31.0936],[73.4314,31.0309],[73.4599,31.095],[73.4582,31.131],[73.3708,31.2002],[73.3472,31.2535],[73.3153,31.2614],[73.2487,31.3312],[73.2067,31.3297],[73.1875,31.2929],[73.1665,31.2921],[73.1547,31.3188],[73.1739,31.3556],[73.1199,31.3807],[73.0487,31.3329],[73.0192,31.4942],[73.0576,31.5678],[73.0136,31.6023],[73.0447,31.6125],[73.0538,31.6399],[73.0098,31.6743],[73.0059,31.7463],[73.0472,31.7659],[73.0453,31.802],[73.0132,31.8098],[72.994,31.773],[72.9829,31.7816],[72.9772,31.8896],[72.9973,31.9084],[72.8766,31.985],[72.792,31.9818],[72.7699,31.9989],[72.7497,31.9801],[72.644,31.9759],[72.6308,32.0205],[72.5208,32.0882],[72.489,32.2673],[72.4555,32.293],[72.3706,32.2894],[72.345,32.3605],[72.0701,32.3305],[72.0242,32.3826]]]]}},{"type":"Feature","properties":{"cell":145,"feature":1270,"phase":"Developing","min_bt_K":234.2,"area_km2":9980,"cold_core_km2":0,"speed_kmh":58.3,"heading_deg":86,"d_min_bt_30":2.1,"age_min":240,"family":3,"touches_missing":true,"lon":81.9905,"lat":30.9747,"merges_splits_so_far":25},"geometry":{"type":"MultiPolygon","coordinates":[[[[81.7273,31.5082],[81.601,31.5117],[81.5576,31.4768],[81.3777,31.4544],[81.3969,31.3998],[81.4796,31.3616],[81.4783,31.3255],[81.3491,31.2387],[81.3682,31.184],[81.3453,31.1305],[81.3847,31.0573],[81.3822,30.9852],[81.4355,31.0109],[81.4869,30.9825],[81.4836,30.8924],[81.6267,30.7983],[81.7458,30.6326],[81.7444,30.5966],[81.7854,30.5774],[81.7941,30.532],[81.8358,30.5308],[81.8552,30.4942],[81.917,30.4743],[81.9385,30.4917],[81.9794,30.4725],[82.1252,30.468],[82.1661,30.4487],[82.1854,30.412],[82.1969,30.4387],[82.2501,30.464],[82.2694,30.4273],[82.311,30.426],[82.3911,30.3512],[82.4326,30.3498],[82.4418,30.3224],[82.5125,30.2749],[82.5242,30.3016],[82.6098,30.3528],[82.5499,30.409],[82.5316,30.4637],[82.54,30.6439],[82.6268,30.7131],[82.6294,30.7671],[82.5684,30.8053],[82.6136,30.8759],[82.6162,30.93],[82.5761,30.9675],[82.5778,31.0035],[82.5476,31.0316],[82.5049,31.015],[82.3801,31.0372],[82.3515,31.1013],[82.2911,31.1574],[82.3137,31.1928],[82.2088,31.1961],[82.2143,31.3223],[82.1832,31.3323],[82.1132,31.4157],[82.1256,31.4604],[81.9363,31.4661],[81.916,31.4848],[81.7476,31.4896],[81.7273,31.5082]]]]}},{"type":"Feature","properties":{"cell":186,"feature":1261,"phase":"Decaying","min_bt_K":225.2,"area_km2":17012,"cold_core_km2":0,"speed_kmh":37.2,"heading_deg":87,"d_min_bt_30":1.8,"age_min":150,"family":168,"touches_missing":true,"lon":73.1391,"lat":26.7406,"merges_splits_so_far":12},"geometry":{"type":"MultiPolygon","coordinates":[[[[73.7514,27.432],[73.7123,27.3946],[73.6517,27.3926],[73.6098,27.4273],[73.5701,27.4079],[73.5514,27.3712],[73.4817,27.3417],[73.4623,27.323],[73.4735,27.2963],[73.4129,27.2942],[73.3943,27.2575],[73.3539,27.256],[73.3321,27.2914],[73.2514,27.2885],[73.2304,27.3058],[73.2223,27.2604],[73.1439,27.2033],[73.1447,27.1853],[73.1858,27.1687],[73.1769,27.1413],[73.0463,27.1274],[73.0785,27.0835],[72.9559,27.115],[72.9374,27.0782],[72.7762,27.0718],[72.7376,27.0342],[72.6167,27.0293],[72.5984,26.9924],[72.5773,27.0096],[72.4724,26.8879],[72.4139,26.8493],[72.4157,26.8132],[72.3764,26.7935],[72.3819,26.6854],[72.3253,26.6107],[72.3298,26.5206],[72.2715,26.4819],[72.2743,26.4279],[72.3048,26.4202],[72.3431,26.458],[72.3458,26.4039],[72.446,26.4082],[72.4591,26.3455],[72.5018,26.2931],[72.6253,26.226],[72.6279,26.1719],[72.7174,26.1846],[72.7903,26.1243],[72.7919,26.0882],[72.7145,26.0309],[72.7457,26.0051],[73.1458,26.0024],[73.2604,26.133],[73.3203,26.1352],[73.3788,26.1734],[73.5795,26.1622],[73.6277,26.209],[73.6256,26.2631],[73.6049,26.2805],[73.6436,26.3179],[73.62,26.4074],[73.6559,26.517],[73.7341,26.5737],[73.7327,26.6098],[73.7708,26.6652],[73.8615,26.6591],[73.8692,26.7225],[73.8983,26.7505],[73.9191,26.7331],[73.958,26.7704],[74.2059,26.8771],[74.143,26.9475],[74.1625,26.9661],[74.1606,27.0203],[74.2186,27.0942],[74.125,27.1727],[74.0846,27.1715],[74.0632,27.207],[73.9824,27.2045],[73.9414,27.2213],[73.899,27.2742],[73.8384,27.2723],[73.8071,27.2984],[73.7514,27.432]]],[[[73.4838,26.8001],[73.4853,26.764],[73.4466,26.7266],[73.4473,26.7086],[73.4882,26.6919],[73.4897,26.6558],[73.3826,26.5709],[73.3722,26.5795],[73.4502,26.6364],[73.448,26.6905],[73.4064,26.7252],[73.4458,26.7446],[73.4436,26.7987],[73.4838,26.8001]]],[[[73.4041,26.7793],[73.3952,26.7519],[73.384,26.7786],[73.4041,26.7793]]],[[[73.704,27.3492],[73.7054,27.3131],[73.6665,27.2757],[73.6776,27.249],[73.7083,27.241],[73.7097,27.2049],[73.6707,27.1675],[73.6923,27.1321],[73.6945,27.078],[73.675,27.0593],[73.6966,27.0239],[73.6918,26.8884],[73.6605,26.9144],[73.6563,27.0226],[73.6354,27.04],[73.6347,27.058],[73.6743,27.0774],[73.6722,27.1315],[73.6311,27.1482],[73.6304,27.1662],[73.67,27.1856],[73.6679,27.2397],[73.6261,27.2744],[73.6657,27.2938],[73.6733,27.3572],[73.704,27.3492]]],[[[73.9128,27.1753],[73.9239,27.1486],[74.1263,27.1366],[74.1373,27.1099],[74.1783,27.093],[74.1483,27.0831],[74.0462,27.1162],[73.9253,27.1125],[73.9038,27.1479],[73.8648,27.1106],[73.8537,27.1373],[73.9128,27.1753]]]]}},{"type":"Feature","properties":{"cell":192,"feature":1264,"phase":"Developing","min_bt_K":225.1,"area_km2":3812,"cold_core_km2":0,"speed_kmh":41.4,"heading_deg":99,"d_min_bt_30":1.6,"age_min":120,"family":3,"touches_missing":true,"lon":73.3886,"lat":28.8786,"merges_splits_so_far":0},"geometry":{"type":"MultiPolygon","coordinates":[[[[73.2881,29.2032],[73.247,29.2018],[73.2084,29.1462],[73.1969,29.1729],[73.1442,29.198],[73.1361,29.1526],[73.0958,29.1331],[73.0984,29.079],[73.1198,29.0618],[73.1027,28.9889],[73.1454,28.9544],[73.1266,28.9176],[73.1317,28.8095],[73.1743,28.775],[73.1785,28.6849],[73.2113,28.641],[73.2301,28.6777],[73.2824,28.6526],[73.2432,28.615],[73.2448,28.579],[73.2963,28.5718],[73.3078,28.5452],[73.36,28.5199],[73.5242,28.5076],[73.5666,28.4729],[73.7095,28.4776],[73.758,28.5424],[73.7354,28.5958],[73.7551,28.6145],[73.7135,28.6312],[73.7105,28.7033],[73.7394,28.7493],[73.7803,28.7506],[73.8099,28.7787],[73.7668,28.8314],[73.7646,28.8855],[73.7843,28.9042],[73.7418,28.9389],[73.7601,28.9936],[73.707,29.037],[73.5534,29.0229],[73.5542,29.0049],[73.596,28.9883],[73.5983,28.9342],[73.6203,28.8988],[73.6621,28.8822],[73.6643,28.8281],[73.7068,28.7934],[73.7083,28.7573],[73.6385,28.7099],[73.6272,28.7366],[73.6673,28.756],[73.6651,28.8101],[73.6226,28.8448],[73.599,28.9162],[73.5573,28.9328],[73.5549,28.9869],[73.4476,29.0915],[73.478,29.1016],[73.5115,29.0396],[73.5427,29.0316],[73.5487,29.1311],[73.5266,29.1664],[73.3712,29.1881],[73.3112,29.1499],[73.2881,29.2032]]]]}},{"type":"Feature","properties":{"cell":200,"feature":1268,"phase":"Developing","min_bt_K":232.3,"area_km2":3372,"cold_core_km2":0,"speed_kmh":18.5,"heading_deg":353,"d_min_bt_30":1.1,"age_min":120,"family":200,"touches_missing":false,"lon":77.4958,"lat":31.4941,"merges_splits_so_far":3},"geometry":{"type":"MultiPolygon","coordinates":[[[[77.7459,32.0654],[77.693,32.0563],[77.6827,31.957],[77.6616,31.957],[77.6403,31.993],[77.5345,31.9927],[77.4819,31.9293],[77.4613,31.839],[77.5037,31.8031],[77.5041,31.731],[77.2525,31.5314],[77.211,31.459],[77.2321,31.441],[77.2326,31.3869],[77.1703,31.2963],[77.161,31.161],[77.2239,31.1614],[77.2446,31.1976],[77.3074,31.216],[77.37,31.2704],[77.391,31.2705],[77.4122,31.2345],[77.4542,31.2347],[77.496,31.2709],[77.538,31.2711],[77.6427,31.3616],[77.7478,31.3618],[77.758,31.4611],[77.7369,31.4791],[77.7894,31.5243],[77.8316,31.5243],[77.8946,31.5966],[77.9473,31.6056],[77.8523,31.7408],[77.7151,31.7496],[77.7147,31.8759],[77.7992,31.8941],[77.7989,32.0204],[77.7671,32.0293],[77.7459,32.0654]]]]}},{"type":"Feature","properties":{"cell":206,"feature":1265,"phase":"Decaying","min_bt_K":228.2,"area_km2":3748,"cold_core_km2":0,"speed_kmh":29.5,"heading_deg":32,"d_min_bt_30":8.9,"age_min":90,"family":168,"touches_missing":true,"lon":74.4087,"lat":28.9592,"merges_splits_so_far":1},"geometry":{"type":"MultiPolygon","coordinates":[[[[74.6268,29.1901],[74.4829,29.1863],[74.4636,29.1497],[74.4006,29.1841],[74.195,29.1783],[74.1553,29.1411],[74.1135,29.1579],[74.0057,29.0194],[73.9908,28.8745],[74.0424,28.8671],[74.0741,28.8409],[74.0755,28.8049],[74.1911,28.7271],[74.2321,28.7282],[74.2743,28.6933],[74.3338,28.7491],[74.3754,28.7322],[74.4157,28.7514],[74.4591,28.6804],[74.5409,28.6825],[74.5602,28.7191],[74.6011,28.7202],[74.6713,28.7671],[74.6696,28.8212],[74.6995,28.849],[74.7609,28.8506],[74.8418,28.8886],[74.9454,28.855],[74.957,28.8101],[75.009,28.7842],[75.1413,28.8142],[75.1204,28.8318],[75.1604,28.8688],[75.0863,28.9484],[75.0663,28.9299],[75.0238,28.9831],[74.8191,28.9603],[74.7664,29.0041],[74.7647,29.0582],[74.7131,29.0659],[74.6391,29.1272],[74.6268,29.1901]]]]}},{"type":"Feature","properties":{"cell":210,"feature":1237,"phase":"Unclassified","min_bt_K":235.0,"area_km2":8276,"cold_core_km2":0,"speed_kmh":55.1,"heading_deg":85,"d_min_bt_30":0.9,"age_min":90,"family":210,"touches_missing":true,"lon":76.1422,"lat":26.2178,"merges_splits_so_far":2},"geometry":{"type":"MultiPolygon","coordinates":[[[[76.4141,26.6063],[76.3745,26.5697],[76.3344,26.5692],[76.3149,26.5328],[76.2547,26.5321],[76.1957,26.459],[75.8549,26.4539],[75.8644,26.4811],[75.9144,26.491],[75.9239,26.5182],[75.8732,26.5445],[75.793,26.5432],[75.7237,26.4968],[75.6752,26.4147],[75.5853,26.4041],[75.6159,26.3775],[75.6559,26.3783],[75.6767,26.3425],[75.6967,26.3429],[75.716,26.3793],[75.7568,26.3439],[75.8369,26.3452],[75.8376,26.3091],[75.6775,26.3064],[75.6567,26.3422],[75.4965,26.3392],[75.4569,26.3204],[75.4957,26.3753],[75.5358,26.3761],[75.5652,26.4037],[75.5346,26.4302],[75.4654,26.3838],[75.3776,26.2827],[75.2179,26.2614],[75.1761,26.3327],[75.149,26.2147],[75.1997,26.1887],[75.3197,26.1912],[75.3707,26.1471],[75.3843,25.9938],[75.4841,25.9958],[75.5037,26.0142],[75.524,25.9966],[77.0816,25.9986],[77.0613,26.0346],[77.0014,26.0342],[76.971,26.0791],[77.0299,26.206],[77.0195,26.251],[76.9494,26.2595],[76.9889,26.314],[76.9883,26.3863],[76.9379,26.4129],[76.8179,26.3939],[76.7374,26.4292],[76.6774,26.4106],[76.627,26.4372],[76.5959,26.5181],[76.5362,26.4813],[76.4141,26.6063]]],[[[75.4091,26.2201],[75.3997,26.1928],[75.3495,26.2009],[75.3589,26.2281],[75.4091,26.2201]]],[[[76.7481,26.3661],[76.7384,26.3389],[76.6983,26.3385],[76.6587,26.302],[76.5986,26.3014],[76.5683,26.3282],[76.6783,26.3383],[76.6979,26.3747],[76.7481,26.3661]]]]}},{"type":"Feature","properties":{"cell":213,"feature":1242,"phase":"Unclassified","min_bt_K":237.4,"area_km2":920,"cold_core_km2":0,"speed_kmh":68.0,"heading_deg":88,"d_min_bt_30":2.4,"age_min":90,"family":168,"touches_missing":true,"lon":73.4526,"lat":27.7706,"merges_splits_so_far":1},"geometry":{"type":"MultiPolygon","coordinates":[[[[73.6298,27.9335],[73.5486,27.9308],[73.5493,27.9127],[73.6012,27.8874],[73.5305,27.876],[73.4726,27.8018],[73.4321,27.8004],[73.4208,27.8271],[73.4711,27.8379],[73.529,27.912],[73.4891,27.8926],[73.3267,27.887],[73.308,27.8502],[73.2252,27.8833],[73.1366,27.8169],[73.1594,27.7636],[73.2105,27.7564],[73.2534,27.7038],[73.294,27.7053],[73.3232,27.7334],[73.3014,27.7687],[73.3509,27.7976],[73.3825,27.7716],[73.3856,27.6995],[73.4367,27.6922],[73.4584,27.6569],[73.4982,27.6763],[73.541,27.6236],[73.5612,27.6243],[73.6289,27.7078],[73.6064,27.7612],[73.6824,27.8901],[73.6298,27.9335]]]]}},{"type":"Feature","properties":{"cell":226,"feature":1266,"phase":"Developing","min_bt_K":229.0,"area_km2":11748,"cold_core_km2":0,"speed_kmh":28.7,"heading_deg":270,"d_min_bt_30":0.5,"age_min":60,"family":200,"touches_missing":true,"lon":77.9656,"lat":30.9767,"merges_splits_so_far":2},"geometry":{"type":"MultiPolygon","coordinates":[[[[78.1895,31.5423],[78.1474,31.5424],[78.0421,31.4883],[77.9159,31.3801],[77.8529,31.362],[77.8214,31.3169],[77.769,31.2897],[77.7688,31.3619],[77.6427,31.3616],[77.538,31.2711],[77.496,31.2709],[77.4542,31.2347],[77.4122,31.2345],[77.4016,31.2615],[77.37,31.2704],[77.3074,31.216],[77.2446,31.1976],[77.2239,31.1614],[77.161,31.161],[77.1298,31.1337],[77.1301,31.0976],[77.1722,31.0799],[77.1518,31.0076],[77.2152,30.9358],[77.3304,30.9274],[77.3512,30.9456],[77.3828,30.9187],[77.3832,30.8465],[77.4253,30.8106],[77.4362,30.7295],[77.5197,30.7298],[77.5405,30.7479],[77.6032,30.7301],[77.6243,30.6941],[77.6869,30.6762],[77.7392,30.6312],[77.7393,30.5951],[77.7707,30.5681],[77.875,30.5322],[78.0625,30.5683],[78.0833,30.4781],[78.1459,30.5502],[78.2084,30.5501],[78.2502,30.5861],[78.3128,30.586],[78.4169,30.5496],[78.5005,30.6034],[78.6674,30.6027],[78.783,30.7193],[78.8052,30.8816],[78.8472,30.8993],[78.8477,30.9535],[78.8899,30.9893],[78.8278,31.0799],[78.7444,31.1345],[78.7447,31.1706],[78.787,31.2064],[78.7877,31.2966],[78.7458,31.3149],[78.7464,31.387],[78.6525,31.4868],[78.5577,31.4782],[78.5149,31.3521],[78.5354,31.2618],[78.5141,31.2077],[78.451,31.1719],[78.4509,31.1358],[78.4822,31.1086],[78.5242,31.1265],[78.5555,31.0993],[78.5133,31.0454],[78.5758,30.991],[78.5756,30.9549],[78.544,30.928],[78.4188,31.0006],[78.3875,31.0278],[78.3675,31.2623],[78.3256,31.2985],[78.3468,31.3526],[78.3049,31.3888],[78.326,31.4248],[78.2841,31.479],[78.1895,31.5423]]]]}},{"type":"Feature","properties":{"cell":227,"feature":1269,"phase":"Developing","min_bt_K":228.4,"area_km2":22828,"cold_core_km2":0,"speed_kmh":129.1,"heading_deg":41,"d_min_bt_30":-0.6,"age_min":60,"family":3,"touches_missing":true,"lon":83.2256,"lat":32.148,"merges_splits_so_far":9},"geometry":{"type":"MultiPolygon","coordinates":[[[[82.7178,33.173],[82.701,33.0563],[82.7205,33.0195],[82.6759,32.985],[82.674,32.949],[82.7056,32.9388],[82.7149,32.9114],[82.661,32.9043],[82.6165,32.8698],[82.5746,32.8892],[82.4251,32.8943],[82.4046,32.913],[82.3499,32.8877],[82.3678,32.815],[82.3985,32.7869],[82.4839,32.784],[82.5248,32.7466],[82.5674,32.7451],[82.5971,32.699],[82.5638,32.6731],[82.4999,32.6752],[82.4795,32.694],[82.4573,32.6767],[82.4164,32.7141],[82.384,32.7062],[82.3958,32.5073],[82.5123,32.4944],[82.6214,32.5448],[82.6732,32.5159],[82.6705,32.4619],[82.6372,32.4359],[82.5947,32.4374],[82.5292,32.4036],[82.5088,32.4223],[82.4765,32.4144],[82.4721,32.3243],[82.4491,32.289],[82.4695,32.2703],[82.4669,32.2162],[82.5279,32.16],[82.4945,31.9085],[82.4413,31.9013],[82.3753,31.8493],[82.312,31.8514],[82.2766,31.7714],[82.3045,31.6893],[82.4513,31.6664],[82.4816,31.6383],[82.4808,31.6203],[82.4378,31.6037],[82.4125,31.5143],[82.442,31.4682],[82.4849,31.4848],[82.5152,31.4567],[82.5143,31.4387],[82.4714,31.4221],[82.4706,31.4041],[82.5118,31.3847],[82.4563,31.3234],[82.3958,31.3795],[82.363,31.3536],[82.3614,31.3175],[82.5033,31.2045],[82.5318,31.1404],[82.5973,31.1923],[82.6593,31.1721],[82.7961,31.1762],[82.7997,31.2483],[82.8216,31.2655],[82.785,31.3751],[82.7448,31.4126],[82.7475,31.4667],[82.8344,31.5177],[82.8371,31.5717],[82.9572,31.6485],[83.0626,31.6445],[83.1018,31.5889],[83.165,31.5864],[83.2352,31.5205],[83.2232,31.4939],[83.3074,31.4906],[83.3726,31.5241],[83.4147,31.5224],[83.4588,31.5566],[83.5009,31.5549],[83.5604,31.6697],[83.658,31.7107],[83.7779,31.5973],[83.8832,31.5927],[83.9186,31.4828],[83.9939,31.5065],[84.0096,32.0833],[83.9896,32.1023],[84.0106,32.4262],[83.9704,32.4641],[83.994,32.4991],[84.0106,32.751],[83.9365,32.7634],[83.8691,32.7122],[83.8264,32.7141],[83.6637,32.8474],[83.6188,32.8133],[83.5334,32.8168],[83.5143,32.8537],[83.3905,32.931],[83.3263,32.9335],[83.2654,32.9901],[83.1371,32.9951],[83.1167,33.0139],[83.0526,33.0164],[83.0302,32.9992],[82.9067,33.094],[82.8201,33.0791],[82.7904,33.1253],[82.7178,33.173]]],[[[83.4834,32.1602],[83.4712,32.1336],[83.4622,32.161],[83.4834,32.1602]]],[[[83.3869,32.3265],[83.3848,32.2905],[83.4453,32.2339],[83.431,32.1713],[83.4241,32.2348],[83.3423,32.2922],[83.3444,32.3282],[83.3869,32.3265]]],[[[83.2314,32.5854],[83.2303,32.5674],[83.2719,32.5477],[83.2262,32.4953],[83.3082,32.438],[83.2636,32.4036],[83.2929,32.3574],[83.2413,32.3865],[83.2657,32.4397],[83.205,32.4962],[83.2293,32.5494],[83.1888,32.587],[83.2314,32.5854]]],[[[83.6391,32.6229],[83.5943,32.5887],[83.5665,32.4816],[83.533,32.4559],[83.5261,32.5193],[83.5698,32.5356],[83.5507,32.5725],[83.6077,32.6332],[83.6391,32.6229]]]]}},{"type":"Feature","properties":{"cell":229,"feature":1271,"phase":"Developing","min_bt_K":231.4,"area_km2":12388,"cold_core_km2":0,"speed_kmh":73.1,"heading_deg":68,"d_min_bt_30":-0.8,"age_min":60,"family":3,"touches_missing":false,"lon":81.0642,"lat":32.033,"merges_splits_so_far":4},"geometry":{"type":"MultiPolygon","coordinates":[[[[81.1801,32.7674],[81.1679,32.7226],[81.113,32.6787],[81.0594,32.671],[81.0558,32.5628],[81.0023,32.555],[80.9155,32.5028],[80.9028,32.4399],[80.8586,32.3867],[80.7611,32.3257],[80.7192,32.3446],[80.5913,32.3291],[80.529,32.3844],[80.2949,32.3706],[80.2619,32.326],[80.2588,32.1998],[80.2047,32.1556],[80.1628,32.1743],[80.1303,32.1478],[80.1295,32.1117],[80.0863,32.0763],[80.0851,32.0222],[80.0636,32.0045],[80.0947,31.977],[80.2026,32.0654],[80.2666,32.0824],[80.2968,32.0188],[80.3283,32.0092],[80.3486,31.9727],[80.3909,31.972],[80.4129,32.0077],[80.4764,32.0065],[80.5631,32.077],[80.6695,32.093],[80.6793,32.0657],[80.7417,32.0284],[80.7401,31.9743],[80.7608,31.9558],[80.7375,31.8841],[80.7982,31.7927],[80.7956,31.7025],[80.687,31.5965],[80.7487,31.5411],[80.725,31.4514],[80.7758,31.3872],[80.9202,31.2939],[80.9622,31.293],[81.0133,31.2467],[80.9889,31.139],[81.0399,31.0927],[81.1441,31.0723],[81.195,31.0259],[81.204,30.9806],[81.2668,30.9791],[81.2806,31.078],[81.3669,31.148],[81.3516,31.3108],[81.4166,31.3632],[81.3777,31.4544],[81.3994,31.4719],[81.4065,31.6702],[81.3867,31.7068],[81.452,31.7592],[81.4553,31.8494],[81.4771,31.8668],[81.46,31.9755],[81.4818,31.993],[81.4838,32.0471],[81.5501,32.1175],[81.5542,32.2257],[81.5145,32.2989],[81.5604,32.3879],[81.5639,32.478],[81.4726,32.5977],[81.4506,32.5802],[81.3868,32.5819],[81.3558,32.6097],[81.3281,32.7277],[81.1801,32.7674]]]]}},{"type":"Feature","properties":{"cell":231,"feature":1274,"phase":"Unclassified","min_bt_K":231.0,"area_km2":8924,"cold_core_km2":0,"speed_kmh":105.6,"heading_deg":161,"d_min_bt_30":-2.7,"age_min":60,"family":3,"touches_missing":true,"lon":81.9633,"lat":32.3121,"merges_splits_so_far":5},"geometry":{"type":"MultiPolygon","coordinates":[[[[81.5263,32.885],[81.4382,32.8151],[81.3204,32.8091],[81.3178,32.737],[81.3558,32.6097],[81.3868,32.5819],[81.4506,32.5802],[81.4726,32.5977],[81.5639,32.478],[81.5604,32.3879],[81.5152,32.3169],[81.5542,32.2257],[81.5501,32.1175],[81.4831,32.0291],[81.535,32.0006],[81.6613,31.9792],[81.7014,31.9239],[81.8283,31.9204],[81.8939,31.9726],[81.9785,31.9701],[81.9857,31.8887],[82.0663,31.796],[82.0835,31.7053],[82.1046,31.7046],[82.1163,31.7313],[82.1366,31.7126],[82.2007,31.7287],[82.2673,31.7987],[82.2985,31.7887],[82.312,31.8514],[82.3753,31.8493],[82.4413,31.9013],[82.4945,31.9085],[82.4988,31.9986],[82.5209,32.0159],[82.5279,32.16],[82.4669,32.2162],[82.4695,32.2703],[82.4491,32.289],[82.4721,32.3243],[82.4765,32.4144],[82.3736,32.49],[82.3958,32.5073],[82.384,32.7062],[82.3524,32.7162],[82.2859,32.6642],[82.2007,32.667],[82.1376,32.687],[82.076,32.743],[81.9046,32.7301],[81.7377,32.8251],[81.5463,32.8484],[81.5263,32.885]]]]}},{"type":"Feature","properties":{"cell":232,"feature":1249,"phase":"Developing","min_bt_K":236.0,"area_km2":1776,"cold_core_km2":0,"speed_kmh":29.8,"heading_deg":130,"d_min_bt_30":6.8,"age_min":60,"family":232,"touches_missing":true,"lon":75.0068,"lat":32.2233,"merges_splits_so_far":0},"geometry":{"type":"MultiPolygon","coordinates":[[[[75.2787,32.4167],[75.1103,32.359],[75.0466,32.3576],[75.0351,32.3844],[74.9811,32.4103],[74.833,32.3888],[74.7608,32.3239],[74.8058,32.2528],[74.7646,32.2157],[74.7665,32.1617],[74.7247,32.1426],[74.769,32.0896],[74.7709,32.0355],[74.8664,32.0287],[74.9076,32.0658],[74.9499,32.0668],[75.0146,32.0321],[75.0569,32.0331],[75.0987,32.052],[75.1394,32.1071],[75.2241,32.1088],[75.2954,32.2095],[75.2943,32.2456],[75.3357,32.2825],[75.3331,32.3727],[75.2787,32.4167]]]]}},{"type":"Feature","properties":{"cell":234,"feature":1277,"phase":"Unclassified","min_bt_K":233.3,"area_km2":18244,"cold_core_km2":0,"speed_kmh":43.9,"heading_deg":161,"d_min_bt_30":1.1,"age_min":60,"family":3,"touches_missing":false,"lon":80.9221,"lat":33.219,"merges_splits_so_far":6},"geometry":{"type":"MultiPolygon","coordinates":[[[[82.2205,34.0017],[81.9825,34.009],[81.9601,33.9916],[81.3328,34.0087],[81.3105,33.9912],[80.4885,34.009],[80.4664,33.9914],[80.2823,33.9856],[80.2809,33.9315],[80.2142,33.8604],[80.2344,33.806],[80.2115,33.7522],[80.2537,33.7154],[80.2308,33.6617],[80.2629,33.6521],[80.3046,33.5973],[80.3907,33.5958],[80.4127,33.6134],[80.5074,33.5305],[80.4613,33.4231],[80.4918,33.3594],[80.5563,33.3581],[80.5892,33.3846],[80.5908,33.4387],[80.5698,33.4571],[80.5829,33.5381],[80.669,33.5364],[80.6999,33.4906],[80.6773,33.455],[80.6338,33.4378],[80.6322,33.3837],[80.5887,33.3665],[80.6092,33.3301],[80.5846,33.2223],[80.3887,33.1177],[80.3873,33.0636],[80.3212,32.9926],[80.4248,32.8644],[80.4233,32.8103],[80.4015,32.7927],[80.4214,32.7382],[80.3456,32.6944],[80.303,32.6952],[80.2612,32.732],[80.2273,32.6514],[80.1842,32.634],[80.1829,32.5799],[80.1395,32.5446],[80.1132,32.3285],[80.1545,32.2737],[80.132,32.2199],[80.1835,32.156],[80.2588,32.1998],[80.2619,32.326],[80.2949,32.3706],[80.529,32.3844],[80.5913,32.3291],[80.6555,32.3458],[80.6907,32.4624],[80.7463,32.5425],[80.8102,32.5411],[80.8533,32.5583],[80.8757,32.5939],[81.0449,32.554],[81.0594,32.671],[81.113,32.6787],[81.1679,32.7226],[81.1801,32.7674],[81.3068,32.7282],[81.3314,32.8178],[81.4382,32.8151],[81.5153,32.8762],[81.474,32.9134],[81.4967,32.9489],[81.456,33.0041],[81.4602,33.1122],[81.4837,33.1658],[81.5383,33.1914],[81.5501,33.2182],[81.5079,33.2373],[81.5136,33.3815],[81.4505,33.4192],[81.4519,33.4553],[81.5393,33.4891],[81.5429,33.5792],[81.479,33.599],[81.4631,33.7437],[81.6721,33.8374],[81.6841,33.8642],[81.7616,33.9071],[81.8048,33.9059],[81.8464,33.8686],[81.8912,33.9034],[81.9992,33.9002],[82.0441,33.935],[82.0761,33.925],[82.0433,33.917],[82.0312,33.8902],[82.0823,33.8255],[82.128,33.8783],[82.1799,33.8315],[82.1773,33.7775],[82.2524,33.7661],[82.3085,33.8094],[82.3111,33.8635],[82.2732,33.973],[82.2205,34.0017]]]]}},{"type":"Feature","properties":{"cell":236,"feature":1276,"phase":"Unclassified","min_bt_K":229.3,"area_km2":6172,"cold_core_km2":0,"speed_kmh":24.5,"heading_deg":133,"d_min_bt_30":1.1,"age_min":60,"family":3,"touches_missing":true,"lon":75.649,"lat":32.8213,"merges_splits_so_far":1},"geometry":{"type":"MultiPolygon","coordinates":[[[[75.6599,33.308],[75.5526,33.306],[75.4892,33.2688],[75.4803,33.2055],[75.4384,33.1686],[75.4394,33.1325],[75.3982,33.0776],[75.3668,33.0499],[75.324,33.0491],[75.2308,32.9479],[75.1722,32.7663],[75.1941,32.7487],[75.1756,32.6581],[75.2558,32.4703],[75.2973,32.5073],[75.4467,32.4922],[75.4685,32.4745],[75.5318,32.4938],[75.7663,32.4799],[75.8501,32.5354],[75.9139,32.5364],[75.9236,32.5816],[76.0494,32.6737],[76.1321,32.8012],[76.131,32.8553],[76.1092,32.8731],[76.1291,32.9455],[76.1505,32.9458],[76.152,32.8737],[76.1845,32.847],[76.2696,32.8662],[76.2795,32.9114],[76.3215,32.9481],[76.2234,33.046],[76.1697,33.0543],[76.1904,33.0907],[76.1359,33.135],[76.0931,33.1344],[76.0405,33.0886],[76.128,32.9996],[76.0533,32.9895],[76.0101,33.0069],[75.9766,33.0696],[75.8902,33.1043],[75.8679,33.14],[75.8885,33.1765],[75.8561,33.185],[75.8338,33.2207],[75.7695,33.2196],[75.6599,33.308]]]]}},{"type":"Feature","properties":{"cell":238,"feature":1263,"phase":"Unclassified","min_bt_K":232.6,"area_km2":2356,"cold_core_km2":0,"speed_kmh":11.0,"heading_deg":70,"d_min_bt_30":0.1,"age_min":30,"family":238,"touches_missing":true,"lon":72.185,"lat":28.1929,"merges_splits_so_far":0},"geometry":{"type":"MultiPolygon","coordinates":[[[[72.0908,28.5233],[71.9994,28.5101],[72.0077,28.005],[72.2284,27.8795],[72.2478,27.8984],[72.2894,27.8822],[72.4518,27.8891],[72.4596,27.9346],[72.4384,27.9517],[72.4327,28.0598],[72.4114,28.077],[72.4308,28.0958],[72.4251,28.2039],[72.4436,28.2408],[72.3029,28.3882],[72.2213,28.3847],[72.1668,28.4455],[72.1648,28.4815],[72.1133,28.4882],[72.0908,28.5233]]]]}},{"type":"Feature","properties":{"cell":245,"feature":1262,"phase":"Unclassified","min_bt_K":232.1,"area_km2":1680,"cold_core_km2":0,"speed_kmh":40.8,"heading_deg":42,"d_min_bt_30":6.0,"age_min":30,"family":210,"touches_missing":true,"lon":74.4963,"lat":26.4166,"merges_splits_so_far":0},"geometry":{"type":"MultiPolygon","coordinates":[[[[74.585,26.6618],[74.5265,26.6061],[74.4244,26.6575],[74.3573,26.5564],[74.3591,26.5022],[74.2406,26.4447],[74.2454,26.3004],[74.266,26.2829],[74.2478,26.2282],[74.2646,26.0209],[74.2731,26.0663],[74.3119,26.1036],[74.2902,26.1571],[74.3296,26.1763],[74.2878,26.2293],[74.3175,26.2392],[74.3752,26.313],[74.417,26.26],[74.497,26.2622],[74.5955,26.3189],[74.6961,26.3034],[74.7346,26.3586],[74.8239,26.3879],[74.7509,26.4854],[74.7108,26.4844],[74.5775,26.5803],[74.585,26.6618]]]]}},{"type":"Feature","properties":{"cell":246,"feature":1284,"phase":"Developing","min_bt_K":217.6,"area_km2":2840,"cold_core_km2":68,"speed_kmh":33.4,"heading_deg":149,"d_min_bt_30":-4.4,"age_min":30,"family":168,"touches_missing":false,"lon":74.9473,"lat":28.174,"merges_splits_so_far":0},"geometry":{"type":"MultiPolygon","coordinates":[[[[75.1208,28.4438],[75.0188,28.4415],[74.9188,28.367],[74.8372,28.3651],[74.7545,28.3992],[74.6729,28.3972],[74.6227,28.3688],[74.6851,28.3343],[74.6669,28.2616],[74.7303,28.191],[74.6946,28.0277],[74.8517,27.8781],[74.9329,27.88],[74.9542,27.8444],[75.0557,27.8467],[75.077,27.8111],[75.0968,27.8296],[75.1785,27.8133],[75.2375,27.8868],[75.3084,27.8973],[75.3074,27.9333],[75.1836,28.003],[75.1779,28.2194],[75.1357,28.2727],[75.1731,28.3998],[75.1208,28.4438]]]]}},{"type":"Feature","properties":{"cell":247,"feature":1267,"phase":"Developing","min_bt_K":233.2,"area_km2":22156,"cold_core_km2":0,"speed_kmh":47.3,"heading_deg":43,"d_min_bt_30":-1.1,"age_min":30,"family":3,"touches_missing":true,"lon":83.2086,"lat":30.7885,"merges_splits_so_far":4},"geometry":{"type":"MultiPolygon","coordinates":[[[[83.0626,31.6445],[82.9572,31.6485],[82.9141,31.632],[82.8371,31.5717],[82.8344,31.5177],[82.7475,31.4667],[82.7448,31.4126],[82.785,31.3751],[82.8216,31.2655],[82.7997,31.2483],[82.7961,31.1762],[82.6593,31.1721],[82.5973,31.1923],[82.5427,31.149],[82.5418,31.131],[82.5829,31.1116],[82.6013,31.0568],[82.5694,31.0489],[82.5577,31.0222],[82.6162,30.93],[82.6136,30.8759],[82.5684,30.8053],[82.6294,30.7671],[82.6268,30.7131],[82.54,30.6439],[82.5316,30.4637],[82.5499,30.409],[82.6098,30.3528],[82.5242,30.3016],[82.5225,30.2656],[82.5732,30.2367],[82.5948,30.254],[82.6247,30.2259],[82.6131,30.1993],[82.5608,30.1921],[82.5591,30.156],[82.6711,30.107],[82.7101,30.0515],[82.8137,30.0478],[82.857,30.0823],[82.8976,30.0627],[82.9066,30.0353],[82.8625,29.9828],[82.8202,29.9663],[82.8923,29.9546],[82.9301,29.8811],[82.9823,29.8881],[82.9321,29.7095],[82.8072,29.6961],[82.8253,29.6413],[82.8038,29.624],[82.8128,29.5966],[82.8748,29.5944],[82.8936,29.5576],[82.9555,29.5553],[82.9896,29.6171],[83.0066,29.7519],[83.172,29.7455],[83.235,29.7611],[83.2547,29.7422],[83.3472,29.7295],[83.3434,29.6575],[83.3218,29.6403],[83.4605,29.5263],[83.4586,29.4903],[83.5283,29.4423],[83.5469,29.4054],[83.6009,29.4483],[83.5626,29.504],[83.6167,29.5469],[83.6579,29.5451],[83.707,29.4979],[83.7148,29.4524],[83.7354,29.4515],[83.758,29.4866],[83.7972,29.4488],[83.8384,29.447],[83.8101,29.4934],[83.8328,29.5285],[83.8034,29.5568],[83.7621,29.5586],[83.7435,29.5956],[83.7033,29.6153],[83.661,29.5991],[83.5165,29.6052],[83.4762,29.625],[83.4476,29.6712],[83.5332,29.7218],[83.5392,29.8299],[83.5205,29.8667],[83.5846,29.9002],[83.5886,29.9722],[83.5689,29.991],[83.7191,30.0749],[83.7222,30.1289],[83.6641,30.2036],[83.7165,30.2103],[83.7404,30.2634],[83.8235,30.2598],[83.8291,30.1784],[83.7834,30.1082],[83.7803,30.0542],[83.7999,30.0353],[83.7326,29.948],[83.7502,29.8931],[83.7284,29.8759],[83.7254,29.8219],[83.6318,29.8169],[83.6179,29.7544],[83.727,29.6685],[83.7889,29.6658],[83.8282,29.6279],[83.9009,29.6337],[83.8638,29.7076],[83.9073,29.7417],[83.8877,29.7607],[83.8919,29.8327],[83.8537,29.8885],[83.8863,29.9141],[83.9691,29.9104],[84.0018,29.936],[84.0094,30.062],[83.9897,30.0809],[84.0028,30.2969],[83.9711,30.2893],[83.9306,30.3092],[83.8824,30.3745],[83.9382,30.4352],[83.9908,30.4418],[83.9985,30.5678],[83.9217,30.6796],[83.8613,30.7184],[83.751,30.9758],[83.6562,30.9709],[83.5856,31.019],[83.5877,31.055],[83.6526,31.0883],[83.6349,31.1432],[83.6433,31.2873],[83.6134,31.3156],[83.5714,31.3174],[83.5136,31.41],[83.4306,31.4315],[83.4005,31.4598],[83.3936,31.5232],[83.3074,31.4906],[83.2232,31.4939],[83.2352,31.5205],[83.1851,31.5676],[83.165,31.5864],[83.1018,31.5889],[83.0626,31.6445]]],[[[83.0877,29.9202],[83.1282,29.9006],[83.1452,29.8277],[83.093,29.8207],[83.0705,29.7855],[83.0408,29.8137],[83.0462,29.9218],[83.0877,29.9202]]]]}},{"type":"Feature","properties":{"cell":252,"feature":1272,"phase":"Unclassified","min_bt_K":234.0,"area_km2":3220,"cold_core_km2":0,"speed_kmh":32.1,"heading_deg":233,"d_min_bt_30":1.0,"age_min":30,"family":3,"touches_missing":true,"lon":81.756,"lat":31.7113,"merges_splits_so_far":1},"geometry":{"type":"MultiPolygon","coordinates":[[[[81.5145,32.0192],[81.4934,32.0198],[81.46,31.9755],[81.458,31.9215],[81.4784,31.9029],[81.452,31.7592],[81.3867,31.7068],[81.4065,31.6702],[81.4096,31.4626],[81.5576,31.4768],[81.601,31.5117],[81.916,31.4848],[81.9363,31.4661],[82.1365,31.4691],[82.1163,31.4877],[82.1397,31.5411],[82.0983,31.5605],[82.0593,31.6338],[82.0851,31.7413],[82.0467,31.8327],[81.9857,31.8887],[81.9785,31.9701],[81.8939,31.9726],[81.8283,31.9204],[81.7014,31.9239],[81.6613,31.9792],[81.5145,32.0192]]]]}},{"type":"Feature","properties":{"cell":259,"feature":1283,"phase":"Unclassified","min_bt_K":233.0,"area_km2":8180,"cold_core_km2":0,"speed_kmh":52.2,"heading_deg":16,"d_min_bt_30":-0.1,"age_min":30,"family":3,"touches_missing":true,"lon":83.3872,"lat":33.441,"merges_splits_so_far":4},"geometry":{"type":"MultiPolygon","coordinates":[[[[83.7291,33.8735],[83.7075,33.8744],[83.6609,33.8222],[83.5098,33.8285],[83.4202,33.7781],[83.377,33.7798],[83.3361,33.8175],[83.2497,33.8209],[83.1942,33.796],[83.1818,33.7694],[82.9877,33.7768],[82.9322,33.7518],[82.9302,33.7158],[82.8964,33.6899],[82.8523,33.6735],[82.8317,33.6923],[82.7671,33.6946],[82.6639,33.5809],[82.6611,33.5269],[82.6162,33.4924],[82.6134,33.4383],[82.591,33.421],[82.6106,33.3843],[82.5425,33.3144],[82.5407,33.2784],[82.6125,33.2128],[82.6787,33.2466],[82.73,33.1996],[82.7383,33.1542],[82.8444,33.1324],[82.8639,33.0956],[82.9067,33.094],[82.9189,33.1206],[82.9729,33.1276],[83.1311,33.266],[83.219,33.2987],[83.2608,33.279],[83.3209,33.2045],[83.3841,33.1839],[83.444,33.1093],[83.6986,33.0625],[83.7122,33.1071],[83.6705,33.1269],[83.7845,33.2303],[83.8165,33.3914],[83.8833,33.4246],[83.8559,33.3355],[83.8863,33.3071],[83.9936,33.3023],[84.0097,33.3828],[83.9895,33.4018],[84.0102,33.7077],[83.9923,33.7627],[83.7868,33.7627],[83.7154,33.8289],[83.7382,33.846],[83.7291,33.8735]]]]}},{"type":"Feature","properties":{"cell":263,"feature":1259,"phase":"Unclassified","min_bt_K":230.4,"area_km2":2440,"cold_core_km2":0,"speed_kmh":null,"heading_deg":null,"d_min_bt_30":null,"age_min":0,"family":210,"touches_missing":true,"lon":74.8358,"lat":26.1928,"merges_splits_so_far":2},"geometry":{"type":"MultiPolygon","coordinates":[[[[74.9739,26.4004],[74.9246,26.3722],[74.8963,26.3083],[74.7941,26.3781],[74.7346,26.3586],[74.6961,26.3034],[74.5955,26.3189],[74.5565,26.2818],[74.4176,26.242],[74.3976,26.2414],[74.3764,26.2769],[74.3278,26.2304],[74.3496,26.1769],[74.3113,26.1216],[74.3822,26.0965],[74.6225,26.0848],[74.6635,26.0498],[74.7034,26.0508],[74.7618,26.1064],[74.8408,26.1445],[74.9007,26.1459],[74.9197,26.1825],[74.9597,26.1834],[74.9705,26.1565],[75.0723,26.0866],[75.063,26.0593],[74.9938,26.0306],[75.0045,26.0038],[75.3643,25.9934],[75.3707,26.1471],[75.3401,26.1736],[75.3006,26.1547],[75.1402,26.1694],[75.1272,26.2865],[75.0462,26.3208],[75.0755,26.3486],[75.1356,26.3499],[75.1561,26.3323],[75.1654,26.3596],[75.1347,26.386],[74.9945,26.3829],[74.9739,26.4004]]]]}},{"type":"Feature","properties":{"cell":272,"feature":1285,"phase":"Unclassified","min_bt_K":212.7,"area_km2":5708,"cold_core_km2":356,"speed_kmh":null,"heading_deg":null,"d_min_bt_30":null,"age_min":0,"family":168,"touches_missing":true,"lon":75.0221,"lat":28.4969,"merges_splits_so_far":1},"geometry":{"type":"MultiPolygon","coordinates":[[[[74.8623,28.8891],[74.7609,28.8506],[74.6995,28.849],[74.6415,28.7393],[74.5602,28.7191],[74.5409,28.6825],[74.4492,28.6711],[74.4702,28.6536],[74.4751,28.5093],[74.5165,28.4924],[74.5592,28.4394],[74.5603,28.4033],[74.6128,28.3595],[74.6729,28.3972],[74.9188,28.367],[75.0188,28.4415],[75.1208,28.4438],[75.1731,28.3998],[75.1352,28.2907],[75.1779,28.2194],[75.1836,28.003],[75.2971,27.9422],[75.3567,27.9975],[75.3978,27.9803],[75.4367,28.0533],[75.5392,28.0191],[75.5583,28.0736],[75.599,28.0744],[75.6289,28.102],[75.6281,28.1381],[75.6676,28.1929],[75.666,28.2651],[75.6037,28.3181],[75.6433,28.373],[75.5604,28.4256],[75.4861,28.5415],[75.4149,28.5311],[75.3726,28.5844],[75.3717,28.6205],[75.3299,28.6558],[75.339,28.7011],[75.2781,28.6818],[75.2362,28.717],[75.1952,28.7161],[75.1513,28.8235],[75.0804,28.7949],[75.0824,28.7227],[75.0325,28.6765],[74.9176,28.7551],[74.957,28.8101],[74.9559,28.8462],[74.8623,28.8891]]]]}},{"type":"Feature","properties":{"cell":273,"feature":1286,"phase":"Unclassified","min_bt_K":219.0,"area_km2":9364,"cold_core_km2":176,"speed_kmh":null,"heading_deg":null,"d_min_bt_30":null,"age_min":0,"family":3,"touches_missing":true,"lon":72.4732,"lat":30.193,"merges_splits_so_far":1},"geometry":{"type":"MultiPolygon","coordinates":[[[[72.0134,30.8842],[72.0102,30.7667],[71.9904,30.7478],[72.0103,30.4239],[71.9906,30.4049],[72.0103,30.0809],[71.9906,30.062],[71.9949,29.99],[72.081,29.9397],[72.1158,29.8781],[72.18,29.8449],[72.2421,29.8476],[72.256,29.785],[72.2875,29.7774],[72.3103,29.7423],[72.4343,29.7475],[72.5199,29.697],[72.6232,29.7012],[72.6626,29.7389],[72.7866,29.7439],[72.8092,29.7087],[72.8918,29.7119],[72.9934,29.7519],[73.0563,29.7362],[73.0851,29.7824],[73.0725,29.827],[73.176,29.8308],[73.1273,29.7659],[73.1334,29.6398],[73.1846,29.6507],[73.2341,29.6976],[73.2423,29.743],[73.263,29.7437],[73.282,29.7805],[73.3332,29.7914],[73.3316,29.8274],[73.3903,29.9016],[73.3588,29.9096],[73.3365,29.9449],[73.2553,29.9059],[73.1141,30.0361],[73.0907,30.0894],[73.0484,30.1058],[73.0881,30.1434],[73.0809,30.2875],[73.1207,30.3251],[72.9851,30.329],[72.8973,30.4159],[72.7715,30.429],[72.726,30.4994],[72.601,30.4944],[72.5574,30.5287],[72.5157,30.527],[72.4354,30.4695],[72.2897,30.4633],[72.2491,30.4435],[72.2308,30.578],[72.1859,30.6302],[72.1816,30.7022],[72.1596,30.7193],[72.1575,30.7553],[72.2158,30.83],[72.1818,30.8736],[72.0354,30.8671],[72.0134,30.8842]]]]}}]}