{"type":"FeatureCollection","features":[{"type":"Feature","properties":{"cell":55,"feature":1350,"phase":"Mature","min_bt_K":220.1,"area_km2":22304,"cold_core_km2":104,"speed_kmh":115.3,"heading_deg":100,"d_min_bt_30":2.7,"age_min":510,"family":3,"touches_missing":true,"lon":74.0062,"lat":32.7536,"merges_splits_so_far":29},"geometry":{"type":"MultiPolygon","coordinates":[[[[74.6672,34.0087],[74.2995,33.999],[74.2593,33.9257],[74.1608,33.95],[74.1848,33.8966],[74.2504,33.8804],[74.2535,33.8083],[74.2326,33.7896],[74.3695,33.613],[74.3495,33.5763],[74.3732,33.5228],[74.3524,33.5042],[74.3747,33.4868],[74.3776,33.4147],[74.4213,33.3978],[74.4116,33.3705],[74.3265,33.3501],[74.2954,33.3222],[74.2969,33.2862],[74.2651,33.2763],[74.1831,33.1837],[74.0878,33.1539],[74.11,33.1365],[74.0791,33.1085],[74.0569,33.1259],[74.0362,33.1073],[73.972,33.1053],[73.9522,33.0687],[73.9086,33.0854],[73.8666,33.066],[73.8546,33.0927],[73.7776,33.1354],[73.757,33.1167],[73.7339,33.1521],[73.6911,33.1507],[73.6447,33.2214],[73.6018,33.22],[73.5514,33.1552],[73.5567,33.0471],[73.4738,32.9901],[73.5219,32.8835],[73.5886,32.8316],[73.5699,32.7768],[73.3677,32.7609],[73.2638,32.7031],[73.2101,32.7102],[73.2148,32.6202],[73.115,32.4903],[73.1169,32.4542],[73.0561,32.3978],[73.058,32.3618],[73.1052,32.2733],[73.2814,32.1534],[73.2932,31.9192],[73.3254,31.9113],[73.4363,31.8069],[73.4997,31.8091],[73.601,31.9027],[73.6653,31.8868],[73.7904,31.9269],[73.965,31.806],[74.0159,31.8526],[73.9932,31.888],[74.0339,31.9253],[74.0332,31.9434],[73.9901,31.9601],[73.9839,32.1043],[74.0641,32.2149],[74.0974,32.4324],[74.1281,32.4604],[74.1699,32.4796],[74.2557,32.464],[74.2968,32.5013],[74.3188,32.4838],[74.3819,32.5036],[74.4677,32.4879],[74.572,32.5447],[74.7785,32.7303],[74.8419,32.7498],[74.8851,32.7328],[74.9467,32.8064],[75.0754,32.7913],[75.1273,32.8375],[75.1261,32.8736],[75.1677,32.9105],[75.1632,33.0548],[75.2049,33.0917],[75.2032,33.1458],[75.1598,33.163],[75.1587,33.199],[75.1257,33.2254],[75.0613,33.224],[74.9836,33.3034],[75.0253,33.3405],[75.0205,33.4847],[75.103,33.5948],[75.1,33.6849],[75.012,33.7371],[74.967,33.7903],[74.9658,33.8263],[74.9207,33.8794],[74.8769,33.8965],[74.8749,33.9505],[74.8409,33.9949],[74.6895,33.9912],[74.6672,34.0087]]]]}},{"type":"Feature","properties":{"cell":97,"feature":1346,"phase":"Decaying","min_bt_K":219.0,"area_km2":13724,"cold_core_km2":976,"speed_kmh":122.1,"heading_deg":137,"d_min_bt_30":4.1,"age_min":360,"family":3,"touches_missing":true,"lon":73.0166,"lat":30.9088,"merges_splits_so_far":9},"geometry":{"type":"MultiPolygon","coordinates":[[[[72.0314,31.6069],[72.0004,31.5965],[72.0095,31.4525],[71.9896,31.4336],[72.0099,31.1096],[72.0849,31.0859],[72.1853,31.1626],[72.2074,31.1455],[72.3111,31.168],[72.46,31.1382],[72.5839,30.9899],[72.6099,30.9008],[72.6646,30.8579],[72.7064,30.8595],[72.7522,30.7892],[72.9557,30.6978],[72.9585,30.6438],[73.0692,30.5217],[73.071,30.4856],[73.1787,30.4174],[73.1189,30.3611],[73.1225,30.289],[73.3056,30.1603],[73.4102,30.1459],[73.4965,30.0767],[73.5371,30.0961],[73.6018,30.0442],[73.6225,30.0449],[73.6417,30.0816],[73.6739,30.0556],[73.687,29.9929],[73.7369,30.0396],[73.7354,30.0756],[73.7761,30.095],[73.7738,30.149],[73.7307,30.1837],[73.8115,30.2405],[73.7676,30.2932],[73.7661,30.3292],[73.7969,30.3392],[73.8192,30.3039],[73.9232,30.3071],[73.951,30.3891],[74.073,30.465],[74.0902,30.5557],[74.0378,30.5632],[73.9767,30.5253],[73.9514,30.6328],[73.8803,30.5855],[73.9135,30.5414],[73.8602,30.5668],[73.8788,30.6215],[73.9197,30.6408],[73.8757,30.6936],[73.8936,30.7663],[73.8503,30.801],[73.8456,30.9092],[73.7681,31.0059],[73.7278,30.9686],[73.665,30.9665],[73.6517,31.0292],[73.5303,31.1605],[73.511,31.1238],[73.4791,31.1317],[73.4916,31.3126],[73.5328,31.332],[73.5311,31.3681],[73.4891,31.3667],[73.4848,31.4567],[73.452,31.4827],[73.4107,31.4632],[73.3056,31.4595],[73.2159,31.3571],[73.1976,31.3023],[73.1045,31.2718],[73.0051,31.1599],[72.9394,31.2115],[72.7935,31.1878],[72.7715,31.205],[72.7086,31.2025],[72.6646,31.2368],[72.6017,31.2343],[72.5257,31.2763],[72.5236,31.3123],[72.4012,31.4245],[72.2829,31.4646],[72.2686,31.5271],[72.1412,31.5396],[72.0314,31.6069]]]]}},{"type":"Feature","properties":{"cell":186,"feature":1329,"phase":"Decaying","min_bt_K":231.0,"area_km2":10940,"cold_core_km2":0,"speed_kmh":120.2,"heading_deg":89,"d_min_bt_30":5.8,"age_min":180,"family":168,"touches_missing":true,"lon":73.743,"lat":26.7457,"merges_splits_so_far":16},"geometry":{"type":"MultiPolygon","coordinates":[[[[73.9705,27.5291],[73.9202,27.5186],[73.9216,27.4825],[73.9634,27.4477],[73.9236,27.4284],[73.9243,27.4104],[73.9751,27.4029],[73.9862,27.3762],[73.9263,27.3563],[73.9276,27.3202],[73.8886,27.2829],[73.8913,27.2107],[73.8523,27.1734],[73.8544,27.1193],[73.8759,27.0839],[73.9169,27.0671],[73.9175,27.049],[73.8779,27.0298],[73.8853,26.8314],[73.9171,26.7872],[73.8451,26.8301],[73.8383,27.0104],[73.8765,27.0658],[73.855,27.1013],[73.814,27.118],[73.812,27.1721],[73.8516,27.1914],[73.8482,27.2816],[73.8879,27.3009],[73.8859,27.355],[73.8448,27.3718],[73.8831,27.4271],[73.9229,27.4464],[73.9118,27.4732],[73.7904,27.4693],[73.7695,27.4867],[73.7095,27.4667],[73.6802,27.4387],[73.6817,27.4026],[73.6921,27.3939],[73.7109,27.4307],[73.7514,27.432],[73.7625,27.4053],[73.7123,27.3946],[73.6156,27.2831],[73.5752,27.2817],[73.5169,27.2256],[73.4758,27.2422],[73.4272,27.1954],[73.4578,27.1874],[73.4795,27.1521],[73.3689,27.1392],[73.3951,26.9957],[73.3758,26.9769],[73.3803,26.8687],[73.3408,26.8493],[73.3833,26.7966],[73.3438,26.7772],[73.3476,26.687],[73.3893,26.6524],[73.3305,26.6142],[73.3365,26.4699],[73.298,26.4324],[73.3203,26.379],[73.2825,26.3235],[73.2847,26.2694],[73.3159,26.2434],[73.3351,26.2621],[73.4559,26.2483],[73.6002,26.1449],[73.7628,26.078],[73.9284,26.2006],[73.9064,26.2541],[73.9452,26.2914],[73.9232,26.3449],[73.9523,26.3729],[74.0943,26.323],[74.1544,26.3248],[74.186,26.2806],[74.1284,26.2067],[74.1309,26.1345],[74.0353,26.0052],[74.1654,26.0],[74.2338,26.0472],[74.2514,26.1199],[74.2908,26.1391],[74.2696,26.1746],[74.3278,26.2304],[74.3844,26.3404],[74.4239,26.3595],[74.4221,26.4137],[74.3311,26.4382],[74.2892,26.4912],[74.2078,26.525],[74.1799,26.461],[74.2303,26.4534],[74.2825,26.3917],[74.2315,26.4174],[74.1823,26.3888],[74.1805,26.443],[74.1398,26.4598],[74.1379,26.514],[73.9924,26.6541],[74.0008,26.6995],[74.0708,26.7106],[74.039,26.7548],[73.9988,26.7536],[73.9412,26.6796],[73.8822,26.6416],[73.8019,26.6391],[73.7708,26.6652],[73.7694,26.7013],[73.8581,26.7492],[73.9385,26.7518],[73.9456,26.8332],[73.9748,26.8612],[74.0163,26.8264],[74.076,26.8462],[74.193,26.958],[74.3138,26.9614],[74.3352,26.9259],[74.5767,26.9324],[74.5974,26.9149],[74.6066,26.9422],[74.5756,26.9685],[74.4145,26.9642],[74.3834,26.9905],[74.3816,27.0446],[74.4208,27.0818],[74.419,27.1359],[74.449,27.1457],[74.4582,27.1731],[74.4068,27.1987],[74.3463,27.1971],[74.2436,27.2484],[74.2209,27.3199],[74.1426,27.2454],[74.041,27.2605],[74.03,27.2872],[73.9889,27.304],[74.0189,27.314],[74.101,27.2803],[74.1615,27.2821],[74.1903,27.3281],[74.159,27.3542],[74.1199,27.317],[74.0482,27.3419],[74.0847,27.4513],[74.0136,27.4582],[73.9705,27.5291]]]]}},{"type":"Feature","properties":{"cell":192,"feature":1343,"phase":"Developing","min_bt_K":214.7,"area_km2":4200,"cold_core_km2":132,"speed_kmh":42.4,"heading_deg":59,"d_min_bt_30":-10.4,"age_min":150,"family":3,"touches_missing":true,"lon":73.5743,"lat":28.9782,"merges_splits_so_far":0},"geometry":{"type":"MultiPolygon","coordinates":[[[[73.531,29.3019],[73.47,29.2818],[73.4008,29.2162],[73.363,29.1427],[73.312,29.1319],[73.2627,29.085],[73.2241,29.0295],[73.23,28.9034],[73.3357,28.8349],[73.339,28.7629],[73.3807,28.7463],[73.3847,28.6562],[73.4591,28.5956],[73.562,28.581],[73.615,28.5377],[73.6385,28.4663],[73.7012,28.4322],[73.6815,28.4135],[73.7329,28.4062],[73.8018,28.4716],[73.7777,28.5611],[73.8968,28.6551],[73.8622,28.7532],[73.8037,28.6792],[73.7726,28.6872],[73.8516,28.7619],[73.8444,28.9422],[73.8854,28.9435],[73.9032,28.7545],[73.9109,28.8179],[73.9512,28.8372],[73.9477,28.9274],[73.9675,28.946],[73.9243,28.9988],[73.8825,29.0156],[73.8804,29.0696],[73.774,29.1565],[73.7718,29.2106],[73.7093,29.2266],[73.707,29.2807],[73.6758,29.2887],[73.6568,29.252],[73.6141,29.2867],[73.5523,29.2846],[73.531,29.3019]]]]}},{"type":"Feature","properties":{"cell":200,"feature":1335,"phase":"Developing","min_bt_K":232.0,"area_km2":6260,"cold_core_km2":0,"speed_kmh":36.7,"heading_deg":149,"d_min_bt_30":-0.3,"age_min":150,"family":200,"touches_missing":true,"lon":77.5956,"lat":31.3523,"merges_splits_so_far":3},"geometry":{"type":"MultiPolygon","coordinates":[[[[77.6825,32.0292],[77.6614,32.0111],[77.5344,32.0107],[77.524,31.9656],[77.4608,31.9292],[77.482,31.9113],[77.4401,31.857],[77.4614,31.821],[77.3775,31.7304],[77.3145,31.694],[77.3149,31.6399],[77.2313,31.5493],[77.2316,31.5132],[77.1899,31.4588],[77.2535,31.4051],[77.2329,31.3508],[77.2858,31.306],[77.3693,31.3786],[77.422,31.3518],[77.391,31.2705],[77.3069,31.2881],[77.1712,31.1881],[77.1927,31.1341],[77.1517,31.0256],[77.1731,30.9716],[77.2676,30.9271],[77.3091,30.9814],[77.351,30.9816],[77.4037,30.9188],[77.3623,30.8464],[77.4255,30.7745],[77.4778,30.7657],[77.4988,30.7297],[77.5197,30.7298],[77.5299,30.7749],[77.6133,30.8293],[77.613,30.9015],[77.6964,30.9919],[77.6963,31.028],[77.8218,31.1184],[77.8427,31.1545],[77.8634,31.371],[77.9474,31.4793],[77.9474,31.5334],[78.0105,31.5515],[78.0,31.6507],[77.9789,31.6327],[77.9157,31.6687],[77.7153,31.6775],[77.694,31.7496],[77.715,31.7857],[77.7782,31.8219],[77.7992,31.8761],[77.6825,32.0292]]]]}},{"type":"Feature","properties":{"cell":206,"feature":1342,"phase":"Developing","min_bt_K":213.6,"area_km2":6012,"cold_core_km2":252,"speed_kmh":74.9,"heading_deg":113,"d_min_bt_30":-14.6,"age_min":120,"family":168,"touches_missing":true,"lon":74.7622,"lat":28.827,"merges_splits_so_far":1},"geometry":{"type":"MultiPolygon","coordinates":[[[[74.6456,29.2447],[74.605,29.2256],[74.5228,29.2235],[74.5016,29.241],[74.4405,29.2213],[74.3508,29.1376],[74.3547,29.0295],[74.3155,28.9742],[74.3386,28.9027],[74.2592,28.8283],[74.2803,28.8108],[74.2612,28.7742],[74.3034,28.7393],[74.265,28.666],[74.3382,28.6229],[74.3469,28.6683],[74.3977,28.6787],[74.4095,28.6339],[74.3692,28.6148],[74.4411,28.6077],[74.4627,28.5722],[74.4931,28.582],[74.4913,28.6361],[74.5217,28.6459],[74.5538,28.6017],[74.5808,28.4038],[74.6227,28.3688],[74.6239,28.3328],[74.6751,28.325],[74.717,28.29],[74.819,28.2925],[74.8267,28.3739],[74.8654,28.447],[74.9366,28.4577],[74.9863,28.504],[74.9617,28.6478],[75.0509,28.7491],[75.1019,28.7592],[75.0909,28.7861],[75.0394,28.7939],[75.0989,28.8674],[75.0938,29.0478],[75.1238,29.0755],[75.2676,29.0786],[75.2566,29.1054],[75.2958,29.1784],[75.0591,29.1824],[75.0375,29.218],[74.9553,29.2161],[74.9152,29.1791],[74.8535,29.1776],[74.8113,29.2127],[74.6673,29.2092],[74.6456,29.2447]]],[[[74.6298,28.7841],[74.652,28.7305],[74.562,28.6651],[74.5304,28.6913],[74.5292,28.7274],[74.5596,28.7372],[74.5988,28.7923],[74.6298,28.7841]]]]}},{"type":"Feature","properties":{"cell":210,"feature":1300,"phase":"Unclassified","min_bt_K":235.1,"area_km2":6796,"cold_core_km2":0,"speed_kmh":79.9,"heading_deg":81,"d_min_bt_30":0.1,"age_min":120,"family":210,"touches_missing":true,"lon":76.5372,"lat":26.2739,"merges_splits_so_far":3},"geometry":{"type":"MultiPolygon","coordinates":[[[[77.0958,26.7211],[77.0355,26.7207],[76.9156,26.6475],[76.8753,26.6652],[76.7548,26.6642],[76.715,26.6277],[76.5946,26.6264],[76.5549,26.5899],[76.2934,26.6229],[76.264,26.5773],[76.2943,26.5687],[76.3149,26.5328],[76.2547,26.5321],[76.2352,26.4957],[76.1951,26.4951],[76.1556,26.4585],[76.0754,26.4573],[76.055,26.4751],[76.0254,26.4475],[76.0261,26.4114],[76.0668,26.3759],[76.0683,26.2856],[76.0289,26.2489],[76.0591,26.2404],[76.0695,26.2134],[75.9918,26.0858],[75.942,26.076],[75.8827,26.039],[75.8732,26.0117],[76.3027,26.0089],[76.3229,25.9911],[76.7222,25.9956],[76.7519,26.023],[76.7315,26.0589],[76.7408,26.1222],[76.8011,26.0867],[76.9611,26.07],[76.9909,26.0973],[76.9902,26.1695],[77.02,26.1969],[77.0601,26.1791],[77.2001,26.18],[77.1893,26.2973],[77.1289,26.3331],[77.1287,26.3692],[77.1885,26.4057],[77.1667,26.6403],[77.0958,26.7211]]],[[[76.2882,26.3068],[76.3384,26.2984],[76.3589,26.2625],[76.379,26.2628],[76.3985,26.2991],[76.4686,26.2909],[76.439,26.2635],[76.3592,26.2444],[76.3389,26.2623],[76.2789,26.2615],[76.2485,26.2882],[76.2882,26.3068]]],[[[76.5856,26.5451],[76.6164,26.4822],[76.7167,26.4832],[76.7363,26.5195],[76.7765,26.5199],[76.7868,26.4929],[76.7367,26.4834],[76.6971,26.4469],[76.6169,26.4461],[76.5973,26.4097],[76.5572,26.4093],[76.4778,26.3542],[76.4677,26.3632],[76.5372,26.4091],[76.5567,26.4454],[76.6067,26.455],[76.586,26.509],[76.5457,26.5266],[76.5554,26.5538],[76.5856,26.5451]]],[[[77.0862,26.6578],[77.0864,26.6398],[77.1267,26.622],[77.0968,26.5947],[77.0764,26.6307],[77.0162,26.6303],[76.9964,26.594],[76.9162,26.5934],[76.8764,26.5569],[76.8158,26.5925],[76.7659,26.5649],[76.8154,26.6286],[76.8359,26.5927],[76.8961,26.5932],[76.9158,26.6295],[76.9961,26.6301],[77.0159,26.6664],[77.0862,26.6578]]]]}},{"type":"Feature","properties":{"cell":226,"feature":1334,"phase":"Developing","min_bt_K":227.2,"area_km2":11224,"cold_core_km2":0,"speed_kmh":44.1,"heading_deg":89,"d_min_bt_30":-1.8,"age_min":90,"family":200,"touches_missing":true,"lon":78.1964,"lat":30.9787,"merges_splits_so_far":2},"geometry":{"type":"MultiPolygon","coordinates":[[[[78.4224,31.8124],[78.3802,31.8125],[78.3166,31.7586],[78.211,31.7227],[78.1054,31.6507],[78.0105,31.6417],[78.0105,31.5515],[77.9474,31.5334],[77.9474,31.4793],[77.8634,31.371],[77.8427,31.1545],[77.8218,31.1184],[77.6963,31.028],[77.6964,30.9919],[77.613,30.9015],[77.6133,30.8293],[77.5299,30.7749],[77.5406,30.7299],[77.7078,30.6943],[77.8227,30.5952],[77.8332,30.5502],[77.8749,30.5502],[77.9792,30.4961],[78.0208,30.5142],[78.0625,30.442],[78.1873,30.3878],[78.3122,30.4056],[78.3644,30.4505],[78.4169,30.5496],[78.4586,30.5675],[78.5837,30.567],[78.7721,30.6563],[78.8351,30.71],[78.919,30.7455],[78.9606,30.7272],[79.0138,30.826],[79.0144,30.8801],[78.9727,30.8985],[78.9736,30.9887],[79.0159,31.0244],[78.9224,31.1063],[78.8909,31.0975],[78.88,31.0525],[78.7959,31.0169],[78.7543,31.0533],[78.6703,31.0357],[78.6287,31.0719],[78.5868,31.0721],[78.5557,31.1354],[78.472,31.1718],[78.4512,31.208],[78.4515,31.2801],[78.4726,31.2981],[78.4732,31.4063],[78.4523,31.4425],[78.4945,31.4604],[78.4947,31.4965],[78.5263,31.5054],[78.537,31.5324],[78.4951,31.5867],[78.4749,31.7491],[78.4224,31.8124]]],[[[78.3233,30.6311],[78.3229,30.5048],[78.2917,30.4958],[78.2707,30.4598],[78.2816,30.6131],[78.3233,30.6311]]]]}},{"type":"Feature","properties":{"cell":227,"feature":1336,"phase":"Developing","min_bt_K":229.0,"area_km2":55032,"cold_core_km2":0,"speed_kmh":35.0,"heading_deg":107,"d_min_bt_30":0.6,"age_min":90,"family":3,"touches_missing":true,"lon":83.4028,"lat":32.1007,"merges_splits_so_far":15},"geometry":{"type":"MultiPolygon","coordinates":[[[[83.9981,34.0061],[83.932,33.991],[83.7157,34.0004],[83.5916,33.9244],[83.6314,33.8686],[83.6177,33.8241],[83.5109,33.8465],[83.4938,33.9194],[83.3642,33.9247],[83.3188,33.8904],[83.2314,33.8758],[83.1634,33.8243],[83.1202,33.826],[83.074,33.7736],[82.9455,33.7964],[82.8891,33.7534],[82.8871,33.7174],[82.9189,33.7072],[82.9385,33.6703],[83.0247,33.6671],[83.037,33.6937],[83.0698,33.7015],[83.0749,33.6021],[83.1568,33.5267],[83.1343,33.5096],[83.1312,33.4555],[83.0647,33.422],[83.0493,33.3413],[82.8234,33.3407],[82.8196,33.2686],[82.84,33.2498],[82.8176,33.2326],[82.8128,33.1425],[82.8955,33.0854],[82.8887,32.9593],[82.8412,32.8708],[82.8616,32.852],[82.8558,32.744],[82.802,32.7369],[82.7667,32.675],[82.7814,32.5481],[82.7157,32.5144],[82.7028,32.4697],[82.5974,32.4915],[82.4884,32.441],[82.4712,32.3063],[82.4491,32.289],[82.4448,32.1989],[82.4974,32.1881],[82.527,32.142],[82.5217,32.0339],[82.5716,31.9691],[82.5936,31.9863],[82.624,31.9582],[82.5901,31.9143],[82.5267,31.9165],[82.4937,31.8905],[82.4902,31.8185],[82.4471,31.8019],[82.4226,31.7305],[82.453,31.7024],[82.5365,31.6816],[82.5861,31.6167],[82.5827,31.5446],[82.5397,31.5281],[82.5143,31.4387],[82.5941,31.3458],[82.6125,31.291],[82.5226,31.1678],[82.5846,31.1476],[82.5821,31.0936],[82.6222,31.0561],[82.5786,31.0215],[82.5769,30.9855],[82.6371,30.9292],[82.6337,30.8572],[82.6537,30.8384],[82.6311,30.8031],[82.6912,30.7469],[82.6208,30.587],[82.699,30.4759],[82.6765,30.4407],[82.7996,30.4002],[82.8187,30.3634],[82.8117,30.2193],[82.8433,30.2271],[82.902,30.1528],[82.9435,30.1512],[82.9525,30.1238],[83.0526,30.0479],[83.0301,30.0126],[83.0391,29.9852],[83.1625,29.9624],[83.1959,30.0062],[83.1987,30.0603],[83.251,30.0672],[83.3014,30.0381],[83.3094,29.9927],[83.3508,29.991],[83.3804,29.9628],[83.3785,29.9267],[83.417,29.871],[83.3539,29.8556],[83.3237,29.6763],[83.3847,29.6558],[83.3818,29.6018],[83.4123,29.5915],[83.4605,29.5263],[83.4379,29.4912],[83.4566,29.4543],[83.3929,29.4208],[83.4508,29.3463],[83.4283,29.3111],[83.4774,29.2639],[83.5381,29.2434],[83.5802,29.2596],[83.6194,29.2219],[83.7458,29.2706],[83.7586,29.3151],[83.7097,29.3624],[83.6479,29.365],[83.5989,29.4123],[83.6019,29.4663],[83.5715,29.4766],[83.5234,29.5418],[83.5578,29.6035],[83.6403,29.6],[83.6955,29.6608],[83.7026,29.7868],[83.7559,29.8116],[83.7962,29.7918],[83.8039,29.7463],[83.8617,29.6716],[83.839,29.6365],[83.938,29.5599],[83.9153,29.5248],[83.9978,29.5211],[84.0042,29.6291],[83.9693,29.739],[83.991,29.756],[84.0094,30.062],[83.9897,30.0809],[84.0085,30.7298],[83.9711,30.8037],[83.9931,30.8207],[84.0099,31.0907],[83.9901,31.1096],[84.0104,31.4336],[83.9905,31.4525],[84.0099,31.7584],[83.99,31.7774],[84.0096,32.0833],[83.9896,32.1023],[84.0107,33.0759],[83.9905,33.0949],[84.0037,33.2928],[83.962,33.3128],[83.9644,33.3488],[83.8833,33.4246],[83.9274,33.4407],[83.888,33.4965],[83.9042,33.5771],[83.9346,33.5486],[83.9298,33.4766],[83.9716,33.4567],[83.925,33.4047],[83.9567,33.3942],[83.9757,33.3573],[84.0085,33.3648],[83.9895,33.4018],[84.0102,33.7077],[83.9898,33.7267],[83.9981,34.0061]]],[[[83.8458,30.8093],[83.9261,30.7516],[83.9447,30.7146],[83.9305,30.6521],[83.869,30.6729],[83.8206,30.7382],[83.8425,30.7553],[83.8249,30.8102],[83.8458,30.8093]]],[[[83.8137,30.9731],[83.8006,30.9286],[83.7708,30.9569],[83.8137,30.9731]]],[[[83.81,32.9585],[83.8065,32.9045],[83.784,32.8874],[83.8019,32.8325],[83.7783,32.7974],[83.8074,32.751],[83.7356,32.7993],[83.7806,32.8334],[83.7817,32.8514],[83.7401,32.8713],[83.7851,32.9054],[83.7886,32.9594],[83.81,32.9585]]],[[[83.8401,33.7514],[83.8808,33.7135],[83.8396,33.5799],[83.8091,33.6083],[83.8138,33.6803],[83.8581,33.6964],[83.8593,33.7144],[83.8174,33.7343],[83.8299,33.7608],[83.8401,33.7514]]],[[[83.8497,33.8954],[83.8371,33.8688],[83.8281,33.8963],[83.8497,33.8954]]]]}},{"type":"Feature","properties":{"cell":229,"feature":1338,"phase":"Developing","min_bt_K":231.0,"area_km2":6024,"cold_core_km2":0,"speed_kmh":50.6,"heading_deg":5,"d_min_bt_30":-0.4,"age_min":90,"family":3,"touches_missing":true,"lon":81.0878,"lat":32.2604,"merges_splits_so_far":6},"geometry":{"type":"MultiPolygon","coordinates":[[[[80.9235,32.7552],[80.8676,32.6752],[80.8141,32.6673],[80.802,32.6225],[80.737,32.5878],[80.7567,32.5332],[80.6918,32.4985],[80.6902,32.4444],[80.6145,32.4008],[80.4974,32.394],[80.5177,32.3575],[80.4289,32.2149],[80.4473,32.1063],[80.5212,32.0959],[80.6084,32.1844],[80.6932,32.1827],[80.7558,32.1453],[80.8199,32.162],[80.764,32.064],[80.8573,31.9989],[80.9414,31.979],[80.9928,31.9327],[81.0014,31.8694],[81.1384,31.8572],[81.1366,31.8031],[81.1571,31.7846],[81.1354,31.7671],[81.1336,31.713],[81.3337,31.6991],[81.388,31.7428],[81.39,31.7969],[81.3695,31.8155],[81.3708,31.8515],[81.4144,31.8865],[81.419,32.0127],[81.3991,32.0493],[81.4851,32.0831],[81.5131,32.2628],[81.418,32.2743],[81.3563,32.33],[81.2926,32.3316],[81.2655,32.4676],[81.1428,32.6149],[81.124,32.6875],[81.0722,32.7338],[80.9442,32.7367],[80.9235,32.7552]]]]}},{"type":"Feature","properties":{"cell":234,"feature":1337,"phase":"Developing","min_bt_K":229.1,"area_km2":50764,"cold_core_km2":0,"speed_kmh":207.0,"heading_deg":127,"d_min_bt_30":-4.2,"age_min":90,"family":3,"touches_missing":true,"lon":81.8085,"lat":32.6603,"merges_splits_so_far":11},"geometry":{"type":"MultiPolygon","coordinates":[[[[82.2853,33.9997],[81.3328,34.0087],[81.3105,33.9912],[80.5967,34.0069],[80.5845,33.9621],[80.6278,33.9612],[80.6056,33.9436],[80.604,33.8895],[80.5076,33.9184],[80.4839,33.8467],[80.4749,33.91],[80.5413,33.9629],[80.5423,33.999],[80.4885,34.009],[80.4337,33.9829],[80.362,33.7316],[80.3184,33.7143],[80.317,33.6602],[80.295,33.6425],[80.2936,33.5884],[80.3256,33.5789],[80.3807,33.623],[80.3821,33.6771],[80.4262,33.7124],[80.4272,33.7485],[80.5045,33.8102],[80.5787,33.7637],[80.5772,33.7096],[80.5104,33.6387],[80.5304,33.5842],[80.4399,33.4235],[80.4604,33.387],[80.3277,33.245],[80.3363,33.1637],[80.3482,33.2086],[80.3921,33.2439],[80.393,33.28],[80.4803,33.3325],[80.4813,33.3686],[80.5473,33.4215],[80.5593,33.4663],[80.5657,33.3129],[80.5437,33.2952],[80.5422,33.2411],[80.4759,33.1702],[80.4958,33.1157],[80.4525,33.0985],[80.4072,33.0091],[80.3635,32.9738],[80.4158,32.9277],[80.4381,32.9634],[80.63,32.9417],[80.6816,32.8776],[80.6597,32.8599],[80.6581,32.8059],[80.6144,32.7706],[80.6134,32.7346],[80.5266,32.6821],[80.5033,32.6104],[80.4597,32.5751],[80.487,32.4032],[80.6145,32.4008],[80.6902,32.4444],[80.6918,32.4985],[80.7567,32.5332],[80.737,32.5878],[80.802,32.6225],[80.8141,32.6673],[80.8676,32.6752],[80.9235,32.7552],[80.9442,32.7367],[81.0722,32.7338],[81.124,32.6875],[81.1428,32.6149],[81.1738,32.5871],[81.1964,32.6226],[81.3029,32.62],[81.3475,32.6731],[81.4114,32.6714],[81.4334,32.6889],[81.476,32.6878],[81.5276,32.6414],[81.5234,32.5332],[81.5632,32.46],[81.559,32.3518],[81.5152,32.3169],[81.4851,32.0831],[81.3991,32.0493],[81.419,32.0127],[81.4144,31.8865],[81.488,31.8756],[81.5391,31.8291],[81.5344,31.703],[81.5745,31.6478],[81.5718,31.5757],[81.675,31.5187],[81.6512,31.4472],[81.7245,31.4361],[81.8557,31.2971],[81.8528,31.225],[81.8311,31.2076],[81.8499,31.1529],[81.8066,31.1181],[81.8051,31.082],[81.7307,31.0571],[81.6713,31.1489],[81.6395,31.1408],[81.6591,31.1042],[81.6476,31.0774],[81.6382,31.1047],[81.5969,31.1239],[81.5976,31.1419],[81.6402,31.1588],[81.6409,31.1768],[81.5996,31.196],[81.6003,31.214],[81.643,31.2309],[81.603,31.2861],[81.6261,31.3396],[81.6905,31.3739],[81.6607,31.4199],[81.5637,31.3594],[81.5082,31.2797],[81.4777,31.3075],[81.479,31.3436],[81.4064,31.3725],[81.3746,31.3643],[81.3726,31.3102],[81.4134,31.2731],[81.3911,31.2376],[81.4311,31.1824],[81.4298,31.1464],[81.5314,31.0535],[81.5301,31.0175],[81.6017,30.9704],[81.6456,31.0234],[81.7374,30.9576],[81.7952,30.8297],[81.7722,30.7762],[81.7924,30.7576],[81.7903,30.7035],[81.8306,30.6663],[81.8458,30.5215],[82.0404,30.4345],[82.1445,30.4313],[82.1877,30.466],[82.2293,30.4647],[82.3382,30.5695],[82.3775,30.514],[82.4408,30.53],[82.57,30.6158],[82.6317,30.5956],[82.646,30.6763],[82.6894,30.7109],[82.6912,30.7469],[82.6311,30.8031],[82.6537,30.8384],[82.6337,30.8572],[82.6371,30.9292],[82.5778,31.0035],[82.5468,31.0136],[82.525,30.9963],[82.463,31.0164],[82.4413,30.9991],[82.4337,31.0625],[82.4035,31.0906],[82.3817,31.0733],[82.3322,31.138],[82.2911,31.1574],[82.2919,31.1754],[82.3346,31.1921],[82.2539,31.2669],[82.2563,31.3209],[82.2874,31.3109],[82.363,31.3536],[82.3319,31.3636],[82.2822,31.4284],[82.2871,31.5365],[82.2559,31.5465],[82.2441,31.5198],[82.2231,31.5205],[82.2458,31.5558],[82.2271,31.6106],[82.2498,31.6459],[82.3147,31.6799],[82.3602,31.7506],[82.3922,31.7586],[82.4125,31.7399],[82.4471,31.8019],[82.4902,31.8185],[82.5183,31.9619],[82.5614,31.9784],[82.5217,32.0339],[82.527,32.142],[82.4448,32.1989],[82.4491,32.289],[82.4712,32.3063],[82.4782,32.4504],[82.4578,32.4691],[82.491,32.4951],[82.5327,32.4756],[82.5974,32.4915],[82.6603,32.4712],[82.7814,32.5481],[82.7667,32.675],[82.7909,32.7283],[82.8558,32.744],[82.8616,32.852],[82.8412,32.8708],[82.8887,32.9593],[82.8955,33.0854],[82.8128,33.1425],[82.8176,33.2326],[82.84,33.2498],[82.8196,33.2686],[82.8234,33.3407],[82.8776,33.3477],[82.8898,33.3743],[82.9337,33.3908],[82.9143,33.4276],[82.9377,33.4628],[82.9192,33.5176],[82.9272,33.6617],[82.8523,33.6735],[82.8347,33.7463],[82.7916,33.7479],[82.7333,33.6687],[82.7696,33.5411],[82.6256,33.465],[82.5611,33.4672],[82.4684,33.5515],[82.4729,33.6416],[82.4222,33.7065],[82.3221,33.6466],[82.3083,33.5838],[82.2119,33.5959],[82.2144,33.65],[82.2377,33.6854],[82.3265,33.7367],[82.3292,33.7907],[82.3517,33.808],[82.3318,33.8448],[82.3552,33.8801],[82.3597,33.9702],[82.2853,33.9997]]]]}},{"type":"Feature","properties":{"cell":236,"feature":1339,"phase":"Unclassified","min_bt_K":232.0,"area_km2":5716,"cold_core_km2":0,"speed_kmh":21.7,"heading_deg":104,"d_min_bt_30":2.7,"age_min":90,"family":3,"touches_missing":true,"lon":75.761,"lat":32.7971,"merges_splits_so_far":1},"geometry":{"type":"MultiPolygon","coordinates":[[[[75.8325,33.2748],[75.7467,33.2734],[75.6618,33.2358],[75.6303,33.2082],[75.6318,33.1541],[75.5899,33.1173],[75.5908,33.0812],[75.5495,33.0263],[75.4754,32.9979],[75.4341,32.943],[75.3914,32.9421],[75.2981,32.8411],[75.2992,32.805],[75.2576,32.7681],[75.2614,32.6418],[75.2832,32.6243],[75.3082,32.4985],[75.2057,32.3701],[75.2383,32.3437],[75.3668,32.3102],[75.43,32.3295],[75.5125,32.4213],[75.6386,32.4777],[75.9147,32.5003],[76.1339,32.711],[76.1325,32.7832],[76.1744,32.8198],[76.1733,32.874],[76.2048,32.9014],[76.2371,32.8928],[76.215,32.9286],[76.2353,32.983],[75.9859,33.1329],[75.9305,33.2132],[75.8325,33.2748]]],[[[75.4556,32.5555],[75.4888,32.511],[75.5096,32.5294],[75.5734,32.5306],[75.5852,32.4857],[75.5323,32.4757],[75.5105,32.4934],[75.4477,32.4561],[75.3933,32.5002],[75.3705,32.5538],[75.4556,32.5555]]]]}},{"type":"Feature","properties":{"cell":238,"feature":1308,"phase":"Unclassified","min_bt_K":228.5,"area_km2":1664,"cold_core_km2":0,"speed_kmh":39.6,"heading_deg":18,"d_min_bt_30":-4.1,"age_min":60,"family":238,"touches_missing":true,"lon":72.2469,"lat":28.3629,"merges_splits_so_far":0},"geometry":{"type":"MultiPolygon","coordinates":[[[[72.2318,28.5656],[72.1113,28.5242],[72.0929,28.4873],[72.0306,28.5025],[72.025,28.421],[72.1106,28.3527],[72.0913,28.3338],[72.1584,28.2285],[72.3485,28.1104],[72.4337,28.0418],[72.4462,27.9972],[72.5709,27.9482],[72.6185,28.0134],[72.576,28.0477],[72.5723,28.1198],[72.5288,28.1722],[72.527,28.2082],[72.4,28.2931],[72.3885,28.5092],[72.336,28.5341],[72.3292,28.4706],[72.2213,28.3847],[72.2106,28.3932],[72.2883,28.4688],[72.2854,28.5229],[72.2542,28.5305],[72.2318,28.5656]]]]}},{"type":"Feature","properties":{"cell":263,"feature":1328,"phase":"Unclassified","min_bt_K":233.1,"area_km2":3668,"cold_core_km2":0,"speed_kmh":40.9,"heading_deg":67,"d_min_bt_30":2.7,"age_min":30,"family":210,"touches_missing":true,"lon":75.0236,"lat":26.2661,"merges_splits_so_far":3},"geometry":{"type":"MultiPolygon","coordinates":[[[[74.8492,26.56],[74.7689,26.5581],[74.7298,26.521],[74.6691,26.5375],[74.68,26.5107],[74.6404,26.4917],[74.6415,26.4556],[74.6025,26.4184],[74.5938,26.3731],[74.5727,26.4086],[74.5326,26.4076],[74.4914,26.4426],[74.4416,26.4322],[74.544,26.3627],[74.5051,26.3256],[74.5279,26.2359],[74.4821,26.0992],[74.5215,26.1183],[74.6025,26.0843],[74.6317,26.1122],[74.629,26.2024],[74.7182,26.2318],[74.7787,26.2152],[74.9227,26.0741],[75.0411,26.1311],[75.1424,26.0791],[75.2423,26.0813],[75.273,26.0548],[75.2538,26.0183],[75.2645,25.9914],[75.4641,25.9954],[75.5033,26.0323],[75.553,26.0423],[75.5511,26.1325],[75.5703,26.169],[75.6688,26.243],[75.6382,26.2696],[75.6185,26.2512],[75.5581,26.2681],[75.5001,26.1767],[75.4597,26.194],[75.4491,26.2209],[75.5083,26.2582],[75.4867,26.33],[75.5157,26.3757],[75.3367,26.318],[75.2656,26.3617],[75.2647,26.3978],[75.234,26.4242],[75.2148,26.3877],[75.1738,26.423],[75.0937,26.4212],[75.083,26.4481],[75.0326,26.456],[75.0116,26.4916],[74.9916,26.4911],[74.9138,26.399],[74.8738,26.3981],[74.862,26.461],[74.8913,26.4888],[74.9314,26.4898],[74.9407,26.5171],[74.8903,26.5249],[74.8492,26.56]]],[[[75.3682,26.2554],[75.3214,26.119],[75.3099,26.182],[75.269,26.2173],[75.3388,26.2277],[75.3482,26.255],[75.3682,26.2554]]],[[[75.246,26.3432],[75.3073,26.2903],[75.278,26.2626],[75.1663,26.3235],[75.1757,26.3508],[75.246,26.3432]]],[[[74.7664,26.2962],[74.7269,26.2771],[74.7361,26.3044],[74.7664,26.2962]]],[[[74.8204,26.5142],[74.8029,26.4235],[74.8239,26.3879],[74.9055,26.3356],[74.8963,26.3083],[74.866,26.3166],[74.7931,26.4142],[74.7227,26.4215],[74.7319,26.4488],[74.7921,26.4503],[74.8003,26.5137],[74.8204,26.5142]]]]}},{"type":"Feature","properties":{"cell":272,"feature":1341,"phase":"Unclassified","min_bt_K":215.2,"area_km2":12412,"cold_core_km2":108,"speed_kmh":71.6,"heading_deg":107,"d_min_bt_30":2.5,"age_min":30,"family":168,"touches_missing":true,"lon":75.371,"lat":28.4006,"merges_splits_so_far":2},"geometry":{"type":"MultiPolygon","coordinates":[[[[75.2882,29.079],[75.1238,29.0755],[75.0938,29.0478],[75.0989,28.8674],[75.0389,28.812],[75.0394,28.7939],[75.0909,28.7861],[75.1019,28.7592],[75.0509,28.7491],[74.9617,28.6478],[74.9863,28.504],[74.9366,28.4577],[74.8753,28.4563],[74.8267,28.3739],[74.83,28.2657],[74.9136,28.1955],[74.9167,28.0872],[74.8771,28.0502],[74.8787,27.9961],[74.8996,27.9785],[74.8808,27.9239],[74.9319,27.9161],[74.9948,27.8454],[75.076,27.8472],[75.1176,27.812],[75.1582,27.8129],[75.1804,27.7411],[75.2002,27.7596],[75.2412,27.7424],[75.2809,27.7794],[75.3417,27.7806],[75.3832,27.7453],[75.4237,27.7461],[75.4652,27.7108],[75.5467,27.6943],[75.617,27.7227],[75.6162,27.7588],[75.6751,27.8501],[75.674,27.9042],[75.7249,27.8961],[75.7947,27.9605],[75.774,27.9782],[75.7729,28.0323],[75.8428,28.0966],[75.9038,28.0976],[75.9235,28.134],[76.0463,28.0998],[76.0957,28.1817],[76.1759,28.2551],[76.1345,28.2906],[76.1332,28.3628],[76.1533,28.3811],[76.1122,28.3986],[76.1303,28.5252],[76.0376,28.5689],[75.9762,28.568],[75.9644,28.649],[75.9332,28.6756],[75.8718,28.6746],[75.8302,28.7101],[75.7483,28.7087],[75.7271,28.7444],[75.6861,28.7437],[75.5385,28.9215],[75.4879,28.8935],[75.5276,28.9484],[75.4962,28.9748],[75.4141,28.9733],[75.4237,29.0005],[75.3507,29.0442],[75.3096,29.0434],[75.2882,29.079]]]]}},{"type":"Feature","properties":{"cell":273,"feature":1345,"phase":"Developing","min_bt_K":218.0,"area_km2":13352,"cold_core_km2":428,"speed_kmh":14.2,"heading_deg":21,"d_min_bt_30":-1.0,"age_min":30,"family":3,"touches_missing":true,"lon":72.5002,"lat":30.2526,"merges_splits_so_far":2},"geometry":{"type":"MultiPolygon","coordinates":[[[[72.3111,31.168],[72.2703,31.1482],[72.2074,31.1455],[72.1853,31.1626],[72.0849,31.0859],[72.0419,31.102],[71.9901,31.0907],[72.0102,30.7667],[71.9904,30.7478],[72.0103,30.4239],[71.9906,30.4049],[72.0047,29.828],[72.0994,29.8052],[72.271,29.7045],[72.3536,29.708],[72.5277,29.5529],[72.6103,29.5563],[72.6328,29.5211],[72.674,29.5228],[72.6966,29.4876],[72.8194,29.5105],[72.831,29.4839],[72.9162,29.4331],[72.9297,29.3704],[72.9915,29.3728],[73.1305,29.4863],[73.1395,29.5137],[73.1171,29.5489],[73.1468,29.5771],[73.3523,29.6025],[73.4316,29.6775],[73.496,29.6256],[73.6191,29.6478],[73.6482,29.6938],[73.616,29.7198],[73.5953,29.7191],[73.5564,29.6637],[73.525,29.6717],[73.5655,29.6911],[73.583,29.7638],[73.5309,29.7711],[73.5118,29.7344],[73.4804,29.7423],[73.4764,29.8324],[73.4193,29.9478],[73.3679,29.9369],[73.3688,29.9189],[73.411,29.9024],[73.4118,29.8843],[73.3713,29.8649],[73.4151,29.8123],[73.3738,29.8108],[73.3514,29.8461],[73.3704,29.8829],[73.3481,29.9182],[73.3646,30.009],[73.2942,29.9614],[73.2627,29.9693],[73.2933,29.9794],[73.3024,30.0068],[73.1936,30.1112],[73.1468,30.2177],[73.1883,30.2193],[73.191,30.1652],[73.2333,30.1487],[73.2359,30.0947],[73.3124,30.0162],[73.343,30.0263],[73.3206,30.0616],[73.3164,30.1517],[73.2091,30.22],[73.1974,30.2467],[73.1351,30.2444],[73.1234,30.271],[73.0701,30.2961],[73.0077,30.2938],[72.9193,30.1912],[72.8886,30.181],[72.8443,30.2334],[72.7187,30.2465],[72.6752,30.2808],[72.5921,30.2775],[72.401,30.3417],[72.297,30.3373],[72.1757,30.4493],[72.133,30.4654],[72.1298,30.5194],[72.1693,30.5573],[72.165,30.6293],[72.265,30.7058],[72.3323,30.808],[72.4995,30.815],[72.5214,30.7979],[72.583,30.8185],[72.6268,30.7842],[72.7412,30.7978],[72.7393,30.8338],[72.6099,30.9008],[72.5839,30.9899],[72.4951,31.0765],[72.471,31.1296],[72.3111,31.168]]],[[[73.005,29.7252],[73.0059,29.7072],[72.9655,29.6876],[72.9682,29.6336],[72.9287,29.596],[72.9601,29.5882],[73.0148,29.5271],[73.03,29.4284],[72.9754,29.4895],[72.9727,29.5435],[72.9413,29.5514],[72.9081,29.5952],[72.9072,29.6132],[72.9476,29.6328],[72.9449,29.6868],[73.005,29.7252]]],[[[73.0912,29.6563],[73.1136,29.621],[73.1046,29.5936],[73.0113,29.5991],[73.0912,29.6563]]]]}},{"type":"Feature","properties":{"cell":280,"feature":1320,"phase":"Unclassified","min_bt_K":237.3,"area_km2":848,"cold_core_km2":0,"speed_kmh":null,"heading_deg":null,"d_min_bt_30":null,"age_min":0,"family":280,"touches_missing":false,"lon":78.7086,"lat":32.9407,"merges_splits_so_far":0},"geometry":{"type":"MultiPolygon","coordinates":[[[[78.6424,33.0924],[78.4812,32.9758],[78.5874,32.8671],[78.5977,32.8039],[78.7683,32.785],[78.8219,32.8118],[78.8012,32.884],[78.9091,32.9916],[78.9313,33.0636],[78.8778,33.073],[78.8133,33.0373],[78.7705,33.0376],[78.6424,33.0924]]]]}},{"type":"Feature","properties":{"cell":282,"feature":1322,"phase":"Unclassified","min_bt_K":242.0,"area_km2":300,"cold_core_km2":0,"speed_kmh":null,"heading_deg":null,"d_min_bt_30":null,"age_min":0,"family":282,"touches_missing":false,"lon":79.3581,"lat":33.2493,"merges_splits_so_far":0},"geometry":{"type":"MultiPolygon","coordinates":[[[[79.4605,33.3566],[79.4176,33.357],[79.3953,33.3031],[79.385,33.3303],[79.3317,33.3579],[79.2773,33.3133],[79.2983,33.277],[79.2761,33.2231],[79.3071,33.1416],[79.3713,33.141],[79.4039,33.1677],[79.4708,33.3294],[79.4605,33.3566]]]]}},{"type":"Feature","properties":{"cell":284,"feature":1327,"phase":"Unclassified","min_bt_K":219.6,"area_km2":4196,"cold_core_km2":48,"speed_kmh":null,"heading_deg":null,"d_min_bt_30":null,"age_min":0,"family":168,"touches_missing":true,"lon":72.4912,"lat":26.266,"merges_splits_so_far":2},"geometry":{"type":"MultiPolygon","coordinates":[[[[72.4214,26.4974],[72.261,26.4905],[72.2046,26.4158],[72.1436,26.4311],[72.1044,26.4113],[72.0977,26.3478],[72.0682,26.3375],[72.05,26.3005],[72.0386,26.3271],[72.0567,26.364],[72.0167,26.3622],[71.9986,26.3253],[72.0034,26.2352],[72.0243,26.2181],[72.0072,26.1631],[72.05,26.1108],[72.0747,26.0216],[72.106,25.996],[72.1555,26.0072],[72.1127,26.0595],[72.1099,26.1135],[72.1385,26.1419],[72.1785,26.1437],[72.2507,26.1017],[72.2317,26.0828],[72.3057,26.0048],[72.3855,26.0082],[72.4064,25.991],[72.8056,26.0074],[72.8344,26.0357],[72.8327,26.0717],[72.987,26.2042],[72.9646,26.2575],[72.9621,26.3116],[72.9814,26.3304],[72.9597,26.3657],[72.9293,26.3735],[72.8659,26.4433],[72.825,26.4598],[72.7248,26.4558],[72.703,26.491],[72.5226,26.4836],[72.4843,26.4459],[72.4624,26.4811],[72.4214,26.4974]]],[[[72.7837,26.2685],[72.7766,26.205],[72.7636,26.2677],[72.7837,26.2685]]],[[[72.9045,26.2552],[72.8757,26.227],[72.8245,26.252],[72.9045,26.2552]]],[[[72.7169,26.4103],[72.7699,26.3492],[72.7899,26.35],[72.8083,26.3869],[72.8596,26.3618],[72.8003,26.3414],[72.822,26.3061],[72.8133,26.2787],[72.802,26.3053],[72.7194,26.3562],[72.6977,26.3915],[72.6968,26.4095],[72.7169,26.4103]]]]}},{"type":"Feature","properties":{"cell":286,"feature":1331,"phase":"Unclassified","min_bt_K":229.4,"area_km2":1832,"cold_core_km2":0,"speed_kmh":null,"heading_deg":null,"d_min_bt_30":null,"age_min":0,"family":168,"touches_missing":true,"lon":74.4649,"lat":26.7086,"merges_splits_so_far":0},"geometry":{"type":"MultiPolygon","coordinates":[[[[74.5577,26.8958],[74.3162,26.8893],[74.2674,26.8428],[74.2687,26.8067],[74.2199,26.7601],[74.1797,26.759],[74.1317,26.6944],[74.1323,26.6763],[74.1834,26.6507],[74.2437,26.6525],[74.3556,26.6105],[74.2983,26.5186],[74.2995,26.4825],[74.3208,26.447],[74.3718,26.4213],[74.4319,26.423],[74.4611,26.4508],[74.4594,26.505],[74.4181,26.54],[74.4674,26.5684],[74.5672,26.5891],[74.6296,26.5185],[74.6887,26.5561],[74.7489,26.5576],[74.7679,26.5942],[74.8883,26.5971],[74.9294,26.5619],[74.9593,26.5717],[74.9583,26.6078],[74.9069,26.6517],[74.8065,26.6493],[74.7647,26.7025],[74.7246,26.7015],[74.7153,26.6741],[74.756,26.6571],[74.7262,26.6473],[74.6952,26.6736],[74.6833,26.7365],[74.5834,26.7159],[74.5725,26.7427],[74.5318,26.7597],[74.5306,26.7958],[74.5697,26.8329],[74.5577,26.8958]]]]}},{"type":"Feature","properties":{"cell":292,"feature":1348,"phase":"Unclassified","min_bt_K":213.3,"area_km2":19008,"cold_core_km2":1588,"speed_kmh":null,"heading_deg":null,"d_min_bt_30":null,"age_min":0,"family":3,"touches_missing":true,"lon":72.742,"lat":32.7136,"merges_splits_so_far":1},"geometry":{"type":"MultiPolygon","coordinates":[[[[72.6135,33.5809],[72.3349,33.5513],[72.2105,33.4738],[72.1245,33.47],[72.0349,33.5202],[72.0033,33.5098],[72.0095,33.0949],[71.9893,33.0759],[71.9965,32.968],[72.0191,32.9509],[71.9989,32.932],[72.0096,32.77],[72.0984,32.7198],[72.1445,32.6677],[72.1479,32.6137],[72.0036,32.5351],[72.0095,32.4451],[71.9894,32.4262],[72.013,32.3911],[71.9999,32.2642],[72.0335,32.2386],[72.0759,32.2405],[72.1106,32.197],[72.1653,32.1723],[72.3136,32.1787],[72.3571,32.1625],[72.3715,32.1],[72.4383,32.0486],[72.4415,31.9946],[72.5081,31.9433],[72.5113,31.8893],[72.6321,31.813],[72.7055,31.8249],[72.7035,31.861],[72.781,31.9903],[72.7578,32.0255],[72.8485,32.1103],[72.9131,32.0947],[72.9202,32.1581],[72.9939,32.17],[73.0132,32.2068],[73.1052,32.2733],[73.0802,32.3446],[73.0469,32.3704],[72.9721,32.3767],[73.0459,32.3884],[73.1169,32.4542],[73.115,32.4903],[73.2148,32.6202],[73.2101,32.7102],[73.2638,32.7031],[73.3677,32.7609],[73.5699,32.7768],[73.5886,32.8316],[73.5219,32.8835],[73.4738,32.9901],[73.5567,33.0471],[73.5514,33.1552],[73.5916,33.2106],[73.6336,33.2301],[73.588,33.2827],[73.5862,33.3187],[73.5303,33.362],[73.4678,33.3238],[73.4445,33.3591],[73.3595,33.3381],[73.2698,33.4072],[73.0131,33.3798],[72.9036,33.4117],[72.8586,33.4461],[72.7786,33.5242],[72.7652,33.5688],[72.6361,33.5637],[72.6135,33.5809]]],[[[72.789,32.2253],[72.7799,32.1978],[72.6548,32.1568],[72.6458,32.1293],[72.6892,32.113],[72.6388,32.0659],[72.6066,32.0736],[72.6479,32.0933],[72.6024,32.1456],[72.6528,32.1928],[72.7164,32.1953],[72.7355,32.2322],[72.789,32.2253]]],[[[72.8639,32.4086],[72.8871,32.3734],[72.878,32.346],[72.8547,32.3812],[72.8123,32.3796],[72.7718,32.3419],[72.7172,32.3668],[72.791,32.3787],[72.8102,32.4156],[72.8639,32.4086]]],[[[72.8781,32.5355],[72.869,32.5081],[72.8568,32.5347],[72.8781,32.5355]]]]}}]}