{"type":"FeatureCollection","features":[{"type":"Feature","properties":{"cell":186,"feature":1396,"phase":"Decaying","min_bt_K":232.0,"area_km2":7080,"cold_core_km2":0,"speed_kmh":63.8,"heading_deg":168,"d_min_bt_30":1.0,"age_min":210,"family":168,"touches_missing":true,"lon":73.8107,"lat":26.4642,"merges_splits_so_far":17},"geometry":{"type":"MultiPolygon","coordinates":[[[[73.8139,26.8562],[73.7965,26.7834],[73.7549,26.8182],[73.7147,26.8169],[73.696,26.7801],[73.6759,26.7795],[73.6544,26.8149],[73.6357,26.7782],[73.5352,26.7748],[73.5136,26.8102],[73.4727,26.8268],[73.4138,26.7887],[73.3565,26.7144],[73.2873,26.6849],[73.2896,26.6308],[73.4034,26.5535],[73.4331,26.5636],[73.4049,26.5175],[73.3551,26.5067],[73.3365,26.4699],[73.3581,26.4345],[73.3195,26.3971],[73.3232,26.3069],[73.344,26.2896],[73.3255,26.2528],[73.4106,26.1293],[73.4128,26.0752],[73.3743,26.0378],[73.4061,25.9937],[73.5059,25.9972],[73.5541,26.044],[73.532,26.0974],[73.5395,26.1609],[73.6195,26.1636],[73.7215,26.1127],[73.7408,26.1314],[73.8007,26.1334],[73.9845,26.0307],[74.1448,26.0175],[74.1739,26.0454],[74.1721,26.0996],[74.1914,26.1182],[74.1896,26.1723],[74.149,26.1892],[74.1472,26.2433],[74.1963,26.2719],[74.3364,26.2758],[74.3655,26.3037],[74.3644,26.3398],[74.334,26.348],[74.2406,26.4447],[74.2388,26.4988],[74.2783,26.518],[74.2916,26.4191],[74.3718,26.4213],[74.3924,26.4038],[74.4204,26.4678],[74.3797,26.4847],[74.3774,26.5569],[74.2662,26.5809],[74.2345,26.6251],[74.1834,26.6507],[74.1877,26.5245],[74.1354,26.5861],[74.1298,26.7485],[74.1493,26.7671],[74.0987,26.7747],[74.039,26.7548],[73.9975,26.7897],[73.9372,26.7878],[73.8555,26.8214],[73.8139,26.8562]]]]}},{"type":"Feature","properties":{"cell":192,"feature":1410,"phase":"Developing","min_bt_K":216.7,"area_km2":6664,"cold_core_km2":144,"speed_kmh":52.4,"heading_deg":67,"d_min_bt_30":2.0,"age_min":180,"family":3,"touches_missing":true,"lon":73.822,"lat":29.0705,"merges_splits_so_far":0},"geometry":{"type":"MultiPolygon","coordinates":[[[[73.6635,29.577],[73.5322,29.5095],[73.5345,29.4554],[73.4751,29.3993],[73.5187,29.3466],[73.4997,29.3099],[73.5646,29.2399],[73.525,29.2025],[73.5289,29.1124],[73.4886,29.0929],[73.4744,28.9481],[73.4441,28.938],[73.3956,28.8731],[73.4618,28.7671],[73.5885,28.6812],[73.6112,28.6278],[73.6423,28.6198],[73.6854,28.5671],[73.7482,28.533],[73.8503,28.5363],[73.894,28.4655],[74.037,28.4698],[74.0632,28.5879],[74.0223,28.5867],[74.0159,28.4872],[73.9835,28.5314],[74.04,28.6594],[74.009,28.6675],[73.9977,28.6943],[74.038,28.7135],[74.0458,28.7769],[74.069,28.7054],[74.1277,28.7794],[74.2195,28.791],[74.2163,28.8812],[74.2566,28.9004],[74.254,28.9725],[74.1686,29.0603],[74.2269,29.1522],[74.1964,29.1423],[74.1433,29.1859],[74.1413,29.24],[74.0562,29.3096],[74.0754,29.3463],[74.0442,29.3544],[74.0037,29.3351],[73.9916,29.3799],[73.939,29.4053],[73.885,29.4668],[73.9376,29.4414],[73.9781,29.4607],[74.0208,29.4259],[74.0613,29.4451],[74.1856,29.4307],[74.1942,29.4761],[74.1417,29.5016],[74.1224,29.465],[74.0364,29.5527],[73.8507,29.547],[73.7506,29.4716],[73.7376,29.5343],[73.6635,29.577]]],[[[74.096,28.8055],[74.0868,28.7781],[74.0755,28.8049],[74.096,28.8055]]]]}},{"type":"Feature","properties":{"cell":210,"feature":1395,"phase":"Unclassified","min_bt_K":234.4,"area_km2":5508,"cold_core_km2":0,"speed_kmh":50.0,"heading_deg":93,"d_min_bt_30":-0.6,"age_min":150,"family":210,"touches_missing":true,"lon":76.7871,"lat":26.2601,"merges_splits_so_far":3},"geometry":{"type":"MultiPolygon","coordinates":[[[[76.7944,26.7187],[76.7745,26.7005],[76.7142,26.6999],[76.6645,26.6542],[76.6947,26.6455],[76.7051,26.6185],[76.5461,26.4905],[76.5676,26.3823],[76.5082,26.3275],[76.5087,26.2914],[76.4788,26.282],[76.4585,26.2998],[76.3795,26.2266],[76.3,26.1895],[76.24,26.1887],[76.1806,26.1518],[76.1316,26.0879],[76.0526,26.0326],[76.0631,26.0056],[76.3027,26.0089],[76.3229,25.9911],[77.1514,26.0081],[77.1707,26.0986],[77.1407,26.1074],[77.1305,26.1344],[77.1703,26.1527],[77.1699,26.2069],[77.1292,26.297],[77.0991,26.3058],[77.0485,26.3686],[77.0785,26.3779],[77.0887,26.3509],[77.1491,26.3152],[77.1483,26.4235],[77.1983,26.4328],[77.248,26.4963],[77.2474,26.5866],[77.0962,26.6669],[77.056,26.6667],[77.0363,26.6304],[76.9958,26.6662],[76.9556,26.6659],[76.9352,26.7019],[76.8147,26.7008],[76.7944,26.7187]]],[[[76.6114,26.0758],[76.6018,26.0486],[76.5418,26.0479],[76.5223,26.0116],[76.4824,26.0111],[76.4619,26.047],[76.422,26.0465],[76.3916,26.0733],[76.4614,26.0831],[76.4819,26.0472],[76.5219,26.0477],[76.5613,26.0843],[76.6114,26.0758]]]]}},{"type":"Feature","properties":{"cell":226,"feature":1400,"phase":"Developing","min_bt_K":233.0,"area_km2":16300,"cold_core_km2":0,"speed_kmh":12.0,"heading_deg":39,"d_min_bt_30":5.8,"age_min":120,"family":200,"touches_missing":false,"lon":78.2362,"lat":31.0206,"merges_splits_so_far":3},"geometry":{"type":"MultiPolygon","coordinates":[[[[78.4017,31.9027],[78.3594,31.9028],[78.3486,31.8397],[78.2534,31.7948],[78.1688,31.7228],[78.0422,31.6868],[77.9368,31.5785],[77.9052,31.6056],[77.9262,31.6417],[77.9051,31.6597],[77.905,31.7499],[77.8733,31.7769],[77.7678,31.7768],[77.7047,31.7045],[77.6414,31.7043],[77.5783,31.6681],[77.5259,31.5867],[77.5261,31.5507],[77.5683,31.5328],[77.5685,31.4967],[77.5055,31.4604],[77.5057,31.4243],[77.4639,31.3881],[77.4438,31.2256],[77.4229,31.2075],[77.4443,31.1354],[77.382,31.0449],[77.3823,30.9908],[77.3091,30.9814],[77.2459,31.0352],[77.204,31.035],[77.1522,30.9715],[77.1105,30.9532],[77.1108,30.9171],[77.2474,30.8368],[77.3099,30.8732],[77.3732,30.7833],[77.415,30.7835],[77.4775,30.8198],[77.6029,30.8203],[77.6654,30.8565],[77.8538,30.7306],[77.9269,30.7216],[77.9687,30.5773],[78.0521,30.5412],[78.0729,30.5051],[78.0312,30.4691],[78.1145,30.4149],[78.1248,30.3698],[78.3329,30.3694],[78.3536,30.3513],[78.4786,30.387],[78.5205,30.441],[78.6354,30.5036],[78.6357,30.5397],[78.667,30.5486],[78.7091,30.6025],[78.7719,30.6382],[78.8554,30.6377],[78.866,30.6647],[78.9922,30.754],[79.0773,30.8977],[79.0777,30.9338],[79.0263,31.0153],[78.8379,31.0347],[78.7862,31.1162],[78.661,31.2071],[78.6613,31.2432],[78.6197,31.2975],[78.5462,31.3068],[78.4729,31.3522],[78.5576,31.4601],[78.5367,31.4783],[78.5581,31.5503],[78.5163,31.6046],[78.5375,31.6226],[78.5386,31.821],[78.4017,31.9027]]]]}},{"type":"Feature","properties":{"cell":227,"feature":1401,"phase":"Developing","min_bt_K":228.0,"area_km2":46960,"cold_core_km2":0,"speed_kmh":93.8,"heading_deg":7,"d_min_bt_30":-1.0,"age_min":120,"family":3,"touches_missing":true,"lon":83.4666,"lat":32.52,"merges_splits_so_far":16},"geometry":{"type":"MultiPolygon","coordinates":[[[[83.9981,34.0061],[83.932,33.991],[83.5211,34.0086],[83.3891,33.9779],[83.3767,33.9513],[83.3324,33.935],[83.3302,33.899],[83.2632,33.8655],[83.2126,33.7412],[83.1016,33.6913],[83.0975,33.6193],[82.8914,33.5999],[82.8351,33.5568],[82.8097,33.4855],[82.6526,33.3648],[82.6713,33.31],[82.6265,33.2754],[82.6573,33.2473],[82.7226,33.2631],[82.8045,33.1879],[82.879,33.1762],[82.8323,33.1057],[82.8275,33.0157],[82.8635,32.888],[82.8567,32.762],[82.8984,32.7424],[82.8233,32.7361],[82.7463,32.6938],[82.7426,32.6217],[82.8027,32.5474],[82.7472,32.5043],[82.6936,32.4971],[82.6881,32.3891],[82.6437,32.3545],[82.6356,32.1924],[82.6956,32.1181],[82.6302,32.0843],[82.5963,32.0404],[82.5539,32.0418],[82.542,32.0152],[82.5623,31.9964],[82.5588,31.9244],[82.6323,31.9128],[82.6829,31.8659],[82.6793,31.7939],[82.7409,31.7556],[82.7381,31.7016],[82.7977,31.6273],[82.7428,31.5841],[82.6686,31.5777],[82.687,31.523],[82.6651,31.5057],[82.6624,31.4516],[82.6296,31.4257],[82.5875,31.4272],[82.5573,31.4553],[82.559,31.4913],[82.5068,31.5021],[82.495,31.4755],[82.5152,31.4567],[82.4714,31.4221],[82.5429,31.3746],[82.6427,31.2629],[82.7477,31.2592],[82.7888,31.2396],[82.9401,31.1168],[82.9383,31.0808],[82.8955,31.0643],[82.9146,31.0275],[82.91,30.9375],[82.8018,30.8692],[82.8409,30.8137],[82.8382,30.7597],[82.8782,30.7221],[82.8138,30.6884],[82.8302,30.5975],[82.8801,30.5506],[83.0785,30.5522],[83.0766,30.5161],[83.1354,30.4417],[83.1325,30.3877],[83.1723,30.35],[83.1775,30.2506],[83.2398,30.2481],[83.298,30.3631],[83.3406,30.3794],[83.3435,30.4335],[83.3871,30.4678],[83.3474,30.5055],[83.3494,30.5415],[83.393,30.5758],[83.395,30.6118],[83.4894,30.617],[83.5112,30.6341],[83.542,30.6238],[83.5379,30.5518],[83.4496,30.4652],[83.4694,30.4464],[83.4466,30.4112],[83.404,30.3949],[83.4188,30.286],[83.3753,30.2517],[83.3733,30.2157],[83.2379,30.2121],[83.2053,30.1863],[83.2034,30.1503],[83.2845,30.111],[83.2826,30.075],[83.3221,30.0373],[83.3183,29.9653],[83.3568,29.9096],[83.3511,29.8015],[83.3294,29.7844],[83.3482,29.7475],[83.3049,29.7131],[83.3345,29.6849],[83.3561,29.7021],[83.4644,29.5984],[83.4624,29.5624],[83.5027,29.5426],[83.5381,29.4329],[83.6067,29.3668],[83.6597,29.3916],[83.6617,29.4276],[83.6431,29.4645],[83.6029,29.4843],[83.6089,29.5923],[83.5696,29.6301],[83.5529,29.703],[83.5224,29.7133],[83.4742,29.7784],[83.5372,29.7939],[83.551,29.8564],[83.6239,29.8624],[83.6063,29.9173],[83.6378,29.925],[83.6715,29.9686],[83.6745,30.0227],[83.6351,30.0604],[83.662,30.1676],[83.7373,30.2094],[83.9646,30.1813],[83.9832,30.1444],[83.9941,30.1529],[84.0099,31.0907],[83.9901,31.1096],[84.0104,31.4336],[83.9905,31.4525],[84.0099,31.7584],[83.99,31.7774],[84.0096,32.0833],[83.9896,32.1023],[84.0106,32.4262],[83.9905,32.4451],[84.0106,32.751],[83.9904,32.77],[84.0107,33.0759],[83.9905,33.0949],[84.0097,33.3828],[83.9895,33.4018],[84.0102,33.7077],[83.9898,33.7267],[83.9981,34.0061]]],[[[83.5881,30.3331],[83.6277,30.2954],[83.595,30.2697],[83.5326,30.2723],[83.5237,30.2997],[83.5881,30.3331]]],[[[83.1897,31.0712],[83.2087,31.0343],[83.153,30.9734],[83.1211,30.9656],[83.1192,30.9296],[83.0645,30.8865],[83.0027,30.9069],[83.0193,31.0236],[83.074,31.0666],[83.1359,31.0462],[83.1897,31.0712]]],[[[83.6526,31.0883],[83.7045,31.0771],[83.7233,31.0402],[83.7663,31.0564],[83.795,31.01],[83.697,30.9511],[83.6343,30.9538],[83.5019,31.0225],[83.5369,31.0842],[83.6526,31.0883]]],[[[83.6266,31.3601],[83.6465,31.3413],[83.6344,31.3147],[83.6035,31.325],[83.6056,31.361],[83.6266,31.3601]]],[[[83.106,31.4714],[83.1261,31.4526],[83.1141,31.426],[83.0721,31.4276],[83.042,31.4558],[83.0539,31.4824],[83.106,31.4714]]],[[[83.6594,31.5573],[83.6462,31.5127],[83.6173,31.5591],[83.6594,31.5573]]],[[[83.5943,32.5887],[83.5932,32.5707],[83.675,32.5131],[83.6303,32.4789],[83.6594,32.4325],[83.6079,32.4618],[83.6325,32.5149],[83.5719,32.5716],[83.573,32.5896],[83.5943,32.5887]]],[[[83.3771,32.8864],[83.3088,32.8169],[83.3483,32.7612],[83.3462,32.7252],[83.3025,32.7089],[83.276,32.6197],[83.2436,32.612],[83.2355,32.6574],[83.3036,32.7269],[83.3067,32.7809],[83.2651,32.8006],[83.3109,32.8529],[83.3771,32.8864]]]]}},{"type":"Feature","properties":{"cell":234,"feature":1402,"phase":"Developing","min_bt_K":228.2,"area_km2":31976,"cold_core_km2":0,"speed_kmh":64.1,"heading_deg":127,"d_min_bt_30":-0.9,"age_min":120,"family":3,"touches_missing":true,"lon":82.0805,"lat":32.4858,"merges_splits_so_far":15},"geometry":{"type":"MultiPolygon","coordinates":[[[[82.0309,33.6466],[81.8147,33.6349],[81.7366,33.574],[81.7329,33.4838],[81.7002,33.4757],[81.6106,33.388],[81.5461,33.3897],[81.4803,33.3553],[81.4394,33.4105],[81.3189,33.3504],[81.3605,33.3133],[81.3383,33.2958],[81.3343,33.1876],[81.5319,33.0292],[81.5416,33.0019],[81.4746,32.9314],[81.4898,32.7686],[81.4244,32.7343],[81.3984,32.6086],[81.3448,32.601],[81.2455,32.5042],[81.2442,32.4681],[81.2855,32.431],[81.2604,32.3234],[81.3022,32.3043],[81.2791,32.2508],[81.3106,32.241],[81.3305,32.2044],[81.3948,32.2208],[81.4762,32.1285],[81.5931,32.1344],[81.5903,32.0623],[81.5159,32.0553],[81.4613,32.0116],[81.4586,31.9395],[81.5398,31.8471],[81.5568,31.7384],[81.6181,31.6827],[81.616,31.6286],[81.7178,31.5356],[81.6954,31.5001],[81.7136,31.4274],[81.7644,31.3809],[81.7861,31.3983],[81.8275,31.3791],[81.8572,31.3331],[81.8687,31.0982],[81.9705,31.023],[81.9691,30.987],[82.0289,30.913],[82.0065,30.8776],[82.0251,30.8229],[82.0035,30.8055],[82.084,30.7309],[82.1034,30.6942],[82.081,30.6588],[82.1328,30.6482],[82.173,30.6108],[82.2147,30.6095],[82.254,30.5541],[82.2757,30.5715],[82.3382,30.5695],[82.4075,30.486],[82.5183,30.401],[82.5408,30.4364],[82.5824,30.4349],[82.6015,30.3982],[82.7056,30.3945],[82.7663,30.3562],[82.8079,30.3547],[82.882,30.3791],[82.8621,30.3979],[82.8838,30.4151],[82.8656,30.4699],[82.89,30.5412],[82.8302,30.5975],[82.8329,30.6516],[82.7956,30.7432],[82.7647,30.7533],[82.6955,30.837],[82.6981,30.891],[82.6781,30.9098],[82.7217,30.9443],[82.7234,30.9803],[82.5669,30.9948],[82.5024,30.961],[82.4421,31.0171],[82.4203,30.9998],[82.37,31.0466],[82.3322,31.138],[82.2911,31.1574],[82.2943,31.2295],[82.2539,31.2669],[82.2563,31.3209],[82.3202,31.3369],[82.3032,31.4277],[82.3251,31.445],[82.3552,31.6425],[82.3872,31.6505],[82.4319,31.7031],[82.6006,31.6974],[82.6208,31.6786],[82.6648,31.7132],[82.739,31.7196],[82.7409,31.7556],[82.6793,31.7939],[82.6829,31.8659],[82.6323,31.9128],[82.5588,31.9244],[82.5429,32.0332],[82.5963,32.0404],[82.6523,32.1016],[82.6437,32.3545],[82.6881,32.3891],[82.6936,32.4971],[82.7472,32.5043],[82.8027,32.5474],[82.7426,32.6217],[82.7463,32.6938],[82.8233,32.7361],[82.8984,32.7424],[82.8567,32.762],[82.8635,32.888],[82.8275,33.0157],[82.8323,33.1057],[82.879,33.1762],[82.8045,33.1879],[82.7226,33.2631],[82.6787,33.2466],[82.5724,33.2683],[82.3941,33.3555],[82.3761,33.4282],[82.4433,33.4802],[82.4177,33.6164],[82.2885,33.6206],[82.1791,33.5879],[82.0715,33.5913],[82.0309,33.6466]]],[[[82.407,30.9371],[82.4271,30.9184],[82.4021,30.829],[82.3486,30.8037],[82.3185,30.8317],[82.3434,30.9211],[82.376,30.9471],[82.407,30.9371]]],[[[81.92,31.8365],[81.9193,31.8185],[81.9607,31.7992],[81.9374,31.7458],[81.9577,31.7271],[81.9554,31.673],[81.9336,31.6557],[81.9524,31.601],[81.919,31.5569],[81.8471,31.6041],[81.8791,31.6122],[81.8907,31.6389],[81.8093,31.7134],[81.8122,31.7855],[81.8887,31.8464],[81.92,31.8365]]],[[[81.6955,32.0414],[81.6524,32.0245],[81.6641,32.0513],[81.6955,32.0414]]]]}},{"type":"Feature","properties":{"cell":238,"feature":1399,"phase":"Developing","min_bt_K":221.3,"area_km2":2384,"cold_core_km2":0,"speed_kmh":22.1,"heading_deg":69,"d_min_bt_30":-7.2,"age_min":90,"family":238,"touches_missing":true,"lon":72.3516,"lat":28.3994,"merges_splits_so_far":0},"geometry":{"type":"MultiPolygon","coordinates":[[[[72.3077,28.6773],[72.2775,28.6669],[72.2707,28.6034],[72.1655,28.653],[72.0995,28.5508],[72.122,28.5157],[72.127,28.4256],[72.1698,28.3914],[72.1718,28.3554],[72.134,28.2996],[72.1554,28.2825],[72.1584,28.2285],[72.2215,28.1951],[72.2332,28.1686],[72.2739,28.1703],[72.3165,28.1361],[72.459,28.1422],[72.4831,28.071],[72.582,28.1292],[72.689,28.2329],[72.6817,28.377],[72.6604,28.3942],[72.6781,28.449],[72.576,28.4449],[72.6196,28.3925],[72.5932,28.3102],[72.5779,28.4089],[72.5361,28.4252],[72.5742,28.4809],[72.512,28.4964],[72.5082,28.5684],[72.4683,28.5487],[72.4721,28.4767],[72.4429,28.4484],[72.4274,28.547],[72.4576,28.5573],[72.4664,28.5847],[72.3943,28.5907],[72.3749,28.5718],[72.3817,28.6353],[72.3301,28.6421],[72.3077,28.6773]]]]}},{"type":"Feature","properties":{"cell":263,"feature":1374,"phase":"Unclassified","min_bt_K":237.3,"area_km2":2552,"cold_core_km2":0,"speed_kmh":39.4,"heading_deg":62,"d_min_bt_30":4.1,"age_min":60,"family":210,"touches_missing":true,"lon":75.1978,"lat":26.3496,"merges_splits_so_far":3},"geometry":{"type":"MultiPolygon","coordinates":[[[[75.2884,26.6601],[75.2197,26.5955],[75.2411,26.5418],[75.0736,26.4208],[74.9925,26.455],[74.8029,26.4235],[74.9935,26.4189],[75.0853,26.3578],[75.0755,26.3486],[74.9954,26.3468],[74.9544,26.3819],[74.8542,26.3796],[74.8152,26.3425],[74.7844,26.3688],[74.8034,26.4054],[74.7731,26.4137],[74.7454,26.3318],[74.7064,26.2947],[74.769,26.2059],[74.8403,26.1625],[75.0402,26.1672],[75.1383,26.2416],[75.1988,26.2248],[75.3167,26.3176],[75.3768,26.3188],[75.4577,26.2843],[75.5087,26.2401],[75.5099,26.1859],[75.5405,26.1594],[75.5805,26.1602],[75.5993,26.2147],[75.699,26.2345],[75.708,26.2799],[75.6775,26.3064],[75.4871,26.3119],[75.4965,26.3392],[75.6567,26.3422],[75.676,26.3786],[75.7058,26.3882],[75.6847,26.442],[75.6136,26.4859],[75.5334,26.4844],[75.474,26.4471],[75.4434,26.4736],[75.5133,26.484],[75.5228,26.5113],[75.4724,26.5193],[75.4311,26.5727],[75.3111,26.5522],[75.2803,26.5787],[75.3,26.5972],[75.2884,26.6601]]]]}},{"type":"Feature","properties":{"cell":272,"feature":1409,"phase":"Unclassified","min_bt_K":218.7,"area_km2":23364,"cold_core_km2":184,"speed_kmh":48.7,"heading_deg":14,"d_min_bt_30":3.6,"age_min":60,"family":168,"touches_missing":true,"lon":75.4314,"lat":28.6138,"merges_splits_so_far":3},"geometry":{"type":"MultiPolygon","coordinates":[[[[74.9298,29.3779],[74.8068,29.357],[74.6973,29.237],[74.6779,29.2004],[74.6996,29.1649],[74.5992,29.0901],[74.5859,28.8732],[74.5461,28.8361],[74.5286,28.7454],[74.5918,28.6929],[74.6035,28.6481],[74.6853,28.6502],[74.7168,28.6239],[74.6607,28.46],[74.7236,28.4075],[74.7247,28.3714],[74.8085,28.3013],[74.8096,28.2652],[74.8614,28.2393],[74.8828,28.2038],[75.005,28.2066],[75.0467,28.1714],[75.1282,28.1732],[75.1595,28.1468],[75.1217,28.0377],[75.082,28.0007],[75.0854,27.8745],[75.1374,27.8305],[75.2998,27.8339],[75.3111,27.789],[75.3629,27.7449],[75.4242,27.7281],[75.4643,27.7469],[75.5657,27.7488],[75.6683,27.6965],[75.6886,27.6969],[75.7081,27.7333],[75.9109,27.7367],[75.9521,27.7013],[76.0129,27.7022],[76.0828,27.7664],[76.0622,27.7842],[76.0609,27.8563],[76.1002,27.9291],[76.0992,27.9833],[76.0786,28.001],[76.1173,28.1099],[76.2282,28.1746],[76.4929,28.1779],[76.5427,28.2596],[76.5422,28.2957],[76.6432,28.369],[76.6217,28.459],[76.5392,28.5123],[76.518,28.5662],[76.4456,28.6285],[76.3842,28.6278],[76.26,28.7164],[76.2087,28.7248],[76.2282,28.7792],[76.1863,28.8327],[76.1857,28.8688],[76.0916,28.9667],[76.0607,28.9753],[76.0391,29.0291],[75.9977,29.0466],[76.0377,29.1013],[76.0068,29.1099],[75.9855,29.1456],[75.8622,29.1437],[75.8013,29.1066],[75.7175,29.1774],[75.6558,29.1763],[75.6349,29.1939],[75.6042,29.1844],[75.5744,29.1387],[75.5128,29.1376],[75.4283,29.2262],[75.3872,29.2254],[75.2824,29.2954],[75.2628,29.2589],[75.0571,29.2545],[74.9298,29.3779]]]]}},{"type":"Feature","properties":{"cell":280,"feature":1392,"phase":"Unclassified","min_bt_K":239.0,"area_km2":552,"cold_core_km2":0,"speed_kmh":22.7,"heading_deg":31,"d_min_bt_30":1.7,"age_min":30,"family":280,"touches_missing":false,"lon":78.7713,"lat":33.0286,"merges_splits_so_far":0},"geometry":{"type":"MultiPolygon","coordinates":[[[[78.7501,33.164],[78.6535,33.1374],[78.6745,33.0832],[78.6528,33.0472],[78.6524,32.9931],[78.6737,32.975],[78.652,32.939],[78.6838,32.8937],[78.8549,32.9108],[78.9095,33.0277],[78.9098,33.0638],[78.7501,33.164]]]]}},{"type":"Feature","properties":{"cell":282,"feature":1393,"phase":"Developing","min_bt_K":239.2,"area_km2":420,"cold_core_km2":0,"speed_kmh":32.2,"heading_deg":39,"d_min_bt_30":-2.8,"age_min":30,"family":282,"touches_missing":false,"lon":79.4681,"lat":33.3614,"merges_splits_so_far":0},"geometry":{"type":"MultiPolygon","coordinates":[[[[79.5268,33.4641],[79.4408,33.465],[79.3864,33.4205],[79.4073,33.3842],[79.3855,33.3664],[79.3841,33.2762],[79.4365,33.1944],[79.4799,33.2301],[79.5228,33.2296],[79.5779,33.3101],[79.557,33.3464],[79.6006,33.382],[79.5268,33.4641]]]]}},{"type":"Feature","properties":{"cell":284,"feature":1408,"phase":"Developing","min_bt_K":214.8,"area_km2":4796,"cold_core_km2":164,"speed_kmh":33.1,"heading_deg":90,"d_min_bt_30":-4.8,"age_min":30,"family":168,"touches_missing":true,"lon":72.6567,"lat":26.2666,"merges_splits_so_far":3},"geometry":{"type":"MultiPolygon","coordinates":[[[[72.8183,26.604],[72.7982,26.6032],[72.7799,26.5663],[72.5592,26.5574],[72.4424,26.4803],[72.4014,26.4966],[72.3449,26.4219],[72.3048,26.4202],[72.2829,26.4554],[72.2533,26.445],[72.1597,26.3145],[72.1643,26.2244],[72.1853,26.2072],[72.188,26.1532],[72.3247,26.0237],[72.3647,26.0254],[72.4064,25.991],[72.7258,26.0043],[72.7928,26.0702],[72.7895,26.1423],[72.819,26.1525],[72.8327,26.0717],[72.7553,26.0145],[72.8456,26.009],[72.9039,26.0474],[72.9118,26.0929],[73.0189,26.1602],[73.0758,26.2346],[73.1543,26.2737],[73.264,26.2867],[73.2001,26.3747],[73.2178,26.4295],[73.1449,26.49],[73.1153,26.4799],[73.1064,26.4525],[73.0262,26.4495],[72.9211,26.5538],[72.8401,26.5687],[72.8183,26.604]]],[[[72.8662,26.2176],[72.8982,26.1736],[72.8261,26.216],[72.8662,26.2176]]],[[[72.7803,26.3406],[72.8012,26.3234],[72.8149,26.2426],[72.7845,26.2505],[72.7628,26.2857],[72.7603,26.3398],[72.7803,26.3406]]]]}},{"type":"Feature","properties":{"cell":286,"feature":1397,"phase":"Unclassified","min_bt_K":234.0,"area_km2":3608,"cold_core_km2":0,"speed_kmh":24.5,"heading_deg":339,"d_min_bt_30":4.7,"age_min":30,"family":168,"touches_missing":true,"lon":74.4207,"lat":26.8119,"merges_splits_so_far":1},"geometry":{"type":"MultiPolygon","coordinates":[[[[74.7335,27.0809],[74.6932,27.0799],[74.6741,27.0433],[74.5935,27.0412],[74.5722,27.0768],[74.4513,27.0736],[74.4421,27.0462],[74.5037,27.0118],[74.4335,27.0009],[74.4145,26.9642],[74.3742,26.9631],[74.3352,26.9259],[74.3144,26.9434],[74.1534,26.9388],[74.1137,26.9196],[73.9105,26.9676],[73.7632,26.8636],[73.8139,26.8562],[73.9372,26.7878],[73.9975,26.7897],[74.039,26.7548],[74.159,26.7764],[74.1731,26.6595],[74.2242,26.6339],[74.2662,26.5809],[74.327,26.5645],[74.3671,26.5657],[74.4061,26.6028],[74.4858,26.6231],[74.5438,26.6968],[74.5839,26.6979],[74.7879,26.5947],[74.9284,26.598],[75.0372,26.6637],[75.0166,26.6813],[75.0142,26.7716],[75.0726,26.8451],[75.0716,26.8812],[75.0515,26.8807],[75.0422,26.8535],[74.8812,26.8497],[74.8188,26.9205],[74.7796,26.8834],[74.7192,26.8819],[74.6882,26.9082],[74.6872,26.9443],[74.7062,26.9809],[74.7656,27.0185],[74.7335,27.0809]]],[[[74.6502,26.835],[74.661,26.8082],[74.7116,26.8005],[74.6936,26.7278],[74.6643,26.6999],[74.6513,26.7989],[74.61,26.834],[74.6502,26.835]]],[[[74.5703,26.8149],[74.5909,26.7974],[74.5231,26.7143],[74.4514,26.7576],[74.4996,26.8221],[74.5203,26.8046],[74.5398,26.8231],[74.5703,26.8149]]]]}},{"type":"Feature","properties":{"cell":292,"feature":1412,"phase":"Developing","min_bt_K":213.0,"area_km2":86968,"cold_core_km2":5132,"speed_kmh":250.5,"heading_deg":166,"d_min_bt_30":-0.3,"age_min":30,"family":3,"touches_missing":true,"lon":73.0514,"lat":31.6151,"merges_splits_so_far":10},"geometry":{"type":"MultiPolygon","coordinates":[[[[73.0801,33.7252],[73.0585,33.7244],[73.0287,33.6782],[73.0543,33.6069],[72.9507,33.5308],[72.9538,33.4768],[72.879,33.465],[72.8381,33.4273],[72.7726,33.4428],[72.7307,33.4231],[72.5483,33.2353],[72.484,33.2327],[72.4265,33.2934],[72.4017,33.3465],[72.4209,33.3834],[72.3757,33.4176],[72.3383,33.4973],[72.2953,33.4955],[72.2898,33.414],[72.2593,33.3856],[72.2366,33.4027],[72.1948,33.3828],[72.125,33.2986],[72.1488,33.2635],[72.1547,33.1735],[72.1356,33.1366],[72.0737,33.0978],[72.1212,33.0277],[72.1022,32.9907],[72.1259,32.9557],[72.1329,32.8477],[72.0926,32.8098],[72.1174,32.7568],[72.1019,32.6658],[72.1088,32.5578],[72.1548,32.5057],[72.1146,32.4679],[72.1605,32.4157],[72.2042,32.3996],[72.135,32.3154],[72.0925,32.3135],[72.0836,32.286],[72.0023,32.2282],[72.0104,32.1023],[71.9904,32.0833],[72.0099,31.1096],[71.9901,31.0907],[72.0102,30.7667],[71.9904,30.7478],[72.0103,30.4239],[71.9906,30.4049],[72.0103,30.0809],[71.9906,30.062],[72.0111,29.72],[72.0535,29.7039],[72.0871,29.6603],[72.1285,29.6621],[72.1512,29.627],[72.1925,29.6289],[72.2317,29.6667],[72.2642,29.641],[72.2565,29.5956],[72.3184,29.5982],[72.341,29.5631],[72.3823,29.5649],[72.4256,29.5306],[72.5709,29.5186],[72.6141,29.4843],[72.779,29.4909],[72.8839,29.4589],[72.9252,29.4605],[72.9843,29.5169],[73.0256,29.5185],[73.2061,29.6334],[73.2474,29.6349],[73.3539,29.7921],[73.493,29.9232],[73.489,30.0133],[73.4575,30.0213],[73.45,29.9578],[73.4094,29.9384],[73.4118,29.8843],[73.3704,29.8829],[73.3688,29.9189],[73.4085,29.9564],[73.406,30.0105],[73.3729,30.0544],[73.3413,30.0623],[73.3504,30.0897],[73.3811,30.0998],[73.3695,30.1265],[73.338,30.1344],[73.3471,30.1618],[73.3678,30.1625],[73.4011,30.1186],[73.3828,30.0638],[73.416,30.0198],[73.4467,30.0299],[73.4235,30.0832],[73.4533,30.1113],[73.5371,30.0961],[73.577,30.1336],[73.6732,30.0736],[73.6755,30.0195],[73.7293,29.9762],[73.8551,29.9441],[73.9379,29.9467],[73.9594,29.9293],[74.0629,29.9324],[74.1337,29.9796],[74.1423,30.025],[74.1838,30.0262],[74.1931,30.0535],[74.2339,30.0727],[74.3028,30.1739],[74.3852,30.1942],[74.3946,30.2215],[74.4959,30.2964],[74.4007,30.339],[74.3598,30.3198],[74.3168,30.3547],[74.2544,30.353],[74.167,30.4587],[74.1362,30.4488],[74.1383,30.3947],[74.1074,30.3848],[74.0952,30.4296],[74.1757,30.5041],[74.1096,30.5924],[74.1305,30.593],[74.1851,30.5314],[74.193,30.5948],[74.1708,30.6303],[74.055,30.6539],[74.011,30.7067],[73.9708,30.6694],[73.9592,30.6961],[74.0002,30.7154],[73.9887,30.7421],[73.926,30.7402],[73.9167,30.7129],[73.8959,30.7122],[73.9145,30.7669],[73.8038,30.9078],[73.8015,30.9619],[73.758,30.9966],[73.7564,31.0326],[73.7859,31.0787],[73.8278,31.08],[73.8682,31.1174],[73.9116,31.0826],[73.9326,31.0833],[73.9419,31.1106],[73.9202,31.128],[73.9055,31.2268],[73.8635,31.2255],[73.8518,31.2522],[73.82,31.2602],[73.8106,31.2328],[73.8542,31.1981],[73.8557,31.1621],[73.8247,31.1521],[73.8114,31.2148],[73.7687,31.2315],[73.8083,31.2869],[73.7857,31.3223],[73.7429,31.3389],[73.7178,31.4284],[73.738,31.4471],[73.7332,31.5552],[73.7729,31.6106],[73.7291,31.6452],[73.7494,31.6639],[73.7453,31.754],[73.7133,31.762],[73.7015,31.7887],[73.7327,31.7987],[73.7445,31.772],[73.7766,31.764],[73.8383,31.8021],[73.8837,31.7313],[74.054,31.7004],[74.0976,31.6656],[74.1602,31.6855],[74.2241,31.6693],[74.2649,31.7065],[74.2874,31.671],[74.2976,31.6803],[74.3173,31.717],[74.2744,31.7338],[74.294,31.7705],[74.2905,31.8606],[74.2468,31.8954],[74.3292,31.9519],[74.2848,32.0047],[74.2833,32.0408],[74.325,32.06],[74.3228,32.1141],[74.3645,32.1333],[74.3624,32.1873],[74.4048,32.1885],[74.402,32.2606],[74.3698,32.2687],[74.3582,32.2955],[74.3896,32.3053],[74.4116,32.2879],[74.4745,32.3076],[74.5973,32.4371],[74.6611,32.4387],[74.7751,32.5227],[74.7939,32.5953],[74.8255,32.6051],[74.8973,32.688],[74.8955,32.7421],[74.9577,32.7976],[74.9772,32.8522],[74.9522,32.9599],[74.9926,33.033],[74.9896,33.1231],[75.0104,33.1417],[74.9976,33.2045],[74.743,33.1264],[74.678,33.1428],[74.4424,33.1368],[74.3752,33.2071],[74.3324,33.206],[74.2658,33.2582],[74.2015,33.2564],[74.0799,33.3341],[74.0672,33.3789],[74.0243,33.3776],[73.758,33.5499],[73.5859,33.5443],[73.5634,33.5616],[73.5213,33.5422],[73.4558,33.558],[73.4465,33.5306],[73.4147,33.5205],[73.3913,33.5558],[73.3716,33.519],[73.3071,33.5168],[73.2866,33.498],[73.222,33.4957],[73.1996,33.5129],[73.179,33.4942],[73.0748,33.6257],[73.0943,33.6625],[73.0801,33.7252]]],[[[72.8646,32.0116],[72.8766,31.985],[72.9613,31.9883],[72.9733,31.9617],[72.8786,31.949],[72.8555,31.9842],[72.8243,31.974],[72.8152,31.9466],[72.7195,31.9518],[72.7286,31.9793],[72.8132,31.9826],[72.8646,32.0116]]],[[[72.8294,32.2629],[72.8415,32.2363],[72.9264,32.2396],[72.9616,32.1778],[72.9404,32.177],[72.9284,32.2036],[72.8435,32.2003],[72.787,32.2613],[72.8294,32.2629]]]]}},{"type":"Feature","properties":{"cell":304,"feature":1406,"phase":"Unclassified","min_bt_K":232.2,"area_km2":2628,"cold_core_km2":0,"speed_kmh":null,"heading_deg":null,"d_min_bt_30":null,"age_min":0,"family":304,"touches_missing":false,"lon":77.8232,"lat":33.8126,"merges_splits_so_far":0},"geometry":{"type":"MultiPolygon","coordinates":[[[[78.2812,33.9957],[77.5241,33.9952],[77.5242,33.9771],[77.5567,33.9682],[77.557,33.896],[77.5248,33.8689],[77.46,33.8686],[77.4278,33.8234],[77.45,33.7333],[77.407,33.715],[77.4072,33.6789],[77.3644,33.6427],[77.3648,33.5885],[77.322,33.5523],[77.3439,33.4982],[77.3975,33.5255],[77.4624,33.4717],[77.473,33.4988],[77.4512,33.5348],[77.4941,33.5711],[77.4724,33.589],[77.5689,33.6705],[77.612,33.6707],[77.6769,33.6167],[77.6984,33.6348],[77.8276,33.635],[77.8492,33.6531],[78.0215,33.6352],[78.1186,33.6983],[78.097,33.7163],[78.0972,33.8246],[78.1945,33.9237],[78.292,33.9686],[78.2812,33.9957]]]]}},{"type":"Feature","properties":{"cell":305,"feature":1407,"phase":"Unclassified","min_bt_K":234.0,"area_km2":10068,"cold_core_km2":0,"speed_kmh":null,"heading_deg":null,"d_min_bt_30":null,"age_min":0,"family":3,"touches_missing":true,"lon":81.4201,"lat":33.7175,"merges_splits_so_far":1},"geometry":{"type":"MultiPolygon","coordinates":[[[[82.4151,33.9955],[81.3328,34.0087],[81.3105,33.9912],[80.5102,34.0086],[80.4764,33.9641],[80.4975,33.9457],[80.496,33.8916],[80.5498,33.8815],[80.6178,33.9885],[80.6921,33.9419],[80.6694,33.9063],[80.6893,33.8517],[80.6672,33.8341],[80.6656,33.78],[80.6213,33.7448],[80.6634,33.7079],[80.5977,33.6731],[80.4853,33.5128],[80.5394,33.5208],[80.5619,33.5565],[80.605,33.5557],[80.6276,33.5913],[80.6706,33.5905],[80.7005,33.5087],[80.7529,33.4625],[80.8278,33.4519],[80.8691,33.3969],[80.865,33.2707],[80.843,33.2531],[80.8413,33.199],[80.7742,33.1102],[80.8478,33.0636],[80.9571,33.1334],[81.0324,33.1407],[81.0575,33.2484],[81.1127,33.2922],[81.2415,33.2891],[81.3253,33.233],[81.3605,33.3133],[81.3189,33.3504],[81.3521,33.3766],[81.4394,33.4105],[81.4803,33.3553],[81.5461,33.3897],[81.6106,33.388],[81.6446,33.4321],[81.7329,33.4838],[81.7366,33.574],[81.8147,33.6349],[82.0309,33.6466],[82.0715,33.5913],[82.2661,33.6032],[82.323,33.6646],[82.3257,33.7186],[82.3706,33.7533],[82.3283,33.7727],[82.3525,33.826],[82.312,33.8815],[82.3156,33.9536],[82.3493,33.9796],[82.4142,33.9774],[82.4151,33.9955]]]]}}]}