{"type":"FeatureCollection","features":[{"type":"Feature","properties":{"cell":186,"feature":1485,"phase":"Developing","min_bt_K":214.1,"area_km2":13664,"cold_core_km2":172,"speed_kmh":157.0,"heading_deg":32,"d_min_bt_30":-17.9,"age_min":240,"family":168,"touches_missing":true,"lon":74.2268,"lat":27.0661,"merges_splits_so_far":20},"geometry":{"type":"MultiPolygon","coordinates":[[[[74.4074,27.7945],[74.3877,27.7759],[74.3268,27.7743],[74.2181,27.6899],[74.1893,27.644],[74.1488,27.6428],[74.1403,27.5974],[74.101,27.5602],[74.1428,27.5253],[74.1049,27.4519],[74.1258,27.4345],[74.129,27.3443],[74.1707,27.3094],[74.0436,27.1883],[73.974,27.1591],[74.0267,27.0975],[74.119,27.0552],[74.1203,27.0191],[74.0612,26.9812],[74.0625,26.9451],[74.0137,26.8985],[73.9333,26.8961],[73.9145,26.8594],[73.8541,26.8575],[73.8353,26.8208],[73.7951,26.8195],[73.7535,26.8543],[73.6745,26.8156],[73.6141,26.8136],[73.5613,26.875],[73.5807,26.8937],[73.5563,27.0012],[73.6347,27.058],[73.6722,27.1315],[73.6416,27.1395],[73.6019,27.1201],[73.4795,27.1521],[73.3786,27.1486],[73.36,27.1118],[73.3197,27.1104],[73.298,27.1457],[73.2689,27.1176],[73.2781,26.9012],[73.3594,26.8861],[73.3692,26.6517],[73.4621,26.5917],[73.5417,26.6125],[73.5929,26.5871],[73.5839,26.5597],[73.5341,26.549],[73.5628,26.3333],[73.7133,26.3292],[73.8154,26.2783],[73.8955,26.2809],[73.9368,26.246],[74.0168,26.2485],[74.0684,26.2049],[74.0103,26.1489],[74.0122,26.0948],[73.9929,26.0762],[74.0431,26.0686],[74.1454,25.9994],[74.3845,26.0243],[74.4216,26.1156],[74.5706,26.1467],[74.569,26.2008],[74.6074,26.256],[74.5852,26.3277],[74.6241,26.3648],[74.6036,26.3824],[74.6014,26.4545],[74.531,26.4617],[74.5023,26.4158],[74.504,26.3617],[74.4553,26.3152],[74.425,26.3234],[74.4439,26.3601],[74.393,26.3858],[74.3821,26.4126],[74.5374,26.5793],[74.5351,26.6515],[74.5943,26.6891],[74.5915,26.7793],[74.6105,26.8159],[74.5583,26.8778],[74.5083,26.8674],[74.5289,26.8499],[74.5197,26.8226],[74.5088,26.8494],[74.4784,26.8576],[74.4703,26.7942],[74.4307,26.7751],[74.4324,26.7209],[74.4026,26.7111],[74.3911,26.7559],[74.4301,26.7931],[74.4272,26.8833],[74.3967,26.8915],[74.3778,26.8549],[74.3668,26.8817],[74.4145,26.9642],[74.4956,26.9484],[74.5146,26.985],[74.5549,26.986],[74.5941,27.0232],[74.6349,27.0062],[74.7231,27.0896],[74.7613,27.1628],[74.7406,27.1804],[74.7576,27.2891],[74.727,27.2974],[74.7188,27.234],[74.6785,27.233],[74.6774,27.2691],[74.7161,27.3242],[74.6539,27.3768],[74.6533,27.3948],[74.6932,27.4139],[74.5887,27.5195],[74.6275,27.5747],[74.5448,27.6267],[74.543,27.6808],[74.5123,27.689],[74.4074,27.7945]]],[[[74.243,26.3725],[74.2636,26.3551],[74.2551,26.3097],[74.2151,26.3085],[74.1635,26.3522],[74.1726,26.3795],[74.243,26.3725]]],[[[74.2145,26.6246],[74.2376,26.5349],[74.1902,26.4523],[74.178,26.5151],[74.1476,26.5233],[74.1367,26.5501],[74.1762,26.5693],[74.1743,26.6234],[74.2145,26.6246]]],[[[73.8531,26.6136],[73.8234,26.6037],[73.7659,26.5296],[73.6857,26.527],[73.6469,26.4896],[73.5965,26.4969],[73.6054,26.5243],[73.6656,26.5263],[73.6843,26.5631],[73.7645,26.5657],[73.8227,26.6217],[73.8531,26.6136]]],[[[73.7299,26.6819],[73.7618,26.6378],[73.651,26.6432],[73.6794,26.6893],[73.7299,26.6819]]],[[[73.7653,26.8095],[73.7563,26.7821],[73.7057,26.7895],[73.7147,26.8169],[73.7653,26.8095]]]]}},{"type":"Feature","properties":{"cell":192,"feature":1487,"phase":"Mature","min_bt_K":219.0,"area_km2":7232,"cold_core_km2":140,"speed_kmh":61.3,"heading_deg":76,"d_min_bt_30":2.3,"age_min":210,"family":3,"touches_missing":true,"lon":74.1279,"lat":29.1356,"merges_splits_so_far":2},"geometry":{"type":"MultiPolygon","coordinates":[[[[74.0101,29.6962],[73.9481,29.6943],[73.8976,29.6657],[73.9056,29.4675],[73.9689,29.4333],[73.971,29.3792],[73.9923,29.3618],[73.9753,29.2711],[73.915,29.2331],[73.9164,29.1971],[73.8867,29.1691],[73.8052,29.1485],[73.7656,29.1111],[73.694,29.0998],[73.6598,28.9362],[73.7251,28.8481],[73.728,28.776],[73.8213,28.752],[73.8531,28.7259],[73.8658,28.6631],[73.9272,28.665],[74.0005,28.6221],[74.008,28.4238],[74.0397,28.3977],[74.1424,28.3827],[74.2259,28.331],[74.2345,28.3763],[74.2128,28.4118],[74.2326,28.4304],[74.2102,28.4839],[74.2293,28.5206],[74.2082,28.538],[74.228,28.5567],[74.2261,28.6107],[74.1832,28.6637],[74.2202,28.773],[74.2407,28.7736],[74.2439,28.6834],[74.2037,28.6642],[74.2043,28.6462],[74.2459,28.6294],[74.2577,28.5846],[74.2657,28.648],[74.3351,28.7131],[74.3779,28.6601],[74.5316,28.6552],[74.4678,28.7257],[74.4641,28.8339],[74.5039,28.8711],[74.5027,28.9071],[74.4604,28.9421],[74.5201,28.9978],[74.499,29.0153],[74.4978,29.0514],[74.5382,29.0705],[74.514,29.1781],[74.5539,29.2153],[74.5721,29.2879],[74.5385,29.3683],[74.4754,29.4027],[74.4661,29.3754],[74.4355,29.3655],[74.3492,29.4714],[74.308,29.4703],[74.2761,29.4965],[74.2947,29.5511],[74.2628,29.5773],[74.2242,29.504],[74.2115,29.5668],[74.1682,29.6197],[74.1162,29.6272],[74.0942,29.6626],[74.0322,29.6608],[74.0101,29.6962]]]]}},{"type":"Feature","properties":{"cell":210,"feature":1467,"phase":"Developing","min_bt_K":232.8,"area_km2":10404,"cold_core_km2":0,"speed_kmh":75.6,"heading_deg":284,"d_min_bt_30":-1.6,"age_min":180,"family":210,"touches_missing":true,"lon":76.4198,"lat":26.3432,"merges_splits_so_far":5},"geometry":{"type":"MultiPolygon","coordinates":[[[[75.2836,26.8587],[75.2639,26.8402],[75.1231,26.8372],[74.9754,26.7165],[74.9872,26.6536],[75.0068,26.6721],[75.0773,26.6646],[75.0591,26.592],[75.1002,26.5568],[75.1025,26.4665],[74.9842,26.3916],[74.9856,26.3375],[74.927,26.282],[74.9305,26.1556],[75.0221,26.0945],[75.1002,26.1685],[75.1602,26.1698],[75.1988,26.2248],[75.2388,26.2257],[75.3206,26.1551],[75.4397,26.1936],[75.5373,26.3039],[75.6174,26.3053],[75.6589,26.2338],[75.6782,26.2703],[75.7986,26.2543],[75.8973,26.3282],[75.9374,26.3288],[75.9781,26.2933],[76.1176,26.3315],[76.1582,26.296],[76.218,26.3149],[76.2485,26.2882],[76.249,26.2521],[76.2096,26.2154],[76.2104,26.1612],[76.2408,26.1346],[76.3512,26.1089],[76.3117,26.0723],[76.3024,26.027],[76.2327,26.017],[76.3229,25.9911],[76.4326,26.0015],[76.4124,26.0193],[76.4114,26.0916],[76.4311,26.1099],[76.4301,26.1821],[76.4696,26.2187],[76.4494,26.2365],[76.4588,26.2818],[76.5588,26.2829],[76.66,26.1937],[76.76,26.1947],[76.8004,26.1589],[76.8603,26.1594],[76.8906,26.1326],[76.8512,26.0781],[76.8618,26.015],[76.8817,26.0151],[76.9212,26.0697],[76.9613,26.0519],[77.0409,26.0886],[77.101,26.071],[77.3407,26.0724],[77.4404,26.109],[77.4605,26.091],[77.5204,26.0913],[77.6206,26.0013],[77.8802,26.0018],[77.9301,26.0289],[77.8901,26.065],[77.8901,26.1192],[77.91,26.1734],[77.99,26.2095],[77.8999,26.3088],[77.8599,26.3088],[77.8498,26.3539],[77.7595,26.417],[77.7195,26.3808],[77.6795,26.3807],[77.6593,26.4168],[77.5391,26.4164],[77.4992,26.3802],[77.3991,26.3617],[77.3595,26.2893],[77.2794,26.2888],[77.2391,26.3247],[77.1791,26.3244],[77.1187,26.3601],[77.0386,26.3595],[76.9479,26.4221],[76.9667,26.5486],[76.8764,26.5569],[76.8164,26.5383],[76.8066,26.5111],[76.7369,26.4653],[76.5563,26.4815],[76.5167,26.445],[76.4167,26.4258],[76.3571,26.3889],[76.2967,26.4062],[76.2372,26.3693],[76.2169,26.3871],[76.117,26.3676],[76.0964,26.4034],[76.0566,26.3848],[76.0159,26.4203],[75.9758,26.4197],[75.9551,26.4555],[75.9252,26.446],[75.9157,26.4188],[75.8454,26.4267],[75.9643,26.5008],[75.964,26.5188],[75.9236,26.5363],[75.9123,26.5993],[75.8528,26.5622],[75.8335,26.5258],[75.7532,26.5244],[75.7138,26.4876],[75.6522,26.5588],[75.5322,26.5385],[75.481,26.5827],[75.5109,26.5923],[75.5302,26.6288],[75.5503,26.6292],[75.5711,26.5934],[75.6011,26.603],[75.5495,26.6653],[75.5093,26.6645],[75.42,26.6176],[75.4409,26.5819],[75.4315,26.5547],[75.3713,26.5535],[75.3406,26.5799],[75.3798,26.6168],[75.3491,26.6433],[75.3397,26.616],[75.3098,26.6064],[75.3384,26.6702],[75.288,26.6782],[75.2567,26.7227],[75.2862,26.7504],[75.3482,26.6794],[75.4765,26.7813],[75.4753,26.8354],[75.4257,26.8074],[75.3846,26.8427],[75.3041,26.841],[75.2836,26.8587]]],[[[76.6876,26.4017],[76.6878,26.3836],[76.728,26.3659],[76.6983,26.3385],[76.6583,26.3381],[76.6187,26.3016],[76.5581,26.3371],[76.5084,26.3094],[76.5577,26.3732],[76.5782,26.3373],[76.6382,26.3379],[76.6479,26.3651],[76.6173,26.41],[76.6876,26.4017]]],[[[75.3551,26.815],[75.4068,26.7528],[75.3867,26.7524],[75.3658,26.7881],[75.1343,26.7923],[75.1437,26.8196],[75.3551,26.815]]]]}},{"type":"Feature","properties":{"cell":226,"feature":1446,"phase":"Developing","min_bt_K":237.4,"area_km2":10800,"cold_core_km2":0,"speed_kmh":41.3,"heading_deg":98,"d_min_bt_30":4.4,"age_min":150,"family":200,"touches_missing":false,"lon":78.4501,"lat":30.9937,"merges_splits_so_far":3},"geometry":{"type":"MultiPolygon","coordinates":[[[[78.4644,31.7581],[78.3588,31.7404],[78.3375,31.7044],[78.232,31.7046],[78.211,31.7407],[78.1582,31.7138],[78.1582,31.6777],[78.116,31.6597],[78.1159,31.6056],[78.1475,31.5965],[78.158,31.5694],[78.0948,31.5515],[78.1157,31.4612],[78.0421,31.4523],[77.9685,31.4072],[77.9895,31.3711],[77.9685,31.2087],[77.9371,31.1817],[77.8636,31.1726],[77.8638,31.0643],[77.9058,31.0103],[77.9058,30.9742],[77.9477,30.9381],[77.9059,30.884],[77.9268,30.8479],[77.906,30.7938],[78.0313,30.6856],[78.0417,30.6405],[78.1564,30.5772],[78.1563,30.5231],[78.2292,30.532],[78.25,30.4959],[78.3125,30.4958],[78.3538,30.4055],[78.4371,30.4052],[78.4581,30.4412],[78.5203,30.4049],[78.5624,30.4769],[78.6665,30.4764],[78.7079,30.4401],[78.7705,30.4578],[78.8023,30.5208],[78.803,30.611],[78.8971,30.6374],[78.9497,30.6822],[78.9085,30.7366],[78.9088,30.7727],[79.024,30.7989],[79.0349,30.8439],[79.1403,30.9152],[79.1619,30.9691],[79.1629,31.0593],[79.1109,31.0868],[79.0689,31.0872],[79.0159,31.0244],[78.9421,30.9799],[78.9108,30.9891],[78.8902,31.0253],[78.9115,31.0613],[78.8701,31.1157],[78.8707,31.1878],[78.746,31.3329],[78.7255,31.4052],[78.6733,31.4506],[78.5471,31.4692],[78.4947,31.4965],[78.5159,31.5325],[78.5168,31.6948],[78.4644,31.7581]]],[[[78.3478,31.6232],[78.2949,31.5602],[78.2633,31.5693],[78.274,31.6324],[78.3478,31.6232]]]]}},{"type":"Feature","properties":{"cell":227,"feature":1477,"phase":"Developing","min_bt_K":228.0,"area_km2":20560,"cold_core_km2":0,"speed_kmh":117.2,"heading_deg":11,"d_min_bt_30":0.0,"age_min":150,"family":3,"touches_missing":true,"lon":83.5914,"lat":33.0378,"merges_splits_so_far":18},"geometry":{"type":"MultiPolygon","coordinates":[[[[83.9981,34.0061],[83.8659,33.9759],[83.8239,33.9958],[83.5211,34.0086],[83.4984,33.9915],[83.0659,34.0085],[83.0103,33.9835],[83.1358,33.9066],[83.1284,33.7805],[83.1705,33.7609],[83.1652,33.6708],[83.0308,33.5857],[83.0278,33.5317],[83.0688,33.494],[83.0616,33.368],[83.1035,33.3483],[83.1117,33.3029],[83.1546,33.3012],[83.2056,33.2541],[83.2239,33.1993],[83.1921,33.02],[83.1574,32.9763],[83.017,32.9545],[83.008,32.7925],[82.9837,32.7392],[82.9299,32.7322],[82.9067,32.697],[82.7139,32.6859],[82.6305,32.7249],[82.586,32.6903],[82.523,32.7105],[82.4692,32.7033],[82.511,32.6839],[82.5318,32.4576],[82.6612,32.4892],[82.725,32.487],[82.7657,32.4495],[82.8507,32.4464],[82.9802,32.4777],[83.0652,32.4745],[83.0855,32.4557],[83.1513,32.4892],[83.2364,32.4859],[83.282,32.5383],[83.3245,32.5366],[83.3479,32.5717],[83.3709,32.4174],[83.4325,32.3788],[83.5057,32.1773],[83.5359,32.149],[83.663,32.1436],[83.7076,32.1778],[83.7812,32.1656],[83.7745,32.0576],[83.7522,32.0405],[83.7667,31.9316],[83.7222,31.8975],[83.7189,31.8435],[83.6713,31.7553],[83.728,31.6446],[83.8289,31.568],[83.8234,31.478],[83.7548,31.3907],[83.7737,31.3538],[83.7628,31.1738],[83.7937,31.1635],[83.8224,31.1171],[83.7982,31.064],[83.8159,31.0091],[83.7928,30.974],[83.8523,30.9173],[83.8656,30.7903],[83.9151,30.743],[83.9777,30.7402],[84.0099,31.0907],[83.9901,31.1096],[84.0104,31.4336],[83.9905,31.4525],[84.0099,31.7584],[83.99,31.7774],[84.0096,32.0833],[83.9896,32.1023],[84.0106,32.4262],[83.9905,32.4451],[84.0106,32.751],[83.9904,32.77],[84.0107,33.0759],[83.9905,33.0949],[84.0097,33.3828],[83.9895,33.4018],[84.0102,33.7077],[83.9898,33.7267],[83.9981,34.0061]]]]}},{"type":"Feature","properties":{"cell":234,"feature":1474,"phase":"Developing","min_bt_K":230.0,"area_km2":26820,"cold_core_km2":0,"speed_kmh":90.5,"heading_deg":16,"d_min_bt_30":1.8,"age_min":150,"family":3,"touches_missing":true,"lon":82.2137,"lat":32.8782,"merges_splits_so_far":18},"geometry":{"type":"MultiPolygon","coordinates":[[[[82.5232,33.9918],[82.1339,34.0044],[82.0778,33.961],[82.0728,33.8529],[81.9599,33.748],[81.9328,33.6225],[81.9001,33.6144],[81.8586,33.6517],[81.8155,33.6529],[81.7524,33.6908],[81.7181,33.6467],[81.652,33.6124],[81.629,33.5769],[81.6424,33.3781],[81.6202,33.3606],[81.618,33.3066],[81.5515,33.2542],[81.5244,33.1106],[81.3849,33.1052],[81.2842,32.9904],[81.2823,32.9363],[81.3244,32.9172],[81.3224,32.8631],[81.4175,32.8337],[81.5111,32.7681],[81.487,32.6965],[81.5496,32.6588],[81.5468,32.5867],[81.6078,32.5129],[81.605,32.4408],[81.6461,32.4036],[81.6234,32.3681],[81.7239,32.221],[81.7012,32.1856],[81.7802,32.039],[81.8217,32.0198],[81.7984,31.9663],[81.8589,31.8924],[81.8574,31.8564],[81.9396,31.7998],[81.9374,31.7458],[82.0187,31.6712],[82.0781,31.5791],[82.1132,31.4157],[82.1521,31.3423],[82.2042,31.3316],[82.2337,31.2856],[82.2297,31.1955],[82.3011,31.1481],[82.3641,31.146],[82.3867,31.1814],[82.4286,31.18],[82.4613,31.2059],[82.463,31.242],[82.405,31.3522],[82.3638,31.3716],[82.3663,31.4256],[82.5026,31.412],[82.521,31.3573],[82.5538,31.3832],[82.5152,31.4567],[82.474,31.4762],[82.4765,31.5302],[82.3552,31.6425],[82.3585,31.7146],[82.3906,31.7225],[82.4133,31.7579],[82.4336,31.7392],[82.4657,31.7471],[82.4674,31.7831],[82.4269,31.8206],[82.4488,31.8379],[82.4514,31.8919],[82.5047,31.8992],[82.5597,31.9424],[82.5226,32.0519],[82.4405,32.1088],[82.4634,32.1441],[82.4016,32.1823],[82.4457,32.2169],[82.4509,32.325],[82.4127,32.4165],[82.5216,32.467],[82.511,32.6839],[82.4692,32.7033],[82.523,32.7105],[82.586,32.6903],[82.6518,32.7242],[82.7139,32.6859],[82.8205,32.6821],[82.8427,32.6993],[82.9067,32.697],[82.9299,32.7322],[82.9726,32.7306],[83.008,32.7925],[83.017,32.9545],[83.1574,32.9763],[83.2176,33.0912],[83.2056,33.2541],[83.1546,33.3012],[83.1117,33.3029],[83.1035,33.3483],[83.0616,33.368],[83.0688,33.494],[83.0288,33.5497],[82.956,33.5975],[82.7838,33.6038],[82.6565,33.6444],[82.5422,33.7295],[82.5477,33.8376],[82.5271,33.8564],[82.5496,33.8736],[82.5299,33.9104],[82.5543,33.9637],[82.5232,33.9918]]],[[[82.4,31.2441],[82.3883,31.2174],[82.3572,31.2274],[82.369,31.2541],[82.4,31.2441]]]]}},{"type":"Feature","properties":{"cell":238,"feature":1469,"phase":"Developing","min_bt_K":227.2,"area_km2":4236,"cold_core_km2":0,"speed_kmh":18.1,"heading_deg":90,"d_min_bt_30":5.9,"age_min":120,"family":238,"touches_missing":true,"lon":72.4441,"lat":28.3993,"merges_splits_so_far":0},"geometry":{"type":"MultiPolygon","coordinates":[[[[72.4061,28.7537],[72.2628,28.7475],[72.2346,28.7012],[72.1558,28.6435],[72.1384,28.5886],[72.0617,28.4949],[72.1056,28.4427],[72.1086,28.3887],[72.0892,28.3698],[72.1127,28.3167],[72.1661,28.2739],[72.2903,28.2433],[72.3553,28.1739],[72.4289,28.1319],[72.4462,27.9972],[72.6698,28.0064],[72.729,28.0449],[72.7705,28.0285],[72.8484,28.1038],[72.9094,28.1062],[72.9378,28.1524],[72.8901,28.295],[72.7837,28.3811],[72.7579,28.4883],[72.6958,28.5039],[72.7135,28.5588],[72.6912,28.594],[72.6494,28.6103],[72.668,28.6472],[72.5727,28.7065],[72.5425,28.6962],[72.5434,28.6782],[72.6085,28.6087],[72.5686,28.589],[72.5714,28.5349],[72.5315,28.5152],[72.5343,28.4612],[72.5654,28.4535],[72.577,28.4269],[72.5468,28.4166],[72.5283,28.3797],[72.4963,28.4055],[72.5361,28.4252],[72.4925,28.4775],[72.5305,28.5333],[72.5286,28.5693],[72.5676,28.607],[72.5444,28.6602],[72.5025,28.6765],[72.5406,28.7322],[72.4275,28.7365],[72.4061,28.7537]]],[[[72.6373,28.4474],[72.64,28.3933],[72.6817,28.377],[72.6845,28.3229],[72.7271,28.2885],[72.6872,28.2689],[72.6899,28.2149],[72.7466,28.0998],[72.7263,28.099],[72.6935,28.1428],[72.6908,28.1968],[72.6492,28.2132],[72.6474,28.2492],[72.6863,28.2869],[72.6854,28.3049],[72.6437,28.3213],[72.6409,28.3753],[72.6196,28.3925],[72.6169,28.4466],[72.6373,28.4474]]]]}},{"type":"Feature","properties":{"cell":272,"feature":1486,"phase":"Mature","min_bt_K":211.4,"area_km2":25180,"cold_core_km2":228,"speed_kmh":56.0,"heading_deg":65,"d_min_bt_30":-7.3,"age_min":90,"family":168,"touches_missing":true,"lon":75.6919,"lat":28.719,"merges_splits_so_far":4},"geometry":{"type":"MultiPolygon","coordinates":[[[[75.3601,29.4775],[75.2982,29.4762],[75.2786,29.4397],[75.2072,29.4112],[75.2082,29.3751],[75.1173,29.31],[75.0977,29.2735],[75.017,29.2175],[74.9352,29.1976],[74.8457,29.0962],[74.8274,29.0236],[74.767,28.9861],[74.7681,28.95],[74.7282,28.9129],[74.7698,28.8959],[74.813,28.8248],[74.7964,28.698],[74.839,28.6449],[74.8893,28.6732],[74.9407,28.6654],[74.803,28.4816],[74.8063,28.3734],[74.9,28.3125],[74.9716,28.3051],[75.0139,28.2519],[75.0264,28.171],[75.0666,28.1899],[75.0875,28.1723],[75.1272,28.2093],[75.1883,28.2106],[75.2092,28.193],[75.3105,28.2132],[75.3726,28.1783],[75.4336,28.1795],[75.4757,28.1262],[75.5268,28.1181],[75.5284,28.046],[75.4583,27.9995],[75.3766,28.016],[75.3571,27.9795],[75.2943,28.0504],[75.274,28.05],[75.2546,28.0135],[75.2139,28.0126],[75.1723,28.0478],[75.1222,28.0197],[75.1335,27.9748],[75.2356,27.9589],[75.3187,27.8884],[75.3386,27.9069],[75.3995,27.9081],[75.441,27.8728],[75.4816,27.8736],[75.5442,27.8026],[75.5848,27.8033],[75.6262,27.768],[75.687,27.7691],[75.7486,27.734],[75.7682,27.7705],[75.8493,27.7718],[75.9528,27.6652],[75.9927,27.7019],[76.1143,27.7037],[76.144,27.7492],[76.0615,27.8203],[76.0609,27.8563],[76.0912,27.8658],[76.1108,27.9022],[76.1921,27.9033],[76.2424,27.9311],[76.2613,28.0216],[76.3217,28.0585],[76.3404,28.167],[76.4104,28.2491],[76.4919,28.25],[76.5729,28.287],[76.6749,28.2881],[76.7152,28.3246],[76.8172,28.3256],[76.8879,28.3893],[76.8671,28.4253],[76.8657,28.5516],[76.8244,28.5873],[76.8025,28.7134],[76.7506,28.7761],[76.7097,28.7757],[76.6579,28.8203],[76.6572,28.8745],[76.5539,28.9275],[76.5739,28.9638],[76.5724,29.0721],[76.5927,29.0903],[76.5714,29.1442],[76.5199,29.1527],[76.416,29.2237],[76.3949,29.2595],[76.2917,29.2763],[76.2714,29.2579],[76.2097,29.2571],[76.1692,29.2205],[76.1281,29.2199],[76.0863,29.2554],[76.0039,29.2542],[75.9827,29.2899],[75.818,29.2873],[75.7982,29.2509],[75.7361,29.2679],[75.7163,29.2315],[75.6752,29.2308],[75.6638,29.2757],[75.5584,29.382],[75.5465,29.445],[75.5259,29.4446],[75.5062,29.4081],[75.4641,29.4434],[75.3816,29.4418],[75.3601,29.4775]]],[[[75.7826,28.5378],[75.8246,28.4844],[75.8254,28.4483],[75.716,28.3111],[75.5217,28.3346],[75.5191,28.4429],[75.5591,28.4797],[75.5683,28.525],[75.6292,28.5442],[75.7826,28.5378]]]]}},{"type":"Feature","properties":{"cell":280,"feature":1461,"phase":"Developing","min_bt_K":237.0,"area_km2":584,"cold_core_km2":0,"speed_kmh":25.7,"heading_deg":24,"d_min_bt_30":-2.0,"age_min":60,"family":280,"touches_missing":true,"lon":78.8275,"lat":33.1342,"merges_splits_so_far":0},"geometry":{"type":"MultiPolygon","coordinates":[[[[78.9234,33.3433],[78.8265,33.3169],[78.7615,33.2451],[78.7611,33.191],[78.7179,33.1551],[78.6958,33.065],[78.77,32.9835],[78.8556,32.9829],[78.9311,33.0456],[78.953,33.0995],[78.8897,33.1902],[78.8906,33.2804],[78.9337,33.2981],[78.9234,33.3433]]]]}},{"type":"Feature","properties":{"cell":282,"feature":1464,"phase":"Developing","min_bt_K":240.5,"area_km2":184,"cold_core_km2":0,"speed_kmh":23.6,"heading_deg":26,"d_min_bt_30":1.3,"age_min":60,"family":282,"touches_missing":false,"lon":79.5231,"lat":33.4572,"merges_splits_so_far":0},"geometry":{"type":"MultiPolygon","coordinates":[[[[79.5711,33.5357],[79.5065,33.5365],[79.4953,33.5095],[79.452,33.492],[79.4505,33.4018],[79.4823,33.3744],[79.5682,33.3734],[79.6009,33.4001],[79.6026,33.4902],[79.5711,33.5357]]],[[[79.5377,33.473],[79.5262,33.428],[79.4726,33.4376],[79.4841,33.4826],[79.5377,33.473]]]]}},{"type":"Feature","properties":{"cell":284,"feature":1484,"phase":"Developing","min_bt_K":218.3,"area_km2":7984,"cold_core_km2":100,"speed_kmh":81.4,"heading_deg":97,"d_min_bt_30":3.6,"age_min":60,"family":168,"touches_missing":true,"lon":73.0611,"lat":26.2243,"merges_splits_so_far":5},"geometry":{"type":"MultiPolygon","coordinates":[[[[73.3535,26.7865],[73.3133,26.7851],[73.2545,26.7469],[73.1324,26.7785],[73.1066,26.6783],[73.1371,26.6704],[73.1483,26.6437],[73.0985,26.6328],[73.0777,26.6501],[73.0102,26.5843],[73.0214,26.5577],[73.0704,26.5866],[73.023,26.5216],[72.9027,26.517],[72.8843,26.4802],[72.873,26.5068],[72.9011,26.553],[72.7397,26.5647],[72.6909,26.5357],[72.7135,26.4824],[72.6847,26.4542],[72.6062,26.4148],[72.5261,26.4115],[72.3694,26.3327],[72.3416,26.2863],[72.3826,26.27],[72.3959,25.9996],[72.8256,26.0082],[72.8464,25.991],[73.2656,26.0068],[73.27,26.1424],[73.2996,26.1525],[73.3085,26.1799],[73.2774,26.2059],[73.1974,26.203],[73.1543,26.2737],[72.9942,26.2677],[72.9558,26.2301],[72.9062,26.2191],[72.8982,26.1736],[72.8678,26.1815],[72.8662,26.2176],[72.8957,26.2277],[72.9141,26.2646],[72.9742,26.2669],[72.9926,26.3037],[73.1327,26.309],[73.1958,26.2391],[73.2959,26.2427],[73.347,26.2174],[73.3485,26.1813],[73.31,26.1438],[73.3122,26.0897],[73.293,26.071],[73.2952,26.0169],[73.3462,25.9916],[73.7854,26.0064],[73.8214,26.116],[74.0025,26.0855],[74.0103,26.1489],[74.0684,26.2049],[74.0168,26.2485],[73.9368,26.246],[73.8955,26.2809],[73.8154,26.2783],[73.7133,26.3292],[73.5628,26.3333],[73.5341,26.549],[73.4836,26.5563],[73.4517,26.6004],[73.3692,26.6517],[73.3535,26.7865]]],[[[73.5113,26.1148],[73.4638,26.0499],[73.3743,26.0378],[73.4039,26.0478],[73.4225,26.0846],[73.4824,26.0867],[73.5009,26.1234],[73.5113,26.1148]]],[[[73.5498,26.1522],[73.5409,26.1248],[73.5299,26.1515],[73.5498,26.1522]]],[[[73.6657,26.2644],[73.6767,26.2377],[73.7567,26.2403],[73.7677,26.2136],[73.6781,26.2016],[73.6567,26.2371],[73.5967,26.2351],[73.5877,26.2077],[73.5677,26.207],[73.6153,26.2718],[73.6657,26.2644]]],[[[72.6018,26.2973],[72.5931,26.2698],[72.4531,26.264],[72.4217,26.2897],[72.6018,26.2973]]],[[[72.6402,26.335],[72.6314,26.3075],[72.6201,26.3341],[72.6402,26.335]]],[[[72.7553,26.448],[72.7177,26.3923],[72.7699,26.3492],[72.8283,26.3877],[72.8917,26.3179],[72.83,26.3516],[72.7716,26.3132],[72.7081,26.3829],[72.6576,26.3899],[72.6663,26.4173],[72.7553,26.448]]],[[[73.3059,26.7216],[73.2762,26.7115],[73.2576,26.6748],[73.1668,26.6805],[73.1757,26.7079],[73.3059,26.7216]]]]}},{"type":"Feature","properties":{"cell":292,"feature":1491,"phase":"Developing","min_bt_K":214.0,"area_km2":30512,"cold_core_km2":4252,"speed_kmh":120.8,"heading_deg":349,"d_min_bt_30":1.0,"age_min":60,"family":3,"touches_missing":true,"lon":72.932,"lat":32.1501,"merges_splits_so_far":19},"geometry":{"type":"MultiPolygon","coordinates":[[[[72.9497,33.3594],[72.918,33.3491],[72.922,33.2771],[72.7048,33.1333],[72.6598,33.1676],[72.6395,33.1487],[72.5752,33.1461],[72.5346,33.1084],[72.4478,33.1229],[72.334,33.2264],[72.1663,32.9935],[72.171,32.9215],[72.1306,32.8837],[72.1341,32.8297],[72.1139,32.8107],[72.1445,32.6677],[72.1669,32.6506],[72.1468,32.6317],[72.1525,32.5417],[72.1022,32.4944],[72.0384,32.4915],[72.0307,32.4461],[71.9906,32.4082],[72.0104,32.1023],[71.9904,32.0833],[72.01,31.7774],[71.9901,31.7584],[72.002,31.2356],[72.0528,31.265],[72.2428,31.2553],[72.3414,31.3678],[72.4433,31.4263],[72.4853,31.428],[72.5505,31.3946],[72.6346,31.398],[72.7637,31.349],[72.8878,31.39],[72.9069,31.4268],[73.1391,31.4175],[73.2013,31.4378],[73.2516,31.4847],[73.259,31.5481],[73.3432,31.5511],[73.3568,31.4884],[73.3376,31.4516],[73.4689,31.3479],[73.4715,31.2939],[73.7214,31.1127],[73.7859,31.0787],[74.0576,31.1051],[74.064,31.2045],[74.1052,31.2238],[74.061,31.2766],[74.1023,31.2959],[74.0956,31.458],[74.0194,31.5189],[73.9562,31.517],[73.8541,31.4417],[73.8323,31.4591],[73.664,31.4537],[73.6001,31.4696],[73.5454,31.5129],[73.558,31.6938],[73.5343,31.7471],[73.4473,31.7983],[73.4878,31.8358],[73.4843,31.9078],[73.5452,31.964],[73.5426,32.018],[73.4655,32.0786],[73.3689,32.1023],[73.3662,32.1564],[73.4068,32.1939],[73.4151,32.2393],[73.5212,32.2429],[73.5831,32.281],[73.668,32.2838],[73.7088,32.3212],[73.7614,32.3319],[73.7385,32.3673],[73.7335,32.4754],[73.7924,32.5855],[73.7584,32.6296],[73.7158,32.6282],[73.6604,32.6715],[73.6544,32.7976],[73.5869,32.8676],[73.5576,33.029],[73.4144,33.1054],[73.3064,33.1197],[73.1702,33.2592],[72.9752,33.2881],[72.9497,33.3594]]],[[[73.0156,31.9633],[73.0809,31.9296],[73.0506,31.9014],[73.0055,31.9538],[72.9843,31.9531],[72.9651,31.9162],[72.9118,31.9232],[72.9209,31.9506],[73.0156,31.9633]]],[[[73.0281,32.1261],[73.0401,32.0995],[72.9131,32.0947],[72.8939,32.0579],[72.8616,32.0657],[72.9111,32.1307],[73.0281,32.1261]]]]}},{"type":"Feature","properties":{"cell":304,"feature":1481,"phase":"Unclassified","min_bt_K":232.2,"area_km2":2996,"cold_core_km2":0,"speed_kmh":8.8,"heading_deg":130,"d_min_bt_30":0.1,"age_min":30,"family":304,"touches_missing":false,"lon":77.8594,"lat":33.7869,"merges_splits_so_far":1},"geometry":{"type":"MultiPolygon","coordinates":[[[[78.2596,33.9958],[77.5673,33.9953],[77.5136,33.932],[77.514,33.8598],[77.5357,33.8418],[77.5151,33.6613],[77.5368,33.6253],[77.5907,33.6165],[77.6122,33.6346],[77.6554,33.6167],[77.7094,33.5717],[77.7095,33.5176],[77.7849,33.4726],[77.914,33.4728],[77.957,33.4908],[78.0,33.5449],[78.0861,33.563],[78.14,33.608],[78.1833,33.7343],[78.1834,33.7703],[78.1403,33.8065],[78.1621,33.8967],[78.2054,33.9507],[78.2704,33.9867],[78.2596,33.9958]]]]}},{"type":"Feature","properties":{"cell":305,"feature":1480,"phase":"Unclassified","min_bt_K":234.0,"area_km2":4160,"cold_core_km2":0,"speed_kmh":10.5,"heading_deg":298,"d_min_bt_30":0.0,"age_min":30,"family":3,"touches_missing":false,"lon":81.37,"lat":33.7396,"merges_splits_so_far":3},"geometry":{"type":"MultiPolygon","coordinates":[[[[81.6573,34.0002],[80.8668,33.9924],[80.8866,33.9378],[80.8422,33.9027],[80.9041,33.8112],[80.837,33.7404],[80.8347,33.6683],[80.9634,33.6475],[80.9616,33.5934],[80.9168,33.5402],[80.9126,33.414],[80.944,33.3862],[81.0532,33.4379],[81.0649,33.4647],[81.1861,33.5431],[81.2506,33.5415],[81.3777,33.4843],[81.6261,33.5048],[81.629,33.5769],[81.7412,33.6821],[81.7049,33.8455],[81.6647,33.9188],[81.6886,33.9723],[81.6573,34.0002]]],[[[81.1193,33.7883],[81.1174,33.7342],[81.0847,33.7259],[81.0533,33.7537],[81.0872,33.798],[81.1193,33.7883]]]]}},{"type":"Feature","properties":{"cell":313,"feature":1459,"phase":"Unclassified","min_bt_K":243.0,"area_km2":144,"cold_core_km2":0,"speed_kmh":null,"heading_deg":null,"d_min_bt_30":null,"age_min":0,"family":313,"touches_missing":false,"lon":79.7279,"lat":32.8334,"merges_splits_so_far":0},"geometry":{"type":"MultiPolygon","coordinates":[[[[79.7734,32.8837],[79.688,32.8848],[79.6551,32.8401],[79.707,32.7583],[79.7283,32.758],[79.7503,32.7938],[79.8039,32.8021],[79.805,32.8562],[79.7734,32.8837]]]]}},{"type":"Feature","properties":{"cell":316,"feature":1468,"phase":"Unclassified","min_bt_K":233.0,"area_km2":2500,"cold_core_km2":0,"speed_kmh":null,"heading_deg":null,"d_min_bt_30":null,"age_min":0,"family":210,"touches_missing":true,"lon":77.2322,"lat":26.5188,"merges_splits_so_far":1},"geometry":{"type":"MultiPolygon","coordinates":[[[[77.4163,26.9035],[77.3559,26.9032],[77.2858,26.8577],[77.2961,26.8126],[77.316,26.8488],[77.3965,26.8492],[77.3967,26.8131],[77.3162,26.8127],[77.2763,26.7764],[77.1958,26.7759],[77.176,26.7397],[77.1357,26.7575],[77.126,26.7123],[77.1463,26.6763],[77.0566,26.5944],[76.9964,26.594],[76.9666,26.5667],[76.9479,26.4221],[77.0386,26.3595],[77.1187,26.3601],[77.1791,26.3244],[77.2391,26.3247],[77.2794,26.2888],[77.3595,26.2893],[77.3692,26.3345],[77.4191,26.3618],[77.4589,26.4161],[77.5191,26.4164],[77.539,26.4525],[77.6692,26.462],[77.6391,26.489],[77.5388,26.4887],[77.5086,26.5156],[77.5285,26.5518],[77.4882,26.5878],[77.4881,26.6239],[77.5281,26.6421],[77.518,26.6692],[77.4577,26.6689],[77.4375,26.705],[77.3772,26.7047],[77.3573,26.6685],[77.3171,26.6683],[77.2772,26.6319],[77.2268,26.6587],[77.297,26.6682],[77.3169,26.7044],[77.3571,26.7046],[77.3971,26.7409],[77.4373,26.7411],[77.4475,26.714],[77.4776,26.7051],[77.5275,26.7866],[77.5877,26.8229],[77.5574,26.8679],[77.4769,26.8676],[77.4163,26.9035]]]]}},{"type":"Feature","properties":{"cell":321,"feature":1475,"phase":"Unclassified","min_bt_K":234.2,"area_km2":13192,"cold_core_km2":0,"speed_kmh":null,"heading_deg":null,"d_min_bt_30":null,"age_min":0,"family":3,"touches_missing":true,"lon":83.2065,"lat":31.383,"merges_splits_so_far":1},"geometry":{"type":"MultiPolygon","coordinates":[[[[82.8191,32.249],[82.713,32.2528],[82.6577,32.2097],[82.667,32.1823],[82.5407,32.2047],[82.4753,32.1708],[82.4414,32.1268],[82.4405,32.1088],[82.5226,32.0519],[82.5394,31.9611],[82.6755,31.9294],[82.7353,31.8551],[82.8097,31.8614],[82.8244,31.9421],[82.8667,31.9405],[82.9383,31.8928],[82.9336,31.8027],[82.8803,31.7957],[82.8675,31.751],[82.927,31.6767],[82.904,31.6414],[82.9625,31.549],[82.8216,31.473],[82.8005,31.4738],[82.741,31.5481],[82.6642,31.4877],[82.6844,31.4689],[82.6607,31.4156],[82.7311,31.35],[82.7741,31.3665],[82.8261,31.3556],[82.8453,31.3188],[82.8225,31.2835],[82.859,31.1739],[82.9665,31.0166],[83.0702,30.9946],[83.1797,31.0806],[83.2097,31.0523],[83.1878,31.0352],[83.1848,30.9811],[82.9672,30.8271],[82.9436,30.7738],[82.9735,30.7456],[83.058,30.7605],[83.1486,30.6938],[83.1676,30.657],[83.1448,30.6218],[83.1846,30.5841],[83.1907,30.5027],[83.3167,30.5157],[83.3871,30.4678],[83.3406,30.3794],[83.4198,30.304],[83.4554,30.1943],[83.4327,30.1591],[83.4278,30.0691],[83.4584,30.0588],[83.487,30.0125],[83.483,29.9405],[83.5028,29.9216],[83.4801,29.8865],[83.5106,29.8762],[83.549,29.8204],[83.6514,29.798],[83.684,29.8237],[83.6871,29.8777],[83.7295,29.894],[83.7434,29.9565],[83.7807,29.8827],[83.834,29.9074],[83.7958,29.9633],[83.7999,30.0353],[83.8523,30.042],[83.9068,30.0847],[83.91,30.1387],[83.8794,30.1491],[83.8706,30.1765],[83.9351,30.2097],[83.8968,30.2656],[83.8989,30.3016],[83.9426,30.3357],[83.9284,30.4447],[83.9941,30.4958],[84.0051,30.6758],[83.9876,30.7308],[83.8942,30.744],[83.8305,30.7287],[83.7909,30.7666],[83.6656,30.772],[83.6259,30.8098],[83.582,30.7755],[83.5403,30.7773],[83.5064,30.7336],[83.4636,30.7173],[83.4377,30.6281],[83.396,30.6298],[83.3811,30.7387],[83.3414,30.7764],[83.3642,30.8116],[83.3045,30.8681],[83.3294,30.9393],[83.2686,30.9778],[83.2915,31.013],[83.2725,31.0499],[83.3164,31.0842],[83.3194,31.1382],[83.3413,31.1554],[83.2704,31.2033],[83.2614,31.2308],[83.3154,31.2557],[83.3563,31.236],[83.4113,31.2789],[83.4134,31.3149],[83.4695,31.3757],[83.5305,31.3371],[83.5494,31.3002],[83.5824,31.3259],[83.5846,31.3619],[83.4426,31.458],[83.4436,31.4761],[83.553,31.5437],[83.4719,31.6012],[83.4941,31.6183],[83.4761,31.6732],[83.5204,31.7075],[83.5014,31.7444],[83.5246,31.7795],[83.3146,31.8061],[83.3429,31.9313],[83.365,31.9484],[83.3712,32.0565],[83.34,32.0667],[83.2806,32.1413],[83.1736,32.1275],[83.0707,32.1856],[83.0253,32.1331],[82.9185,32.1191],[82.8191,32.249]]],[[[83.6598,30.4925],[83.6983,30.4367],[83.6791,30.2841],[83.6484,30.2945],[83.6536,30.3845],[83.5714,30.406],[83.5765,30.496],[83.6598,30.4925]]],[[[83.2234,31.3044],[83.2414,31.2496],[83.1885,31.2427],[83.1594,31.2889],[83.1924,31.3147],[83.2234,31.3044]]],[[[83.1109,31.5615],[83.108,31.5074],[83.0759,31.4996],[83.031,31.4472],[82.9578,31.459],[82.9387,31.4958],[82.9717,31.5216],[83.0138,31.52],[83.0377,31.5733],[83.1109,31.5615]]],[[[83.0823,31.8152],[83.1025,31.7964],[83.0995,31.7423],[83.0252,31.7362],[83.018,31.7996],[83.0512,31.8254],[83.0823,31.8152]]]]}},{"type":"Feature","properties":{"cell":328,"feature":1489,"phase":"Unclassified","min_bt_K":219.2,"area_km2":26192,"cold_core_km2":404,"speed_kmh":null,"heading_deg":null,"d_min_bt_30":null,"age_min":0,"family":3,"touches_missing":true,"lon":72.8142,"lat":30.5195,"merges_splits_so_far":1},"geometry":{"type":"MultiPolygon","coordinates":[[[[72.4853,31.428],[72.4433,31.4263],[72.3414,31.3678],[72.2428,31.2553],[72.1909,31.244],[72.192,31.226],[72.2571,31.1927],[72.2813,31.1397],[72.2636,31.0847],[72.3086,31.0326],[72.2292,30.9569],[72.2324,30.9029],[72.1828,30.8556],[72.0365,30.8491],[72.0069,30.8207],[72.0102,30.7667],[71.9904,30.7478],[72.0146,30.6948],[71.9949,30.6758],[72.0103,30.4239],[71.9906,30.4049],[72.0047,29.828],[72.0808,29.7683],[72.1656,29.736],[72.2317,29.6667],[72.3763,29.6729],[72.5474,29.5718],[72.5915,29.5195],[72.6553,29.486],[72.6966,29.4876],[72.7359,29.5253],[72.7772,29.5269],[72.856,29.6022],[72.9179,29.6046],[72.9583,29.6242],[72.9772,29.661],[73.0194,29.6446],[73.058,29.7001],[73.1093,29.7111],[73.1075,29.7471],[73.1372,29.7753],[73.1786,29.7768],[73.2182,29.8143],[73.4259,29.8036],[73.4847,29.8778],[73.5468,29.8799],[73.5958,29.9447],[73.5643,29.9527],[73.5452,29.916],[73.5137,29.9239],[73.5535,29.9614],[73.5511,30.0154],[73.5296,30.0327],[73.5272,30.0868],[73.4849,30.1034],[73.4932,30.1488],[73.5247,30.1408],[73.5503,30.0334],[73.5826,30.0075],[73.6417,30.0816],[73.8506,30.0522],[73.8576,30.1336],[73.8353,30.169],[73.8553,30.1877],[73.8531,30.2418],[73.8315,30.2591],[73.827,30.3673],[73.7838,30.402],[73.7807,30.4741],[73.6958,30.5074],[73.6734,30.5428],[73.6686,30.6509],[73.5394,30.7368],[73.5486,30.7642],[73.6413,30.7943],[73.5536,30.8816],[73.5294,30.953],[73.3703,30.9927],[73.3031,31.0805],[73.2394,31.0963],[73.1948,31.1488],[73.1319,31.1465],[73.0963,31.2264],[72.9107,31.3548],[72.7637,31.349],[72.6986,31.3826],[72.5505,31.3946],[72.4853,31.428]]],[[[73.0815,29.8544],[73.0833,29.8184],[73.0428,29.7988],[73.0455,29.7448],[73.0149,29.7346],[72.979,29.8325],[73.032,29.8075],[73.0402,29.8529],[73.0815,29.8544]]],[[[72.36,30.5114],[72.362,30.4754],[72.3313,30.4651],[72.3183,30.5096],[72.36,30.5114]]],[[[72.2912,30.6167],[72.3131,30.5996],[72.3063,30.5362],[72.2745,30.5438],[72.2922,30.5987],[72.2495,30.6149],[72.2912,30.6167]]]]}}]}