{"type":"FeatureCollection","features":[{"type":"Feature","properties":{"cell":186,"feature":1569,"phase":"Mature","min_bt_K":214.4,"area_km2":13152,"cold_core_km2":1568,"speed_kmh":125.4,"heading_deg":42,"d_min_bt_30":0.3,"age_min":270,"family":168,"touches_missing":true,"lon":74.6539,"lat":27.484,"merges_splits_so_far":20},"geometry":{"type":"MultiPolygon","coordinates":[[[[74.704,28.055],[74.6644,28.0179],[74.6226,28.0529],[74.5412,28.0508],[74.5221,28.0142],[74.4605,28.0306],[74.3915,27.9656],[74.3945,27.8754],[74.3754,27.8388],[74.258,27.7091],[74.2428,27.5643],[74.2845,27.5294],[74.2667,27.4566],[74.3103,27.3676],[74.2527,27.2757],[74.213,27.2565],[74.2406,27.0406],[74.1521,26.9749],[74.0722,26.9544],[74.0339,26.8991],[73.9554,26.8426],[73.8652,26.8307],[73.9489,26.743],[73.8789,26.7318],[73.8498,26.7038],[73.8615,26.6591],[73.9431,26.6255],[74.0636,26.6291],[74.083,26.6478],[74.164,26.6321],[74.1834,26.6507],[74.2437,26.6525],[74.3045,26.6361],[74.3258,26.6006],[74.4049,26.6389],[74.507,26.5875],[74.5471,26.5886],[74.6258,26.6448],[74.6659,26.6458],[74.6849,26.6824],[74.7251,26.6834],[74.7833,26.7571],[74.8333,26.7673],[74.7507,26.8375],[74.7394,26.8824],[74.7002,26.8453],[74.6893,26.8721],[74.6589,26.8804],[74.6513,26.7989],[74.5725,26.7427],[74.5742,26.6886],[74.534,26.6875],[74.5329,26.7236],[74.6111,26.7979],[74.6083,26.8881],[74.5675,26.9051],[74.6044,27.0144],[74.6447,27.0154],[74.6458,26.9794],[74.6061,26.9603],[74.6181,26.8974],[74.7171,26.9541],[74.7595,26.8829],[74.8198,26.8844],[74.8291,26.9117],[74.7878,26.9468],[74.8379,26.957],[74.8694,26.9127],[74.791,26.8385],[74.8018,26.8117],[74.842,26.8127],[74.9288,26.9502],[75.087,27.0621],[75.0462,27.0792],[75.0447,27.1334],[75.0846,27.1523],[75.062,27.2421],[75.1709,27.3257],[75.2616,27.3367],[75.1992,27.4076],[75.1978,27.4617],[75.1771,27.4793],[75.1959,27.5339],[75.0908,27.676],[75.1309,27.6949],[75.1393,27.7583],[75.1804,27.7411],[75.1997,27.7777],[75.2809,27.7794],[75.3106,27.8071],[75.2696,27.8243],[75.3201,27.8343],[75.3395,27.8708],[75.4916,27.8828],[75.4393,27.945],[75.3783,27.9438],[75.3589,27.9073],[75.3481,27.9342],[75.3174,27.9426],[75.2777,27.9057],[75.2555,27.9774],[75.0726,27.9735],[75.0309,28.0086],[74.9913,27.9716],[74.9501,27.9887],[74.9287,28.0243],[74.8891,27.9873],[74.8688,27.9868],[74.8474,28.0224],[74.8067,28.0214],[74.7974,27.9941],[74.7672,27.9844],[74.704,28.055]]]]}},{"type":"Feature","properties":{"cell":192,"feature":1571,"phase":"Developing","min_bt_K":217.1,"area_km2":8520,"cold_core_km2":72,"speed_kmh":46.9,"heading_deg":72,"d_min_bt_30":-1.9,"age_min":240,"family":3,"touches_missing":true,"lon":74.3575,"lat":29.2006,"merges_splits_so_far":3},"geometry":{"type":"MultiPolygon","coordinates":[[[[74.672,29.6965],[74.5699,29.6578],[74.5517,29.5851],[74.4085,29.5452],[74.3466,29.5435],[74.2628,29.5773],[74.2015,29.5575],[74.1802,29.5749],[73.9738,29.5688],[73.924,29.5222],[73.9269,29.4501],[73.9803,29.4066],[74.0215,29.4078],[74.0541,29.3637],[74.0576,29.2736],[73.9987,29.1996],[74.0036,29.0734],[73.9243,28.9988],[73.9745,28.7657],[74.026,28.7583],[74.0901,28.688],[74.1727,28.6724],[74.2043,28.6462],[74.2069,28.5741],[74.0744,28.5612],[74.0159,28.4872],[73.975,28.486],[73.9454,28.458],[74.0193,28.3971],[74.141,28.4188],[74.2147,28.3577],[74.2266,28.3129],[74.2673,28.3141],[74.2865,28.3507],[74.3273,28.3519],[74.3767,28.3984],[74.3557,28.4159],[74.3538,28.4699],[74.3736,28.4885],[74.3513,28.5421],[74.3705,28.5787],[74.5099,28.6908],[74.5087,28.7268],[74.5385,28.7547],[74.6608,28.7759],[74.6924,28.7496],[74.6958,28.6414],[74.7268,28.6331],[74.7483,28.5976],[74.7787,28.6074],[74.7572,28.6429],[74.7487,28.9134],[74.6849,28.984],[74.6826,29.0562],[74.7131,29.0659],[74.7348,29.0304],[74.7736,29.1035],[74.7947,29.086],[74.8252,29.0958],[74.8441,29.1503],[74.8196,29.2761],[74.9187,29.4047],[74.887,29.4311],[74.8051,29.4111],[74.7934,29.4559],[74.751,29.491],[74.7386,29.5538],[74.7192,29.5172],[74.6879,29.5255],[74.672,29.6965]]],[[[74.5461,28.8361],[74.5473,28.8],[74.4672,28.7438],[74.469,28.6897],[74.4386,28.6798],[74.4268,28.7246],[74.5063,28.7989],[74.5051,28.835],[74.5461,28.8361]]]]}},{"type":"Feature","properties":{"cell":210,"feature":1517,"phase":"Developing","min_bt_K":237.0,"area_km2":3916,"cold_core_km2":0,"speed_kmh":139.8,"heading_deg":284,"d_min_bt_30":4.2,"age_min":210,"family":210,"touches_missing":true,"lon":75.7391,"lat":26.4924,"merges_splits_so_far":5},"geometry":{"type":"MultiPolygon","coordinates":[[[[75.5853,26.8646],[75.5049,26.8631],[75.3555,26.7969],[75.3867,26.7524],[75.4269,26.7532],[75.4577,26.7267],[75.4585,26.6906],[75.5208,26.6015],[75.3934,26.4636],[75.3529,26.4809],[75.3248,26.399],[75.2656,26.3617],[75.3682,26.2554],[75.3691,26.2193],[75.3997,26.1928],[75.4295,26.2024],[75.4283,26.2566],[75.3874,26.2919],[75.4062,26.3465],[75.416,26.3557],[75.4875,26.2939],[75.5091,26.222],[75.4695,26.2032],[75.4809,26.1402],[75.6197,26.197],[75.7197,26.1988],[75.7393,26.2172],[75.8597,26.2011],[75.9374,26.3288],[76.0566,26.3848],[76.0967,26.3854],[76.146,26.4312],[76.1451,26.4854],[76.0748,26.4934],[76.0643,26.5204],[76.014,26.5286],[76.0035,26.5556],[76.0535,26.5653],[76.1328,26.6207],[76.2018,26.7029],[76.191,26.7479],[76.1712,26.7296],[76.1307,26.747],[76.1013,26.7015],[76.0615,26.6828],[76.0522,26.6376],[75.9719,26.6363],[75.9311,26.6718],[75.7905,26.6695],[75.751,26.6328],[75.7405,26.6597],[75.7803,26.6784],[75.7799,26.6964],[75.7394,26.7138],[75.7383,26.768],[75.5853,26.8646]]]]}},{"type":"Feature","properties":{"cell":226,"feature":1530,"phase":"Developing","min_bt_K":242.0,"area_km2":3996,"cold_core_km2":0,"speed_kmh":30.6,"heading_deg":23,"d_min_bt_30":4.6,"age_min":180,"family":200,"touches_missing":false,"lon":78.5119,"lat":31.121,"merges_splits_so_far":3},"geometry":{"type":"MultiPolygon","coordinates":[[[[78.5262,31.4873],[78.5051,31.4874],[78.4417,31.4155],[78.3365,31.4158],[78.2626,31.3167],[78.2202,31.1364],[78.2411,31.1183],[78.2408,30.992],[78.2825,30.9378],[78.2824,30.8837],[78.2613,30.8296],[78.1985,30.8117],[78.1985,30.7756],[78.2507,30.7665],[78.2717,30.8026],[78.3344,30.8024],[78.3447,30.7753],[78.3864,30.7572],[78.3862,30.703],[78.4384,30.6939],[78.4491,30.757],[78.4074,30.7751],[78.4076,30.8293],[78.4495,30.8472],[78.4498,30.9013],[78.4812,30.9102],[78.4913,30.847],[78.4494,30.8291],[78.4492,30.775],[78.5222,30.7657],[78.5428,30.7115],[78.6472,30.711],[78.668,30.6929],[78.752,30.7646],[78.7938,30.7644],[78.815,30.8003],[78.8673,30.809],[78.8891,30.8991],[78.8475,30.9354],[78.8688,30.9714],[78.8274,31.0258],[78.8278,31.0799],[78.849,31.0978],[78.8281,31.116],[78.8286,31.1701],[78.7661,31.2246],[78.7667,31.2967],[78.7042,31.3692],[78.6623,31.3875],[78.6522,31.4507],[78.5262,31.4873]]]]}},{"type":"Feature","properties":{"cell":227,"feature":1563,"phase":"Developing","min_bt_K":226.6,"area_km2":11520,"cold_core_km2":0,"speed_kmh":74.6,"heading_deg":6,"d_min_bt_30":-1.4,"age_min":180,"family":3,"touches_missing":true,"lon":83.6319,"lat":33.3722,"merges_splits_so_far":19},"geometry":{"type":"MultiPolygon","coordinates":[[[[83.9981,34.0061],[83.8455,33.9948],[83.8227,33.9778],[83.7806,33.9976],[83.5211,34.0086],[83.4984,33.9915],[83.4335,33.9941],[83.421,33.9675],[83.4734,33.9383],[83.503,33.892],[83.4802,33.8749],[83.4769,33.8209],[83.4224,33.8141],[83.403,33.8509],[83.3598,33.8527],[83.2816,33.8107],[83.267,33.7481],[83.2271,33.8038],[83.1942,33.796],[83.1818,33.7694],[83.1397,33.7891],[83.074,33.7736],[83.0585,33.6929],[82.8812,33.6093],[82.8283,33.4307],[82.8058,33.4135],[82.8029,33.3594],[82.8542,33.3125],[82.9645,33.3626],[83.0361,33.2967],[83.034,33.2607],[83.1167,33.2034],[83.1962,33.0921],[83.1493,33.0217],[83.2216,32.9738],[83.3498,32.9687],[83.3947,33.003],[83.523,32.9977],[83.531,32.9523],[83.5918,32.8956],[83.5884,32.8416],[83.6289,32.8038],[83.6166,32.7772],[83.4976,32.7551],[83.5092,32.5922],[83.6257,32.5783],[83.666,32.5405],[83.7187,32.5293],[83.6952,32.4942],[83.7254,32.4658],[83.8317,32.4612],[83.8518,32.4423],[83.9279,32.466],[83.9361,32.5919],[84.0023,32.6251],[83.9981,34.0061]]],[[[83.843,33.1375],[83.8158,33.0485],[83.7718,33.0323],[83.8111,32.9765],[83.7548,32.9338],[83.7458,32.9613],[83.7897,32.9774],[83.7504,33.0332],[83.7753,33.0863],[83.8216,33.1385],[83.843,33.1375]]],[[[83.375,33.2113],[83.3514,33.1762],[83.3707,33.1393],[83.3439,33.0501],[83.3113,33.0424],[83.3033,33.0879],[83.3493,33.1402],[83.3177,33.1505],[83.3086,33.1779],[83.375,33.2113]]],[[[83.8048,33.2114],[83.7799,33.1583],[83.7359,33.1422],[83.7212,33.0796],[83.7145,33.1431],[83.7382,33.1782],[83.7191,33.2151],[83.7405,33.2142],[83.7495,33.1867],[83.8048,33.2114]]]]}},{"type":"Feature","properties":{"cell":234,"feature":1556,"phase":"Developing","min_bt_K":230.2,"area_km2":10768,"cold_core_km2":0,"speed_kmh":81.3,"heading_deg":182,"d_min_bt_30":0.2,"age_min":180,"family":3,"touches_missing":true,"lon":82.2,"lat":32.5116,"merges_splits_so_far":24},"geometry":{"type":"MultiPolygon","coordinates":[[[[81.7364,33.3123],[81.6721,33.3141],[81.6388,33.2879],[81.6366,33.2339],[81.6684,33.224],[81.6987,33.178],[81.6942,33.0699],[81.6721,33.0525],[81.692,33.0158],[81.6692,32.9804],[81.7009,32.9705],[81.7311,32.9245],[81.7289,32.8704],[81.7877,32.7425],[81.8186,32.7145],[81.8612,32.7133],[81.892,32.6853],[81.8905,32.6493],[81.9521,32.5934],[81.9293,32.5579],[81.9428,32.3771],[82.0459,32.3018],[82.0443,32.2658],[82.1048,32.1918],[82.1024,32.1377],[82.1611,32.0276],[82.1587,31.9736],[82.2189,31.8995],[82.2352,31.7907],[82.2952,31.7166],[82.313,31.6439],[82.3653,31.6332],[82.3847,31.5964],[82.4268,31.595],[82.4572,31.567],[82.4748,31.4942],[82.506,31.4841],[82.5555,31.4193],[82.5538,31.3832],[82.5858,31.3912],[82.5941,31.3458],[82.6655,31.2982],[82.8554,31.5169],[82.8563,31.5349],[82.8152,31.5545],[82.839,31.6077],[82.7996,31.6633],[82.8234,31.7166],[82.7739,31.7815],[82.7317,31.783],[82.7014,31.8112],[82.7023,31.8292],[82.7674,31.8629],[82.7693,31.899],[82.7279,31.9185],[82.7306,31.9725],[82.7748,32.007],[82.7545,32.0258],[82.784,32.1871],[82.6789,32.2089],[82.7011,32.2262],[82.6964,32.3436],[82.6539,32.3451],[82.6132,32.3826],[82.5708,32.3841],[82.5053,32.3503],[82.3906,32.3992],[82.4348,32.4338],[82.4357,32.4518],[82.394,32.4713],[82.3958,32.5073],[82.4613,32.5412],[82.4009,32.6154],[82.4044,32.6874],[82.3422,32.7256],[82.3473,32.8337],[82.4131,32.8676],[82.3961,32.9584],[82.4407,32.993],[82.3688,33.0585],[82.3046,33.0606],[82.1409,33.2282],[82.0972,33.2115],[82.0345,33.2495],[82.0146,33.2862],[81.7572,33.2937],[81.7364,33.3123]]]]}},{"type":"Feature","properties":{"cell":238,"feature":1548,"phase":"Developing","min_bt_K":225.6,"area_km2":2596,"cold_core_km2":0,"speed_kmh":30.0,"heading_deg":10,"d_min_bt_30":-1.6,"age_min":150,"family":238,"touches_missing":true,"lon":72.4706,"lat":28.5326,"merges_splits_so_far":1},"geometry":{"type":"MultiPolygon","coordinates":[[[[72.4841,28.8292],[72.4441,28.8094],[72.4022,28.8257],[72.3837,28.7888],[72.3427,28.7871],[72.2765,28.6849],[72.2785,28.6489],[72.2191,28.6102],[72.2271,28.4662],[72.1882,28.4283],[72.1902,28.3923],[72.2621,28.3865],[72.2942,28.3608],[72.2981,28.2887],[72.3612,28.2553],[72.366,28.1653],[72.4318,28.0778],[72.5238,28.0727],[72.545,28.0555],[72.5492,28.173],[72.5047,28.2434],[72.5186,28.3703],[72.6568,28.4662],[72.6744,28.5211],[72.7339,28.5596],[72.8094,28.6889],[72.7327,28.7852],[72.6713,28.7827],[72.6285,28.8171],[72.5466,28.8137],[72.5377,28.7863],[72.5796,28.7699],[72.602,28.7348],[72.5932,28.7073],[72.4841,28.8292]]],[[[72.6857,28.7021],[72.7089,28.6488],[72.6805,28.6026],[72.6113,28.5546],[72.6141,28.5006],[72.5839,28.4903],[72.5704,28.553],[72.6885,28.648],[72.6875,28.666],[72.6457,28.6824],[72.6857,28.7021]]]]}},{"type":"Feature","properties":{"cell":272,"feature":1570,"phase":"Mature","min_bt_K":215.0,"area_km2":10004,"cold_core_km2":140,"speed_kmh":79.9,"heading_deg":346,"d_min_bt_30":3.6,"age_min":120,"family":168,"touches_missing":true,"lon":75.5959,"lat":29.0694,"merges_splits_so_far":10},"geometry":{"type":"MultiPolygon","coordinates":[[[[75.9154,29.5596],[75.8332,29.5402],[75.7329,29.4122],[75.6711,29.4111],[75.6509,29.3927],[75.5478,29.3909],[75.5268,29.4085],[75.4659,29.3713],[75.4247,29.3705],[75.362,29.4053],[75.3217,29.3684],[75.2599,29.3671],[75.0797,29.1828],[75.0386,29.1819],[75.0085,29.1542],[75.0106,29.082],[74.9501,29.0446],[74.9717,29.009],[74.9311,28.99],[74.9727,28.9729],[74.9748,28.9008],[74.9349,28.8637],[74.936,28.8277],[74.9775,28.8106],[75.0005,28.7209],[75.0839,28.6686],[75.0969,28.5696],[75.1991,28.5718],[75.3236,28.5022],[75.3731,28.5664],[75.4835,28.6498],[75.7684,28.7271],[75.9095,28.8377],[76.0526,28.8579],[76.134,28.8952],[76.216,28.8963],[76.4292,29.0344],[76.4276,29.1426],[76.5191,29.2068],[76.5392,29.2431],[76.6111,29.2529],[76.5791,29.3338],[76.4349,29.3322],[76.4149,29.2958],[76.2914,29.2943],[76.2303,29.2574],[76.1777,29.3198],[76.1362,29.3373],[76.1352,29.3914],[76.0623,29.4355],[76.021,29.4349],[75.9154,29.5596]]]]}},{"type":"Feature","properties":{"cell":280,"feature":1541,"phase":"Developing","min_bt_K":236.0,"area_km2":820,"cold_core_km2":0,"speed_kmh":19.4,"heading_deg":49,"d_min_bt_30":-1.0,"age_min":90,"family":280,"touches_missing":false,"lon":78.9064,"lat":33.1909,"merges_splits_so_far":0},"geometry":{"type":"MultiPolygon","coordinates":[[[[78.9669,33.3971],[78.9236,33.3613],[78.816,33.344],[78.762,33.2992],[78.7814,33.0646],[78.8559,33.019],[78.9845,33.0362],[78.9955,33.0631],[79.0385,33.0809],[79.0393,33.153],[79.061,33.1709],[78.9975,33.2435],[78.9669,33.3971]]]]}},{"type":"Feature","properties":{"cell":284,"feature":1544,"phase":"Decaying","min_bt_K":226.9,"area_km2":9880,"cold_core_km2":0,"speed_kmh":81.5,"heading_deg":85,"d_min_bt_30":8.6,"age_min":90,"family":168,"touches_missing":true,"lon":73.4678,"lat":26.254,"merges_splits_so_far":7},"geometry":{"type":"MultiPolygon","coordinates":[[[[73.7515,26.9084],[73.6911,26.9064],[73.6425,26.8596],[73.644,26.8236],[73.5456,26.7661],[73.547,26.73],[73.5001,26.6472],[73.329,26.6502],[73.3974,26.6978],[73.4279,26.6898],[73.4235,26.798],[73.3922,26.824],[73.27,26.8558],[73.2031,26.7721],[73.2665,26.7022],[73.2487,26.6474],[73.2696,26.63],[73.2718,26.5759],[73.1642,26.5088],[73.1241,26.5073],[73.1064,26.4525],[73.0463,26.4502],[73.027,26.4315],[72.9862,26.448],[72.9669,26.4292],[72.8074,26.4049],[72.7891,26.368],[72.6123,26.2887],[72.5836,26.2604],[72.6053,26.2252],[72.587,26.1883],[72.6113,26.099],[72.705,26.0215],[72.8464,25.991],[73.7655,26.0058],[73.7744,26.0332],[73.8041,26.0432],[73.8254,26.0077],[73.8859,25.9916],[74.1055,25.9983],[74.1146,26.0256],[74.054,26.0419],[74.0522,26.096],[74.0812,26.124],[74.1218,26.1071],[74.2205,26.1461],[74.2278,26.2276],[74.2672,26.2468],[74.266,26.2829],[74.1926,26.3801],[74.0931,26.3591],[74.0803,26.44],[74.1288,26.4866],[74.2692,26.4907],[74.3178,26.5372],[74.3148,26.6274],[74.2437,26.6525],[74.1834,26.6507],[74.164,26.6321],[74.083,26.6478],[74.0448,26.5925],[73.9444,26.5894],[73.9036,26.6062],[73.892,26.651],[73.8511,26.6678],[73.8679,26.7586],[73.7854,26.8101],[73.8035,26.8649],[73.7515,26.9084]]],[[[73.0693,26.1531],[73.0517,26.0982],[73.0125,26.0787],[73.0037,26.0513],[72.9837,26.0505],[72.9622,26.0858],[72.9326,26.0756],[72.9238,26.0482],[72.8735,26.0553],[72.8823,26.0827],[72.9222,26.0843],[72.9606,26.1219],[72.9718,26.0952],[73.0021,26.0873],[73.0109,26.1148],[73.0693,26.1531]]],[[[73.0799,26.3702],[73.0911,26.3436],[73.1311,26.345],[73.2358,26.2405],[73.3566,26.2268],[73.3781,26.1914],[73.4884,26.1862],[73.4595,26.1581],[73.3996,26.156],[73.3581,26.1907],[73.2374,26.2045],[73.1631,26.3011],[73.0927,26.3075],[73.0711,26.3428],[72.8909,26.3359],[72.8596,26.3618],[73.0799,26.3702]]],[[[73.5456,26.2604],[73.5981,26.199],[73.7181,26.2029],[73.7291,26.1762],[73.5995,26.1629],[73.5367,26.233],[73.4766,26.231],[73.4455,26.257],[73.5456,26.2604]]],[[[72.767,26.1956],[72.7582,26.1681],[72.747,26.1948],[72.767,26.1956]]],[[[73.6781,26.4635],[73.6988,26.4461],[73.6995,26.4281],[73.6601,26.4087],[73.6822,26.3553],[73.6532,26.3272],[73.6132,26.3259],[73.5613,26.3693],[73.6476,26.4715],[73.6781,26.4635]]],[[[73.4331,26.5636],[73.4539,26.5463],[73.4249,26.5182],[73.364,26.5341],[73.315,26.5053],[73.2876,26.4411],[73.2371,26.4483],[73.2147,26.5016],[73.2437,26.5298],[73.3625,26.5702],[73.4331,26.5636]]],[[[73.6109,26.6419],[73.5825,26.5958],[73.5521,26.6038],[73.5804,26.6499],[73.6109,26.6419]]]]}},{"type":"Feature","properties":{"cell":292,"feature":1575,"phase":"Developing","min_bt_K":214.0,"area_km2":77616,"cold_core_km2":4444,"speed_kmh":100.5,"heading_deg":101,"d_min_bt_30":0.0,"age_min":90,"family":3,"touches_missing":true,"lon":73.4542,"lat":32.0627,"merges_splits_so_far":24},"geometry":{"type":"MultiPolygon","coordinates":[[[[73.6164,33.798],[73.5957,33.7792],[73.531,33.7771],[73.4269,33.7014],[73.3632,33.6811],[73.2966,33.7149],[73.2686,33.6327],[73.0705,33.5082],[73.049,33.5075],[73.003,33.5599],[72.9374,33.5755],[72.8739,33.555],[72.878,33.483],[72.7726,33.4428],[72.7533,33.4059],[72.6502,33.3297],[72.5044,33.2515],[72.4659,33.1778],[72.3813,33.1562],[72.3509,33.1278],[72.3385,32.9829],[72.298,32.9451],[72.3003,32.9091],[72.2385,32.8703],[72.2419,32.8163],[72.2116,32.788],[72.1476,32.7852],[72.0391,32.645],[71.9977,32.6251],[72.0104,32.1023],[71.9904,32.0833],[72.01,31.7774],[71.9901,31.7584],[72.014,31.3805],[71.9941,31.3616],[71.9991,30.9467],[72.0717,30.959],[72.1378,30.9078],[72.2016,30.8926],[72.2246,30.8575],[72.3522,30.8269],[72.3751,30.7918],[72.3809,30.8732],[72.4008,30.8921],[72.3924,31.0361],[72.3175,31.06],[72.2568,31.0213],[72.2018,31.064],[72.2195,31.1189],[72.1964,31.154],[72.1876,31.298],[72.2396,31.3093],[72.357,31.4587],[72.3781,31.4596],[72.4012,31.4245],[72.5064,31.4289],[72.5605,31.404],[72.5656,31.314],[72.5456,31.2952],[72.5937,31.1888],[72.6896,31.1656],[72.7026,31.1211],[72.7803,31.0429],[72.8432,31.0454],[72.8632,31.0642],[72.9698,31.0322],[73.1382,31.0204],[73.2238,30.9875],[73.2683,30.9349],[73.342,30.9285],[73.3437,30.8925],[73.3881,30.8399],[73.4158,30.6965],[73.4801,30.6626],[73.4425,30.5711],[73.4975,30.5098],[73.55,30.5026],[73.5517,30.4666],[73.6281,30.3879],[73.8778,30.3959],[73.8994,30.3785],[74.0866,30.3842],[74.1081,30.3668],[74.1383,30.3947],[74.1369,30.4308],[74.1677,30.4407],[74.1799,30.3959],[74.149,30.386],[74.1397,30.3587],[74.1934,30.3151],[74.2954,30.3722],[74.4014,30.321],[74.388,30.4018],[74.429,30.4209],[74.4257,30.5111],[74.4566,30.5209],[74.4787,30.4854],[74.5185,30.5406],[74.5703,30.551],[74.5791,30.5963],[74.6309,30.6067],[74.6297,30.6427],[74.6069,30.6963],[74.5538,30.722],[74.4077,30.7181],[74.3848,30.7716],[74.3437,30.7524],[74.2898,30.796],[74.2849,30.9222],[74.2424,30.939],[74.2727,30.967],[74.2944,30.9495],[74.3146,30.9681],[74.3774,30.9699],[74.4274,31.0344],[74.5295,31.1092],[74.628,31.2922],[74.6999,31.3391],[74.742,31.3402],[74.772,31.386],[74.7256,31.5112],[74.8092,31.5312],[74.7845,31.6389],[74.8049,31.6574],[74.8019,31.7476],[74.8218,31.7841],[74.8,31.8016],[74.7976,31.8737],[74.7547,31.8907],[74.7509,31.9989],[74.6214,32.0678],[74.6413,32.1044],[74.638,32.1946],[74.6586,32.2131],[74.6142,32.2661],[74.656,32.2852],[74.6643,32.3486],[74.6862,32.3311],[74.7493,32.3507],[74.8639,32.4166],[74.8402,32.4882],[74.8609,32.5067],[74.8584,32.5788],[74.8998,32.6159],[74.8961,32.7241],[74.8058,32.8663],[74.8026,32.9564],[74.7274,32.9636],[74.6639,32.944],[74.6412,32.9795],[74.5868,33.0052],[74.6061,33.0598],[74.5391,33.1303],[74.5917,33.1587],[74.7008,33.1073],[74.743,33.1264],[74.7521,33.1717],[74.8047,33.2],[74.8696,33.1835],[75.0012,33.0963],[75.0869,33.0982],[75.139,33.1445],[75.117,33.162],[75.1152,33.2161],[75.0491,33.2688],[75.059,33.2961],[75.0909,33.3058],[75.0897,33.3419],[75.0456,33.377],[75.1286,33.469],[75.1274,33.5051],[74.9652,33.5286],[74.932,33.5549],[74.9301,33.609],[74.9935,33.6465],[74.9362,33.7444],[74.8068,33.7414],[74.7768,33.6775],[74.7232,33.6672],[74.7094,33.7481],[74.676,33.7743],[74.5897,33.7722],[74.5257,33.7525],[74.4639,33.6787],[74.4104,33.6682],[74.4007,33.6409],[74.2684,33.7094],[74.2588,33.6821],[74.3034,33.6473],[74.3072,33.5571],[74.276,33.5292],[74.1477,33.5075],[74.0593,33.5591],[73.9285,33.5913],[73.8063,33.6687],[73.8115,33.7862],[73.7692,33.7668],[73.7045,33.7647],[73.682,33.782],[73.6613,33.7633],[73.6164,33.798]]],[[[74.6401,31.5451],[74.6305,31.5178],[74.6191,31.5446],[74.6401,31.5451]]]]}},{"type":"Feature","properties":{"cell":304,"feature":1567,"phase":"Unclassified","min_bt_K":233.0,"area_km2":2928,"cold_core_km2":0,"speed_kmh":6.3,"heading_deg":47,"d_min_bt_30":0.8,"age_min":60,"family":304,"touches_missing":true,"lon":77.8841,"lat":33.8062,"merges_splits_so_far":1},"geometry":{"type":"MultiPolygon","coordinates":[[[[78.2596,33.9958],[78.2163,33.9958],[78.1838,33.9688],[78.2053,33.9147],[78.1728,33.8516],[78.1404,33.8606],[78.1405,33.8967],[78.1837,33.9147],[78.1406,33.9689],[78.1839,33.9869],[78.1731,33.9959],[77.5457,33.9952],[77.5135,33.95],[77.5354,33.896],[77.4924,33.8597],[77.4927,33.8056],[77.4712,33.7875],[77.4718,33.6973],[77.5691,33.6345],[77.8278,33.5629],[77.9355,33.4908],[77.9892,33.5179],[78.0215,33.563],[78.14,33.608],[78.1401,33.6441],[78.1832,33.6801],[78.1617,33.7162],[78.2917,33.8965],[78.2486,33.9326],[78.2703,33.9506],[78.2596,33.9958]]],[[[77.9676,33.9689],[77.9892,33.8787],[77.9676,33.8246],[77.8921,33.7794],[77.8921,33.7975],[77.9244,33.8065],[77.9244,33.8607],[77.9676,33.8787],[77.9676,33.8968],[77.9244,33.9148],[77.9243,33.9689],[77.9676,33.9689]]]]}},{"type":"Feature","properties":{"cell":305,"feature":1568,"phase":"Unclassified","min_bt_K":233.1,"area_km2":2364,"cold_core_km2":0,"speed_kmh":32.0,"heading_deg":54,"d_min_bt_30":-0.9,"age_min":60,"family":3,"touches_missing":false,"lon":81.5091,"lat":33.8249,"merges_splits_so_far":3},"geometry":{"type":"MultiPolygon","coordinates":[[[[81.7871,33.9966],[81.3545,34.0082],[81.3419,33.9634],[81.2207,33.9032],[81.1755,33.8501],[81.1114,33.8697],[81.0571,33.8619],[81.0324,33.7722],[80.988,33.7371],[80.9862,33.683],[81.06,33.6363],[81.137,33.6796],[81.1168,33.7162],[81.1723,33.76],[81.2821,33.8114],[81.326,33.8284],[81.3782,33.782],[81.3219,33.7202],[81.2677,33.7126],[81.2664,33.6765],[81.2115,33.6508],[81.1776,33.6065],[81.2877,33.3782],[81.3867,33.4389],[81.3908,33.5471],[81.4353,33.582],[81.4381,33.6541],[81.5375,33.7147],[81.6446,33.6938],[81.678,33.7199],[81.6803,33.774],[81.7257,33.8269],[81.7697,33.8437],[81.8384,33.932],[81.8399,33.9681],[81.7871,33.9966]]]]}},{"type":"Feature","properties":{"cell":313,"feature":1540,"phase":"Unclassified","min_bt_K":244.0,"area_km2":48,"cold_core_km2":0,"speed_kmh":13.6,"heading_deg":26,"d_min_bt_30":1.0,"age_min":30,"family":313,"touches_missing":false,"lon":79.7591,"lat":32.8886,"merges_splits_so_far":0},"geometry":{"type":"MultiPolygon","coordinates":[[[[79.7959,32.9375],[79.7202,32.8934],[79.751,32.8299],[79.7626,32.8748],[79.806,32.9103],[79.7959,32.9375]]]]}},{"type":"Feature","properties":{"cell":316,"feature":1516,"phase":"Unclassified","min_bt_K":236.0,"area_km2":8416,"cold_core_km2":0,"speed_kmh":56.5,"heading_deg":102,"d_min_bt_30":3.0,"age_min":30,"family":210,"touches_missing":true,"lon":77.5095,"lat":26.4655,"merges_splits_so_far":1},"geometry":{"type":"MultiPolygon","coordinates":[[[[77.8391,26.8505],[77.7586,26.8504],[77.6783,26.778],[77.6582,26.796],[77.5074,26.7865],[77.618,26.7778],[77.6382,26.7418],[77.6985,26.7419],[77.6785,26.7058],[77.6181,26.7417],[77.3167,26.7405],[77.2968,26.7043],[77.2167,26.6677],[77.1764,26.6855],[77.1267,26.622],[77.0767,26.5946],[77.0363,26.6304],[77.0265,26.6032],[77.0468,26.5673],[77.1072,26.5496],[77.0573,26.5222],[76.9169,26.5211],[76.8769,26.5027],[76.8771,26.4847],[76.9273,26.4761],[76.9175,26.4489],[76.857,26.4845],[76.7969,26.484],[76.7772,26.4477],[76.657,26.4465],[76.6173,26.41],[76.5572,26.4093],[76.5176,26.3728],[76.3672,26.38],[76.3769,26.4072],[76.5471,26.4182],[76.5466,26.4543],[76.4964,26.4628],[76.4657,26.5076],[76.5056,26.5261],[76.4947,26.5892],[76.4548,26.5707],[76.3344,26.5692],[76.2736,26.6045],[76.1939,26.5674],[76.1532,26.6029],[76.1131,26.6023],[76.064,26.5384],[76.1143,26.5301],[76.1756,26.4587],[76.2355,26.4776],[76.3066,26.4154],[76.3483,26.3075],[76.4595,26.2276],[76.5195,26.2283],[76.5791,26.2651],[76.6191,26.2655],[76.6985,26.3205],[76.7784,26.3393],[76.8379,26.394],[76.9378,26.431],[76.9879,26.4224],[76.9884,26.3682],[77.0187,26.3413],[77.1788,26.3605],[77.2292,26.3156],[77.1393,26.288],[77.1397,26.2338],[77.2796,26.2527],[77.2895,26.2799],[77.2492,26.3158],[77.3392,26.3253],[77.3591,26.3615],[77.4191,26.3618],[77.4194,26.3076],[77.5395,26.3261],[77.5596,26.2901],[77.6397,26.2903],[77.6496,26.3174],[77.6996,26.3447],[77.7398,26.2906],[77.8198,26.2907],[77.8398,26.3088],[77.96,26.2186],[78.1,26.1644],[78.1999,26.1642],[78.3,26.2002],[78.38,26.2],[78.5507,26.3348],[78.5114,26.4975],[78.4414,26.5429],[78.3611,26.5432],[78.251,26.6427],[78.2412,26.7421],[78.1205,26.67],[78.0703,26.6791],[78.0804,26.7061],[78.1406,26.7061],[78.1608,26.7422],[78.211,26.7511],[78.181,26.7963],[78.1407,26.7603],[78.0402,26.7603],[78.0201,26.7965],[77.9899,26.7874],[78.0101,26.7694],[78.01,26.643],[77.99,26.6249],[78.01,26.4624],[77.98,26.4172],[77.8998,26.4353],[77.8295,26.5526],[77.9699,26.6971],[77.8895,26.7332],[77.8894,26.7693],[77.8492,26.8054],[77.8391,26.8505]]]]}},{"type":"Feature","properties":{"cell":321,"feature":1557,"phase":"Unclassified","min_bt_K":234.1,"area_km2":4276,"cold_core_km2":0,"speed_kmh":124.2,"heading_deg":0,"d_min_bt_30":-0.1,"age_min":30,"family":3,"touches_missing":true,"lon":83.2069,"lat":31.9431,"merges_splits_so_far":2},"geometry":{"type":"MultiPolygon","coordinates":[[[[83.4787,32.2596],[83.309,32.2665],[83.2423,32.215],[83.1787,32.2175],[83.0968,32.2748],[83.0746,32.2576],[82.9483,32.2804],[82.8495,32.2209],[82.8236,32.1316],[82.7923,32.1417],[82.7591,32.1159],[82.7545,32.0258],[82.8484,31.9953],[82.8878,31.9398],[82.9099,31.957],[82.9724,31.9366],[83.0368,31.9523],[83.0671,31.924],[83.0449,31.9068],[83.042,31.8528],[83.1035,31.8144],[83.1216,31.7595],[83.0976,31.7063],[83.1167,31.6695],[83.1579,31.6499],[83.2483,31.3756],[83.2784,31.3474],[83.4264,31.3595],[83.4354,31.332],[83.4134,31.3149],[83.4633,31.2677],[83.5394,31.3097],[83.5194,31.3286],[83.5446,31.3997],[83.5257,31.4366],[83.4847,31.4563],[83.5068,31.4734],[83.4868,31.4923],[83.4941,31.6183],[83.5162,31.6355],[83.4972,31.6724],[83.5679,31.7957],[83.5368,31.8061],[83.5135,31.7709],[83.4713,31.7727],[83.4465,31.891],[83.4063,31.9287],[83.4559,32.053],[83.4622,32.161],[83.4421,32.1799],[83.4877,32.2322],[83.4787,32.2596]]]]}},{"type":"Feature","properties":{"cell":328,"feature":1573,"phase":"Unclassified","min_bt_K":217.9,"area_km2":6696,"cold_core_km2":148,"speed_kmh":78.4,"heading_deg":114,"d_min_bt_30":-1.3,"age_min":30,"family":3,"touches_missing":true,"lon":73.1855,"lat":30.3725,"merges_splits_so_far":5},"geometry":{"type":"MultiPolygon","coordinates":[[[[73.032,30.6376],[72.9912,30.618],[72.6576,30.6049],[72.5871,30.557],[72.6337,30.4686],[72.6377,30.3966],[72.7059,30.2911],[72.8895,30.1629],[72.9726,30.1661],[73.005,30.1403],[73.0294,30.069],[72.9582,30.0393],[72.9492,30.0118],[73.257,29.8699],[73.3381,29.9088],[73.4002,29.911],[73.4441,29.8584],[73.5699,29.8266],[73.6932,29.8487],[73.76,29.9862],[73.7569,30.0583],[73.7039,30.0836],[73.6847,30.0469],[73.6301,30.1083],[73.6353,30.2257],[73.6669,30.2178],[73.68,30.155],[73.7384,30.2471],[73.8631,30.2511],[73.9484,30.1996],[74.0315,30.2021],[74.0923,30.24],[74.1547,30.2418],[74.1848,30.2698],[74.1834,30.3058],[74.1519,30.3139],[74.0866,30.3842],[73.6281,30.3879],[73.5517,30.4666],[73.55,30.5026],[73.465,30.5358],[73.43,30.6158],[73.3466,30.6129],[73.2675,30.5199],[73.205,30.5176],[73.1824,30.5529],[73.0783,30.5491],[73.032,30.6376]]],[[[73.5414,30.2316],[73.5439,30.1776],[73.5032,30.1582],[73.4957,30.0947],[73.4542,30.0933],[73.3886,30.1632],[73.3164,30.1517],[73.3612,30.0811],[73.3314,30.053],[73.2485,30.05],[73.1936,30.1112],[73.2009,30.1746],[73.3056,30.1603],[73.3454,30.1978],[73.4476,30.2375],[73.5414,30.2316]]]]}},{"type":"Feature","properties":{"cell":342,"feature":1543,"phase":"Unclassified","min_bt_K":235.1,"area_km2":948,"cold_core_km2":0,"speed_kmh":null,"heading_deg":null,"d_min_bt_30":null,"age_min":0,"family":342,"touches_missing":true,"lon":78.6444,"lat":33.8859,"merges_splits_so_far":0},"geometry":{"type":"MultiPolygon","coordinates":[[[[78.8653,33.9932],[78.4651,33.9862],[78.4427,33.8419],[78.4964,33.7966],[78.5503,33.7874],[78.5284,33.7333],[78.5713,33.6971],[78.5604,33.6701],[78.6035,33.6699],[78.7121,33.7776],[78.7334,33.7414],[78.7444,33.7684],[78.7877,33.7862],[78.7881,33.8223],[78.8314,33.8401],[78.8319,33.8942],[78.8759,33.9661],[78.8653,33.9932]]]]}},{"type":"Feature","properties":{"cell":343,"feature":1545,"phase":"Unclassified","min_bt_K":232.0,"area_km2":2800,"cold_core_km2":0,"speed_kmh":null,"heading_deg":null,"d_min_bt_30":null,"age_min":0,"family":238,"touches_missing":true,"lon":72.7774,"lat":28.2102,"merges_splits_so_far":1},"geometry":{"type":"MultiPolygon","coordinates":[[[[72.8014,28.6435],[72.7516,28.6144],[72.7339,28.5596],[72.6744,28.5211],[72.6373,28.4474],[72.5186,28.3703],[72.5047,28.2434],[72.5492,28.173],[72.5547,28.0649],[72.6061,28.058],[72.6485,28.0236],[72.6892,28.0253],[72.7122,27.972],[72.8165,27.922],[72.8977,27.9252],[72.9603,27.8915],[73.0213,27.8938],[73.0708,27.9228],[73.1081,27.9964],[73.1056,28.0504],[73.1642,28.1068],[73.1129,28.1139],[73.0273,28.2009],[72.9865,28.1994],[72.9811,28.0999],[73.0023,28.0827],[73.0082,27.9565],[72.9667,27.973],[72.9845,28.0278],[72.9819,28.0819],[72.9404,28.0983],[72.9361,28.1884],[72.9759,28.208],[72.9317,28.2785],[72.9265,28.3866],[72.9461,28.4054],[72.8805,28.4932],[72.8769,28.5652],[72.8014,28.6435]]]]}},{"type":"Feature","properties":{"cell":350,"feature":1553,"phase":"Unclassified","min_bt_K":231.3,"area_km2":4996,"cold_core_km2":0,"speed_kmh":null,"heading_deg":null,"d_min_bt_30":null,"age_min":0,"family":3,"touches_missing":true,"lon":72.5529,"lat":29.8307,"merges_splits_so_far":1},"geometry":{"type":"MultiPolygon","coordinates":[[[[72.5564,30.1677],[72.5258,30.1574],[72.5308,30.0674],[72.5012,30.0391],[72.2949,30.0123],[72.2752,29.9934],[72.1565,30.0694],[72.1435,30.114],[72.1238,30.0951],[72.0201,30.0904],[71.9906,30.062],[71.9993,29.918],[72.1081,29.8327],[72.0906,29.7777],[72.1134,29.7427],[72.1449,29.735],[72.2111,29.6658],[72.333,29.7071],[72.5032,29.6241],[72.5445,29.6258],[72.5563,29.5992],[72.6083,29.5923],[72.6309,29.5572],[72.7547,29.5621],[72.7772,29.5269],[72.8776,29.585],[72.9198,29.5686],[73.1252,29.5944],[73.0679,29.7095],[73.1355,29.8113],[73.1975,29.8136],[73.2462,29.8785],[73.1086,29.9366],[72.9853,29.914],[72.9726,29.9586],[72.9925,29.9774],[72.8508,30.1073],[72.831,30.0885],[72.748,30.0852],[72.7046,30.1196],[72.5999,30.1334],[72.5564,30.1677]]]]}},{"type":"Feature","properties":{"cell":352,"feature":1555,"phase":"Unclassified","min_bt_K":233.4,"area_km2":1000,"cold_core_km2":0,"speed_kmh":null,"heading_deg":null,"d_min_bt_30":null,"age_min":0,"family":3,"touches_missing":true,"lon":72.1316,"lat":30.2646,"merges_splits_so_far":1},"geometry":{"type":"MultiPolygon","coordinates":[[[[72.0596,30.4712],[72.0388,30.4703],[71.9906,30.4049],[72.0201,30.0904],[72.1238,30.0951],[72.2036,30.1527],[72.2866,30.1563],[72.3162,30.1847],[72.3141,30.2207],[72.3754,30.2414],[72.2096,30.4056],[72.0596,30.4712]]]]}},{"type":"Feature","properties":{"cell":353,"feature":1558,"phase":"Unclassified","min_bt_K":230.3,"area_km2":6136,"cold_core_km2":0,"speed_kmh":null,"heading_deg":null,"d_min_bt_30":null,"age_min":0,"family":3,"touches_missing":false,"lon":83.2444,"lat":32.5855,"merges_splits_so_far":2},"geometry":{"type":"MultiPolygon","coordinates":[[[[83.523,32.9977],[83.3947,33.003],[83.3498,32.9687],[83.2216,32.9738],[83.2083,32.9292],[83.1523,32.8862],[83.013,32.8825],[83.011,32.8465],[82.9663,32.8121],[82.9644,32.7761],[82.8955,32.6884],[82.8926,32.6343],[82.8056,32.6014],[82.798,32.4573],[82.7296,32.3695],[82.7472,32.2967],[82.7029,32.2622],[82.6891,32.1995],[82.8154,32.177],[82.8495,32.2209],[82.9483,32.2804],[83.0119,32.278],[83.0322,32.2592],[83.0968,32.2748],[83.1787,32.2175],[83.2423,32.215],[83.309,32.2665],[83.4787,32.2596],[83.4877,32.2322],[83.5693,32.1747],[83.5258,32.1584],[83.5226,32.1044],[83.5739,32.0752],[83.644,32.1805],[83.6875,32.1967],[83.75,32.176],[83.8058,32.2187],[83.8114,32.3087],[83.7913,32.3276],[83.8137,32.3447],[83.8182,32.4167],[83.8618,32.4328],[83.8317,32.4612],[83.7254,32.4658],[83.6952,32.4942],[83.7187,32.5293],[83.666,32.5405],[83.6257,32.5783],[83.5092,32.5922],[83.4976,32.7551],[83.6166,32.7772],[83.6289,32.8038],[83.5884,32.8416],[83.5918,32.8956],[83.531,32.9523],[83.523,32.9977]]]]}},{"type":"Feature","properties":{"cell":357,"feature":1562,"phase":"Unclassified","min_bt_K":234.0,"area_km2":1236,"cold_core_km2":0,"speed_kmh":null,"heading_deg":null,"d_min_bt_30":null,"age_min":0,"family":3,"touches_missing":false,"lon":82.3711,"lat":33.2714,"merges_splits_so_far":1},"geometry":{"type":"MultiPolygon","coordinates":[[[[82.4115,33.4902],[82.3667,33.4556],[82.2695,33.4497],[82.2669,33.3957],[82.2,33.3437],[82.1957,33.2536],[82.1512,33.2189],[82.3046,33.0606],[82.3688,33.0585],[82.4254,33.1198],[82.4812,33.1631],[82.5241,33.1616],[82.6032,33.2402],[82.522,33.3332],[82.5265,33.4232],[82.4751,33.4701],[82.4115,33.4902]]]]}},{"type":"Feature","properties":{"cell":359,"feature":1565,"phase":"Unclassified","min_bt_K":229.7,"area_km2":8932,"cold_core_km2":0,"speed_kmh":null,"heading_deg":null,"d_min_bt_30":null,"age_min":0,"family":3,"touches_missing":true,"lon":82.2458,"lat":33.709,"merges_splits_so_far":3},"geometry":{"type":"MultiPolygon","coordinates":[[[[83.3254,33.9985],[82.5674,34.0084],[82.4142,33.9774],[82.3935,33.9962],[81.9825,34.009],[81.9601,33.9916],[81.8087,33.996],[81.7975,33.9873],[81.8399,33.9681],[81.8384,33.932],[81.7697,33.8437],[81.7369,33.8356],[81.6803,33.774],[81.678,33.7199],[81.6446,33.6938],[81.5375,33.7147],[81.4381,33.6541],[81.4353,33.582],[81.3908,33.5471],[81.3874,33.4569],[81.4193,33.4471],[81.4637,33.4821],[81.4942,33.4362],[81.4907,33.346],[81.5869,33.3345],[81.6284,33.2972],[81.6721,33.3141],[81.9288,33.2888],[81.9654,33.3869],[82.0211,33.4304],[82.1079,33.4458],[82.1973,33.5152],[82.2188,33.5145],[82.2592,33.4591],[82.3667,33.4556],[82.4115,33.4902],[82.4751,33.4701],[82.5265,33.4232],[82.5332,33.3418],[82.5779,33.3764],[82.7937,33.3869],[82.8283,33.4307],[82.8812,33.6093],[83.0585,33.6929],[83.0637,33.783],[83.0873,33.8182],[83.1995,33.8861],[83.2027,33.9401],[83.2573,33.947],[83.3243,33.9804],[83.3254,33.9985]]]]}}]}