{"type":"FeatureCollection","features":[{"type":"Feature","properties":{"cell":186,"feature":1653,"phase":"Developing","min_bt_K":214.0,"area_km2":24484,"cold_core_km2":2552,"speed_kmh":62.4,"heading_deg":56,"d_min_bt_30":-0.4,"age_min":300,"family":168,"touches_missing":true,"lon":74.9172,"lat":27.6393,"merges_splits_so_far":24},"geometry":{"type":"MultiPolygon","coordinates":[[[[75.1029,28.3532],[74.9805,28.3504],[74.9612,28.3139],[74.9,28.3125],[74.8603,28.2754],[74.5953,28.2688],[74.4248,28.1831],[74.4087,28.0563],[74.4506,28.0213],[74.4524,27.9672],[74.3533,27.8923],[74.3742,27.8749],[74.3772,27.7847],[74.3176,27.7469],[74.2998,27.6742],[74.4458,27.5519],[74.4262,27.5333],[74.4476,27.4978],[74.4095,27.4245],[74.4113,27.3704],[74.3813,27.3605],[74.3525,27.3146],[74.3561,27.2064],[74.3976,27.1714],[74.4006,27.0812],[74.4311,27.073],[74.525,26.9762],[74.4657,26.9385],[74.5474,26.9046],[74.4772,26.8937],[74.4559,26.9292],[74.3955,26.9276],[74.379,26.8188],[74.3479,26.845],[74.3852,26.9363],[74.3742,26.9631],[74.334,26.962],[74.315,26.9254],[74.2345,26.9231],[74.2138,26.9405],[74.1973,26.8317],[74.0073,26.799],[74.0488,26.7641],[74.0299,26.7275],[74.0714,26.6926],[74.0746,26.6024],[74.0551,26.5837],[74.0577,26.5116],[73.9794,26.455],[73.9813,26.4009],[73.9426,26.3636],[73.9645,26.3101],[73.8664,26.2529],[73.8981,26.2087],[73.8587,26.1894],[73.7981,26.2055],[73.7794,26.1688],[73.7394,26.1675],[73.7084,26.1936],[73.7167,26.239],[73.756,26.2584],[73.7974,26.2236],[73.8264,26.2516],[73.765,26.2857],[73.7533,26.3305],[73.7133,26.3292],[73.6615,26.3727],[73.6808,26.3914],[73.6497,26.4174],[73.5295,26.4134],[73.5088,26.4308],[73.4286,26.428],[73.3462,26.4793],[73.246,26.4757],[73.1816,26.3379],[73.1231,26.2996],[73.1262,26.2275],[73.0478,26.1884],[73.0101,26.1328],[73.0117,26.0967],[72.9726,26.0772],[72.9742,26.0411],[73.0053,26.0152],[73.046,25.9987],[73.486,25.9965],[73.5823,26.0901],[73.6622,26.0927],[73.6808,26.1295],[73.8007,26.1334],[73.8414,26.1166],[73.86,26.1533],[73.98,26.157],[74.0013,26.1216],[74.0812,26.124],[74.1836,26.0547],[74.2144,26.0285],[74.1848,26.0187],[74.1854,26.0006],[74.2852,26.0035],[74.2435,26.0565],[74.1521,26.099],[74.1509,26.1351],[74.0878,26.2235],[74.1169,26.2515],[74.1569,26.2526],[74.1981,26.2177],[74.2781,26.22],[74.3169,26.2572],[74.3867,26.2682],[74.3855,26.3043],[74.3449,26.3212],[74.342,26.4115],[74.4319,26.423],[74.4605,26.4689],[74.4393,26.5044],[74.3367,26.5738],[74.3458,26.6012],[74.6046,26.6804],[74.623,26.735],[74.7034,26.737],[74.8116,26.821],[74.8297,26.8936],[74.7889,26.9107],[74.7878,26.9468],[74.9386,26.9594],[74.9469,27.0228],[74.997,27.033],[75.0364,27.07],[75.0973,27.0533],[75.1972,27.0916],[75.5296,27.1073],[75.4889,27.1246],[75.4856,27.2689],[75.5354,27.297],[75.6368,27.2808],[75.705,27.3993],[75.7352,27.4089],[75.7844,27.4729],[75.7837,27.509],[75.7428,27.5263],[75.7406,27.6346],[75.6993,27.67],[75.7387,27.7248],[75.7379,27.7609],[75.8073,27.8433],[75.9088,27.845],[75.9587,27.8909],[75.8874,27.8988],[75.8254,27.9519],[75.6321,27.9576],[75.6301,28.0478],[75.589,28.0652],[75.5882,28.1012],[75.6277,28.1561],[75.5862,28.1914],[75.5741,28.2724],[75.4926,28.2709],[75.4731,28.2345],[75.4315,28.2697],[75.3907,28.2689],[75.3486,28.3222],[75.2983,28.2942],[75.2888,28.2669],[75.2258,28.3378],[75.1651,28.3184],[75.1029,28.3532]]],[[[74.5513,26.7783],[74.5622,26.7515],[74.522,26.7504],[74.4829,26.7133],[74.3922,26.7198],[74.4215,26.7477],[74.5019,26.7499],[74.5209,26.7865],[74.5513,26.7783]]]]}},{"type":"Feature","properties":{"cell":192,"feature":1642,"phase":"Developing","min_bt_K":219.3,"area_km2":15124,"cold_core_km2":20,"speed_kmh":43.8,"heading_deg":25,"d_min_bt_30":2.2,"age_min":270,"family":3,"touches_missing":true,"lon":74.4532,"lat":29.3796,"merges_splits_so_far":5},"geometry":{"type":"MultiPolygon","coordinates":[[[[74.0565,30.0946],[73.922,30.0815],[73.905,29.9908],[73.9487,29.938],[73.7477,29.7873],[73.7706,29.7339],[73.7507,29.7152],[73.8334,29.7178],[73.8363,29.6458],[73.8577,29.6284],[73.8408,29.5376],[73.8843,29.4848],[73.8651,29.4481],[73.9078,29.4134],[73.9107,29.3413],[73.9547,29.2705],[73.9349,29.2518],[73.9568,29.2164],[73.9611,29.1082],[73.9824,29.0908],[73.9625,29.0722],[73.9646,29.0181],[74.0071,28.9833],[73.988,28.9466],[74.0106,28.8932],[74.0424,28.8671],[74.1038,28.8689],[74.1257,28.8334],[74.2281,28.8364],[74.3735,28.7863],[74.4349,28.788],[74.4747,28.8252],[74.5268,28.7995],[74.5274,28.7815],[74.4275,28.7066],[74.4287,28.6705],[74.4708,28.6356],[74.4336,28.5263],[74.4448,28.4995],[74.4856,28.5006],[74.5253,28.5378],[74.6286,28.5043],[74.7103,28.5064],[74.7296,28.543],[74.7705,28.544],[74.8102,28.581],[74.8511,28.582],[74.9135,28.5474],[75.0356,28.5683],[75.0854,28.6145],[75.0844,28.6506],[75.0425,28.6857],[75.0415,28.7218],[75.0809,28.7768],[75.0179,28.8295],[74.9738,28.9368],[74.9932,28.9734],[75.0232,29.0011],[75.0643,29.002],[75.0938,29.0478],[75.0512,29.101],[75.0096,29.1181],[75.0054,29.2624],[75.056,29.2906],[75.1253,29.3914],[75.166,29.4103],[75.1635,29.5004],[75.1423,29.518],[75.1181,29.6438],[75.1992,29.6997],[75.1987,29.7177],[75.1569,29.7349],[75.1967,29.7899],[75.1649,29.8163],[75.1235,29.8154],[75.0631,29.7599],[75.0016,29.7405],[74.9602,29.7395],[74.9178,29.7746],[74.9083,29.7473],[74.8775,29.7376],[74.8121,29.8443],[74.75,29.8428],[74.6891,29.8052],[74.6672,29.8407],[74.6258,29.8397],[74.5625,29.8741],[74.5418,29.8736],[74.5224,29.837],[74.5004,29.8725],[74.2934,29.8669],[74.2527,29.8477],[74.2206,29.8738],[74.2179,29.9459],[74.1451,29.9529],[74.1544,29.9802],[74.1216,30.0243],[74.0943,29.9243],[74.0736,29.9237],[74.0565,30.0946]]],[[[74.8928,28.8989],[74.8845,28.8355],[74.8524,28.8798],[74.8928,28.8989]]],[[[75.0344,29.6781],[75.0355,29.642],[75.0053,29.6142],[74.9646,29.5953],[74.9333,29.6036],[74.983,29.6679],[75.0344,29.6781]]]]}},{"type":"Feature","properties":{"cell":210,"feature":1613,"phase":"Developing","min_bt_K":234.3,"area_km2":3416,"cold_core_km2":0,"speed_kmh":121.0,"heading_deg":71,"d_min_bt_30":-2.7,"age_min":240,"family":210,"touches_missing":true,"lon":76.3127,"lat":26.672,"merges_splits_so_far":5},"geometry":{"type":"MultiPolygon","coordinates":[[[[76.6307,26.9518],[76.5502,26.951],[76.4803,26.905],[76.5308,26.8966],[76.5907,26.9333],[76.6113,26.8975],[76.5509,26.8968],[76.5313,26.8605],[76.4508,26.8595],[76.3915,26.7866],[76.2507,26.7848],[76.2312,26.7484],[76.191,26.7479],[76.1295,26.8193],[76.1094,26.819],[76.0887,26.8548],[76.0484,26.8542],[76.0277,26.89],[75.9782,26.8441],[76.0203,26.7364],[75.9307,26.6899],[75.8705,26.6889],[75.7813,26.6242],[75.7838,26.4979],[75.8756,26.4181],[75.9761,26.4016],[76.1948,26.5132],[76.3154,26.4967],[76.325,26.5239],[76.3847,26.5608],[76.3839,26.615],[76.4136,26.6424],[76.4741,26.6251],[76.5341,26.6438],[76.5847,26.6173],[76.565,26.581],[76.5853,26.5631],[76.5865,26.4728],[76.6167,26.4641],[76.6565,26.4826],[76.6768,26.4647],[76.7066,26.4921],[76.7061,26.5282],[76.786,26.5651],[76.7653,26.6191],[76.8154,26.6286],[76.9048,26.7287],[76.793,26.8451],[76.7326,26.8445],[76.6928,26.808],[76.6325,26.8074],[76.6318,26.8616],[76.6522,26.8437],[76.7225,26.8534],[76.7121,26.8804],[76.6719,26.88],[76.6414,26.9068],[76.6307,26.9518]]]]}},{"type":"Feature","properties":{"cell":227,"feature":1645,"phase":"Developing","min_bt_K":232.0,"area_km2":11868,"cold_core_km2":0,"speed_kmh":73.8,"heading_deg":242,"d_min_bt_30":5.4,"age_min":210,"family":3,"touches_missing":true,"lon":83.2831,"lat":33.2144,"merges_splits_so_far":24},"geometry":{"type":"MultiPolygon","coordinates":[[[[83.2918,33.8012],[83.2373,33.7944],[83.2115,33.7232],[83.1303,33.627],[83.0985,33.6373],[83.1027,33.7093],[83.0719,33.7376],[82.9641,33.7416],[82.9435,33.7604],[82.9302,33.7158],[82.7867,33.6578],[82.752,33.6139],[82.7921,33.5584],[82.7667,33.4871],[82.5667,33.3677],[82.5289,33.0442],[82.5048,32.9909],[82.5364,32.9808],[82.5587,32.9981],[82.622,32.9778],[82.6415,32.9411],[82.6945,32.9302],[82.6926,32.8942],[82.6471,32.8416],[82.5822,32.8258],[82.5803,32.7898],[82.6416,32.7335],[82.6398,32.6975],[82.5842,32.6543],[82.5203,32.6565],[82.4861,32.6125],[82.5327,32.4756],[82.6205,32.5268],[82.663,32.5253],[82.7453,32.4682],[82.9145,32.4441],[83.0784,32.5191],[83.062,32.61],[83.0316,32.6382],[83.0195,32.6116],[82.9648,32.5866],[82.8936,32.6523],[82.9614,32.722],[82.9673,32.8301],[83.012,32.8645],[83.0252,32.9091],[83.132,32.9051],[83.1869,32.93],[83.2145,33.0372],[83.2605,33.0896],[83.3166,33.1324],[83.3595,33.1307],[83.383,33.1659],[83.4912,33.1795],[83.5217,33.1512],[83.5195,33.1152],[83.6626,33.0009],[83.6592,32.9469],[83.6367,32.9298],[83.6424,32.8484],[83.7918,32.8419],[83.8368,32.8761],[83.9999,32.914],[83.9941,33.1489],[83.9275,33.1158],[83.9524,33.1688],[83.9965,33.1849],[84.0065,33.6537],[83.9748,33.6642],[83.885,33.614],[83.8611,33.579],[83.8181,33.5808],[83.784,33.5552],[83.7794,33.4832],[83.725,33.4765],[83.63,33.5077],[83.6527,33.5248],[83.6334,33.5617],[83.6788,33.5958],[83.6709,33.6413],[83.5042,33.7385],[83.4384,33.7232],[83.3759,33.7618],[83.3328,33.7635],[83.2918,33.8012]]],[[[83.0708,33.53],[83.0575,33.4854],[82.9827,33.4972],[83.0155,33.505],[83.039,33.5403],[83.0708,33.53]]]]}},{"type":"Feature","properties":{"cell":234,"feature":1644,"phase":"Developing","min_bt_K":230.1,"area_km2":6764,"cold_core_km2":0,"speed_kmh":63.8,"heading_deg":98,"d_min_bt_30":-0.0,"age_min":210,"family":3,"touches_missing":true,"lon":82.5362,"lat":32.4732,"merges_splits_so_far":25},"geometry":{"type":"MultiPolygon","coordinates":[[[[82.1985,33.0821],[82.1231,33.0754],[82.1174,32.9492],[82.1593,32.9299],[82.1552,32.8398],[82.1962,32.8024],[82.1732,32.7671],[82.256,32.7103],[82.2322,32.6569],[82.2928,32.5828],[82.2698,32.5475],[82.2877,32.4747],[82.3192,32.4647],[82.3694,32.3999],[82.3473,32.3826],[82.3668,32.3458],[82.343,32.2925],[82.4219,32.1636],[82.3982,32.1102],[82.4583,32.0361],[82.4997,32.0166],[82.5165,31.9258],[82.5984,31.8689],[82.594,31.7788],[82.6252,31.7687],[82.685,31.6944],[82.7262,31.6749],[82.916,31.6681],[82.9251,31.6407],[82.9764,31.6117],[83.0324,31.6727],[83.0003,31.6649],[82.9068,31.6955],[82.9519,31.7479],[82.9317,31.7667],[82.9557,31.82],[82.9364,31.8568],[82.9796,31.8732],[82.9815,31.9092],[83.0147,31.935],[83.0781,31.9326],[83.1435,31.9662],[83.2271,31.9449],[83.2613,31.9887],[83.2422,32.0255],[83.2674,32.0967],[83.2372,32.125],[83.215,32.1078],[83.1333,32.1651],[83.0596,32.177],[83.0827,32.2122],[83.0665,32.303],[83.1099,32.3194],[83.0795,32.3476],[82.9521,32.3524],[82.9014,32.3994],[82.9236,32.4166],[82.9145,32.4441],[82.8294,32.4472],[82.7638,32.4134],[82.5513,32.4209],[82.5207,32.449],[82.5243,32.521],[82.4861,32.6125],[82.5203,32.6565],[82.5842,32.6543],[82.6398,32.6975],[82.6416,32.7335],[82.5803,32.7898],[82.5728,32.8532],[82.4772,32.8655],[82.4781,32.8835],[82.5217,32.9001],[82.5253,32.9721],[82.5048,32.9909],[82.5289,33.0442],[82.4117,33.0571],[82.3894,33.0398],[82.3252,33.0419],[82.1985,33.0821]]],[[[82.8491,31.8058],[82.8372,31.7792],[82.806,31.7894],[82.8179,31.816],[82.8491,31.8058]]]]}},{"type":"Feature","properties":{"cell":272,"feature":1641,"phase":"Decaying","min_bt_K":221.2,"area_km2":16708,"cold_core_km2":0,"speed_kmh":65.2,"heading_deg":100,"d_min_bt_30":6.1,"age_min":150,"family":168,"touches_missing":true,"lon":75.9256,"lat":29.0188,"merges_splits_so_far":14},"geometry":{"type":"MultiPolygon","coordinates":[[[[75.316,29.5848],[75.2128,29.5827],[75.1725,29.5458],[75.1509,29.5814],[75.1408,29.5721],[75.1655,29.4283],[75.2283,29.3936],[75.2092,29.339],[75.2618,29.295],[75.3135,29.287],[75.315,29.2329],[75.2356,29.123],[75.238,29.0329],[75.218,29.0144],[75.2395,28.9787],[75.1789,28.9414],[75.2043,28.7614],[75.1643,28.7245],[75.2167,28.6805],[75.2576,28.6813],[75.3822,28.6117],[75.3931,28.5848],[75.5074,28.5058],[75.59,28.4713],[75.6204,28.4808],[75.6296,28.5261],[75.7117,28.5095],[75.7618,28.5555],[75.7803,28.6461],[75.8313,28.6559],[75.8711,28.7107],[75.9024,28.6842],[75.874,28.5664],[75.9149,28.567],[75.9755,28.6041],[75.9963,28.5864],[76.0573,28.6053],[76.0989,28.5698],[76.2014,28.5532],[76.2325,28.5266],[76.2438,28.4636],[76.3255,28.4646],[76.3462,28.4468],[76.4668,28.5746],[76.5077,28.5751],[76.5685,28.6119],[76.5996,28.5851],[76.5794,28.5669],[76.5806,28.4766],[76.4803,28.3492],[76.5219,28.2955],[76.4816,28.259],[76.4821,28.2229],[76.5437,28.1875],[76.5244,28.115],[76.5754,28.1066],[76.5952,28.1429],[76.6563,28.1435],[76.7064,28.2072],[76.747,28.2256],[76.7159,28.2705],[76.6852,28.2792],[76.6845,28.3333],[76.7345,28.415],[76.7751,28.4335],[76.8772,28.4344],[77.1008,28.5444],[77.2534,28.6446],[77.2736,28.6808],[77.263,28.7258],[77.1094,28.7339],[77.109,28.7881],[77.1906,28.8247],[77.1899,28.9149],[77.1487,28.9327],[77.0761,29.0314],[77.0352,29.0131],[76.9939,29.0308],[76.8913,29.03],[76.8199,28.9843],[76.7694,28.9207],[76.7079,28.9201],[76.6871,28.9379],[76.6668,28.9197],[76.6461,28.9375],[76.5643,28.9186],[76.5126,28.9451],[76.5329,28.9634],[76.5316,29.0536],[76.5623,29.0629],[76.5722,29.0901],[76.5298,29.1799],[76.5496,29.2342],[76.4871,29.2877],[76.4858,29.3779],[76.5267,29.3964],[76.4745,29.4409],[76.4333,29.4404],[76.372,29.4036],[76.1248,29.4003],[76.0409,29.4713],[75.8966,29.469],[75.8561,29.4323],[75.5676,29.4273],[75.5259,29.4446],[75.5062,29.4081],[75.4943,29.471],[75.4632,29.4795],[75.4417,29.5152],[75.3592,29.5135],[75.316,29.5848]]]]}},{"type":"Feature","properties":{"cell":280,"feature":1633,"phase":"Developing","min_bt_K":235.8,"area_km2":1352,"cold_core_km2":0,"speed_kmh":29.9,"heading_deg":39,"d_min_bt_30":-0.2,"age_min":120,"family":280,"touches_missing":true,"lon":79.0063,"lat":33.2962,"merges_splits_so_far":0},"geometry":{"type":"MultiPolygon","coordinates":[[[[79.1428,33.7024],[79.0881,33.6398],[79.0874,33.5856],[79.0437,33.5319],[78.9462,33.4694],[78.8602,33.47],[78.8057,33.3892],[78.8049,33.299],[78.8902,33.2443],[78.8463,33.1363],[78.9637,33.0904],[79.0921,33.0895],[79.1898,33.1878],[79.1908,33.26],[79.2125,33.2778],[79.0846,33.3511],[79.1067,33.4051],[79.0859,33.4594],[79.1516,33.549],[79.1428,33.7024]]]]}},{"type":"Feature","properties":{"cell":292,"feature":1655,"phase":"Mature","min_bt_K":217.0,"area_km2":73256,"cold_core_km2":1352,"speed_kmh":43.0,"heading_deg":55,"d_min_bt_30":3.0,"age_min":120,"family":3,"touches_missing":true,"lon":73.6402,"lat":32.175,"merges_splits_so_far":26},"geometry":{"type":"MultiPolygon","coordinates":[[[[73.52,33.9933],[73.4768,33.9918],[73.4692,33.9284],[73.3847,33.8894],[73.3866,33.8534],[73.3031,33.7964],[73.2751,33.7142],[73.1364,33.6821],[73.1208,33.5733],[73.0695,33.5263],[73.0265,33.5247],[72.9855,33.487],[72.8801,33.4469],[72.8402,33.3913],[72.7758,33.3888],[72.735,33.3511],[72.7124,33.3682],[72.6411,33.3022],[72.6636,33.2851],[72.6679,33.213],[72.617,33.1659],[72.4692,33.1237],[72.4602,33.0963],[72.3869,33.0662],[72.307,32.9725],[72.2643,32.9707],[72.2351,32.9243],[72.2408,32.8343],[72.2105,32.8059],[72.1263,32.7842],[72.1019,32.6658],[72.0515,32.6185],[71.9989,32.6071],[72.0104,32.1023],[71.9904,32.0833],[72.0089,31.7954],[72.1411,31.711],[72.1256,31.6201],[72.1711,31.568],[72.1312,31.5301],[72.1644,31.5045],[72.3139,31.4749],[72.3371,31.4398],[72.4002,31.4425],[72.5147,31.2849],[72.5357,31.2857],[72.5546,31.3226],[72.8277,31.3335],[72.9046,31.2733],[72.9403,31.1935],[73.255,31.2051],[73.2961,31.2246],[73.3498,31.1995],[73.3625,31.1548],[73.4464,31.1577],[73.4691,31.1224],[73.631,31.2541],[73.7166,31.2208],[73.761,31.1681],[73.8029,31.1694],[73.8837,31.2441],[73.9677,31.2467],[74.0655,31.1685],[74.0677,31.1144],[74.1334,31.0442],[74.1644,30.7925],[74.2076,30.7576],[74.257,30.5605],[74.2993,30.5437],[74.3007,30.5076],[74.3544,30.464],[74.4377,30.4663],[74.4472,30.4936],[74.4257,30.5111],[74.4667,30.5302],[74.4648,30.5843],[74.4957,30.5941],[74.5178,30.5586],[74.5804,30.5603],[74.7072,30.5093],[74.7483,30.5284],[74.7983,30.5928],[74.7042,30.5995],[74.6069,30.6963],[74.6481,30.7154],[74.6044,30.7684],[74.6456,30.7875],[74.6019,30.8405],[74.6418,30.8956],[74.6406,30.9317],[74.692,30.96],[74.8408,30.8915],[75.0059,30.9675],[75.0274,30.9499],[75.0687,30.9689],[75.0886,31.0054],[75.1514,31.0068],[75.181,31.0706],[75.1574,31.1603],[75.1982,31.1972],[75.1229,31.2587],[75.0492,31.2661],[75.0691,31.3027],[75.0469,31.3383],[75.0441,31.4284],[75.022,31.464],[74.9793,31.4811],[74.9992,31.5176],[74.973,31.6794],[75.0044,31.6891],[75.0346,31.7349],[75.0123,31.7705],[75.0317,31.8251],[74.9672,31.8597],[74.9872,31.8962],[74.9837,32.0044],[74.9402,32.0395],[74.9372,32.1296],[74.8931,32.1827],[74.9137,32.2012],[74.9295,32.364],[74.9611,32.3737],[74.9915,32.4195],[74.9696,32.4371],[74.9903,32.4556],[74.9873,32.5457],[75.0293,32.5647],[75.0063,32.6183],[75.0379,32.6281],[75.1307,32.7293],[75.1301,32.7473],[75.0869,32.7644],[75.084,32.8546],[75.0407,32.8717],[75.017,32.9433],[74.962,32.9872],[74.8985,32.9677],[74.8435,33.0115],[74.8202,33.0651],[74.8409,33.0836],[74.8163,33.1733],[74.8554,33.2824],[74.8321,33.336],[74.8848,33.3643],[74.9781,33.4657],[74.9935,33.6465],[74.9609,33.6548],[74.9406,33.6182],[74.876,33.6167],[74.8661,33.5894],[74.7716,33.524],[74.707,33.5225],[74.6404,33.5749],[74.5099,33.6077],[74.4883,33.6071],[74.4682,33.5705],[74.1661,33.5802],[74.1246,33.5429],[74.0601,33.5411],[73.9803,33.6379],[73.9737,33.7821],[73.8546,33.7875],[73.8123,33.7681],[73.7027,33.8008],[73.6164,33.798],[73.5602,33.8412],[73.5575,33.8953],[73.5124,33.9299],[73.52,33.9933]]],[[[72.5244,33.099],[72.548,33.0638],[72.3948,32.9402],[72.3835,32.9487],[72.415,32.9591],[72.4646,33.0243],[72.5063,33.0441],[72.503,33.0981],[72.5244,33.099]]],[[[72.7578,33.1444],[72.6897,33.0244],[72.6256,33.0218],[72.5919,33.0476],[72.5897,33.0836],[72.6609,33.1496],[72.7578,33.1444]]]]}},{"type":"Feature","properties":{"cell":304,"feature":1652,"phase":"Unclassified","min_bt_K":233.1,"area_km2":1744,"cold_core_km2":0,"speed_kmh":15.7,"heading_deg":37,"d_min_bt_30":0.1,"age_min":90,"family":304,"touches_missing":true,"lon":77.9354,"lat":33.8623,"merges_splits_so_far":2},"geometry":{"type":"MultiPolygon","coordinates":[[[[78.3245,33.9956],[78.292,33.9867],[78.2918,33.9325],[78.2377,33.8875],[78.2053,33.8966],[78.2485,33.9146],[78.238,33.9958],[77.7404,33.9958],[77.6542,33.9053],[77.6111,33.8872],[77.5678,33.9051],[77.5355,33.8779],[77.5141,33.8418],[77.5358,33.8238],[77.5143,33.8057],[77.5146,33.7516],[77.6335,33.6888],[77.8707,33.6351],[77.8814,33.7343],[77.9245,33.7524],[77.9244,33.8065],[77.9568,33.8336],[78.108,33.8516],[78.2374,33.7793],[78.2915,33.8243],[78.3134,33.9144],[78.3567,33.9324],[78.3245,33.9956]]]]}},{"type":"Feature","properties":{"cell":342,"feature":1638,"phase":"Unclassified","min_bt_K":235.0,"area_km2":612,"cold_core_km2":0,"speed_kmh":9.4,"heading_deg":36,"d_min_bt_30":-0.1,"age_min":30,"family":342,"touches_missing":true,"lon":78.6747,"lat":33.9202,"merges_splits_so_far":0},"geometry":{"type":"MultiPolygon","coordinates":[[[[78.9086,33.9929],[78.8653,33.9932],[78.8217,33.9574],[78.7893,33.9666],[78.8219,33.9754],[78.822,33.9935],[78.4976,33.9951],[78.4864,33.932],[78.5294,33.8957],[78.5076,33.8597],[78.5829,33.8143],[78.6477,33.814],[78.6687,33.7417],[78.7663,33.8044],[78.7668,33.8585],[78.7239,33.8948],[78.7242,33.9309],[78.7567,33.9397],[78.7669,33.8765],[78.7993,33.8673],[78.8103,33.8943],[78.9191,33.9658],[78.9086,33.9929]]]]}},{"type":"Feature","properties":{"cell":343,"feature":1640,"phase":"Developing","min_bt_K":230.0,"area_km2":5820,"cold_core_km2":0,"speed_kmh":44.5,"heading_deg":351,"d_min_bt_30":-2.0,"age_min":30,"family":238,"touches_missing":true,"lon":72.7403,"lat":28.4084,"merges_splits_so_far":3},"geometry":{"type":"MultiPolygon","coordinates":[[[[72.4188,28.8986],[72.3885,28.8883],[72.3729,28.7974],[72.3339,28.7596],[72.3778,28.7073],[72.3029,28.5778],[72.369,28.4904],[72.371,28.4543],[72.3311,28.4346],[72.333,28.3986],[72.3758,28.3643],[72.3573,28.3274],[72.4292,28.3214],[72.4514,28.2863],[72.4922,28.288],[72.6288,28.2124],[72.6306,28.1763],[72.6953,28.1068],[72.7423,27.9823],[72.9214,27.8539],[73.0432,27.8585],[73.1017,27.9149],[73.2032,27.9186],[73.2504,28.0016],[73.248,28.0556],[73.1845,28.1075],[73.1813,28.1796],[73.1601,28.1969],[73.1568,28.2689],[73.1967,28.2885],[73.1959,28.3065],[73.1241,28.3129],[73.1021,28.3482],[73.0613,28.3466],[73.0392,28.3819],[72.978,28.3796],[72.9593,28.3428],[72.938,28.36],[72.9203,28.3052],[72.8591,28.3028],[72.8272,28.3286],[72.8653,28.3843],[72.8609,28.4743],[72.9978,28.606],[72.9953,28.66],[72.9526,28.6945],[72.95,28.7485],[72.7906,28.8597],[72.7291,28.8572],[72.7068,28.8924],[72.6043,28.8883],[72.5652,28.8506],[72.5223,28.8849],[72.4403,28.8815],[72.4188,28.8986]]],[[[72.7416,28.8126],[72.828,28.7258],[72.788,28.7061],[72.7907,28.6521],[72.8725,28.6553],[72.8032,28.6075],[72.7845,28.5706],[72.7534,28.5784],[72.7925,28.6161],[72.7916,28.6341],[72.7498,28.6505],[72.748,28.6865],[72.7862,28.7422],[72.7639,28.7774],[72.7221,28.7938],[72.7309,28.8212],[72.7416,28.8126]]]]}},{"type":"Feature","properties":{"cell":350,"feature":1621,"phase":"Unclassified","min_bt_K":236.5,"area_km2":1848,"cold_core_km2":0,"speed_kmh":30.9,"heading_deg":188,"d_min_bt_30":5.2,"age_min":30,"family":3,"touches_missing":true,"lon":72.5307,"lat":29.6924,"merges_splits_so_far":1},"geometry":{"type":"MultiPolygon","coordinates":[[[[72.1519,29.97],[72.0287,29.9464],[71.9993,29.918],[72.0919,29.9312],[72.1779,29.8809],[72.2126,29.8192],[72.194,29.7823],[72.2255,29.7747],[72.27,29.7225],[72.333,29.7071],[72.5935,29.4834],[72.6347,29.4851],[72.6778,29.4508],[72.788,29.5183],[72.7852,29.5724],[72.8147,29.6006],[73.0508,29.6367],[73.0185,29.6626],[72.9359,29.6594],[72.7866,29.7439],[72.6016,29.7184],[72.5691,29.7441],[72.6076,29.7998],[72.5534,29.8427],[72.512,29.841],[72.4894,29.8762],[72.4076,29.8547],[72.3957,29.8813],[72.299,29.9403],[72.2369,29.9376],[72.1519,29.97]]]]}},{"type":"Feature","properties":{"cell":352,"feature":1622,"phase":"Unclassified","min_bt_K":242.4,"area_km2":240,"cold_core_km2":0,"speed_kmh":13.1,"heading_deg":139,"d_min_bt_30":9.1,"age_min":30,"family":3,"touches_missing":true,"lon":72.176,"lat":30.2201,"merges_splits_so_far":1},"geometry":{"type":"MultiPolygon","coordinates":[[[[72.1952,30.2967],[72.112,30.2931],[72.0825,30.2647],[72.1097,30.1576],[72.2047,30.1347],[72.2757,30.1649],[72.2497,30.254],[72.1952,30.2967]]]]}},{"type":"Feature","properties":{"cell":353,"feature":1643,"phase":"Unclassified","min_bt_K":232.0,"area_km2":10508,"cold_core_km2":0,"speed_kmh":54.6,"heading_deg":111,"d_min_bt_30":1.7,"age_min":30,"family":3,"touches_missing":true,"lon":83.5161,"lat":32.4982,"merges_splits_so_far":2},"geometry":{"type":"MultiPolygon","coordinates":[[[[83.4912,33.1795],[83.383,33.1659],[83.3595,33.1307],[83.3166,33.1324],[83.2605,33.0896],[83.2145,33.0372],[83.1757,32.9214],[83.014,32.9005],[83.012,32.8645],[82.9673,32.8301],[82.9614,32.722],[83.0437,32.6648],[83.0774,32.5011],[83.1402,32.4807],[83.1159,32.4274],[83.1331,32.3546],[83.2069,32.3427],[83.215,32.2973],[83.2463,32.287],[83.2756,32.2408],[83.2695,32.1327],[83.2473,32.1156],[83.2987,32.0864],[83.3581,32.0119],[83.4025,32.0462],[83.5183,32.0324],[83.5215,32.0864],[83.5815,32.2012],[83.6228,32.1814],[83.6451,32.1985],[83.6752,32.1702],[83.6529,32.1531],[83.7031,32.1058],[83.7165,32.1504],[83.8046,32.2007],[83.8516,32.2708],[83.8928,32.251],[83.8013,32.1467],[83.7923,32.0027],[83.8323,31.9649],[83.8267,31.8749],[83.7523,31.8691],[83.6922,31.9258],[83.6577,31.8822],[83.6512,31.7742],[83.7313,31.6986],[83.7269,31.6266],[83.7469,31.6076],[83.7225,31.5546],[83.7425,31.5356],[83.6961,31.4655],[83.7548,31.3907],[83.7726,31.3358],[83.7505,31.3187],[83.7903,31.2809],[83.7981,31.2355],[83.8842,31.2678],[83.893,31.2403],[83.9339,31.2204],[83.9294,31.1484],[83.979,31.1011],[84.0104,31.4336],[83.9905,31.4525],[84.0099,31.7584],[83.99,31.7774],[84.0096,32.0833],[83.9896,32.1023],[84.0106,32.4262],[83.9905,32.4451],[83.9987,32.896],[83.9673,32.9064],[83.8368,32.8761],[83.7918,32.8419],[83.6851,32.8465],[83.6413,32.8304],[83.6367,32.9298],[83.6592,32.9469],[83.6626,33.0009],[83.5195,33.1152],[83.5217,33.1512],[83.4912,33.1795]]],[[[83.7075,32.3493],[83.6283,32.2714],[83.5858,32.2732],[83.5556,32.3015],[83.5902,32.3452],[83.7075,32.3493]]]]}},{"type":"Feature","properties":{"cell":357,"feature":1646,"phase":"Unclassified","min_bt_K":234.0,"area_km2":1756,"cold_core_km2":0,"speed_kmh":16.5,"heading_deg":242,"d_min_bt_30":0.0,"age_min":30,"family":3,"touches_missing":false,"lon":82.2926,"lat":33.2369,"merges_splits_so_far":2},"geometry":{"type":"MultiPolygon","coordinates":[[[[82.4079,33.4182],[82.279,33.4224],[82.2137,33.4064],[82.1905,33.371],[81.9415,33.3335],[81.9614,33.2968],[82.0035,33.2775],[82.0019,33.2415],[82.044,33.2222],[82.0914,33.0854],[82.1985,33.0821],[82.3252,33.0419],[82.5298,33.0622],[82.5667,33.3677],[82.4079,33.4182]]]]}},{"type":"Feature","properties":{"cell":359,"feature":1648,"phase":"Unclassified","min_bt_K":233.0,"area_km2":7284,"cold_core_km2":0,"speed_kmh":14.0,"heading_deg":21,"d_min_bt_30":3.3,"age_min":30,"family":3,"touches_missing":true,"lon":82.2735,"lat":33.7678,"merges_splits_so_far":5},"geometry":{"type":"MultiPolygon","coordinates":[[[[83.347,33.9976],[82.5674,34.0084],[82.5449,33.9911],[81.9825,34.009],[81.9601,33.9916],[81.4842,34.0048],[81.4925,33.9415],[81.4367,33.8978],[81.3935,33.8989],[81.3705,33.8634],[81.2842,33.8655],[81.2488,33.7852],[81.333,33.729],[81.3095,33.6754],[81.3512,33.6383],[81.3068,33.6033],[81.3054,33.5673],[81.3471,33.5301],[81.3458,33.4941],[81.4193,33.4471],[81.4526,33.4733],[81.4547,33.5274],[81.37,33.5657],[81.4144,33.6006],[81.3963,33.6913],[81.5991,33.9026],[81.6535,33.9101],[81.7272,33.863],[81.7041,33.8275],[81.7458,33.7903],[81.7427,33.7182],[81.7635,33.6995],[81.7612,33.6455],[81.7166,33.6106],[81.7144,33.5565],[81.7893,33.5454],[81.8611,33.4622],[81.9033,33.4429],[81.9439,33.3876],[81.9312,33.3428],[82.0385,33.3396],[82.1261,33.373],[82.1905,33.371],[82.2137,33.4064],[82.2678,33.4137],[82.2145,33.4244],[82.1852,33.4885],[82.2868,33.5845],[82.3971,33.6351],[82.5891,33.5926],[82.6199,33.5644],[82.6181,33.5284],[82.6714,33.5175],[82.6836,33.5442],[82.7275,33.5607],[82.7295,33.5967],[82.7754,33.6492],[82.9302,33.7158],[82.9548,33.769],[82.9353,33.8058],[82.9486,33.8505],[82.9907,33.8308],[83.1418,33.8251],[83.2108,33.8947],[83.254,33.893],[83.354,33.9341],[83.347,33.9976]]]]}},{"type":"Feature","properties":{"cell":363,"feature":1610,"phase":"Unclassified","min_bt_K":242.8,"area_km2":124,"cold_core_km2":0,"speed_kmh":null,"heading_deg":null,"d_min_bt_30":null,"age_min":0,"family":363,"touches_missing":false,"lon":78.4733,"lat":26.0963,"merges_splits_so_far":0},"geometry":{"type":"MultiPolygon","coordinates":[[[[78.5597,26.1271],[78.3597,26.1097],[78.3496,26.0646],[78.4395,26.0553],[78.5195,26.0911],[78.5594,26.0729],[78.5895,26.0999],[78.5597,26.1271]]]]}},{"type":"Feature","properties":{"cell":371,"feature":1651,"phase":"Unclassified","min_bt_K":229.5,"area_km2":2156,"cold_core_km2":0,"speed_kmh":null,"heading_deg":null,"d_min_bt_30":null,"age_min":0,"family":3,"touches_missing":false,"lon":83.7742,"lat":33.819,"merges_splits_so_far":1},"geometry":{"type":"MultiPolygon","coordinates":[[[[83.9981,34.0061],[83.932,33.991],[83.5211,34.0086],[83.4984,33.9915],[83.3573,33.9882],[83.3756,33.9333],[83.4268,33.8861],[83.5439,33.8542],[83.4973,33.802],[83.5144,33.7291],[83.6811,33.6318],[83.6788,33.5958],[83.6334,33.5617],[83.6527,33.5248],[83.6402,33.4982],[83.768,33.4747],[83.784,33.5552],[83.8181,33.5808],[83.8611,33.579],[83.885,33.614],[84.0077,33.6717],[83.9898,33.7267],[83.9981,34.0061]]]]}}]}