{"type":"FeatureCollection","features":[{"type":"Feature","properties":{"cell":186,"feature":1733,"phase":"Decaying","min_bt_K":218.6,"area_km2":11824,"cold_core_km2":60,"speed_kmh":84.6,"heading_deg":115,"d_min_bt_30":4.6,"age_min":330,"family":168,"touches_missing":true,"lon":75.3035,"lat":27.4748,"merges_splits_so_far":26},"geometry":{"type":"MultiPolygon","coordinates":[[[[75.521,27.9285],[75.4194,27.9266],[75.3611,27.8171],[75.0765,27.8291],[74.9672,27.7454],[75.0092,27.6922],[74.9385,27.6816],[74.899,27.6446],[74.5754,27.6185],[74.5864,27.5917],[74.5476,27.5365],[74.5494,27.4824],[74.5101,27.4453],[74.5118,27.3911],[74.5539,27.3381],[74.4945,27.3004],[74.4974,27.2102],[74.5394,27.1572],[74.5913,27.1134],[74.7139,27.0623],[74.7248,27.0355],[74.8379,26.957],[74.9784,26.9784],[75.0265,27.0607],[75.0964,27.0894],[75.1573,27.0727],[75.2581,27.0748],[75.2975,27.1117],[75.3983,27.1138],[75.4395,27.0785],[75.5197,27.0981],[75.5316,27.017],[75.4922,26.9802],[75.4938,26.908],[75.5846,26.9007],[75.6051,26.883],[75.7053,26.9028],[75.8533,27.0588],[75.8512,27.1671],[75.8706,27.2035],[75.9107,27.2222],[75.8894,27.276],[75.9791,27.3406],[76.06,27.3418],[76.1803,27.3977],[76.2102,27.4252],[76.2096,27.4613],[76.27,27.4802],[76.3085,27.607],[76.2371,27.6332],[76.1972,27.5965],[76.0352,27.5942],[75.9119,27.6826],[75.8316,27.6452],[75.8006,27.6717],[75.7992,27.7439],[75.7682,27.7705],[75.6663,27.7868],[75.521,27.9285]]]]}},{"type":"Feature","properties":{"cell":192,"feature":1727,"phase":"Developing","min_bt_K":223.0,"area_km2":13524,"cold_core_km2":0,"speed_kmh":55.7,"heading_deg":75,"d_min_bt_30":3.7,"age_min":300,"family":3,"touches_missing":true,"lon":74.731,"lat":29.4424,"merges_splits_so_far":5},"geometry":{"type":"MultiPolygon","coordinates":[[[[74.8685,30.0261],[74.7856,30.0241],[74.7453,29.987],[74.4759,29.9801],[74.4539,30.0156],[74.4125,30.0145],[74.3723,29.9773],[74.2894,29.975],[74.2801,29.9477],[74.2393,29.9285],[74.242,29.8564],[74.1806,29.8366],[74.1434,29.7272],[74.1028,29.708],[74.1248,29.6726],[74.0656,29.5986],[74.087,29.5812],[74.0684,29.5265],[74.1104,29.5097],[74.1125,29.4557],[74.1551,29.4208],[74.1571,29.3667],[74.1784,29.3493],[74.1817,29.2592],[74.203,29.2417],[74.1858,29.151],[74.2275,29.1342],[74.2083,29.0975],[74.2302,29.0621],[74.2123,28.9894],[74.3075,28.9108],[74.3361,28.9748],[74.4262,29.0404],[74.438,28.9956],[74.3995,28.9224],[74.5361,28.8268],[74.6181,28.8289],[74.6397,28.7934],[74.7012,28.7949],[74.7405,28.8501],[74.7831,28.797],[74.803,28.8155],[74.8855,28.7994],[74.9049,28.836],[75.1104,28.8226],[75.1628,28.7786],[75.1448,28.688],[75.2167,28.6805],[75.2566,28.7174],[75.359,28.7195],[75.409,28.7656],[75.3567,28.8097],[75.3367,28.7913],[75.3057,28.7996],[75.3362,28.8093],[75.4259,28.9103],[75.4255,28.9284],[75.395,28.9187],[75.3416,28.9989],[75.3001,29.0161],[75.3402,29.053],[75.3393,29.0891],[75.379,29.144],[75.3748,29.3063],[75.4146,29.3612],[75.3835,29.3697],[75.3303,29.4317],[75.3495,29.4863],[75.3179,29.5127],[75.2766,29.5119],[75.1488,29.6535],[75.0969,29.6614],[75.1166,29.6979],[75.0922,29.8237],[75.0609,29.832],[75.0073,29.894],[74.9845,29.9656],[74.8685,30.0261]]],[[[74.6884,28.8758],[74.6479,28.8568],[74.6573,28.8841],[74.6884,28.8758]]]]}},{"type":"Feature","properties":{"cell":210,"feature":1698,"phase":"Developing","min_bt_K":237.0,"area_km2":1464,"cold_core_km2":0,"speed_kmh":96.2,"heading_deg":56,"d_min_bt_30":2.7,"age_min":270,"family":210,"touches_missing":true,"lon":76.7164,"lat":26.911,"merges_splits_so_far":5},"geometry":{"type":"MultiPolygon","coordinates":[[[[76.6085,27.1141],[76.5784,27.1047],[76.5791,27.0506],[76.6099,27.0058],[76.5495,27.0051],[76.49,26.9322],[76.4095,26.9313],[76.3891,26.9491],[76.3593,26.9216],[76.3604,26.8494],[76.3912,26.8047],[76.4515,26.8054],[76.4922,26.7697],[76.7534,26.7905],[76.7733,26.8088],[76.8738,26.8097],[76.9137,26.8461],[76.974,26.8466],[77.0842,26.9106],[77.084,26.9287],[77.0436,26.9464],[77.0837,26.9648],[77.0731,27.0279],[77.043,27.0187],[77.0331,26.9915],[76.7713,26.9893],[76.7104,27.0249],[76.6695,27.0786],[76.6292,27.0782],[76.6085,27.1141]]]]}},{"type":"Feature","properties":{"cell":227,"feature":1728,"phase":"Developing","min_bt_K":233.0,"area_km2":17220,"cold_core_km2":0,"speed_kmh":56.2,"heading_deg":155,"d_min_bt_30":1.0,"age_min":240,"family":3,"touches_missing":true,"lon":83.4108,"lat":32.9849,"merges_splits_so_far":27},"geometry":{"type":"MultiPolygon","coordinates":[[[[83.8013,33.6538],[83.7672,33.6282],[83.7625,33.5562],[83.7274,33.5125],[83.5995,33.536],[83.5201,33.6476],[83.4511,33.5782],[83.3435,33.5826],[83.2993,33.5663],[83.1854,33.4625],[83.0554,33.4494],[83.0462,33.4768],[83.0145,33.487],[82.9675,33.4166],[82.8805,33.4018],[82.8571,33.3665],[82.7683,33.3156],[82.661,33.3194],[82.6274,33.2935],[82.6246,33.2394],[82.6638,33.1659],[82.6191,33.1313],[82.634,33.0045],[82.5885,32.9519],[82.6071,32.8971],[82.5999,32.753],[82.5563,32.7365],[82.5953,32.663],[82.5509,32.6284],[82.5464,32.5383],[82.5243,32.521],[82.6279,32.4633],[82.6252,32.4093],[82.6668,32.3898],[82.6853,32.335],[82.6798,32.2269],[82.7398,32.1526],[82.738,32.1166],[82.7996,32.0783],[82.8272,31.9961],[82.9964,31.9899],[83.0417,32.0423],[83.1032,32.0039],[83.1878,32.0006],[83.2019,32.0632],[83.1071,32.0759],[83.0778,32.1221],[83.1343,32.1831],[83.2624,32.1962],[83.317,32.2211],[83.2968,32.2399],[83.2999,32.2939],[83.2393,32.3505],[83.2211,32.4053],[83.1594,32.4438],[83.1624,32.4978],[83.2171,32.5228],[83.2789,32.4842],[83.3144,32.546],[83.3915,32.588],[83.4219,32.5597],[83.4277,32.4783],[83.4937,32.5117],[83.5294,32.5733],[83.5348,32.6634],[83.5157,32.7002],[83.5504,32.7439],[83.6357,32.7403],[83.6581,32.7574],[83.666,32.712],[83.6436,32.6949],[83.6615,32.64],[83.6178,32.6238],[83.6156,32.5878],[83.647,32.5774],[83.6862,32.5216],[83.7097,32.5567],[83.7411,32.5463],[83.7176,32.5113],[83.7366,32.4744],[83.7052,32.4847],[83.6918,32.4402],[83.7422,32.3929],[83.8059,32.3901],[83.8125,32.3267],[83.9141,32.25],[83.9083,32.16],[83.8648,32.1439],[83.8391,32.0728],[83.8792,32.035],[83.8912,31.8901],[83.9523,31.8513],[83.98,31.7869],[84.0096,32.0833],[83.9896,32.1023],[84.0106,32.4262],[83.9905,32.4451],[84.0106,32.751],[83.9904,32.77],[84.0107,33.0759],[83.9905,33.0949],[83.9992,33.5458],[83.9484,33.5932],[83.8838,33.596],[83.8013,33.6538]]],[[[83.0011,32.6664],[83.0103,32.639],[82.9667,32.6226],[82.9139,32.6336],[82.9261,32.6602],[82.9696,32.6766],[83.0011,32.6664]]],[[[83.1097,32.6984],[83.13,32.6796],[83.1158,32.6169],[83.0427,32.6468],[83.0437,32.6648],[83.1097,32.6984]]],[[[82.8421,32.8888],[82.8839,32.8693],[82.8819,32.8332],[82.9237,32.8137],[82.9217,32.7776],[82.8781,32.7612],[82.865,32.7166],[82.8224,32.7181],[82.7556,32.6664],[82.713,32.6679],[82.7037,32.6953],[82.7918,32.7463],[82.7956,32.8183],[82.7557,32.8739],[82.8106,32.899],[82.8421,32.8888]]],[[[83.1483,33.0037],[83.1462,32.9677],[83.0893,32.9067],[83.0617,32.989],[83.0953,33.0147],[83.1483,33.0037]]]]}},{"type":"Feature","properties":{"cell":272,"feature":1725,"phase":"Decaying","min_bt_K":225.4,"area_km2":10788,"cold_core_km2":0,"speed_kmh":40.8,"heading_deg":62,"d_min_bt_30":4.2,"age_min":180,"family":168,"touches_missing":true,"lon":76.1107,"lat":29.105,"merges_splits_so_far":14},"geometry":{"type":"MultiPolygon","coordinates":[[[[75.6896,29.5017],[75.5659,29.4995],[75.5571,29.4361],[75.5172,29.3813],[75.5597,29.3279],[75.5399,29.2915],[75.5631,29.1836],[75.5233,29.1287],[75.5443,29.1111],[75.5246,29.0746],[75.5272,28.9664],[75.5699,28.895],[75.5298,28.8582],[75.5816,28.8321],[75.7074,28.708],[75.8108,28.6556],[75.9131,28.6573],[75.9547,28.6218],[76.0161,28.6228],[76.0563,28.6594],[76.2401,28.6801],[76.2499,28.7073],[76.3208,28.7533],[76.403,28.7363],[76.4639,28.7731],[76.5049,28.7736],[76.5653,28.8464],[76.647,28.8653],[76.6581,28.8023],[76.6889,28.7936],[76.6995,28.7666],[76.6485,28.7571],[76.6183,28.7116],[76.6301,28.5945],[76.7722,28.6861],[76.9562,28.7057],[76.9764,28.7239],[77.0174,28.7242],[77.1408,28.6529],[77.3448,28.7443],[77.3859,28.7265],[77.4677,28.7449],[77.539,28.8083],[77.4673,28.8171],[77.4265,28.7808],[77.2833,28.762],[77.2216,28.7978],[77.0372,28.7966],[77.0162,28.8506],[76.9547,28.8501],[76.8823,28.9127],[76.9022,28.967],[76.8403,29.0025],[76.7356,29.164],[76.7352,29.2],[76.7761,29.2185],[76.7755,29.2726],[76.7339,29.3083],[76.7334,29.3444],[76.5564,29.4779],[76.3296,29.4752],[76.3096,29.4389],[76.2272,29.4378],[76.1454,29.4006],[76.1241,29.4364],[76.0832,29.4177],[75.9588,29.452],[75.8974,29.433],[75.876,29.4687],[75.7729,29.467],[75.7321,29.4483],[75.6896,29.5017]]]]}},{"type":"Feature","properties":{"cell":280,"feature":1719,"phase":"Developing","min_bt_K":236.3,"area_km2":1416,"cold_core_km2":0,"speed_kmh":18.5,"heading_deg":46,"d_min_bt_30":0.5,"age_min":150,"family":280,"touches_missing":true,"lon":79.0782,"lat":33.3538,"merges_splits_so_far":0},"geometry":{"type":"MultiPolygon","coordinates":[[[[79.2298,33.7558],[79.1973,33.7471],[79.1965,33.693],[79.0976,33.5404],[78.9255,33.5417],[78.8926,33.4788],[78.8494,33.4611],[78.8705,33.4248],[78.8487,33.3889],[78.8911,33.3345],[78.9339,33.3162],[78.9327,33.2079],[79.0928,33.1436],[79.1893,33.1518],[79.1686,33.2061],[79.2014,33.2509],[79.2771,33.2953],[79.2993,33.3492],[79.2781,33.3674],[79.3006,33.4394],[79.2688,33.4668],[79.2043,33.4674],[79.1509,33.4949],[79.1513,33.531],[79.1948,33.5667],[79.1956,33.6208],[79.2176,33.6567],[79.261,33.6743],[79.2298,33.7558]]]]}},{"type":"Feature","properties":{"cell":292,"feature":1736,"phase":"Mature","min_bt_K":220.0,"area_km2":96068,"cold_core_km2":260,"speed_kmh":101.2,"heading_deg":170,"d_min_bt_30":3.0,"age_min":150,"family":3,"touches_missing":true,"lon":73.7303,"lat":31.7252,"merges_splits_so_far":28},"geometry":{"type":"MultiPolygon","coordinates":[[[[73.9127,33.9337],[73.8055,33.9123],[73.7442,33.8382],[73.701,33.8368],[73.6699,33.8087],[73.651,33.754],[73.6743,33.7186],[73.633,33.6812],[73.6401,33.5371],[73.61,33.491],[73.5231,33.5061],[73.4614,33.4499],[73.3128,33.4087],[73.2932,33.3719],[73.2288,33.3696],[73.2083,33.3508],[73.1858,33.3681],[73.1214,33.3657],[73.0498,33.2999],[73.0517,33.2639],[73.0211,33.2357],[72.9782,33.2341],[72.8425,33.1658],[72.8466,33.0937],[72.7753,33.0278],[72.7325,33.0261],[72.6288,32.9678],[72.5737,32.9927],[72.5908,33.0656],[72.5549,33.1273],[72.531,32.9909],[72.577,32.9387],[72.4846,32.8717],[72.4003,32.8502],[72.37,32.8218],[72.3722,32.7858],[72.2802,32.7187],[72.1837,32.7236],[72.1658,32.6686],[72.1894,32.6336],[72.1491,32.5957],[72.1548,32.5057],[72.1057,32.4404],[72.013,32.3911],[72.0377,32.3381],[72.0188,32.3012],[72.0882,32.214],[72.0905,32.178],[72.1598,32.0908],[72.2032,32.0747],[72.1843,32.0378],[72.3222,31.8633],[72.3033,31.8264],[72.3287,31.7553],[72.2887,31.7175],[72.2742,31.6086],[72.3196,31.5564],[72.3018,31.5015],[72.3702,31.4142],[72.3503,31.3953],[72.3745,31.3421],[72.3346,31.3044],[72.3076,31.0506],[72.3317,30.9974],[72.5063,30.8785],[72.5094,30.8245],[72.6219,30.6847],[72.6248,30.6307],[72.6784,30.6058],[72.7012,30.5706],[72.7429,30.5723],[72.7756,30.5465],[72.7586,30.4736],[72.8032,30.4213],[72.806,30.3672],[72.8514,30.2968],[72.8315,30.278],[72.8343,30.224],[72.9022,30.1183],[72.9068,30.0283],[72.8672,29.9906],[72.8691,29.9546],[72.8286,29.935],[72.8342,29.8269],[72.9511,29.7683],[72.9961,29.6978],[73.1416,29.6852],[73.2836,29.7445],[73.3225,29.8],[73.3638,29.8015],[73.4036,29.8389],[73.4863,29.8418],[73.5452,29.916],[73.5882,29.8813],[73.6472,29.9555],[73.6901,29.9208],[73.7722,29.9415],[73.7799,30.0049],[73.8106,30.0149],[73.8199,30.0422],[73.7776,30.0589],[73.7646,30.1217],[73.7438,30.121],[73.7246,30.0843],[73.7131,30.111],[73.7823,30.1944],[73.8238,30.1957],[73.8638,30.2331],[73.8853,30.2157],[73.9684,30.2183],[74.0092,30.2375],[74.0486,30.2929],[74.2343,30.3344],[74.294,30.4082],[74.3806,30.3204],[74.482,30.3953],[74.586,30.398],[74.6472,30.4357],[74.6561,30.481],[74.7275,30.5279],[74.8525,30.5309],[74.9161,30.4963],[74.9578,30.4973],[75.0006,30.4622],[75.0839,30.464],[75.1132,30.5278],[75.0908,30.5815],[75.1314,30.6184],[75.0881,30.6716],[75.0458,30.6887],[75.086,30.7437],[75.0544,30.7521],[75.0217,30.7964],[75.0404,30.869],[75.0811,30.906],[75.0762,31.0683],[75.0541,31.1039],[75.095,31.1409],[75.0525,31.158],[75.0724,31.1945],[75.0497,31.2481],[75.1229,31.2587],[75.1531,31.3045],[75.1725,31.359],[75.1466,31.5209],[75.2082,31.5763],[75.2066,31.6304],[75.2672,31.7218],[75.2815,31.9567],[75.2387,31.9738],[75.2577,32.0464],[75.236,32.064],[75.2323,32.1902],[75.2105,32.2078],[75.2487,32.3529],[75.2057,32.3701],[75.2029,32.4602],[75.2651,32.5156],[75.263,32.5878],[75.2837,32.6062],[75.2614,32.6418],[75.2805,32.7144],[75.2587,32.732],[75.2997,32.787],[75.3184,32.8776],[75.2094,32.9475],[75.2296,32.984],[75.1257,33.2254],[75.0834,33.2064],[74.9333,33.2031],[74.8709,33.1475],[74.8066,33.146],[74.7436,33.1083],[74.6359,33.1237],[74.5806,33.1674],[74.5993,33.2401],[74.6305,33.2679],[74.6948,33.2695],[74.7468,33.3159],[74.767,33.3525],[74.7631,33.4607],[74.7839,33.4792],[74.7826,33.5153],[74.7389,33.5323],[74.7356,33.6224],[74.6815,33.6301],[74.6259,33.6738],[74.5904,33.7541],[74.5042,33.7519],[74.4812,33.7874],[74.4164,33.7857],[74.2692,33.6914],[74.2261,33.6902],[74.1845,33.6529],[74.1199,33.6511],[73.9538,33.7454],[73.9729,33.8001],[73.9505,33.8175],[73.9463,33.9076],[73.9127,33.9337]]]]}},{"type":"Feature","properties":{"cell":304,"feature":1722,"phase":"Developing","min_bt_K":233.0,"area_km2":1780,"cold_core_km2":0,"speed_kmh":29.4,"heading_deg":104,"d_min_bt_30":-0.1,"age_min":120,"family":304,"touches_missing":true,"lon":78.0894,"lat":33.8294,"merges_splits_so_far":3},"geometry":{"type":"MultiPolygon","coordinates":[[[[78.3461,33.9956],[77.9135,33.996],[77.8919,33.9599],[77.8703,33.9599],[77.8486,33.9959],[77.8053,33.9959],[77.7946,33.9688],[77.7513,33.9507],[77.7515,33.9146],[77.6867,33.8784],[77.6869,33.8242],[77.7302,33.8063],[77.7411,33.7612],[77.8921,33.7614],[77.9677,33.6803],[77.9569,33.6351],[78.0,33.6532],[78.0431,33.5991],[78.1507,33.5809],[78.1616,33.626],[78.2911,33.716],[78.3129,33.7701],[78.3023,33.8333],[78.2482,33.7883],[78.248,33.7342],[78.2049,33.7523],[78.1835,33.8245],[78.2052,33.8605],[78.2484,33.8785],[78.2054,33.9327],[78.2378,33.9417],[78.2593,33.9055],[78.2917,33.8965],[78.2484,33.8605],[78.2483,33.8424],[78.2807,33.8333],[78.3566,33.9143],[78.3461,33.9956]]]]}},{"type":"Feature","properties":{"cell":343,"feature":1726,"phase":"Developing","min_bt_K":231.3,"area_km2":4040,"cold_core_km2":0,"speed_kmh":40.5,"heading_deg":15,"d_min_bt_30":1.3,"age_min":60,"family":238,"touches_missing":true,"lon":72.7929,"lat":28.585,"merges_splits_so_far":3},"geometry":{"type":"MultiPolygon","coordinates":[[[[72.8298,28.8973],[72.6658,28.8908],[72.5973,28.8248],[72.5406,28.7322],[72.5296,28.5513],[72.4711,28.4947],[72.4545,28.4218],[72.539,28.3711],[72.595,28.2742],[72.7191,28.2431],[72.7634,28.1727],[72.8758,28.1681],[72.8979,28.1328],[72.8802,28.078],[72.9455,27.9902],[72.9074,27.9346],[72.9595,27.9095],[73.0268,27.9933],[73.0566,28.2291],[73.0256,28.237],[72.9662,28.1986],[72.8741,28.2041],[72.9495,28.3334],[72.9478,28.3694],[73.0464,28.4453],[73.0545,28.4908],[73.1051,28.5017],[73.1009,28.5918],[73.0549,28.6984],[73.1261,28.71],[73.1752,28.757],[73.1915,28.8478],[73.1603,28.8557],[73.1415,28.8189],[73.0766,28.8887],[73.0561,28.8879],[73.0374,28.8511],[72.9946,28.8856],[72.8512,28.8801],[72.8298,28.8973]]],[[[72.9081,28.765],[72.8387,28.7172],[72.7809,28.6427],[72.7498,28.6505],[72.8583,28.736],[72.877,28.7728],[72.9081,28.765]]]]}},{"type":"Feature","properties":{"cell":357,"feature":1729,"phase":"Unclassified","min_bt_K":234.2,"area_km2":1664,"cold_core_km2":0,"speed_kmh":34.5,"heading_deg":102,"d_min_bt_30":0.2,"age_min":60,"family":3,"touches_missing":false,"lon":82.4736,"lat":33.2038,"merges_splits_so_far":2},"geometry":{"type":"MultiPolygon","coordinates":[[[[82.3685,33.4917],[82.2713,33.4858],[82.2919,33.4671],[82.2858,33.3409],[82.3262,33.2855],[82.3415,33.1587],[82.4424,33.029],[82.4389,32.957],[82.4799,32.9195],[82.4932,32.7567],[82.562,32.637],[82.5962,32.681],[82.5563,32.7365],[82.5803,32.7898],[82.5617,32.8446],[82.584,32.8619],[82.5885,32.9519],[82.634,33.0045],[82.6191,33.1313],[82.6647,33.1839],[82.6246,33.2394],[82.6274,33.2935],[82.5743,33.3043],[82.5444,33.3504],[82.5686,33.4038],[82.5499,33.4585],[82.3891,33.4729],[82.3685,33.4917]]]]}},{"type":"Feature","properties":{"cell":359,"feature":1731,"phase":"Unclassified","min_bt_K":233.2,"area_km2":4468,"cold_core_km2":0,"speed_kmh":31.8,"heading_deg":84,"d_min_bt_30":0.2,"age_min":60,"family":3,"touches_missing":false,"lon":82.4443,"lat":33.7822,"merges_splits_so_far":6},"geometry":{"type":"MultiPolygon","coordinates":[[[[82.9135,33.9961],[81.9825,34.009],[81.9272,33.9836],[81.924,33.9115],[81.8696,33.904],[81.7465,33.8083],[81.7011,33.7554],[81.6988,33.7013],[81.7524,33.6908],[81.7939,33.6536],[81.797,33.7257],[81.8401,33.7244],[81.9072,33.7766],[81.9504,33.7754],[81.9951,33.8101],[82.0599,33.8082],[82.0823,33.8255],[82.154,33.7421],[82.1523,33.7061],[82.236,33.6493],[82.2343,33.6133],[82.2954,33.5391],[82.2824,33.4944],[82.5611,33.4672],[82.5984,33.5652],[82.6761,33.6076],[82.707,33.5794],[82.7022,33.4894],[82.8405,33.4574],[82.8742,33.4832],[82.8772,33.5372],[82.8567,33.556],[82.8812,33.6093],[83.038,33.7118],[83.0082,33.758],[82.9435,33.7604],[82.8808,33.7988],[82.8097,33.8826],[82.9135,33.9961]]]]}},{"type":"Feature","properties":{"cell":363,"feature":1694,"phase":"Developing","min_bt_K":241.0,"area_km2":708,"cold_core_km2":0,"speed_kmh":14.5,"heading_deg":303,"d_min_bt_30":-1.8,"age_min":30,"family":363,"touches_missing":false,"lon":78.4127,"lat":26.1323,"merges_splits_so_far":0},"geometry":{"type":"MultiPolygon","coordinates":[[[[78.4603,26.272],[78.2299,26.1371],[78.2298,26.0829],[78.2997,26.0737],[78.3195,26.0015],[78.5191,26.0008],[78.5492,26.0278],[78.4794,26.0552],[78.4496,26.1004],[78.4797,26.1274],[78.5597,26.1271],[78.6901,26.2077],[78.6602,26.235],[78.5201,26.2175],[78.5102,26.2447],[78.4603,26.272]]]]}},{"type":"Feature","properties":{"cell":371,"feature":1732,"phase":"Unclassified","min_bt_K":230.5,"area_km2":4252,"cold_core_km2":0,"speed_kmh":38.9,"heading_deg":260,"d_min_bt_30":1.0,"age_min":30,"family":3,"touches_missing":false,"lon":83.567,"lat":33.7898,"merges_splits_so_far":1},"geometry":{"type":"MultiPolygon","coordinates":[[[[83.9981,34.0061],[83.932,33.991],[83.5211,34.0086],[83.4984,33.9915],[83.0659,34.0085],[83.0535,33.9819],[83.107,33.9709],[83.1255,33.916],[83.18,33.9229],[83.1758,33.8509],[83.1295,33.7985],[83.1274,33.7625],[82.9703,33.6601],[83.0103,33.6045],[82.9653,33.5701],[83.0042,33.4964],[83.036,33.4862],[83.0554,33.4494],[83.1854,33.4625],[83.2993,33.5663],[83.3435,33.5826],[83.4511,33.5782],[83.5201,33.6476],[83.5689,33.5644],[83.6413,33.5162],[83.7387,33.5211],[83.7672,33.6282],[83.8013,33.6538],[83.8838,33.596],[83.9484,33.5932],[83.989,33.5552],[84.0102,33.7077],[83.9898,33.7267],[83.9981,34.0061]]]]}},{"type":"Feature","properties":{"cell":380,"feature":1735,"phase":"Unclassified","min_bt_K":219.0,"area_km2":10004,"cold_core_km2":276,"speed_kmh":null,"heading_deg":null,"d_min_bt_30":null,"age_min":0,"family":168,"touches_missing":true,"lon":75.409,"lat":28.2024,"merges_splits_so_far":1},"geometry":{"type":"MultiPolygon","coordinates":[[[[75.1368,28.6066],[75.1174,28.5701],[75.076,28.5872],[74.9947,28.5673],[74.9549,28.5303],[74.813,28.4909],[74.7732,28.4538],[74.7114,28.4703],[74.6723,28.4152],[74.5907,28.4131],[74.551,28.376],[74.4243,28.499],[74.3835,28.4978],[74.3433,28.4787],[74.3346,28.4333],[74.2549,28.3769],[74.2568,28.3228],[74.3266,28.3699],[74.4403,28.3279],[74.4008,28.2907],[74.4051,28.1645],[74.4261,28.147],[74.4069,28.1104],[74.4599,28.0487],[74.6836,28.0545],[74.7639,28.0926],[74.8249,28.0941],[74.9042,28.1682],[74.9857,28.1701],[75.0254,28.2071],[75.1486,28.1737],[75.1888,28.1926],[75.2906,28.1947],[75.3934,28.1607],[75.4744,28.1803],[75.5159,28.145],[75.5562,28.1638],[75.6708,28.0486],[75.6724,27.9764],[75.7341,27.9414],[75.736,27.8512],[75.798,27.7981],[75.8006,27.6717],[75.8518,27.6455],[75.9119,27.6826],[76.0352,27.5942],[76.1972,27.5965],[76.2471,27.6423],[76.2266,27.6601],[76.246,27.7145],[76.4269,27.8251],[76.3857,27.8607],[76.3846,27.9329],[76.2722,27.9766],[76.2203,28.0391],[76.1793,28.0566],[76.1784,28.1107],[76.2188,28.1293],[76.2057,28.3006],[76.1649,28.3],[76.1028,28.3533],[76.0008,28.3518],[75.9382,28.423],[75.8974,28.4224],[75.8558,28.4578],[75.7946,28.4568],[75.7318,28.5279],[75.6705,28.5269],[75.6508,28.4904],[75.5487,28.4886],[75.507,28.5239],[75.4253,28.5223],[75.404,28.558],[75.3018,28.5559],[75.2809,28.5735],[75.2196,28.5723],[75.1996,28.5538],[75.1368,28.6066]]]]}}]}