{"type":"FeatureCollection","features":[{"type":"Feature","properties":{"cell":192,"feature":1810,"phase":"Developing","min_bt_K":226.0,"area_km2":14156,"cold_core_km2":0,"speed_kmh":51.2,"heading_deg":61,"d_min_bt_30":3.0,"age_min":330,"family":3,"touches_missing":true,"lon":74.9613,"lat":29.5554,"merges_splits_so_far":5},"geometry":{"type":"MultiPolygon","coordinates":[[[[75.0099,30.1557],[74.9689,30.1367],[74.7198,30.1308],[74.6493,30.0658],[74.6417,29.9844],[74.5795,29.9828],[74.5199,29.9091],[74.4577,29.9075],[74.4283,29.8616],[74.3675,29.8238],[74.3708,29.7337],[74.3301,29.7145],[74.3334,29.6244],[74.2927,29.6052],[74.294,29.5692],[74.3366,29.5342],[74.3013,29.3709],[74.3225,29.3534],[74.3258,29.2633],[74.3688,29.2103],[74.3707,29.1562],[74.4791,28.9967],[74.4809,28.9426],[74.4405,28.9235],[74.4424,28.8694],[74.5554,28.8634],[74.5747,28.9],[74.6157,28.9011],[74.6556,28.9382],[74.7376,28.9402],[74.7453,29.0216],[74.9174,29.107],[74.9601,29.0538],[75.0211,29.0733],[75.0627,29.0561],[75.0828,29.0746],[75.1449,29.0579],[75.2471,29.0782],[75.301,28.98],[75.3845,28.9276],[75.3959,28.8827],[75.6005,28.9046],[75.6628,28.8696],[75.6712,28.951],[75.7118,28.9697],[75.6595,29.0139],[75.6189,28.9952],[75.5875,29.0217],[75.5866,29.0577],[75.6273,29.0765],[75.6369,29.1038],[75.678,29.1045],[75.7199,29.0691],[75.7505,29.0787],[75.7489,29.1508],[75.8087,29.2421],[75.7869,29.2958],[75.7834,29.4582],[75.6888,29.5377],[75.6682,29.5374],[75.6484,29.5009],[75.5848,29.572],[75.5018,29.5885],[75.4068,29.6678],[75.3852,29.7035],[75.4045,29.758],[75.3829,29.7937],[75.341,29.8109],[75.3405,29.8289],[75.3815,29.8478],[75.38,29.9019],[75.3381,29.9191],[75.3367,29.9732],[75.2731,30.026],[75.2716,30.0801],[75.2397,30.1065],[75.2195,30.0881],[75.177,30.1232],[75.1147,30.1219],[75.0934,30.1395],[75.0317,30.1201],[75.0099,30.1557]]]]}},{"type":"Feature","properties":{"cell":227,"feature":1813,"phase":"Developing","min_bt_K":231.3,"area_km2":13080,"cold_core_km2":0,"speed_kmh":133.4,"heading_deg":1,"d_min_bt_30":-1.7,"age_min":270,"family":3,"touches_missing":true,"lon":83.4203,"lat":33.5864,"merges_splits_so_far":29},"geometry":{"type":"MultiPolygon","coordinates":[[[[83.9981,34.0061],[83.932,33.991],[83.1524,34.0052],[83.1379,33.9426],[83.1952,33.814],[83.151,33.7977],[83.1479,33.7437],[83.114,33.7179],[83.0277,33.7212],[83.0185,33.7486],[82.9764,33.7682],[82.9784,33.8042],[83.0226,33.8206],[83.0257,33.8747],[83.0483,33.8919],[83.0277,33.9107],[83.0432,33.9913],[82.5674,34.0084],[82.5449,33.9911],[82.3173,33.9896],[82.3543,33.8621],[82.4586,33.7865],[82.4963,33.6769],[82.4532,33.6784],[82.4505,33.6243],[82.5517,33.4946],[82.5489,33.4405],[82.5695,33.4218],[82.5462,33.3865],[82.5976,33.3396],[82.6302,33.3475],[82.6704,33.4995],[82.6788,33.4541],[82.7199,33.4165],[82.6965,33.3813],[82.7161,33.3445],[82.6834,33.3366],[82.6713,33.31],[82.785,33.2247],[82.8215,33.3046],[82.802,33.3414],[82.8356,33.3673],[83.1076,33.4203],[83.1312,33.4555],[83.1118,33.4924],[83.1568,33.5267],[83.16,33.5808],[83.1826,33.5979],[83.1631,33.6348],[83.196,33.6425],[83.2535,33.7035],[83.2341,33.7403],[83.2918,33.8012],[83.335,33.7995],[83.3646,33.7532],[83.3182,33.7009],[83.3387,33.6821],[83.2923,33.6297],[83.2902,33.5937],[83.2214,33.5242],[83.252,33.496],[83.2951,33.4943],[83.3074,33.5209],[83.4759,33.6314],[83.5847,33.6449],[83.6357,33.5977],[83.6131,33.5806],[83.6323,33.5437],[83.6255,33.4357],[83.5814,33.4195],[83.5769,33.3474],[83.6175,33.3096],[83.6254,33.2642],[83.7124,33.2785],[83.7428,33.2502],[83.7382,33.1782],[83.7585,33.1592],[83.7336,33.1062],[83.6795,33.0995],[83.639,33.1373],[83.6164,33.1202],[83.5522,33.1229],[83.5465,33.2043],[83.516,33.2327],[83.4742,33.2524],[83.4517,33.2353],[83.3986,33.2465],[83.4008,33.2825],[83.447,33.3348],[83.535,33.3672],[83.5384,33.4212],[83.5078,33.4496],[83.4423,33.4342],[83.3633,33.3742],[83.3611,33.3382],[83.2496,33.2705],[83.2025,33.2001],[83.1239,33.14],[82.9934,33.1088],[82.9802,33.0642],[82.9466,33.0384],[82.9262,33.0572],[82.9028,33.022],[82.8173,33.0251],[82.7726,32.9906],[82.7531,33.0274],[82.741,33.0007],[82.6973,32.9842],[82.7391,32.9647],[82.7353,32.8927],[82.7659,32.8645],[82.8504,32.8434],[82.896,32.8959],[82.9581,32.8575],[83.0455,32.8903],[83.131,32.8871],[83.1249,32.9685],[83.1788,32.9754],[83.2023,33.0106],[83.2093,32.9472],[83.1869,32.93],[83.1838,32.876],[83.1401,32.8596],[83.1381,32.8236],[83.1706,32.8314],[83.2011,32.8031],[83.1462,32.7782],[83.0842,32.8167],[83.0497,32.7728],[83.068,32.718],[83.0985,32.6898],[83.1624,32.6873],[83.2651,32.8006],[83.3638,32.8418],[83.3718,32.7964],[83.263,32.7646],[83.2711,32.7192],[83.335,32.7166],[83.5828,32.9231],[83.6255,32.9213],[83.6345,32.8938],[83.666,32.8834],[83.8282,33.075],[83.8585,33.0466],[83.8539,32.9746],[83.9121,32.8818],[83.8884,32.8467],[83.9264,32.7729],[83.9229,32.7189],[83.9833,32.662],[83.9798,32.608],[84.0011,32.6071],[84.0107,33.0759],[83.9905,33.0949],[84.0097,33.3828],[83.9895,33.4018],[84.0065,33.6537],[83.9646,33.6737],[83.9886,33.7087],[83.9981,34.0061]]],[[[83.3289,33.159],[83.3279,33.141],[83.2727,33.1161],[83.2411,33.1264],[83.2738,33.1341],[83.2973,33.1693],[83.3289,33.159]]],[[[82.8931,33.8254],[82.8911,33.7894],[82.8582,33.7816],[82.8489,33.809],[82.8931,33.8254]]]]}},{"type":"Feature","properties":{"cell":272,"feature":1811,"phase":"Decaying","min_bt_K":230.2,"area_km2":8148,"cold_core_km2":0,"speed_kmh":55.3,"heading_deg":66,"d_min_bt_30":4.8,"age_min":210,"family":168,"touches_missing":true,"lon":76.371,"lat":29.2049,"merges_splits_so_far":14},"geometry":{"type":"MultiPolygon","coordinates":[[[[76.4305,29.6208],[76.3479,29.6198],[76.2456,29.5644],[76.1221,29.5446],[76.0717,29.4807],[76.0308,29.4621],[76.0217,29.3988],[75.9599,29.3979],[75.8988,29.3608],[75.7959,29.3591],[75.7869,29.2958],[75.8087,29.2421],[75.7489,29.1508],[75.7501,29.0967],[75.8629,29.1076],[75.8943,29.081],[75.895,29.045],[75.8543,29.0263],[75.8551,28.9902],[75.971,28.8386],[76.0325,28.8396],[76.1151,28.8047],[76.1759,28.8416],[76.2169,28.8422],[76.2793,28.7889],[76.3407,28.7897],[76.3623,28.7177],[76.4852,28.7192],[76.494,28.8186],[76.5446,28.8642],[76.6058,28.883],[76.8315,28.8671],[76.9147,28.7595],[77.0169,28.7784],[77.0267,28.8236],[76.9442,28.8771],[76.9645,28.8953],[76.9638,28.9675],[76.9013,29.0572],[76.9418,29.1116],[76.961,29.2381],[77.0428,29.2929],[77.0621,29.4373],[76.9689,29.4818],[76.846,29.4086],[76.7223,29.4074],[76.5974,29.4964],[76.5771,29.4781],[76.4533,29.4767],[76.4014,29.5032],[76.4217,29.5215],[76.4002,29.5753],[76.4412,29.5939],[76.4305,29.6208]]]]}},{"type":"Feature","properties":{"cell":280,"feature":1801,"phase":"Developing","min_bt_K":237.0,"area_km2":1476,"cold_core_km2":0,"speed_kmh":17.7,"heading_deg":37,"d_min_bt_30":0.7,"age_min":180,"family":280,"touches_missing":false,"lon":79.136,"lat":33.4175,"merges_splits_so_far":0},"geometry":{"type":"MultiPolygon","coordinates":[[[[79.1203,33.6305],[78.98,33.6045],[78.9361,33.5327],[78.9135,33.4246],[78.9561,33.3882],[78.9342,33.3522],[78.9553,33.316],[79.1149,33.1975],[79.1792,33.197],[79.2983,33.277],[79.364,33.3666],[79.3649,33.4207],[79.3224,33.4572],[79.3445,33.4931],[79.3237,33.5474],[79.3455,33.5652],[79.2493,33.6113],[79.2382,33.5843],[79.2057,33.5756],[79.1203,33.6305]]]]}},{"type":"Feature","properties":{"cell":292,"feature":1816,"phase":"Mature","min_bt_K":219.0,"area_km2":84568,"cold_core_km2":348,"speed_kmh":43.4,"heading_deg":74,"d_min_bt_30":-1.0,"age_min":180,"family":3,"touches_missing":true,"lon":73.9507,"lat":31.779,"merges_splits_so_far":32},"geometry":{"type":"MultiPolygon","coordinates":[[[[74.412,33.8938],[74.3383,33.8467],[74.3405,33.7926],[74.2981,33.7734],[74.3012,33.7013],[74.2276,33.6542],[74.163,33.6523],[74.1015,33.5784],[73.9525,33.5378],[73.8268,33.4618],[73.5688,33.4535],[73.5455,33.4888],[73.5025,33.4874],[73.4623,33.4319],[73.3548,33.4282],[73.3137,33.3907],[73.2493,33.3884],[73.2102,33.3148],[73.1151,33.2843],[73.0956,33.2475],[73.1005,33.1574],[73.1575,33.0963],[73.4144,33.1054],[73.4581,33.0889],[73.4934,33.0269],[73.5371,33.0103],[73.4449,32.926],[73.4022,32.9245],[73.3408,32.8683],[73.2573,32.8292],[73.2137,32.8457],[73.136,32.6985],[72.9248,32.6546],[72.8872,32.5629],[72.8649,32.5801],[72.7595,32.558],[72.6169,32.444],[72.3194,32.4316],[72.2701,32.3664],[72.3159,32.3142],[72.2768,32.2584],[72.3259,32.1522],[72.4117,32.1378],[72.4415,31.9946],[72.5515,31.927],[72.5324,31.8901],[72.5768,31.8559],[72.584,31.7298],[72.6061,31.7127],[72.566,31.675],[72.5892,31.6398],[72.5923,31.5858],[72.5722,31.5669],[72.5974,31.4958],[72.5474,31.4486],[72.5053,31.4469],[72.4291,31.4888],[72.4533,31.4357],[72.4344,31.3988],[72.4407,31.2908],[72.4207,31.2719],[72.4459,31.2008],[72.406,31.163],[72.4731,31.0936],[72.4751,31.0576],[72.5301,31.0148],[72.6038,31.0088],[72.6079,30.9368],[72.7064,30.8595],[72.8119,30.8457],[72.8457,30.8019],[72.8485,30.7478],[72.8087,30.7102],[72.8135,30.6202],[72.7946,30.5833],[72.84,30.5129],[72.8438,30.4409],[72.8883,30.3885],[72.8901,30.3525],[72.9336,30.318],[72.9373,30.246],[72.959,30.2288],[72.9437,30.1199],[72.9771,30.0761],[73.1629,30.101],[73.2009,30.1746],[73.2424,30.1761],[73.2822,30.2136],[73.3445,30.2158],[73.3736,30.262],[73.3893,30.3708],[73.4193,30.3989],[73.5441,30.4031],[73.5641,30.4219],[73.6265,30.4239],[73.6666,30.4613],[73.7082,30.4627],[73.7151,30.5441],[73.7444,30.5902],[74.0162,30.5806],[74.0802,30.5464],[74.1886,30.4413],[74.3343,30.4454],[74.3873,30.4198],[74.3987,30.3931],[74.5242,30.3784],[74.6245,30.4892],[74.6662,30.4903],[74.6757,30.5176],[74.706,30.5454],[74.7477,30.5464],[74.7674,30.583],[74.8919,30.604],[74.9556,30.5694],[75.0807,30.5722],[75.1314,30.6184],[75.1304,30.6545],[75.1716,30.6734],[75.1706,30.7095],[75.1272,30.7627],[75.1256,30.8168],[75.0833,30.8339],[75.0822,30.87],[75.1723,31.0072],[75.2051,30.9628],[75.301,30.9017],[75.3642,30.8849],[75.4158,30.913],[75.4148,30.949],[75.3618,30.975],[75.3291,31.0195],[75.3276,31.0736],[75.2632,31.1264],[75.2602,31.2346],[75.1698,31.4492],[75.2221,31.4593],[75.3304,31.3533],[75.3929,31.3726],[75.4144,31.3549],[75.4457,31.3646],[75.4653,31.4191],[75.4218,31.4724],[75.3792,31.4896],[75.3987,31.5441],[75.3341,31.5969],[75.3109,31.6686],[75.331,31.7051],[75.3835,31.7152],[75.4242,31.7701],[75.4875,31.7713],[75.5391,31.8174],[75.5598,31.8358],[75.5584,31.8899],[75.5368,31.9075],[75.5349,31.9797],[75.4694,32.0506],[75.4438,32.2125],[75.4221,32.2301],[75.4186,32.3563],[75.3969,32.3739],[75.4146,32.5006],[75.371,32.5358],[75.3684,32.626],[75.2936,32.6335],[75.2515,32.6146],[75.2187,32.641],[75.2286,32.6682],[75.2816,32.6783],[75.3429,32.7698],[75.2981,32.8411],[75.3184,32.8776],[75.2308,32.9479],[75.2516,32.9664],[75.2494,33.0385],[75.2027,33.1639],[75.256,33.174],[75.2763,33.2105],[75.3192,33.2114],[75.3506,33.239],[75.3495,33.2751],[75.4128,33.3124],[75.3887,33.4022],[75.4307,33.4391],[75.4087,33.4567],[75.4511,33.4756],[75.4711,33.5301],[75.6088,33.6138],[75.7903,33.6801],[75.6284,33.6863],[75.5642,33.6671],[75.5226,33.6122],[75.4791,33.6295],[75.3746,33.5192],[75.3106,33.4999],[75.2477,33.4445],[75.2047,33.4436],[75.0396,33.5573],[75.0273,33.6021],[74.9203,33.5817],[74.887,33.608],[74.9282,33.6631],[74.8512,33.7064],[74.7865,33.7048],[74.7663,33.6683],[74.6801,33.6662],[74.6663,33.747],[74.5891,33.7902],[74.5243,33.7885],[74.4909,33.8147],[74.4894,33.8508],[74.412,33.8938]]],[[[72.7076,31.41],[72.7307,31.3748],[72.7026,31.3105],[72.5436,31.3312],[72.5415,31.3672],[72.5935,31.3783],[72.6125,31.4152],[72.7076,31.41]]]]}},{"type":"Feature","properties":{"cell":304,"feature":1804,"phase":"Developing","min_bt_K":233.2,"area_km2":976,"cold_core_km2":0,"speed_kmh":24.3,"heading_deg":87,"d_min_bt_30":0.1,"age_min":150,"family":304,"touches_missing":true,"lon":78.2205,"lat":33.8353,"merges_splits_so_far":3},"geometry":{"type":"MultiPolygon","coordinates":[[[[78.3678,33.9955],[78.1298,33.9959],[78.1189,33.9689],[78.1405,33.9328],[77.9676,33.8246],[77.946,33.7885],[77.9784,33.7614],[78.0,33.7795],[78.0755,33.7705],[78.097,33.7163],[78.0755,33.6983],[78.0862,33.6532],[78.1939,33.617],[78.2478,33.6439],[78.2697,33.7522],[78.3561,33.788],[78.3455,33.8332],[78.3239,33.8332],[78.3022,33.7972],[78.2915,33.8243],[78.3456,33.8693],[78.3563,33.8422],[78.3779,33.8421],[78.3999,33.9323],[78.3678,33.9955]]]]}},{"type":"Feature","properties":{"cell":343,"feature":1791,"phase":"Developing","min_bt_K":236.2,"area_km2":240,"cold_core_km2":0,"speed_kmh":28.8,"heading_deg":52,"d_min_bt_30":4.9,"age_min":90,"family":238,"touches_missing":true,"lon":72.9093,"lat":28.6648,"merges_splits_so_far":3},"geometry":{"type":"MultiPolygon","coordinates":[[[[73.0016,28.7415],[72.9197,28.7384],[72.8414,28.6631],[72.7996,28.6795],[72.7925,28.6161],[72.8459,28.573],[72.8654,28.5919],[72.9267,28.5942],[72.9953,28.66],[73.0016,28.7415]]]]}},{"type":"Feature","properties":{"cell":363,"feature":1776,"phase":"Developing","min_bt_K":241.6,"area_km2":320,"cold_core_km2":0,"speed_kmh":49.9,"heading_deg":248,"d_min_bt_30":0.6,"age_min":60,"family":363,"touches_missing":false,"lon":78.1818,"lat":26.0473,"merges_splits_so_far":0},"geometry":{"type":"MultiPolygon","coordinates":[[[[78.2798,26.128],[78.1399,26.074],[78.0599,26.0741],[78.03,26.0289],[78.0599,26.0018],[78.3195,26.0015],[78.3495,26.0285],[78.3497,26.1007],[78.2798,26.128]]]]}},{"type":"Feature","properties":{"cell":380,"feature":1809,"phase":"Unclassified","min_bt_K":222.0,"area_km2":37756,"cold_core_km2":0,"speed_kmh":54.2,"heading_deg":138,"d_min_bt_30":3.0,"age_min":30,"family":168,"touches_missing":true,"lon":75.5926,"lat":28.0201,"merges_splits_so_far":4},"geometry":{"type":"MultiPolygon","coordinates":[[[[75.6005,28.9046],[75.4569,28.9019],[75.2138,28.7887],[75.1728,28.7878],[75.1533,28.7513],[75.01,28.7482],[74.9801,28.7204],[74.9811,28.6843],[74.9098,28.6737],[74.8904,28.6371],[74.8086,28.6352],[74.7859,28.7068],[74.7654,28.7063],[74.7461,28.6697],[74.6421,28.7213],[74.4919,28.6181],[74.4751,28.5093],[74.5259,28.5197],[74.5382,28.4569],[74.4583,28.4006],[74.5015,28.3296],[74.4865,28.1667],[74.5697,28.1148],[74.55,28.0962],[74.5738,27.9885],[74.5337,27.9694],[74.5152,27.9148],[74.5575,27.8617],[74.6196,27.8272],[74.6207,27.7912],[74.7265,27.6494],[74.7282,27.5953],[74.6696,27.5216],[74.6713,27.4675],[74.6921,27.45],[74.6763,27.3051],[74.7188,27.234],[74.7701,27.2082],[74.8306,27.2096],[74.9542,27.1223],[75.0034,27.1686],[75.0024,27.2046],[74.9616,27.2218],[74.9601,27.2759],[74.9901,27.2856],[75.1343,27.1805],[75.2756,27.1835],[75.3271,27.1394],[75.3186,27.0761],[75.3589,27.0769],[75.4185,27.1142],[75.4794,27.0973],[75.5885,27.1806],[75.6067,27.2712],[75.6463,27.308],[75.6249,27.3618],[75.6745,27.4078],[75.7352,27.4089],[75.9497,27.295],[75.9828,27.1421],[76.0023,27.1785],[76.1336,27.1714],[76.1243,27.1261],[76.0139,27.0974],[76.0148,27.0433],[76.0862,26.9992],[76.1264,26.9998],[76.1358,27.045],[76.2251,27.1275],[76.3066,27.0744],[76.347,27.075],[76.409,26.9674],[76.5895,27.0236],[76.7898,27.1339],[76.8505,27.1164],[76.8705,27.1347],[76.9714,27.1355],[76.9817,27.1085],[77.0527,27.0639],[77.113,27.0824],[77.1937,27.0648],[77.254,27.1013],[77.2943,27.1015],[77.3443,27.165],[77.2938,27.1737],[77.2532,27.2096],[77.112,27.2087],[77.0713,27.2446],[76.9503,27.2256],[76.9298,27.2615],[76.8692,27.261],[76.8494,27.2247],[76.7283,27.2236],[76.7077,27.2595],[76.6571,27.2681],[76.6569,27.2861],[76.697,27.3046],[76.6864,27.3496],[76.6462,27.3311],[76.4442,27.3289],[76.4237,27.3467],[76.3835,27.3282],[76.3528,27.3549],[76.3819,27.4365],[76.5033,27.4379],[76.5245,27.3659],[76.6051,27.3849],[76.6546,27.4666],[76.7049,27.4942],[76.835,27.6308],[76.794,27.6665],[76.8342,27.703],[76.8336,27.7572],[76.8939,27.8118],[76.8527,27.8656],[76.852,27.9378],[76.7294,27.9908],[76.7692,28.0634],[76.8097,28.0818],[76.8091,28.136],[76.7885,28.1538],[76.7879,28.208],[76.8081,28.2262],[76.7772,28.253],[76.6959,28.2342],[76.6442,28.2968],[76.7358,28.3068],[76.7661,28.3341],[76.7349,28.3789],[76.6737,28.3783],[76.5811,28.4405],[76.5803,28.4947],[76.5387,28.5484],[76.5382,28.5845],[76.4761,28.6379],[76.496,28.6742],[76.4852,28.7192],[76.4033,28.7182],[76.394,28.655],[76.3635,28.6456],[76.2911,28.6898],[76.352,28.7266],[76.3511,28.7808],[76.2793,28.7889],[76.2169,28.8422],[76.1759,28.8416],[76.1151,28.8047],[76.0325,28.8396],[75.971,28.8386],[75.9623,28.7573],[75.9318,28.7478],[75.8901,28.7832],[75.7877,28.7815],[75.7664,28.8173],[75.7255,28.8166],[75.6005,28.9046]]],[[[74.7922,27.4885],[74.8342,27.4354],[74.8752,27.4183],[74.8767,27.3642],[74.8477,27.3184],[74.8347,27.4174],[74.7927,27.4705],[74.7517,27.4876],[74.7922,27.4885]]],[[[76.6024,28.3686],[76.5926,28.3414],[76.582,28.3684],[76.6024,28.3686]]]]}},{"type":"Feature","properties":{"cell":385,"feature":1788,"phase":"Unclassified","min_bt_K":241.6,"area_km2":240,"cold_core_km2":0,"speed_kmh":null,"heading_deg":null,"d_min_bt_30":null,"age_min":0,"family":385,"touches_missing":false,"lon":73.5206,"lat":27.9957,"merges_splits_so_far":0},"geometry":{"type":"MultiPolygon","coordinates":[[[[73.5425,28.075],[73.4815,28.0729],[73.3716,28.0239],[73.4033,27.998],[73.4439,27.9994],[73.4982,27.92],[73.5711,27.8774],[73.5802,27.9047],[73.5583,27.9401],[73.5953,28.0316],[73.5425,28.075]]]]}}]}