{"type":"FeatureCollection","features":[{"type":"Feature","properties":{"cell":192,"feature":1908,"phase":"Developing","min_bt_K":225.0,"area_km2":13508,"cold_core_km2":0,"speed_kmh":68.1,"heading_deg":31,"d_min_bt_30":-1.0,"age_min":360,"family":3,"touches_missing":true,"lon":75.1425,"lat":29.8187,"merges_splits_so_far":5},"geometry":{"type":"MultiPolygon","coordinates":[[[[75.1026,30.5366],[75.04,30.5352],[75.0096,30.5075],[75.0118,30.4354],[74.9612,30.3891],[74.9184,30.4242],[74.8875,30.4145],[74.942,30.3345],[75.0465,30.3189],[75.1004,30.2569],[75.0093,30.1737],[74.8651,30.1343],[74.7844,30.0602],[74.7021,30.0401],[74.6932,29.9948],[74.6322,29.9571],[74.6335,29.9211],[74.575,29.8113],[74.5343,29.7922],[74.5405,29.6119],[74.5004,29.5748],[74.4635,29.4475],[74.4123,29.4371],[74.3724,29.3999],[74.3511,29.4174],[74.3212,29.3895],[74.3463,29.2638],[74.3071,29.2086],[74.321,29.1097],[74.4237,29.1126],[74.4436,29.1311],[74.4648,29.1137],[74.547,29.1158],[74.5669,29.1344],[74.6292,29.118],[74.7935,29.1221],[74.8341,29.1411],[74.979,29.1084],[75.0607,29.1283],[75.1308,29.193],[75.1489,29.2836],[75.1273,29.3192],[75.0856,29.3364],[75.0312,29.4344],[74.9805,29.4062],[74.9377,29.4593],[74.9366,29.4954],[74.9673,29.5051],[74.9884,29.4876],[75.0281,29.5426],[75.1317,29.5268],[75.1715,29.5818],[75.2334,29.5831],[75.2651,29.5567],[75.2037,29.5374],[75.2148,29.5106],[75.256,29.5114],[75.2877,29.485],[75.2675,29.4666],[75.269,29.4124],[75.362,29.4053],[75.383,29.3877],[75.4636,29.4614],[75.4852,29.4258],[75.5873,29.4638],[75.6698,29.4652],[75.7115,29.4479],[75.7749,29.3768],[75.8367,29.3779],[75.846,29.4231],[75.8974,29.433],[75.9885,29.5156],[75.9878,29.5517],[76.028,29.6064],[75.9755,29.6507],[75.9342,29.6501],[75.9128,29.6858],[75.8301,29.6845],[75.8184,29.7475],[75.7763,29.7828],[75.7755,29.8189],[75.8161,29.8557],[75.7739,29.8911],[75.7942,29.9094],[75.7317,29.9264],[75.7723,29.9632],[75.7467,30.1793],[75.767,30.1977],[75.6734,30.2051],[75.6089,30.2941],[75.4629,30.3095],[75.3357,30.3972],[75.253,30.3774],[75.2098,30.4307],[75.1575,30.4386],[75.1346,30.5103],[75.1026,30.5366]]],[[[74.4916,29.2317],[74.453,29.1585],[74.4224,29.1486],[74.4299,29.23],[74.4916,29.2317]]]]}},{"type":"Feature","properties":{"cell":227,"feature":1891,"phase":"Developing","min_bt_K":240.2,"area_km2":224,"cold_core_km2":0,"speed_kmh":73.8,"heading_deg":174,"d_min_bt_30":8.9,"age_min":300,"family":3,"touches_missing":true,"lon":83.4611,"lat":33.2556,"merges_splits_so_far":29},"geometry":{"type":"MultiPolygon","coordinates":[[[[83.5463,33.3758],[83.5136,33.3681],[83.42,33.2456],[83.2626,33.1256],[83.2727,33.1161],[83.3156,33.1144],[83.3616,33.1667],[83.4044,33.165],[83.428,33.2002],[83.4709,33.1984],[83.4956,33.2515],[83.5498,33.2583],[83.552,33.2943],[83.5961,33.3105],[83.5463,33.3758]]]]}},{"type":"Feature","properties":{"cell":280,"feature":1892,"phase":"Developing","min_bt_K":237.0,"area_km2":1444,"cold_core_km2":0,"speed_kmh":22.0,"heading_deg":39,"d_min_bt_30":-0.0,"age_min":210,"family":280,"touches_missing":true,"lon":79.2101,"lat":33.4946,"merges_splits_so_far":0},"geometry":{"type":"MultiPolygon","coordinates":[[[[79.0999,33.7208],[79.0883,33.6578],[78.9798,33.5865],[79.0214,33.4599],[78.9993,33.4059],[79.0735,33.3241],[79.1809,33.3232],[79.1695,33.2782],[79.2016,33.2689],[79.245,33.3046],[79.2879,33.3042],[79.407,33.3662],[79.3864,33.4205],[79.4741,33.5278],[79.4319,33.5824],[79.3892,33.6009],[79.3584,33.7004],[79.315,33.6828],[79.2506,33.7015],[79.207,33.6658],[79.1639,33.6662],[79.0999,33.7208]]],[[[79.2599,33.6022],[79.2374,33.5302],[79.1615,33.4858],[79.1617,33.5038],[79.1941,33.5126],[79.1948,33.5667],[79.1523,33.6031],[79.1847,33.6119],[79.2057,33.5756],[79.2599,33.6022]]]]}},{"type":"Feature","properties":{"cell":292,"feature":1911,"phase":"Mature","min_bt_K":219.0,"area_km2":48872,"cold_core_km2":996,"speed_kmh":182.4,"heading_deg":169,"d_min_bt_30":-0.0,"age_min":210,"family":3,"touches_missing":true,"lon":74.1364,"lat":30.972,"merges_splits_so_far":37},"geometry":{"type":"MultiPolygon","coordinates":[[[[74.9308,32.6437],[74.9095,32.6432],[74.7758,32.5047],[74.7667,32.4594],[74.6604,32.4567],[74.6166,32.4917],[74.5315,32.4895],[74.4279,32.4146],[74.4006,32.2966],[74.2761,32.221],[74.2586,32.1303],[74.2184,32.0751],[74.2206,32.021],[74.1899,31.993],[74.0622,32.0074],[73.9957,32.0776],[73.8898,32.0743],[73.8678,32.0917],[73.7619,32.0884],[73.5976,31.9748],[73.5756,31.9921],[73.5122,31.99],[73.4765,32.0699],[73.3772,32.1477],[73.3357,32.1282],[73.1828,32.213],[73.098,32.2099],[73.0796,32.1551],[73.0372,32.1535],[72.9766,32.0971],[72.9342,32.0955],[72.915,32.0587],[72.8525,32.0382],[72.8031,31.9732],[72.8101,31.8471],[72.8553,31.7947],[72.8362,31.7579],[72.8612,31.6867],[72.821,31.649],[72.845,31.5958],[72.8279,31.523],[72.916,31.4542],[72.9188,31.4002],[72.9628,31.3658],[72.9637,31.3478],[72.9227,31.3282],[72.9284,31.2201],[72.8884,31.1825],[72.9003,31.1559],[72.9842,31.1591],[73.0643,31.2343],[73.1063,31.2358],[73.1674,31.2741],[73.2094,31.2757],[73.2222,31.231],[73.2978,31.1886],[73.3599,31.2088],[73.4027,31.1923],[73.4438,31.2117],[73.5286,31.1966],[73.61,31.2534],[73.652,31.2548],[73.7134,31.2929],[73.7764,31.2949],[73.8791,31.3523],[73.9421,31.3542],[73.9639,31.3368],[74.0269,31.3387],[74.0813,31.2952],[74.0936,31.2505],[74.1363,31.2337],[74.2406,31.2547],[74.263,31.2193],[74.3692,31.1861],[74.445,31.125],[74.447,31.071],[74.5118,31.0186],[74.5347,30.965],[74.5177,30.8563],[74.4879,30.8104],[74.405,30.7902],[74.3444,30.7344],[74.2191,30.7309],[74.1377,30.6744],[74.0542,30.6719],[74.0449,30.6446],[73.9939,30.616],[73.9097,30.6315],[73.8657,30.6842],[73.8039,30.6642],[73.5326,30.6554],[73.4892,30.69],[73.3123,30.6748],[73.3192,30.5307],[73.2793,30.4932],[73.3346,30.2065],[73.2848,30.1596],[73.2424,30.1761],[73.1801,30.1739],[73.1603,30.1551],[73.1386,30.1723],[73.1296,30.1449],[73.089,30.1254],[73.0727,30.0346],[73.0213,30.0236],[72.9736,29.9406],[73.0239,29.762],[73.0778,29.7189],[73.1299,29.7118],[73.1317,29.6758],[73.1747,29.6413],[73.1988,29.57],[73.2739,29.5095],[73.3564,29.5125],[73.3961,29.5499],[73.4389,29.5153],[73.5421,29.5189],[73.5849,29.4842],[73.7705,29.4903],[73.7903,29.509],[73.8743,29.4755],[73.9148,29.4948],[73.9774,29.4787],[74.0364,29.5527],[74.0777,29.5539],[74.1276,29.6005],[74.1961,29.7017],[74.2574,29.7215],[74.2968,29.7767],[74.3488,29.7692],[74.3255,29.8407],[74.3856,29.8965],[74.3943,29.9418],[74.4458,29.9523],[74.4238,29.9878],[74.464,30.0249],[74.462,30.079],[74.4928,30.0888],[74.535,30.0719],[74.5651,30.0998],[74.5532,30.1446],[74.5016,30.1342],[74.4997,30.1883],[74.5809,30.2445],[74.5891,30.3079],[74.6105,30.2904],[74.7311,30.4197],[74.7828,30.43],[74.7805,30.5021],[74.8733,30.5314],[74.937,30.4968],[74.9995,30.4982],[75.04,30.5352],[75.1127,30.5459],[75.1309,30.6365],[75.0887,30.6536],[75.0854,30.7618],[75.1261,30.7987],[75.1219,30.943],[75.1423,30.9615],[75.1186,31.0512],[75.1907,31.0978],[75.2106,31.1343],[75.3047,31.1453],[75.3441,31.2363],[75.3421,31.3084],[75.4042,31.3457],[75.4223,31.4543],[75.4536,31.464],[75.4737,31.5004],[75.5784,31.5204],[75.651,31.5668],[75.6071,31.6382],[75.647,31.7291],[75.6461,31.7652],[75.6034,31.7825],[75.6222,31.873],[75.6002,31.9087],[75.5574,31.9259],[75.5565,31.962],[75.5241,31.9885],[75.3848,32.049],[75.3822,32.1391],[75.36,32.1748],[75.3916,32.1844],[75.4774,32.15],[75.6257,32.1527],[75.6568,32.1803],[75.6555,32.2344],[75.5376,32.2774],[75.4103,32.275],[75.3652,32.3643],[75.2803,32.3626],[75.1763,32.2883],[75.1316,32.3595],[75.0466,32.3576],[75.0346,32.4024],[74.9909,32.4376],[75.0317,32.4926],[74.9661,32.5452],[74.9856,32.5998],[74.9533,32.6081],[74.9308,32.6437]]]]}},{"type":"Feature","properties":{"cell":304,"feature":1897,"phase":"Developing","min_bt_K":239.1,"area_km2":420,"cold_core_km2":0,"speed_kmh":20.5,"heading_deg":63,"d_min_bt_30":5.9,"age_min":180,"family":304,"touches_missing":true,"lon":78.3198,"lat":33.8766,"merges_splits_so_far":3},"geometry":{"type":"MultiPolygon","coordinates":[[[[78.411,33.9954],[78.2812,33.9957],[78.2487,33.9507],[78.2484,33.8785],[78.205,33.7703],[78.2264,33.7162],[78.2803,33.689],[78.3342,33.7159],[78.3347,33.8422],[78.3997,33.8781],[78.4432,33.9502],[78.411,33.9954]]]]}},{"type":"Feature","properties":{"cell":380,"feature":1903,"phase":"Unclassified","min_bt_K":223.6,"area_km2":44468,"cold_core_km2":0,"speed_kmh":58.6,"heading_deg":70,"d_min_bt_30":1.6,"age_min":60,"family":168,"touches_missing":true,"lon":75.8732,"lat":28.1101,"merges_splits_so_far":7},"geometry":{"type":"MultiPolygon","coordinates":[[[[75.8374,29.3418],[75.7458,29.2951],[75.747,29.241],[75.6768,29.1586],[75.6151,29.1575],[75.5753,29.1026],[75.5137,29.1015],[75.4634,29.0554],[75.4543,29.0101],[75.3521,28.9901],[75.2538,28.8256],[75.1718,28.8239],[75.0663,28.9299],[75.0263,28.8929],[75.0153,28.9197],[75.0558,28.9387],[75.0448,28.9655],[75.0038,28.9646],[74.9333,28.9178],[74.8955,28.8087],[74.8352,28.7712],[74.7566,28.661],[74.7577,28.6249],[74.7273,28.6151],[74.6782,28.5507],[74.6799,28.4966],[74.7528,28.4533],[74.9162,28.4572],[74.9795,28.3865],[75.0198,28.4055],[75.0516,28.3611],[74.9805,28.3504],[74.9376,28.4216],[74.8665,28.4109],[74.9298,28.3402],[74.9141,28.1774],[74.8172,28.0127],[74.8183,27.9766],[74.7584,27.939],[74.8215,27.8684],[74.8028,27.8138],[74.8439,27.7967],[74.8658,27.7431],[74.8465,27.7065],[74.8892,27.6353],[74.8912,27.5631],[75.0172,27.4036],[75.0187,27.3494],[75.1103,27.3244],[75.2545,27.2192],[75.2948,27.22],[75.3159,27.1843],[75.4572,27.1871],[75.4983,27.1518],[75.5387,27.1526],[75.5905,27.0903],[75.5711,27.0539],[75.6225,27.0097],[75.7232,27.0115],[75.7844,26.9764],[75.8649,26.9777],[75.8738,27.0411],[75.9131,27.0959],[75.9828,27.1421],[76.0231,27.1427],[76.0337,27.1158],[75.9944,27.061],[76.0251,27.0344],[76.1057,27.0356],[76.1655,27.0725],[76.1851,27.1089],[76.326,27.1289],[76.4488,27.004],[76.5293,27.0049],[76.549,27.0412],[76.6797,27.0697],[76.6994,27.106],[76.6779,27.2141],[76.7383,27.2328],[76.7368,27.3591],[76.777,27.3775],[76.7964,27.4499],[77.0274,27.6414],[77.1084,27.642],[77.1691,27.6604],[77.1891,27.6966],[77.3106,27.7154],[77.3408,27.7426],[77.3607,27.8149],[77.3099,27.8237],[77.2491,27.8053],[77.2185,27.8322],[77.1978,27.8862],[77.2177,27.9405],[77.196,28.1209],[77.2161,28.1571],[77.104,28.1654],[77.0519,28.3004],[77.011,28.3181],[77.0105,28.3723],[76.8671,28.4253],[76.8865,28.5157],[76.8042,28.5691],[76.8028,28.6954],[76.8538,28.7049],[76.9246,28.7867],[76.8317,28.8491],[76.7702,28.8485],[76.6874,28.9199],[76.6051,28.9371],[76.5527,29.0177],[76.6036,29.0453],[76.7063,29.0464],[76.7155,29.1277],[76.5186,29.2429],[76.3977,29.0791],[76.295,29.0778],[76.2536,29.0953],[76.1907,29.1666],[76.0873,29.2013],[76.066,29.2371],[75.9628,29.2535],[75.9531,29.2263],[75.9022,29.1985],[75.8704,29.2431],[75.9624,29.2716],[75.9718,29.3168],[75.8584,29.3241],[75.8374,29.3418]]],[[[75.546,29.0389],[75.5364,29.0117],[75.5255,29.0386],[75.546,29.0389]]]]}},{"type":"Feature","properties":{"cell":385,"feature":1880,"phase":"Unclassified","min_bt_K":241.2,"area_km2":112,"cold_core_km2":0,"speed_kmh":15.0,"heading_deg":124,"d_min_bt_30":-0.4,"age_min":30,"family":385,"touches_missing":true,"lon":73.5833,"lat":27.9575,"merges_splits_so_far":0},"geometry":{"type":"MultiPolygon","coordinates":[[[[73.6675,28.0069],[73.6479,27.9882],[73.5057,27.9835],[73.4966,27.9561],[73.5696,27.9134],[73.6306,27.9155],[73.6494,27.9522],[73.6795,27.9622],[73.6675,28.0069]]]]}},{"type":"Feature","properties":{"cell":401,"feature":1906,"phase":"Unclassified","min_bt_K":227.5,"area_km2":2920,"cold_core_km2":0,"speed_kmh":null,"heading_deg":null,"d_min_bt_30":null,"age_min":0,"family":168,"touches_missing":true,"lon":77.0649,"lat":28.9152,"merges_splits_so_far":1},"geometry":{"type":"MultiPolygon","coordinates":[[[[76.7241,29.2631],[76.683,29.2627],[76.6118,29.1988],[76.7155,29.1277],[76.7268,29.0466],[76.8295,29.0475],[76.8606,29.0207],[76.8405,28.9845],[76.8923,28.9398],[76.9436,28.9312],[76.9237,28.8769],[76.965,28.8411],[76.9654,28.8051],[76.884,28.7503],[76.8641,28.6959],[76.8949,28.6872],[76.9364,28.6334],[77.0387,28.6342],[77.0593,28.6163],[77.182,28.6171],[77.2022,28.6533],[77.2431,28.6535],[77.2936,28.7531],[77.3242,28.7623],[77.4158,28.862],[77.4152,28.9702],[77.3638,28.979],[77.3431,29.015],[77.1781,29.1043],[77.1674,29.1674],[77.0744,29.2119],[76.7451,29.2272],[76.7241,29.2631]]]]}},{"type":"Feature","properties":{"cell":403,"feature":1909,"phase":"Unclassified","min_bt_K":231.0,"area_km2":25004,"cold_core_km2":0,"speed_kmh":null,"heading_deg":null,"d_min_bt_30":null,"age_min":0,"family":3,"touches_missing":true,"lon":73.9237,"lat":32.6414,"merges_splits_so_far":2},"geometry":{"type":"MultiPolygon","coordinates":[[[[74.5932,33.682],[74.5181,33.6711],[74.5189,33.653],[74.4765,33.6339],[74.4682,33.5705],[74.3821,33.5682],[74.3406,33.531],[74.2753,33.5472],[74.233,33.528],[74.2107,33.5454],[74.1469,33.5255],[74.127,33.4889],[74.0091,33.4764],[74.0187,33.2601],[74.0632,33.2254],[74.0656,33.1713],[73.9863,33.0246],[73.874,32.9039],[73.8312,32.9025],[73.7902,32.8652],[73.7261,32.8631],[73.6586,32.9331],[73.6159,32.9317],[73.5371,33.0103],[73.5085,33.1537],[73.4759,33.1616],[73.365,33.0225],[73.2619,32.9467],[73.1821,32.8356],[73.0987,32.7964],[73.0914,32.733],[73.0255,32.7666],[72.9828,32.7651],[72.8802,32.689],[72.8163,32.6865],[72.7352,32.6111],[72.6713,32.6086],[72.6409,32.5803],[72.6643,32.5451],[72.6695,32.4551],[72.6131,32.3265],[72.5393,32.3145],[72.4958,32.3308],[72.4656,32.3024],[72.4731,32.1764],[72.5875,32.0367],[72.5684,31.9999],[72.7115,31.9064],[72.7709,31.9809],[72.8132,31.9826],[72.8223,32.01],[72.915,32.0587],[72.9342,32.0955],[72.9766,32.0971],[73.0372,32.1535],[73.0796,32.1551],[73.098,32.2099],[73.1828,32.213],[73.3357,32.1282],[73.3772,32.1477],[73.4765,32.0699],[73.5122,31.99],[73.5756,31.9921],[73.5976,31.9748],[73.7619,32.0884],[73.8678,32.0917],[73.8898,32.0743],[73.9957,32.0776],[74.0622,32.0074],[74.1899,31.993],[74.2206,32.021],[74.2184,32.0751],[74.2586,32.1303],[74.2761,32.221],[74.4006,32.2966],[74.4279,32.4146],[74.5315,32.4895],[74.6166,32.4917],[74.6604,32.4567],[74.7667,32.4594],[74.7758,32.5047],[74.9613,32.6895],[74.9601,32.7255],[75.0015,32.7626],[75.0205,32.8352],[75.0736,32.8453],[75.0828,32.8907],[75.1458,32.9281],[75.1435,33.0002],[75.1644,33.0187],[75.1418,33.0543],[75.1835,33.0913],[75.1181,33.126],[75.0932,33.2337],[75.1553,33.3072],[75.1535,33.3613],[75.207,33.3714],[75.2163,33.4167],[75.2797,33.4541],[75.3393,33.6177],[75.2841,33.6617],[75.2211,33.6063],[75.1135,33.604],[75.0513,33.5305],[75.0082,33.5295],[74.9038,33.4369],[74.8504,33.4267],[74.8516,33.3906],[74.7677,33.3345],[74.7391,33.2345],[74.7052,33.2788],[74.7468,33.3159],[74.7449,33.37],[74.7657,33.3886],[74.7611,33.5148],[74.6946,33.5673],[74.7363,33.6044],[74.703,33.6306],[74.6162,33.6465],[74.5932,33.682]]],[[[74.7099,33.1526],[74.6917,33.062],[74.6606,33.0341],[74.6048,33.0959],[74.656,33.1603],[74.7099,33.1526]]]]}}]}