{"type":"FeatureCollection","features":[{"type":"Feature","properties":{"cell":280,"feature":1976,"phase":"Developing","min_bt_K":239.0,"area_km2":892,"cold_core_km2":0,"speed_kmh":17.6,"heading_deg":51,"d_min_bt_30":2.0,"age_min":240,"family":280,"touches_missing":false,"lon":79.2834,"lat":33.545,"merges_splits_so_far":0},"geometry":{"type":"MultiPolygon","coordinates":[[[[79.3808,33.7543],[79.2508,33.7195],[79.131,33.6214],[79.1303,33.5672],[79.0868,33.5315],[79.1294,33.4951],[79.1287,33.441],[79.1606,33.4136],[79.2898,33.4305],[79.3001,33.4033],[79.2784,33.3855],[79.3317,33.3579],[79.3532,33.3577],[79.3858,33.3844],[79.3864,33.4205],[79.4514,33.4559],[79.4523,33.51],[79.3889,33.5828],[79.4113,33.6367],[79.3687,33.6733],[79.3808,33.7543]]]]}},{"type":"Feature","properties":{"cell":292,"feature":1992,"phase":"Mature","min_bt_K":220.0,"area_km2":21196,"cold_core_km2":160,"speed_kmh":138.4,"heading_deg":78,"d_min_bt_30":1.0,"age_min":240,"family":3,"touches_missing":true,"lon":74.8465,"lat":31.0975,"merges_splits_so_far":40},"geometry":{"type":"MultiPolygon","coordinates":[[[[75.2617,32.272],[75.2193,32.2711],[75.1779,32.2342],[75.0518,32.1954],[74.9876,32.212],[74.9475,32.1389],[74.8216,32.0998],[74.7908,32.072],[74.8144,32.0004],[74.7535,31.9268],[74.6388,31.8788],[74.5754,31.8772],[74.5447,31.8494],[74.5678,31.7958],[74.5473,31.7773],[74.5506,31.6871],[74.52,31.6593],[74.4982,31.6768],[74.3506,31.6728],[74.3289,31.6902],[74.2554,31.6792],[74.2983,31.6623],[74.3039,31.5181],[74.3264,31.4827],[74.2254,31.3716],[74.2283,31.2995],[74.25,31.2821],[74.2304,31.2454],[74.234,31.1553],[74.2867,31.1478],[74.3632,31.0687],[74.3443,31.0141],[74.3882,30.9611],[74.3679,30.9425],[74.3727,30.8164],[74.4164,30.7634],[74.4184,30.7093],[74.5045,30.6395],[74.5167,30.297],[74.4657,30.2686],[74.3417,30.2471],[74.3349,30.1477],[74.4079,30.1407],[74.5783,30.0189],[74.7441,30.0231],[74.785,30.0421],[74.8741,30.1796],[74.892,30.2702],[74.9426,30.3165],[74.9943,30.3267],[74.9926,30.3808],[75.0647,30.4095],[75.1453,30.5015],[75.2393,30.4944],[75.2154,30.6022],[75.3075,30.6672],[75.3274,30.7037],[75.441,30.7511],[75.4139,30.9851],[75.4553,31.0039],[75.4543,31.04],[75.411,31.0933],[75.4095,31.1474],[75.3569,31.1554],[75.3241,31.1998],[75.3656,31.2187],[75.3944,31.3185],[75.583,31.3401],[75.7383,31.442],[75.7374,31.4781],[75.6519,31.5307],[75.6931,31.5676],[75.6909,31.6577],[75.6591,31.6662],[75.6263,31.7107],[75.6461,31.7652],[75.6025,31.8185],[75.6443,31.8373],[75.6429,31.8914],[75.7054,31.9286],[75.6195,31.9812],[75.5974,32.0169],[75.6172,32.0714],[75.5847,32.0978],[75.4571,32.1135],[75.4024,32.1756],[75.3492,32.1836],[75.2617,32.272]]]]}},{"type":"Feature","properties":{"cell":380,"feature":1985,"phase":"Developing","min_bt_K":222.4,"area_km2":50928,"cold_core_km2":0,"speed_kmh":56.0,"heading_deg":62,"d_min_bt_30":-1.1,"age_min":90,"family":168,"touches_missing":true,"lon":76.1258,"lat":28.2267,"merges_splits_so_far":9},"geometry":{"type":"MultiPolygon","coordinates":[[[[76.1584,29.8158],[76.117,29.8152],[76.0665,29.7513],[76.1086,29.7158],[76.1519,29.6082],[76.1214,29.5807],[76.1004,29.5984],[76.0497,29.5526],[76.0714,29.4988],[76.0518,29.4444],[76.0731,29.4086],[75.9805,29.3982],[75.9183,29.4153],[75.8775,29.3966],[75.8685,29.3333],[75.747,29.241],[75.7284,29.1505],[75.6378,29.0677],[75.515,29.0474],[75.4748,29.0105],[75.4132,29.0093],[75.3731,28.9724],[75.25,28.9699],[75.1009,28.7953],[75.0824,28.7227],[75.2481,28.6541],[75.2291,28.5995],[75.1492,28.5256],[75.1502,28.4896],[75.1711,28.472],[75.1731,28.3998],[75.2243,28.3919],[75.2978,28.3122],[75.2082,28.2291],[75.1471,28.2278],[75.0119,28.3241],[75.0522,28.343],[75.071,28.3976],[75.0297,28.4147],[74.9968,28.4952],[74.9764,28.4947],[74.957,28.4582],[74.9355,28.4938],[74.813,28.4909],[74.7848,28.409],[74.8471,28.3744],[74.8482,28.3383],[74.808,28.3193],[74.83,28.2657],[74.912,28.2496],[74.9136,28.1955],[74.9768,28.1247],[74.9214,27.9249],[74.9423,27.9073],[74.9438,27.8532],[75.028,27.7468],[75.0295,27.6927],[75.0097,27.6742],[75.0513,27.639],[75.0532,27.5669],[75.1149,27.5321],[75.2086,27.4349],[75.249,27.4357],[75.3321,27.3472],[75.413,27.3488],[75.4744,27.3139],[75.4856,27.2689],[75.5371,27.2248],[75.5766,27.2616],[75.6079,27.2171],[75.7103,27.1467],[75.7115,27.0925],[75.7624,27.0663],[75.8243,26.9951],[75.9452,26.9971],[76.0446,27.0708],[76.0951,27.0625],[76.1063,26.9995],[76.1469,26.982],[76.207,27.0009],[76.3058,27.1286],[76.3262,27.1108],[76.4066,27.1299],[76.526,27.2576],[76.5673,27.1859],[76.6076,27.1863],[76.6283,27.1504],[76.6888,27.151],[76.8292,27.2246],[76.9301,27.2254],[76.95,27.2617],[77.0106,27.2622],[77.0708,27.2987],[77.2122,27.2996],[77.2221,27.3268],[77.3328,27.4086],[77.3932,27.445],[77.4741,27.4454],[77.5143,27.4997],[77.585,27.527],[77.5848,27.5992],[77.5441,27.6352],[77.5437,27.7435],[77.5841,27.7797],[77.5839,27.8158],[77.4926,27.8065],[77.4519,27.8424],[77.3402,27.8509],[77.3705,27.8781],[77.4111,27.8783],[77.4211,27.9054],[77.5021,27.9599],[77.4816,27.9959],[77.5018,28.0141],[77.4814,28.032],[77.5624,28.1226],[77.603,28.1408],[77.6029,28.1769],[77.562,28.2128],[77.5618,28.267],[77.47,28.2757],[77.4497,28.2575],[77.3272,28.2931],[77.2866,28.2748],[77.2762,28.3018],[77.3067,28.311],[77.3167,28.3381],[77.2349,28.3738],[77.2341,28.482],[77.2034,28.4909],[77.0385,28.6522],[76.9976,28.6519],[76.8838,28.7683],[76.9244,28.8047],[76.9631,29.0396],[77.0647,29.1487],[77.0636,29.275],[77.0221,29.3107],[77.0527,29.338],[77.1969,29.339],[77.2069,29.3661],[77.248,29.3844],[77.0314,29.4101],[77.0209,29.437],[76.9795,29.4548],[76.9267,29.5716],[76.886,29.5172],[76.8241,29.5166],[76.8037,29.4984],[76.7828,29.5163],[76.5353,29.5138],[76.5149,29.4955],[76.4531,29.4948],[76.4124,29.4582],[76.3502,29.4755],[76.2967,29.5921],[76.3165,29.6465],[76.2952,29.6823],[76.2431,29.7087],[76.223,29.6723],[76.1919,29.6809],[76.1906,29.7531],[76.1584,29.8158]]],[[[77.2397,27.706],[77.2904,27.6972],[77.3822,27.5984],[77.2817,27.4896],[77.2219,27.3629],[77.1515,27.3173],[77.121,27.3442],[77.1608,27.4167],[77.2011,27.435],[77.2003,27.5433],[77.1189,27.5969],[77.1591,27.6333],[77.159,27.6513],[77.1183,27.6691],[77.1487,27.6783],[77.1686,27.7146],[77.2397,27.706]]]]}},{"type":"Feature","properties":{"cell":401,"feature":1986,"phase":"Unclassified","min_bt_K":232.1,"area_km2":3928,"cold_core_km2":0,"speed_kmh":39.0,"heading_deg":127,"d_min_bt_30":4.6,"age_min":30,"family":168,"touches_missing":true,"lon":77.2242,"lat":28.8093,"merges_splits_so_far":1},"geometry":{"type":"MultiPolygon","coordinates":[[[[77.2805,29.159],[77.0443,29.1305],[76.9631,29.0396],[76.9244,28.8047],[76.8838,28.7683],[76.9976,28.6519],[77.0385,28.6522],[77.0696,28.6073],[77.2341,28.482],[77.2349,28.3738],[77.3065,28.3471],[77.3573,28.3744],[77.3773,28.4467],[77.418,28.4649],[77.4178,28.501],[77.5196,28.5736],[77.4988,28.6638],[77.4576,28.6997],[77.4983,28.754],[77.4981,28.7901],[77.5493,28.7993],[77.5904,28.7814],[77.6517,28.7996],[77.6824,28.8268],[77.7026,28.9351],[77.6512,28.962],[77.6103,28.9258],[77.5693,28.9257],[77.466,29.0697],[77.4249,29.0695],[77.2805,29.159]]]]}},{"type":"Feature","properties":{"cell":403,"feature":1990,"phase":"Unclassified","min_bt_K":234.0,"area_km2":9340,"cold_core_km2":0,"speed_kmh":123.7,"heading_deg":39,"d_min_bt_30":3.0,"age_min":30,"family":3,"touches_missing":true,"lon":74.344,"lat":33.0715,"merges_splits_so_far":4},"geometry":{"type":"MultiPolygon","coordinates":[[[[75.2835,33.6798],[75.1327,33.6766],[75.0902,33.6577],[75.0489,33.6026],[74.9615,33.6368],[74.919,33.6177],[74.8779,33.5626],[74.8563,33.5621],[74.8335,33.5977],[74.7905,33.5967],[74.7702,33.5601],[74.6842,33.558],[74.6391,33.611],[74.5745,33.6094],[74.5543,33.5728],[74.4897,33.5711],[74.4051,33.5327],[74.385,33.4961],[74.1723,33.436],[74.0792,33.3521],[74.0807,33.3161],[74.0497,33.2881],[74.0068,33.2868],[73.9981,33.2415],[73.853,33.1288],[73.8563,33.0567],[73.7843,32.9913],[73.7621,33.0086],[73.709,32.9979],[73.7116,32.9439],[73.6492,32.9057],[73.6604,32.6715],[73.7592,32.6116],[73.8657,32.6149],[74.0093,32.7456],[74.0519,32.7469],[74.0931,32.7841],[74.2005,32.7692],[74.2417,32.8065],[74.3072,32.7722],[74.4138,32.7751],[74.4359,32.7577],[74.5632,32.779],[74.7177,32.9363],[74.695,32.9718],[74.7566,33.0455],[74.7339,33.081],[74.7761,33.1001],[74.7741,33.1542],[74.8463,33.2371],[74.8892,33.2381],[74.9008,33.2113],[74.9664,33.1767],[74.9462,33.1402],[74.9584,33.0954],[75.044,33.0973],[75.0955,33.1616],[75.1587,33.199],[75.1576,33.2351],[75.3673,33.4018],[75.4071,33.5108],[75.363,33.546],[75.3614,33.6001],[75.2747,33.6164],[75.2957,33.6349],[75.2835,33.6798]]],[[[74.8523,33.3726],[74.8542,33.3185],[74.7819,33.2356],[74.7391,33.2345],[74.6831,33.2963],[74.6395,33.3133],[74.6492,33.3406],[74.7781,33.3438],[74.8197,33.3808],[74.8523,33.3726]]]]}},{"type":"Feature","properties":{"cell":414,"feature":1987,"phase":"Unclassified","min_bt_K":230.0,"area_km2":13748,"cold_core_km2":0,"speed_kmh":null,"heading_deg":null,"d_min_bt_30":null,"age_min":0,"family":3,"touches_missing":false,"lon":73.7864,"lat":31.8819,"merges_splits_so_far":1},"geometry":{"type":"MultiPolygon","coordinates":[[[[73.3601,32.49],[73.3083,32.4611],[73.2796,32.3969],[73.2159,32.3947],[73.1864,32.3485],[73.1559,32.3203],[73.1135,32.3188],[73.0536,32.2444],[72.9698,32.2232],[72.9,32.1393],[72.9232,32.1041],[72.9281,32.0141],[72.8464,31.9568],[72.8484,31.9208],[72.9138,31.8872],[72.9868,31.7095],[73.1381,31.643],[73.1418,31.5709],[73.2086,31.5012],[73.1391,31.4175],[73.077,31.3971],[73.0679,31.3697],[72.9666,31.2937],[72.9795,31.2491],[73.0004,31.2499],[73.0396,31.3055],[73.1017,31.3259],[73.1474,31.2554],[73.2085,31.2937],[73.2505,31.2952],[73.3109,31.3515],[73.521,31.3587],[73.6446,31.417],[73.8759,31.4243],[73.9585,31.463],[74.0216,31.4649],[74.1449,31.5407],[74.1754,31.5686],[74.1522,31.6221],[74.2656,31.6885],[74.4982,31.6768],[74.52,31.6593],[74.5506,31.6871],[74.5473,31.7773],[74.5678,31.7958],[74.5447,31.8494],[74.5754,31.8772],[74.6388,31.8788],[74.7432,31.9175],[74.8144,32.0004],[74.7908,32.072],[74.7138,32.1514],[74.5867,32.1482],[74.5039,32.0919],[74.4616,32.0908],[74.3578,32.0338],[74.1885,32.0291],[74.1344,32.0546],[74.0883,32.1435],[74.0689,32.3504],[74.0068,32.3125],[73.8794,32.3086],[73.8574,32.3259],[73.7749,32.2692],[73.73,32.3219],[73.6553,32.3285],[73.5754,32.4432],[73.4691,32.4396],[73.3601,32.49]]]]}},{"type":"Feature","properties":{"cell":415,"feature":1988,"phase":"Unclassified","min_bt_K":234.0,"area_km2":2724,"cold_core_km2":0,"speed_kmh":null,"heading_deg":null,"d_min_bt_30":null,"age_min":0,"family":3,"touches_missing":true,"lon":74.4524,"lat":32.2029,"merges_splits_so_far":1},"geometry":{"type":"MultiPolygon","coordinates":[[[[74.6385,32.4742],[74.5753,32.4546],[74.5554,32.418],[74.493,32.3803],[74.3868,32.3774],[74.3649,32.3949],[74.1107,32.3697],[74.0799,32.3417],[74.0883,32.1435],[74.1344,32.0546],[74.1885,32.0291],[74.3578,32.0338],[74.4616,32.0908],[74.5039,32.0919],[74.5867,32.1482],[74.7138,32.1514],[74.7799,32.0808],[74.9475,32.1389],[74.9773,32.2027],[74.8894,32.2909],[74.8876,32.345],[74.7892,32.4238],[74.7042,32.4218],[74.6385,32.4742]]]]}},{"type":"Feature","properties":{"cell":417,"feature":1991,"phase":"Unclassified","min_bt_K":220.2,"area_km2":38152,"cold_core_km2":52,"speed_kmh":null,"heading_deg":null,"d_min_bt_30":null,"age_min":0,"family":3,"touches_missing":true,"lon":74.3105,"lat":30.3598,"merges_splits_so_far":3},"geometry":{"type":"MultiPolygon","coordinates":[[[[74.2874,31.671],[74.1624,31.6314],[74.1529,31.6041],[74.1754,31.5686],[74.0216,31.4649],[73.9585,31.463],[73.8759,31.4243],[73.6446,31.417],[73.521,31.3587],[73.479,31.3573],[73.4286,31.3105],[73.4203,31.2651],[73.3372,31.2441],[73.3079,31.198],[73.2467,31.1597],[73.2485,31.1237],[73.1692,31.0306],[73.1719,30.9766],[73.1419,30.9484],[73.0609,30.8913],[72.8936,30.8849],[72.8447,30.8199],[72.8476,30.7659],[72.8903,30.7495],[72.8723,30.6946],[72.8978,30.6054],[72.8779,30.5866],[72.9224,30.5342],[73.0629,30.4402],[73.1244,30.4605],[73.1326,30.506],[73.1725,30.5435],[73.1707,30.5795],[73.2224,30.5904],[73.3075,30.5574],[73.37,30.5596],[73.4459,30.4991],[73.4692,30.4457],[73.4717,30.3917],[73.4135,30.2994],[73.4384,30.2101],[73.3886,30.1632],[73.2433,30.1581],[73.162,30.1191],[73.1404,30.1363],[73.0916,30.0713],[73.0943,30.0173],[73.0744,29.9985],[73.0996,29.9092],[73.0591,29.8897],[73.1031,29.8372],[73.1058,29.7831],[73.148,29.7666],[73.1713,29.7134],[73.1317,29.6758],[73.1334,29.6398],[73.3094,29.6371],[73.3738,29.5853],[73.4992,29.5535],[73.6024,29.557],[73.6421,29.5944],[73.6834,29.5957],[73.8942,29.4942],[73.9347,29.5135],[74.0186,29.4799],[74.1245,29.4109],[74.2049,29.4674],[74.2268,29.4319],[74.2468,29.4505],[74.3292,29.4528],[74.3892,29.5086],[74.4104,29.4912],[74.4498,29.5464],[74.4917,29.5294],[74.5317,29.5666],[74.573,29.5677],[74.6218,29.6501],[74.5799,29.6671],[74.5893,29.6944],[74.6531,29.6419],[74.7558,29.6625],[74.7776,29.6269],[74.8189,29.6279],[74.8613,29.5929],[74.9233,29.5943],[74.9635,29.6313],[75.0048,29.6323],[75.1675,29.7261],[75.2093,29.7089],[75.2492,29.7639],[75.3516,29.8021],[75.4146,29.7672],[75.4784,29.6963],[75.6454,29.6272],[75.8106,29.63],[75.8718,29.6671],[76.0598,29.5618],[76.1106,29.6076],[76.069,29.625],[76.0676,29.6972],[76.0466,29.7149],[76.1072,29.788],[76.0845,29.8959],[76.0518,29.9766],[75.9493,29.921],[75.9377,29.9839],[75.9886,30.0298],[76.0916,30.0674],[76.1732,30.1407],[76.2249,30.1505],[76.1824,30.204],[76.2016,30.2945],[76.1388,30.3117],[76.1583,30.3841],[76.1051,30.4465],[75.9798,30.4627],[75.9374,30.4981],[75.8749,30.4971],[75.8104,30.5863],[75.7265,30.6029],[75.684,30.6383],[75.5579,30.6721],[75.3919,30.6328],[75.3492,30.6681],[75.2866,30.6668],[75.2154,30.6022],[75.2398,30.4764],[75.1682,30.4298],[75.0844,30.446],[75.0647,30.4095],[75.0028,30.3901],[74.9943,30.3267],[74.9426,30.3165],[74.892,30.2702],[74.8741,30.1796],[74.8337,30.1425],[74.8153,30.0699],[74.7441,30.0231],[74.5783,30.0189],[74.4079,30.1407],[74.3349,30.1477],[74.3417,30.2471],[74.4657,30.2686],[74.5167,30.297],[74.5045,30.6395],[74.4184,30.7093],[74.4164,30.7634],[74.3727,30.8164],[74.3679,30.9425],[74.3882,30.9611],[74.3443,31.0141],[74.3632,31.0687],[74.2867,31.1478],[74.234,31.1553],[74.2304,31.2454],[74.2507,31.264],[74.2254,31.3716],[74.3264,31.4827],[74.3039,31.5181],[74.2874,31.671]]],[[[74.7813,29.8345],[74.7825,29.7985],[74.6513,29.696],[74.6182,29.7583],[74.6885,29.8232],[74.7813,29.8345]]],[[[75.8571,29.8744],[75.827,29.8288],[75.786,29.8101],[75.7548,29.8186],[75.8051,29.8826],[75.8571,29.8744]]],[[[75.467,30.5531],[75.468,30.517],[75.4374,30.4894],[75.3541,30.4878],[75.3221,30.5142],[75.3948,30.5247],[75.4355,30.5615],[75.467,30.5531]]]]}}]}