{"type":"FeatureCollection","features":[{"type":"Feature","properties":{"cell":280,"feature":2065,"phase":"Developing","min_bt_K":241.3,"area_km2":260,"cold_core_km2":0,"speed_kmh":11.3,"heading_deg":74,"d_min_bt_30":2.3,"age_min":270,"family":280,"touches_missing":true,"lon":79.3422,"lat":33.5587,"merges_splits_so_far":0},"geometry":{"type":"MultiPolygon","coordinates":[[[[79.3581,33.6824],[79.2605,33.6382],[79.2592,33.548],[79.3121,33.4844],[79.4405,33.447],[79.452,33.492],[79.3673,33.5831],[79.3897,33.637],[79.3581,33.6824]]]]}},{"type":"Feature","properties":{"cell":380,"feature":2072,"phase":"Developing","min_bt_K":228.0,"area_km2":20108,"cold_core_km2":0,"speed_kmh":112.2,"heading_deg":155,"d_min_bt_30":5.6,"age_min":120,"family":168,"touches_missing":true,"lon":76.362,"lat":27.7658,"merges_splits_so_far":14},"geometry":{"type":"MultiPolygon","coordinates":[[[[76.4676,28.5205],[76.4581,28.4753],[76.3878,28.3932],[75.9998,28.4059],[75.9583,28.4414],[75.8974,28.4224],[75.8866,28.4493],[75.835,28.4755],[75.7445,28.4108],[75.7653,28.3931],[75.7672,28.3029],[75.9317,28.2334],[75.9942,28.1622],[76.0369,28.0545],[75.9873,27.9906],[75.8254,27.9519],[75.7652,27.9148],[75.6226,27.9304],[75.5724,27.9024],[75.5736,27.8483],[75.5144,27.775],[75.5177,27.6306],[75.5595,27.5772],[75.521,27.4862],[75.6135,27.4248],[75.6863,27.3268],[75.7271,27.3094],[75.7088,27.2188],[75.7602,27.1746],[75.8006,27.1753],[75.8112,27.1484],[75.9032,27.0867],[75.9428,27.1234],[76.0436,27.125],[76.0836,27.1436],[76.0942,27.1167],[76.1655,27.0725],[76.226,27.0734],[76.2558,27.1009],[76.2552,27.137],[76.2953,27.1555],[76.2942,27.2277],[76.3243,27.2372],[76.3555,27.1744],[76.2956,27.1375],[76.3262,27.1108],[76.4077,27.0576],[76.5284,27.0771],[76.549,27.0412],[76.5692,27.0414],[76.5789,27.0686],[76.6589,27.1236],[76.6582,27.1778],[76.6781,27.1961],[76.6573,27.25],[76.7072,27.2956],[76.8082,27.2966],[76.8377,27.3781],[76.8073,27.3868],[76.7674,27.3323],[76.707,27.3137],[76.6953,27.449],[76.6646,27.4757],[76.5735,27.4838],[76.6135,27.5203],[76.6128,27.5745],[76.5721,27.5921],[76.7023,27.7108],[76.7328,27.7021],[76.7545,27.5759],[76.7852,27.5491],[76.937,27.5595],[76.9377,27.4873],[76.8781,27.3784],[76.9293,27.3157],[76.9899,27.3162],[77.1106,27.3712],[77.3936,27.3728],[77.3931,27.4631],[77.474,27.4634],[77.4843,27.4364],[77.4641,27.4182],[77.4845,27.3822],[77.5351,27.3734],[77.5754,27.4096],[77.6158,27.4097],[77.6359,27.4459],[77.7774,27.4823],[77.7976,27.5365],[77.8583,27.5366],[77.9392,27.5908],[78.1114,27.5998],[78.1317,27.672],[78.0811,27.7172],[78.0203,27.7533],[77.9189,27.7533],[77.8579,27.8074],[77.8174,27.8073],[77.797,27.8434],[77.7158,27.8432],[77.7156,27.8974],[77.6244,27.852],[77.6854,27.8161],[77.7465,27.726],[77.767,27.6177],[77.6356,27.5362],[77.5747,27.5721],[77.514,27.5719],[77.4531,27.6077],[77.4123,27.6617],[77.2704,27.661],[77.2801,27.7242],[77.2496,27.7331],[77.2291,27.7691],[77.1074,27.7683],[77.0665,27.8041],[77.0465,27.7679],[76.9856,27.7674],[76.9659,27.7131],[76.9051,27.7126],[76.8742,27.7575],[76.9451,27.7671],[76.9548,27.8123],[76.8433,27.8024],[76.8226,27.8383],[76.792,27.847],[76.8119,27.8833],[76.8624,27.9108],[76.964,27.9117],[76.9841,27.9299],[77.1466,27.931],[77.2282,27.8954],[77.2375,28.0128],[77.2067,28.0578],[77.166,28.0575],[77.0123,28.1738],[76.9502,28.2816],[76.8159,28.4338],[76.7543,28.4694],[76.6113,28.4679],[76.5907,28.4858],[76.5297,28.4671],[76.4676,28.5205]]]]}},{"type":"Feature","properties":{"cell":401,"feature":2076,"phase":"Unclassified","min_bt_K":234.2,"area_km2":3320,"cold_core_km2":0,"speed_kmh":14.5,"heading_deg":94,"d_min_bt_30":2.1,"age_min":60,"family":168,"touches_missing":true,"lon":77.2985,"lat":28.8051,"merges_splits_so_far":1},"geometry":{"type":"MultiPolygon","coordinates":[[[[77.3623,29.2316],[77.3109,29.2223],[77.3115,29.1321],[77.3323,29.0961],[77.2194,29.0865],[77.1888,29.0593],[77.2096,29.0233],[77.1383,28.9597],[77.046,28.95],[77.0465,28.8959],[77.006,28.8415],[77.0069,28.7512],[76.9668,28.6607],[77.0181,28.6521],[77.1415,28.5627],[77.1824,28.563],[77.2433,28.6175],[77.3046,28.6358],[77.5705,28.637],[77.6113,28.6551],[77.6623,28.7184],[77.6006,28.7724],[77.5796,28.8987],[77.6206,28.9168],[77.6203,28.989],[77.6613,29.0072],[77.6612,29.0433],[77.7432,29.0795],[77.7431,29.1337],[77.7122,29.1607],[77.5272,29.1601],[77.4858,29.2141],[77.383,29.2137],[77.3623,29.2316]]]]}},{"type":"Feature","properties":{"cell":414,"feature":2081,"phase":"Unclassified","min_bt_K":234.1,"area_km2":11376,"cold_core_km2":0,"speed_kmh":114.7,"heading_deg":5,"d_min_bt_30":4.1,"age_min":30,"family":3,"touches_missing":true,"lon":73.8446,"lat":32.3965,"merges_splits_so_far":3},"geometry":{"type":"MultiPolygon","coordinates":[[[[74.5814,33.4291],[74.5169,33.4274],[74.5079,33.3821],[74.3923,33.3159],[74.3834,33.2705],[74.3316,33.224],[74.2221,33.2751],[74.1792,33.2738],[74.0855,33.208],[73.9649,33.0239],[73.9681,32.9519],[73.8842,32.9132],[73.8859,32.8772],[73.8448,32.8398],[73.7858,32.7297],[73.7874,32.6936],[73.6919,32.6816],[73.6101,32.6067],[73.5045,32.5852],[73.3915,32.5001],[73.3757,32.3913],[73.3341,32.3718],[73.3377,32.2997],[73.2556,32.2427],[73.2399,32.1339],[73.2096,32.1057],[73.0613,32.1003],[73.0281,32.1261],[73.0001,32.2514],[72.9446,32.2944],[72.8294,32.2629],[72.8334,32.1909],[72.9443,32.1049],[72.9391,32.0055],[72.8848,32.0305],[72.8818,32.0845],[72.8385,32.1009],[72.8424,32.0288],[72.8867,31.9945],[72.8907,31.9224],[72.9248,31.8786],[72.9421,31.9515],[73.0074,31.9178],[73.1342,31.9225],[73.216,31.9796],[73.2932,31.9192],[73.295,31.8832],[73.2537,31.8637],[73.2665,31.819],[73.351,31.822],[73.4389,31.7529],[73.5233,31.7558],[73.5436,31.7745],[73.6069,31.7766],[73.6669,31.8507],[73.7303,31.8528],[73.8539,31.9289],[73.9596,31.9321],[74.0253,31.88],[74.0864,31.9359],[74.16,31.9471],[74.0928,32.0353],[74.0891,32.1254],[74.0436,32.1963],[73.9785,32.2304],[74.1569,32.2808],[74.2081,32.3274],[74.2007,32.5076],[74.1046,32.5138],[74.0841,32.4952],[74.0723,32.5219],[74.0289,32.5387],[74.0061,32.5741],[74.0227,32.6828],[74.0535,32.7108],[74.0756,32.6934],[74.2461,32.6983],[74.2873,32.7356],[74.3726,32.7379],[74.3808,32.8013],[74.4331,32.8298],[74.453,32.8664],[74.5157,32.9041],[74.5591,32.8872],[74.6639,32.944],[74.7067,32.9451],[74.8007,33.0105],[74.7988,33.0646],[74.8409,33.0836],[74.839,33.1377],[74.7845,33.1635],[74.7436,33.1083],[74.68,33.0887],[74.5971,33.0145],[74.4777,33.0565],[74.477,33.0745],[74.5606,33.1308],[74.5578,33.2029],[74.6181,33.3127],[74.6146,33.4029],[74.5814,33.4291]]],[[[73.5046,31.9265],[73.4953,31.8992],[73.4632,31.9071],[73.4725,31.9345],[73.5046,31.9265]]]]}},{"type":"Feature","properties":{"cell":415,"feature":2082,"phase":"Developing","min_bt_K":234.0,"area_km2":2960,"cold_core_km2":0,"speed_kmh":36.8,"heading_deg":69,"d_min_bt_30":-0.0,"age_min":30,"family":3,"touches_missing":true,"lon":74.6347,"lat":32.2628,"merges_splits_so_far":2},"geometry":{"type":"MultiPolygon","coordinates":[[[[74.7629,32.5675],[74.6565,32.5649],[74.5527,32.4901],[74.3826,32.4856],[74.2961,32.5193],[74.211,32.5169],[74.2081,32.3274],[74.2821,32.3385],[74.3705,32.2507],[74.4239,32.2431],[74.48,32.1634],[74.5231,32.1465],[74.629,32.1492],[74.6439,32.0323],[74.6022,32.0132],[74.6349,31.987],[74.7618,31.9902],[74.7836,31.9726],[74.8888,31.9932],[74.9323,31.9581],[75.0169,31.96],[75.0478,31.9878],[75.0455,32.0599],[74.9808,32.0945],[74.979,32.1486],[74.9355,32.1837],[74.967,32.1934],[74.9767,32.2207],[74.9107,32.2914],[74.9513,32.3464],[74.853,32.4253],[74.8105,32.4243],[74.7989,32.4511],[74.7558,32.4681],[74.7751,32.5227],[74.7629,32.5675]]]]}},{"type":"Feature","properties":{"cell":417,"feature":2079,"phase":"Unclassified","min_bt_K":223.6,"area_km2":61696,"cold_core_km2":0,"speed_kmh":116.4,"heading_deg":33,"d_min_bt_30":3.4,"age_min":30,"family":3,"touches_missing":true,"lon":74.6378,"lat":30.802,"merges_splits_so_far":4},"geometry":{"type":"MultiPolygon","coordinates":[[[[75.4764,32.186],[75.4133,32.1668],[75.2644,32.1818],[75.1171,32.1427],[75.1079,32.0974],[75.0455,32.0599],[75.0478,31.9878],[75.0169,31.96],[74.9323,31.9581],[74.8888,31.9932],[74.8253,31.9917],[74.8048,31.9731],[74.7618,31.9902],[74.6349,31.987],[74.5906,32.04],[74.5285,32.0023],[74.4438,32.0001],[74.4029,31.9629],[74.2118,31.9756],[74.1498,31.9378],[74.0864,31.9359],[74.0253,31.88],[73.9596,31.9321],[73.8539,31.9289],[73.7303,31.8528],[73.6669,31.8507],[73.6069,31.7766],[73.5022,31.755],[73.4314,31.6895],[73.3919,31.634],[73.4577,31.5821],[73.4393,31.5273],[73.3998,31.4719],[73.2378,31.3398],[73.2405,31.2858],[73.2204,31.267],[73.2503,31.0877],[73.2311,31.0509],[73.2766,30.9803],[73.2574,30.9436],[73.301,30.909],[73.3053,30.8189],[73.3966,30.6597],[73.4817,30.6266],[73.5059,30.5552],[73.6157,30.4326],[73.6413,30.3252],[73.7484,30.2565],[73.7507,30.2024],[73.7207,30.1744],[73.6792,30.173],[73.6409,30.0996],[73.5786,30.0975],[73.45,29.9578],[73.4094,29.9384],[73.3514,29.8461],[73.3738,29.8108],[73.4375,29.777],[73.4391,29.7409],[73.5373,29.627],[73.6818,29.6318],[73.7423,29.6698],[74.0571,29.5533],[74.0983,29.5545],[74.163,29.4842],[74.2448,29.5046],[74.3698,29.472],[74.4729,29.4748],[74.4929,29.4934],[74.6379,29.4791],[74.7604,29.5183],[74.8,29.5733],[74.882,29.5934],[74.983,29.6679],[75.1065,29.6887],[75.177,29.7534],[75.1957,29.8259],[75.3883,29.9832],[75.4914,30.0033],[75.7373,30.134],[75.8203,30.1354],[75.8289,30.2167],[76.0232,30.3731],[76.0648,30.3738],[76.1266,30.4107],[76.189,30.4116],[76.294,30.3589],[76.3036,30.4041],[76.3447,30.4407],[76.3232,30.4765],[76.354,30.504],[76.4585,30.4872],[76.5223,30.3977],[76.6153,30.4438],[76.6148,30.4799],[76.5724,30.5336],[76.5201,30.542],[76.509,30.587],[76.435,30.6493],[76.3933,30.6488],[76.3504,30.7204],[76.2871,30.7557],[76.2035,30.7546],[76.1399,30.8078],[76.0134,30.8601],[75.8461,30.8575],[75.7739,30.8112],[75.7645,30.7659],[75.5783,30.6905],[75.5259,30.6986],[75.5779,30.7085],[75.629,30.7546],[75.5859,30.8079],[75.5845,30.862],[75.6357,30.908],[75.7189,30.9275],[75.7288,30.9548],[75.801,31.0011],[75.8741,31.0113],[75.8733,31.0474],[75.8203,31.0736],[75.8092,31.1005],[75.8507,31.1192],[75.9323,31.2287],[75.8788,31.273],[75.7532,31.2529],[75.7413,31.3158],[75.7829,31.3345],[75.7816,31.3887],[75.8335,31.4166],[76.0538,31.447],[76.0424,31.492],[75.9467,31.5356],[75.9666,31.5901],[76.0497,31.6454],[76.0275,31.6992],[76.0479,31.7356],[75.9826,31.8248],[75.9815,31.8789],[75.8957,31.9317],[75.8622,32.0124],[75.7983,32.0294],[75.6717,32.0092],[75.4764,32.186]]],[[[74.0207,30.2108],[74.0136,30.1294],[73.8676,30.143],[73.793,30.1857],[73.9484,30.1996],[73.9684,30.2183],[74.0207,30.2108]]]]}},{"type":"Feature","properties":{"cell":428,"feature":2075,"phase":"Unclassified","min_bt_K":234.3,"area_km2":5272,"cold_core_km2":0,"speed_kmh":null,"heading_deg":null,"d_min_bt_30":null,"age_min":0,"family":168,"touches_missing":true,"lon":77.2689,"lat":28.3507,"merges_splits_so_far":1},"geometry":{"type":"MultiPolygon","coordinates":[[[[77.918,28.8181],[77.8566,28.8181],[77.7952,28.7458],[77.652,28.7094],[77.6215,28.6642],[77.5705,28.637],[77.3046,28.6358],[77.2433,28.6175],[77.1824,28.563],[77.1415,28.5627],[77.0181,28.6521],[76.9771,28.6518],[76.9263,28.6243],[76.7646,28.4604],[76.8159,28.4338],[76.9088,28.3354],[77.0123,28.1738],[77.166,28.0575],[77.2169,28.0488],[77.2485,27.8956],[77.5531,27.915],[77.6345,27.8611],[77.7258,27.9064],[77.7054,27.9244],[77.7257,27.9425],[77.7255,28.0328],[77.6847,28.0688],[77.7049,28.123],[77.6743,28.1319],[77.6538,28.168],[77.5724,28.1677],[77.47,28.2757],[77.307,28.2749],[77.2868,28.2387],[77.2152,28.2834],[77.1738,28.3554],[77.2857,28.4011],[77.4898,28.4021],[77.5101,28.4202],[77.6939,28.4027],[77.755,28.4389],[77.8163,28.4029],[77.765,28.5382],[77.8262,28.5744],[77.8262,28.6285],[77.867,28.7008],[77.9488,28.773],[77.918,28.8181]]]]}},{"type":"Feature","properties":{"cell":429,"feature":2077,"phase":"Unclassified","min_bt_K":232.0,"area_km2":13072,"cold_core_km2":0,"speed_kmh":null,"heading_deg":null,"d_min_bt_30":null,"age_min":0,"family":168,"touches_missing":true,"lon":76.0618,"lat":29.0773,"merges_splits_so_far":1},"geometry":{"type":"MultiPolygon","coordinates":[[[[76.2792,30.0159],[76.217,30.015],[76.1969,29.9787],[76.1758,29.9964],[76.1554,29.9781],[76.1344,29.9959],[75.8755,29.9829],[75.8766,29.9288],[76.0445,29.8232],[76.0462,29.733],[76.0672,29.7152],[76.0266,29.6786],[76.0277,29.6244],[75.9661,29.6055],[75.9672,29.5513],[76.0186,29.5611],[76.0385,29.5975],[76.0703,29.5529],[76.072,29.4627],[76.0518,29.4444],[76.094,29.3908],[76.0751,29.3003],[75.9841,29.2178],[75.9632,29.2355],[75.8809,29.2342],[75.6764,29.1766],[75.5929,29.2293],[75.4502,29.1725],[75.3886,29.1713],[75.3785,29.162],[75.4201,29.1448],[75.4228,29.0366],[75.3826,28.9997],[75.384,28.9456],[75.3439,28.9087],[75.3863,28.8554],[75.3167,28.7728],[75.2333,28.8252],[75.2028,28.8156],[75.2038,28.7795],[75.1638,28.7425],[75.1658,28.6704],[75.0854,28.6145],[75.1169,28.5881],[75.1373,28.5886],[75.1568,28.6251],[75.1977,28.6259],[75.2804,28.5916],[75.3617,28.6113],[75.4444,28.5768],[75.6476,28.6347],[75.6889,28.6174],[75.7695,28.673],[75.7819,28.5739],[75.7113,28.5276],[75.6817,28.4819],[75.7545,28.42],[75.835,28.4755],[75.8762,28.4581],[75.8974,28.4224],[75.9583,28.4414],[75.9998,28.4059],[76.1426,28.408],[76.1634,28.3903],[76.3878,28.3932],[76.418,28.4206],[76.4581,28.4753],[76.4573,28.5294],[76.3652,28.5373],[76.2725,28.5812],[76.2903,28.7439],[76.2591,28.7706],[76.2181,28.77],[76.2074,28.7969],[76.2469,28.8877],[76.4092,28.998],[76.4287,29.0704],[76.5303,29.1438],[76.5504,29.1801],[76.5491,29.2703],[76.651,29.3436],[76.6489,29.5059],[76.7309,29.5428],[76.75,29.6693],[76.6771,29.7137],[76.656,29.7496],[76.5837,29.7398],[76.5827,29.812],[76.5618,29.8298],[76.571,29.9111],[76.4881,29.9102],[76.4041,29.9814],[76.342,29.9806],[76.2792,30.0159]]]]}},{"type":"Feature","properties":{"cell":430,"feature":2078,"phase":"Unclassified","min_bt_K":234.0,"area_km2":7352,"cold_core_km2":0,"speed_kmh":null,"heading_deg":null,"d_min_bt_30":null,"age_min":0,"family":168,"touches_missing":true,"lon":76.7236,"lat":29.0064,"merges_splits_so_far":1},"geometry":{"type":"MultiPolygon","coordinates":[[[[77.1331,29.5732],[77.0505,29.5726],[77.0094,29.5542],[76.9891,29.518],[76.8648,29.5711],[76.7826,29.5343],[76.7618,29.5522],[76.6795,29.5333],[76.6489,29.5059],[76.651,29.3436],[76.5491,29.2703],[76.5504,29.1801],[76.5303,29.1438],[76.4287,29.0704],[76.4092,28.998],[76.3176,28.9518],[76.227,28.8513],[76.2077,28.7789],[76.2903,28.7439],[76.2914,28.6717],[76.2713,28.6534],[76.2828,28.5724],[76.3652,28.5373],[76.4469,28.5383],[76.5297,28.4671],[76.5907,28.4858],[76.6113,28.4679],[76.7747,28.4696],[76.8352,28.5423],[76.967,28.6427],[77.0069,28.7512],[77.006,28.8415],[77.0465,28.8959],[77.046,28.95],[77.0046,28.9858],[77.0041,29.0399],[77.0449,29.0763],[77.0443,29.1305],[77.136,29.2303],[77.2183,29.2309],[77.2489,29.2581],[77.2693,29.2943],[77.248,29.3844],[77.2684,29.4206],[77.3299,29.457],[77.3193,29.5021],[77.278,29.5199],[77.2368,29.5016],[77.1331,29.5732]]]]}}]}