{"type":"FeatureCollection","features":[{"type":"Feature","properties":{"cell":380,"feature":2175,"phase":"Developing","min_bt_K":230.1,"area_km2":7732,"cold_core_km2":0,"speed_kmh":10.8,"heading_deg":324,"d_min_bt_30":2.1,"age_min":150,"family":168,"touches_missing":true,"lon":76.3302,"lat":27.8053,"merges_splits_so_far":16},"geometry":{"type":"MultiPolygon","coordinates":[[[[76.5118,28.2864],[76.4506,28.2857],[76.431,28.2313],[76.3088,28.2298],[76.2683,28.2112],[76.2285,28.1565],[76.1076,28.0826],[75.8228,28.0782],[75.7825,28.0595],[75.7917,28.1048],[75.7407,28.113],[75.6919,28.0128],[75.7644,27.9509],[75.8254,27.9519],[75.8564,27.9254],[75.6954,27.8505],[75.6966,27.7963],[75.6767,27.7779],[75.6779,27.7238],[75.6985,27.7061],[75.6786,27.6877],[75.9528,27.6652],[76.004,27.6389],[76.0046,27.6028],[76.0561,27.5584],[76.1374,27.5415],[76.2075,27.5877],[76.2366,27.6693],[76.3376,27.6886],[76.3673,27.7341],[76.3976,27.7435],[76.5208,27.6367],[76.5918,27.6284],[76.5718,27.6102],[76.5758,27.3033],[76.6165,27.2857],[76.6269,27.2587],[76.7072,27.2956],[76.7383,27.2328],[76.6983,27.1963],[76.7191,27.1423],[76.7697,27.1338],[76.8104,27.098],[76.8707,27.1166],[76.9315,27.081],[76.9615,27.1083],[76.9412,27.1262],[76.9603,27.2347],[77.0206,27.2713],[77.0397,27.3978],[77.0189,27.4518],[76.9269,27.5504],[76.7952,27.5582],[76.8354,27.5947],[76.8346,27.6669],[76.8747,27.7034],[76.8742,27.7575],[76.7719,27.8288],[76.751,27.8827],[76.8115,27.9194],[76.8113,27.9375],[76.7805,27.9642],[76.689,27.9724],[76.6264,28.0981],[76.6247,28.2244],[76.5118,28.2864]]]]}},{"type":"Feature","properties":{"cell":417,"feature":2179,"phase":"Unclassified","min_bt_K":227.0,"area_km2":66732,"cold_core_km2":0,"speed_kmh":45.9,"heading_deg":16,"d_min_bt_30":3.4,"age_min":60,"family":3,"touches_missing":true,"lon":74.7039,"lat":31.0008,"merges_splits_so_far":10},"geometry":{"type":"MultiPolygon","coordinates":[[[[74.2844,32.8077],[74.2417,32.8065],[74.2005,32.7692],[74.0946,32.7481],[74.0322,32.7102],[73.9619,32.6088],[73.9635,32.5728],[73.88,32.5341],[73.8415,32.4427],[73.7896,32.414],[73.719,32.3306],[73.7206,32.2945],[73.7639,32.2779],[73.7664,32.2238],[73.651,32.193],[73.4901,32.0073],[73.4275,31.9871],[73.4082,31.9503],[73.2335,31.8449],[73.2353,31.8089],[73.2894,31.7838],[73.3097,31.8025],[73.3528,31.786],[73.4363,31.8069],[73.4693,31.781],[73.4077,31.7428],[73.4112,31.6707],[73.3498,31.6325],[73.3568,31.4884],[73.3998,31.4719],[73.4033,31.3998],[73.3437,31.3255],[73.3673,31.2722],[73.3481,31.2355],[73.3918,31.2009],[73.3734,31.1461],[73.3987,31.0568],[73.3795,31.02],[73.4666,30.9509],[73.4951,30.7894],[73.5686,30.7829],[73.6237,30.7216],[73.6478,30.6502],[73.6911,30.6155],[73.6951,30.5254],[73.7915,30.4654],[73.854,30.4673],[73.8863,30.4413],[73.8462,30.4039],[73.9325,30.3344],[73.9347,30.2804],[73.8846,30.2337],[73.7815,30.2124],[73.7207,30.1744],[73.5918,30.0348],[73.5942,29.9808],[73.5743,29.9621],[73.5751,29.944],[73.6173,29.9274],[73.6021,29.8006],[73.6963,29.7766],[73.7614,29.7065],[73.9438,29.8025],[74.0479,29.7876],[74.1554,29.6825],[74.2188,29.6482],[74.2601,29.6494],[74.3247,29.579],[74.4053,29.6354],[74.4491,29.5644],[74.4904,29.5655],[74.5335,29.5125],[74.5748,29.5136],[74.6379,29.4791],[74.9472,29.4866],[74.9868,29.5417],[75.1307,29.5629],[75.1393,29.6262],[75.1695,29.654],[75.2007,29.6456],[75.1811,29.6091],[75.2233,29.5739],[75.2037,29.5374],[75.2354,29.511],[75.4197,29.5689],[75.5641,29.5716],[75.5927,29.6714],[75.6442,29.6813],[75.6652,29.6636],[75.7053,29.7185],[75.797,29.7832],[75.7962,29.8193],[75.7438,29.8454],[75.6818,29.8444],[75.6708,29.8712],[75.629,29.8885],[75.6281,29.9246],[75.5752,29.9688],[75.4712,29.9849],[75.4597,30.0297],[75.5104,30.0758],[75.6141,30.0777],[75.6551,30.0965],[75.6954,30.1513],[75.7581,30.1344],[75.8008,30.081],[75.8423,30.0816],[75.8521,30.1089],[75.8932,30.1276],[75.9117,30.2361],[75.8901,30.2719],[75.8481,30.2892],[75.9491,30.4352],[75.9271,30.4889],[75.9684,30.5076],[75.9669,30.5798],[76.0083,30.5984],[75.9347,30.6244],[75.8198,30.6316],[75.8174,30.7398],[75.8374,30.7762],[75.794,30.8476],[75.8141,30.884],[75.8761,30.9211],[75.9164,30.9939],[75.9152,31.048],[76.0391,31.1401],[76.0483,31.2034],[76.1528,31.2229],[76.1731,31.2593],[76.3606,31.352],[76.4236,31.3527],[76.4334,31.3979],[76.3797,31.4604],[76.3166,31.4597],[76.2859,31.4142],[76.2545,31.4047],[76.1687,31.4938],[76.1266,31.4932],[76.0855,31.4385],[76.0641,31.4562],[76.0228,31.4195],[75.8756,31.4172],[75.8542,31.4349],[75.6232,31.413],[75.5167,31.4651],[75.4746,31.4644],[75.4335,31.4275],[75.3283,31.4254],[75.315,31.5244],[75.3346,31.5789],[75.313,31.5965],[75.3335,31.6149],[75.332,31.669],[75.2672,31.7218],[75.3295,31.7592],[75.3873,31.9588],[75.4286,31.9957],[75.4029,32.1576],[75.4443,32.1944],[75.4433,32.2305],[75.4103,32.275],[75.3466,32.2737],[75.3248,32.2913],[75.1126,32.2869],[75.0696,32.304],[75.0363,32.3484],[74.9932,32.3654],[74.9921,32.4015],[74.949,32.4186],[74.9575,32.4819],[75.0213,32.4833],[75.115,32.5486],[75.0915,32.6202],[75.1318,32.6933],[75.129,32.7834],[75.0327,32.7903],[74.9906,32.7713],[74.8255,32.6051],[74.719,32.6025],[74.6971,32.62],[74.5913,32.5993],[74.5356,32.6611],[74.5563,32.6796],[74.5432,32.7424],[74.4579,32.7402],[74.4373,32.7216],[74.3086,32.7362],[74.2844,32.8077]]]]}},{"type":"Feature","properties":{"cell":428,"feature":2176,"phase":"Developing","min_bt_K":234.1,"area_km2":16640,"cold_core_km2":0,"speed_kmh":89.0,"heading_deg":278,"d_min_bt_30":-0.2,"age_min":30,"family":168,"touches_missing":true,"lon":76.8189,"lat":28.4055,"merges_splits_so_far":2},"geometry":{"type":"MultiPolygon","coordinates":[[[[77.7539,28.9081],[77.7027,28.881],[77.7029,28.8268],[77.611,28.7454],[77.5494,28.7813],[77.4266,28.7628],[77.345,28.7082],[77.2939,28.6989],[77.2944,28.6268],[77.2436,28.5814],[77.2027,28.5811],[77.1417,28.5446],[77.0804,28.5442],[77.0495,28.5711],[77.0492,28.6072],[76.9766,28.7059],[76.8536,28.7229],[76.7709,28.7944],[76.6068,28.8108],[76.5238,28.8821],[76.4828,28.8816],[76.4423,28.845],[76.2579,28.8427],[76.2368,28.8785],[76.1958,28.878],[76.1255,28.7958],[76.1261,28.7597],[76.1674,28.7422],[76.158,28.697],[76.1375,28.6967],[76.1164,28.7325],[76.0758,28.7139],[75.912,28.7114],[75.8718,28.6746],[75.7294,28.6362],[75.6877,28.6715],[75.6059,28.6701],[75.5453,28.6329],[75.4557,28.5319],[75.4162,28.477],[75.4171,28.4409],[75.3771,28.404],[75.3789,28.3319],[75.4423,28.2429],[75.444,28.1707],[75.4241,28.1523],[75.4466,28.0625],[75.6206,28.0206],[75.6816,28.0217],[75.7314,28.0677],[75.7103,28.1034],[75.7084,28.1936],[75.6672,28.211],[75.6668,28.229],[75.7072,28.2478],[75.6964,28.2746],[75.6657,28.2831],[75.6752,28.3104],[75.7168,28.275],[75.7368,28.2934],[75.798,28.2944],[75.8187,28.2767],[76.0834,28.2989],[76.1041,28.2811],[76.2459,28.3372],[76.3062,28.3922],[76.4297,28.3215],[76.4506,28.2857],[76.5118,28.2864],[76.6247,28.2244],[76.6264,28.0981],[76.689,27.9724],[76.7805,27.9642],[76.8011,27.9464],[76.8618,27.965],[76.9829,28.0562],[77.1047,28.0932],[77.2057,28.1841],[77.2668,28.1844],[77.3893,28.1309],[77.4707,28.1313],[77.532,28.0954],[77.593,28.1137],[77.7558,28.1141],[77.7964,28.1502],[77.8372,28.0961],[78.0102,28.015],[78.0508,27.9609],[78.0609,27.8796],[78.1523,27.8886],[78.1522,27.8344],[78.071,27.7803],[78.1318,27.7442],[78.1216,27.6991],[78.0507,27.6901],[78.0506,27.6179],[78.081,27.5908],[78.1215,27.5908],[78.1824,27.6629],[78.2229,27.6628],[78.2636,27.6989],[78.446,27.6984],[78.4867,27.7343],[78.5679,27.734],[78.7102,27.7875],[78.771,27.7871],[78.7714,27.8413],[78.7106,27.8597],[78.6699,27.8418],[78.5684,27.8423],[78.528,27.8786],[78.4062,27.879],[78.386,27.9152],[78.3048,27.9334],[78.2948,28.0147],[78.3457,28.0236],[78.3458,28.0597],[78.2847,28.0418],[78.2644,28.0599],[78.1017,28.0421],[77.9898,28.1053],[77.9593,28.1865],[77.8371,28.1683],[77.8064,28.2315],[77.8267,28.3037],[77.745,28.3577],[77.7449,28.3938],[77.6834,28.4839],[77.6323,28.4928],[77.561,28.4474],[77.5607,28.5196],[77.6116,28.5649],[77.6526,28.547],[77.6731,28.5109],[77.714,28.511],[77.7445,28.5562],[77.816,28.6015],[77.8569,28.5474],[77.8876,28.5745],[77.8875,28.6466],[77.9693,28.7189],[77.9693,28.7369],[77.8771,28.8],[77.7951,28.818],[77.7539,28.9081]]]]}},{"type":"Feature","properties":{"cell":429,"feature":2178,"phase":"Unclassified","min_bt_K":232.6,"area_km2":3732,"cold_core_km2":0,"speed_kmh":21.9,"heading_deg":353,"d_min_bt_30":0.6,"age_min":30,"family":168,"touches_missing":true,"lon":76.0488,"lat":29.1757,"merges_splits_so_far":1},"geometry":{"type":"MultiPolygon","coordinates":[[[[76.4127,29.4402],[76.3508,29.4394],[76.2487,29.384],[76.1869,29.3831],[76.1666,29.3648],[76.1457,29.3826],[76.1254,29.3642],[76.0835,29.3997],[75.9393,29.3975],[75.8988,29.3608],[75.8577,29.3602],[75.616,29.1214],[75.5036,29.0923],[75.4643,29.0193],[75.4866,28.9476],[75.3549,28.8819],[75.3663,28.837],[75.3977,28.8105],[75.5189,28.885],[75.5804,28.8862],[75.7022,28.9425],[75.8253,28.9446],[75.867,28.9092],[75.9282,28.9282],[75.9887,28.9833],[76.0913,28.9848],[76.1111,29.0212],[76.2754,29.0234],[76.3972,29.1152],[76.4791,29.1342],[76.4654,29.3596],[76.4127,29.4402]]]]}},{"type":"Feature","properties":{"cell":430,"feature":2177,"phase":"Developing","min_bt_K":231.0,"area_km2":10556,"cold_core_km2":0,"speed_kmh":36.0,"heading_deg":37,"d_min_bt_30":-3.0,"age_min":30,"family":168,"touches_missing":true,"lon":76.8357,"lat":29.1356,"merges_splits_so_far":2},"geometry":{"type":"MultiPolygon","coordinates":[[[[76.6341,29.8396],[76.5513,29.8387],[76.4591,29.7745],[76.4393,29.7202],[76.4823,29.6124],[76.4107,29.5664],[76.3398,29.4844],[76.3714,29.4397],[76.4127,29.4402],[76.444,29.4135],[76.4892,29.1433],[76.3972,29.1152],[76.3161,29.042],[76.2242,29.0137],[76.2659,28.9782],[76.2665,28.9421],[76.2264,28.8874],[76.2579,28.8427],[76.4423,28.845],[76.4828,28.8816],[76.5238,28.8821],[76.6068,28.8108],[76.7709,28.7944],[76.8536,28.7229],[76.9766,28.7059],[77.0492,28.6072],[77.0495,28.5711],[77.0804,28.5442],[77.1417,28.5446],[77.2027,28.5811],[77.2436,28.5814],[77.2944,28.6268],[77.2939,28.6989],[77.2114,28.7887],[77.262,28.8702],[77.303,28.8704],[77.3751,28.8076],[77.3549,28.7714],[77.3654,28.7264],[77.4266,28.7628],[77.5289,28.7812],[77.5799,28.8445],[77.5386,28.8985],[77.6513,28.944],[77.7128,28.9441],[77.7435,28.9893],[77.7228,29.0254],[77.6817,29.0433],[77.6713,29.1064],[77.4039,29.1416],[77.3214,29.1953],[77.2804,29.1771],[77.1876,29.2036],[77.2081,29.2218],[77.2076,29.2759],[77.2893,29.3666],[77.3304,29.3848],[77.3299,29.457],[77.3504,29.4752],[77.3396,29.5563],[77.2983,29.5561],[77.2361,29.5918],[77.1747,29.5373],[77.1334,29.5371],[77.0812,29.5999],[77.1222,29.6362],[77.1113,29.6993],[77.07,29.699],[76.9983,29.6354],[76.9886,29.5721],[76.9475,29.5538],[76.8031,29.5525],[76.7716,29.5974],[76.8124,29.6338],[76.812,29.6699],[76.8429,29.6792],[76.8938,29.7428],[76.8418,29.7694],[76.7384,29.7685],[76.6341,29.8396]]]]}}]}