{"type":"FeatureCollection","features":[{"type":"Feature","properties":{"cell":417,"feature":2261,"phase":"Unclassified","min_bt_K":230.0,"area_km2":37908,"cold_core_km2":0,"speed_kmh":138.4,"heading_deg":358,"d_min_bt_30":3.0,"age_min":90,"family":3,"touches_missing":true,"lon":74.6732,"lat":31.6246,"merges_splits_so_far":13},"geometry":{"type":"MultiPolygon","coordinates":[[[[74.7333,32.8014],[74.6906,32.8003],[74.6279,32.7627],[74.5639,32.761],[74.4387,32.6856],[74.3748,32.6838],[74.3527,32.7013],[74.2278,32.6256],[74.0795,32.6033],[74.0502,32.5393],[73.988,32.5013],[74.0131,32.4119],[73.9816,32.4019],[73.962,32.3652],[73.8983,32.3633],[73.7953,32.2879],[73.7529,32.2866],[73.6909,32.2485],[73.6714,32.2118],[73.629,32.2104],[73.4324,32.1045],[73.4377,31.9964],[73.4597,31.9792],[73.4412,31.9244],[73.4632,31.9071],[73.4702,31.763],[73.4921,31.7457],[73.4719,31.7269],[73.4745,31.6729],[73.4341,31.6354],[73.4384,31.5454],[73.4182,31.5266],[73.4839,31.4747],[73.4655,31.42],[73.5101,31.3674],[73.4933,31.2766],[73.5479,31.2333],[73.6218,31.2267],[73.6016,31.208],[73.6234,31.1907],[73.6074,31.0819],[73.6767,30.9398],[73.7193,30.9232],[73.7233,30.8331],[73.7667,30.7984],[73.7915,30.709],[73.8564,30.6569],[73.8579,30.6208],[73.9752,30.5613],[74.0378,30.5632],[74.0996,30.5831],[74.119,30.6197],[74.2226,30.6408],[74.2521,30.6867],[74.2501,30.7408],[74.281,30.7507],[74.3005,30.7873],[74.4886,30.7924],[74.633,30.8503],[74.7387,30.8168],[74.8014,30.8184],[74.8833,30.8745],[74.8946,30.8477],[75.0121,30.7692],[75.0189,30.8866],[75.1009,30.9425],[75.0988,31.0147],[75.2224,31.0895],[75.1789,31.1427],[75.1364,31.1598],[75.2171,31.2698],[75.2156,31.3239],[75.255,31.4149],[75.125,31.5384],[75.3012,31.6414],[75.3855,31.643],[75.4267,31.6799],[75.5321,31.6819],[75.5523,31.7184],[75.6146,31.7556],[75.6991,31.7571],[75.7615,31.7942],[75.9934,31.816],[76.0353,31.8346],[76.0868,31.8985],[76.0861,31.9346],[76.043,31.9701],[76.0411,32.0602],[76.0196,32.078],[76.0396,32.1324],[75.9304,32.275],[75.8764,32.3193],[75.8231,32.3275],[75.8435,32.3639],[75.7346,32.4703],[75.7337,32.5064],[75.6902,32.5417],[75.7106,32.5782],[75.678,32.6046],[75.6146,32.5855],[75.5928,32.6031],[75.465,32.6008],[75.4432,32.6184],[75.3585,32.5987],[75.3154,32.6159],[75.2526,32.5785],[75.2089,32.6137],[75.145,32.6123],[75.0834,32.5388],[75.0403,32.5559],[75.0201,32.5194],[74.9776,32.5184],[74.9661,32.5452],[74.8791,32.5974],[74.8559,32.6509],[74.8949,32.7601],[74.7559,32.7658],[74.7333,32.8014]]],[[[74.7081,32.6113],[74.6997,32.5479],[74.6249,32.5551],[74.6332,32.6184],[74.7081,32.6113]]]]}},{"type":"Feature","properties":{"cell":429,"feature":2237,"phase":"Unclassified","min_bt_K":236.2,"area_km2":500,"cold_core_km2":0,"speed_kmh":76.2,"heading_deg":258,"d_min_bt_30":3.7,"age_min":60,"family":168,"touches_missing":true,"lon":75.6654,"lat":29.106,"merges_splits_so_far":1},"geometry":{"type":"MultiPolygon","coordinates":[[[[75.8393,29.2516],[75.7776,29.2506],[75.7167,29.2134],[75.6756,29.2127],[75.5845,29.1479],[75.5665,29.0393],[75.6084,29.004],[75.6201,28.941],[75.6398,28.9775],[75.6813,28.9602],[75.6905,29.0055],[75.7211,29.015],[75.7811,29.0882],[75.8323,29.0981],[75.7897,29.1696],[75.8304,29.1883],[75.8095,29.206],[75.8502,29.2247],[75.8393,29.2516]]]]}},{"type":"Feature","properties":{"cell":430,"feature":2257,"phase":"Developing","min_bt_K":231.3,"area_km2":20240,"cold_core_km2":0,"speed_kmh":59.7,"heading_deg":173,"d_min_bt_30":0.2,"age_min":60,"family":168,"touches_missing":true,"lon":76.8723,"lat":28.8681,"merges_splits_so_far":4},"geometry":{"type":"MultiPolygon","coordinates":[[[[77.1099,29.8617],[76.9859,29.8428],[76.9758,29.8156],[76.7913,29.6697],[76.792,29.6156],[76.8131,29.5797],[76.8545,29.562],[76.8549,29.5259],[76.8039,29.4804],[76.7214,29.4796],[76.6705,29.434],[76.6712,29.3799],[76.5994,29.3521],[76.5793,29.3158],[76.4868,29.3057],[76.5501,29.1981],[76.5298,29.1799],[76.5306,29.1257],[76.49,29.0892],[76.5108,29.0714],[76.5119,28.9992],[76.4719,28.9266],[76.4727,28.8725],[76.5347,28.8371],[76.5352,28.801],[76.4221,28.8267],[76.4022,28.7904],[76.3604,28.844],[76.1863,28.8327],[76.1888,28.6884],[76.2508,28.6531],[76.231,28.6168],[76.3036,28.5546],[76.3447,28.537],[76.4262,28.5561],[76.5087,28.5029],[76.5592,28.5486],[76.5579,28.6388],[76.6294,28.6486],[76.7229,28.5322],[76.7235,28.4781],[76.6118,28.4318],[76.5513,28.3771],[76.47,28.3581],[76.4501,28.3218],[76.4093,28.3213],[76.3593,28.2575],[76.3599,28.2214],[76.2896,28.1573],[76.1878,28.156],[76.1568,28.1826],[76.4183,28.4026],[76.4178,28.4387],[76.3867,28.4654],[76.3056,28.4283],[76.2645,28.4458],[76.2243,28.4091],[76.1025,28.3714],[75.9597,28.3692],[75.9386,28.405],[75.8773,28.404],[75.8473,28.3765],[75.8487,28.3043],[75.901,28.242],[75.9417,28.2426],[75.9728,28.216],[75.8924,28.1606],[75.9138,28.1068],[75.8442,28.0245],[75.7629,28.0231],[75.6728,27.9584],[75.6935,27.9407],[75.6736,27.9223],[75.6767,27.7779],[75.7391,27.7068],[75.7196,27.6704],[75.7815,27.6173],[75.7929,27.5543],[75.8334,27.5549],[75.8746,27.5195],[75.9446,27.5658],[75.8831,27.6009],[75.881,27.7092],[75.8397,27.7446],[75.8902,27.7544],[75.9693,27.864],[76.0302,27.8649],[76.0918,27.8297],[76.1936,27.8131],[76.2448,27.7867],[76.2557,27.7417],[76.3168,27.7245],[76.3665,27.7883],[76.4068,27.8068],[76.396,27.8518],[76.376,27.8335],[76.2845,27.8414],[76.3134,27.941],[76.3743,27.9418],[76.3944,27.9601],[76.4052,27.9151],[76.4561,27.9067],[76.5266,27.9526],[76.5261,27.9887],[76.6364,28.1072],[76.6771,28.1076],[76.7288,28.045],[76.7305,27.9006],[76.761,27.8919],[76.7805,27.9642],[76.9221,28.0377],[76.942,28.0739],[77.1042,28.1473],[77.1342,28.2107],[77.2558,28.3017],[77.1938,28.4096],[77.2244,28.4188],[77.2851,28.4914],[77.428,28.5101],[77.4992,28.5736],[77.4989,28.6277],[77.5193,28.6458],[77.4985,28.7179],[77.5598,28.7542],[77.5391,28.7903],[77.6004,28.8446],[77.641,28.953],[77.7229,29.0073],[77.7536,29.0525],[77.8049,29.0616],[77.7534,29.1066],[77.6302,29.1063],[77.5272,29.1601],[77.4964,29.151],[77.4961,29.2051],[77.5473,29.2504],[77.6091,29.2326],[77.6707,29.2688],[77.7014,29.3501],[77.6087,29.3589],[77.5672,29.4129],[77.5055,29.3946],[77.4434,29.4485],[77.2991,29.4478],[77.3087,29.5471],[77.3499,29.5654],[77.3492,29.6736],[77.2764,29.7364],[77.2144,29.7361],[77.1934,29.772],[77.1314,29.7716],[77.1099,29.8617]]],[[[77.0706,28.499],[77.1321,28.4634],[77.1125,28.373],[77.0722,28.3186],[77.0929,28.2826],[77.0728,28.2464],[76.9817,28.1825],[76.8591,28.2176],[76.8482,28.2807],[76.8888,28.2991],[76.8679,28.3531],[76.9083,28.3895],[76.9077,28.4437],[77.0194,28.5077],[77.0706,28.499]]]]}},{"type":"Feature","properties":{"cell":443,"feature":2259,"phase":"Unclassified","min_bt_K":230.0,"area_km2":17136,"cold_core_km2":0,"speed_kmh":null,"heading_deg":null,"d_min_bt_30":null,"age_min":0,"family":3,"touches_missing":true,"lon":75.7506,"lat":31.1507,"merges_splits_so_far":3},"geometry":{"type":"MultiPolygon","coordinates":[[[[76.2025,31.9272],[76.0764,31.8894],[76.0353,31.8346],[75.9934,31.816],[75.7615,31.7942],[75.6991,31.7571],[75.6146,31.7556],[75.5729,31.7368],[75.5321,31.6819],[75.4267,31.6799],[75.3855,31.643],[75.3012,31.6414],[75.125,31.5384],[75.255,31.4149],[75.2345,31.3964],[75.2171,31.2698],[75.1364,31.1598],[75.1681,31.1515],[75.2224,31.0895],[75.0988,31.0147],[75.1009,30.9425],[75.0189,30.8866],[75.0222,30.7784],[75.0667,30.6892],[75.0475,30.6346],[75.079,30.6263],[75.101,30.5907],[75.1534,30.5828],[75.1992,30.4395],[75.4218,30.2906],[75.4846,30.2738],[75.5881,30.2938],[75.5974,30.339],[75.6483,30.3851],[75.6899,30.3858],[75.701,30.3589],[75.639,30.3398],[75.7336,30.2963],[75.796,30.2974],[75.8576,30.3345],[75.9408,30.3358],[75.9506,30.363],[75.9918,30.3817],[75.9911,30.4178],[75.9597,30.4263],[75.9381,30.4621],[75.8859,30.4703],[75.9248,30.5972],[75.9229,30.6873],[76.0251,30.7971],[76.0244,30.8332],[76.0864,30.8702],[76.0857,30.9063],[76.1271,30.9249],[76.1463,31.0154],[76.2088,31.0343],[76.2275,31.1608],[76.3414,31.2435],[76.4251,31.2625],[76.4559,31.308],[76.5287,31.3539],[76.5918,31.3546],[76.6751,31.4096],[76.7171,31.41],[76.8003,31.4829],[76.9058,31.4658],[77.0205,31.5659],[76.925,31.6283],[76.8617,31.6278],[76.799,31.5912],[76.7777,31.609],[76.7568,31.5908],[76.6515,31.5898],[76.6302,31.6076],[76.5883,31.5891],[76.5245,31.6245],[76.4824,31.624],[76.45,31.6687],[76.4702,31.7231],[76.4271,31.7767],[76.4685,31.8313],[76.4363,31.858],[76.3095,31.8564],[76.2025,31.9272]]]]}}]}