{"type":"FeatureCollection","features":[{"type":"Feature","properties":{"cell":417,"feature":2353,"phase":"Unclassified","min_bt_K":233.0,"area_km2":36492,"cold_core_km2":0,"speed_kmh":46.2,"heading_deg":139,"d_min_bt_30":3.0,"age_min":120,"family":3,"touches_missing":true,"lon":74.8314,"lat":31.4666,"merges_splits_so_far":14},"geometry":{"type":"MultiPolygon","coordinates":[[[[75.608,32.838],[75.5235,32.8003],[75.5032,32.7639],[75.4184,32.7442],[75.1271,32.5037],[74.9374,32.4454],[74.9174,32.4088],[74.8536,32.4073],[74.7499,32.3327],[74.6855,32.3491],[74.6013,32.329],[74.5814,32.2924],[74.5286,32.282],[74.5204,32.2186],[74.3295,32.2135],[74.2988,32.1856],[74.3002,32.1495],[74.3433,32.1327],[74.3454,32.0786],[74.3673,32.0612],[74.3394,31.9612],[74.276,31.9594],[74.252,32.0309],[74.1242,32.0453],[74.1016,32.0807],[74.0592,32.0795],[74.0334,32.1869],[73.9062,32.1831],[73.856,32.1184],[73.8397,32.0096],[73.766,31.9983],[73.7583,31.9349],[73.727,31.9249],[73.7075,31.8881],[73.6653,31.8868],[73.6154,31.822],[73.6187,31.7499],[73.5571,31.7118],[73.5605,31.6397],[73.5201,31.6023],[73.5656,31.5316],[73.5462,31.4949],[73.6228,31.4343],[73.6648,31.4357],[73.7045,31.4911],[73.787,31.5298],[73.8923,31.5331],[73.9055,31.4704],[73.9484,31.4536],[73.9086,31.3983],[73.8674,31.379],[73.8689,31.3429],[73.7671,31.2675],[73.7703,31.1955],[73.7501,31.1768],[73.7517,31.1407],[73.796,31.088],[73.7983,31.034],[73.8425,30.9812],[73.8232,30.9445],[73.8681,30.8738],[73.848,30.8551],[73.8503,30.801],[73.8936,30.7663],[73.9059,30.7216],[73.9685,30.7235],[74.0088,30.7608],[74.0506,30.7621],[74.178,30.7117],[74.2198,30.7129],[74.2521,30.6867],[74.2233,30.6227],[74.0773,30.6185],[74.0471,30.5905],[74.0744,30.429],[74.0335,30.4097],[74.0386,30.2835],[74.0708,30.2574],[74.154,30.2599],[74.2149,30.2977],[74.2343,30.3344],[74.3175,30.3367],[74.337,30.3733],[74.4416,30.3581],[74.4845,30.3232],[74.7115,30.3832],[74.8167,30.3496],[74.8493,30.3053],[74.9021,30.2795],[74.9847,30.2994],[75.0449,30.373],[75.1281,30.3748],[75.1117,30.5819],[75.132,30.6004],[75.1304,30.6545],[75.0458,30.6887],[75.0426,30.7969],[75.146,30.8353],[75.2066,30.9087],[75.1846,30.9443],[75.2244,31.0173],[75.3886,31.147],[75.4046,31.3277],[75.3109,31.2988],[75.2781,31.3432],[75.3288,31.4074],[75.3812,31.4174],[75.3797,31.4715],[75.3581,31.4892],[75.3992,31.526],[75.3983,31.5621],[75.4605,31.5994],[75.4595,31.6355],[75.5401,31.7813],[75.6025,31.8185],[75.6119,31.8638],[75.6542,31.8645],[75.7162,31.9197],[75.8008,31.9212],[75.8423,31.9579],[75.9899,31.9783],[75.9999,32.0055],[76.0523,32.0333],[76.2001,32.0535],[76.2095,32.1167],[76.2724,32.1536],[76.2613,32.1806],[76.1869,32.1886],[76.1639,32.2785],[76.0991,32.3317],[76.0331,32.439],[76.0532,32.4934],[75.9023,32.5813],[75.9227,32.6177],[75.8789,32.6711],[75.8036,32.697],[75.7814,32.7327],[75.5786,32.7382],[75.5781,32.7562],[75.6203,32.775],[75.608,32.838]]],[[[73.9407,31.6338],[73.943,31.5798],[73.9118,31.5698],[73.8985,31.6325],[73.9407,31.6338]]]]}},{"type":"Feature","properties":{"cell":430,"feature":2348,"phase":"Developing","min_bt_K":233.0,"area_km2":16904,"cold_core_km2":0,"speed_kmh":64.6,"heading_deg":79,"d_min_bt_30":1.7,"age_min":90,"family":168,"touches_missing":true,"lon":77.1972,"lat":28.9237,"merges_splits_so_far":5},"geometry":{"type":"MultiPolygon","coordinates":[[[[77.4815,30.0621],[77.3571,30.0435],[77.2954,29.9711],[77.2333,29.9707],[77.2124,29.9886],[77.1504,29.9702],[77.1197,29.9249],[77.1304,29.8799],[77.2134,29.8623],[77.2543,29.9348],[77.3164,29.9351],[77.3271,29.89],[77.3894,29.8543],[77.3902,29.728],[77.3491,29.6917],[77.3497,29.5834],[77.3292,29.5653],[77.3309,29.3127],[77.3825,29.2859],[77.393,29.2588],[77.3215,29.1773],[77.2598,29.177],[77.1677,29.1313],[77.1681,29.0772],[77.0864,29.0225],[77.087,28.9503],[77.0464,28.9139],[77.0672,28.878],[77.047,28.8418],[77.109,28.7881],[77.1094,28.7339],[77.171,28.7163],[77.1714,28.6621],[77.0385,28.6522],[77.0177,28.6882],[76.9973,28.688],[76.9158,28.6513],[76.8957,28.615],[76.8548,28.6147],[76.7534,28.5415],[76.7029,28.4959],[76.6932,28.4507],[76.5516,28.359],[76.4392,28.3667],[76.4567,28.5655],[76.4259,28.5741],[76.4049,28.61],[76.364,28.6095],[76.3033,28.5726],[76.2612,28.6443],[76.1693,28.634],[76.1703,28.5799],[76.13,28.5432],[76.1206,28.498],[75.9171,28.4588],[75.8669,28.4129],[75.8673,28.3948],[75.95,28.342],[75.9714,28.2882],[75.9113,28.2331],[75.8724,28.1422],[75.7921,28.0868],[75.7936,28.0146],[75.9173,27.9264],[75.9494,27.8456],[75.99,27.8463],[76.0109,27.8105],[76.0515,27.8111],[76.0825,27.7845],[76.0837,27.7123],[76.1773,27.5782],[76.2583,27.5793],[76.2882,27.6068],[76.2474,27.6243],[76.2266,27.6601],[76.246,27.7145],[76.143,27.8034],[76.1421,27.8575],[76.0596,27.9285],[76.0696,27.9377],[76.1102,27.9383],[76.1499,27.993],[76.1906,27.9936],[76.2306,28.0302],[76.2916,28.031],[76.3724,28.0681],[76.4744,28.0513],[76.5768,27.9983],[76.6067,28.0437],[76.6055,28.134],[76.6961,28.2161],[76.7369,28.2165],[76.7768,28.2891],[76.8277,28.2986],[76.8477,28.3349],[76.8269,28.3708],[76.918,28.4347],[76.9588,28.435],[76.9697,28.372],[77.0619,28.3275],[77.2454,28.3287],[77.2345,28.4279],[77.2748,28.5003],[77.2743,28.5725],[77.3048,28.5997],[77.4276,28.5823],[77.4377,28.6094],[77.3965,28.6634],[77.4167,28.6995],[77.4881,28.745],[77.5189,28.7361],[77.5191,28.6819],[77.5397,28.6639],[77.5195,28.6097],[77.5707,28.5828],[77.7546,28.6194],[77.7954,28.6556],[77.8773,28.6557],[77.8672,28.5023],[77.8979,28.4391],[77.9592,28.4391],[77.9796,28.4572],[78.1632,28.3849],[78.2245,28.4209],[78.3062,28.4208],[78.4078,28.3122],[78.5303,28.3479],[78.6021,28.4107],[78.3982,28.4656],[78.3984,28.5198],[78.3576,28.5379],[78.3578,28.6101],[78.3375,28.6282],[78.3786,28.6822],[78.348,28.7094],[78.3275,28.7095],[78.2659,28.6374],[78.2045,28.6375],[78.1636,28.6015],[78.1432,28.6195],[78.0818,28.6016],[77.9591,28.6918],[77.9386,28.7279],[77.8976,28.7279],[77.8772,28.6918],[77.7541,28.836],[77.6823,28.8448],[77.6925,28.8719],[77.877,28.8722],[77.8872,28.8993],[77.9487,28.9354],[77.9692,29.0257],[77.8665,29.0978],[77.8664,29.1519],[77.8252,29.1879],[77.8457,29.2601],[77.8765,29.2692],[77.9177,29.2512],[78.0412,29.3053],[78.0721,29.4226],[78.1134,29.4767],[78.196,29.5307],[78.1961,29.5668],[78.1238,29.5759],[78.0,29.5399],[77.9587,29.5038],[77.8969,29.5038],[77.8555,29.5579],[77.7317,29.5757],[77.6489,29.6297],[77.5971,29.6746],[77.7001,29.7832],[77.6171,29.8551],[77.5752,29.9632],[77.5957,30.0174],[77.4815,30.0621]]]]}},{"type":"Feature","properties":{"cell":443,"feature":2354,"phase":"Unclassified","min_bt_K":234.0,"area_km2":8812,"cold_core_km2":0,"speed_kmh":127.4,"heading_deg":45,"d_min_bt_30":4.0,"age_min":30,"family":3,"touches_missing":false,"lon":76.2288,"lat":31.5531,"merges_splits_so_far":5},"geometry":{"type":"MultiPolygon","coordinates":[[[[76.1789,32.0532],[76.0523,32.0333],[76.0103,32.0147],[75.9899,31.9783],[75.8846,31.9586],[75.8642,31.9222],[75.8215,31.9396],[75.8008,31.9212],[75.7162,31.9197],[75.6542,31.8645],[75.6016,31.8546],[75.6025,31.8185],[75.5401,31.7813],[75.5199,31.7448],[75.5424,31.6911],[75.4796,31.6719],[75.4399,31.581],[75.4409,31.5449],[75.4937,31.5369],[75.5265,31.4924],[75.5069,31.4379],[75.5704,31.421],[75.5401,31.3754],[75.456,31.3738],[75.4046,31.3277],[75.3993,31.1382],[75.4417,31.1209],[75.609,31.1421],[75.6813,31.1885],[75.7117,31.2341],[75.7747,31.2352],[75.7833,31.3165],[75.8352,31.3444],[75.8673,31.3179],[75.8261,31.2811],[75.8269,31.2451],[75.88,31.2189],[75.964,31.2202],[76.0468,31.2756],[76.1935,31.2957],[76.2141,31.314],[76.4245,31.2986],[76.4864,31.3715],[76.6125,31.3729],[76.6447,31.3281],[76.6976,31.3016],[76.7077,31.3287],[76.7495,31.3472],[76.7488,31.4013],[76.78,31.4286],[76.8431,31.4292],[76.8433,31.4112],[76.8119,31.4019],[76.8123,31.3658],[76.7601,31.3382],[76.7084,31.2746],[76.7087,31.2566],[76.7403,31.2479],[76.7818,31.2843],[76.8866,31.3033],[76.9178,31.3306],[76.9174,31.3667],[76.9593,31.3851],[76.9797,31.4393],[77.0425,31.4759],[77.0527,31.503],[77.0948,31.5033],[77.1366,31.5397],[77.2839,31.5586],[77.3468,31.595],[77.4416,31.6044],[77.4097,31.6494],[77.3675,31.6492],[77.304,31.685],[77.2406,31.7027],[77.2196,31.6845],[77.1353,31.684],[77.114,31.7019],[77.0511,31.6654],[76.9246,31.6644],[76.8198,31.6094],[76.6713,31.6802],[76.6505,31.6619],[76.545,31.6608],[76.5245,31.6245],[76.1873,31.6203],[76.1458,31.5837],[76.0619,31.5644],[76.0612,31.6005],[76.2073,31.6747],[76.2696,31.7297],[76.3329,31.7305],[76.406,31.7765],[76.4051,31.8306],[76.3729,31.8572],[76.2465,31.8376],[76.2143,31.8642],[76.2348,31.9006],[76.2133,31.9183],[76.2116,32.0085],[76.1789,32.0532]]]]}},{"type":"Feature","properties":{"cell":446,"feature":2325,"phase":"Unclassified","min_bt_K":235.0,"area_km2":632,"cold_core_km2":0,"speed_kmh":null,"heading_deg":null,"d_min_bt_30":null,"age_min":0,"family":446,"touches_missing":true,"lon":73.1608,"lat":27.0392,"merges_splits_so_far":0},"geometry":{"type":"MultiPolygon","coordinates":[[[[73.1536,27.2127],[73.0632,27.2003],[73.0745,27.1736],[73.1253,27.1665],[73.1479,27.1132],[73.1382,27.1038],[73.1164,27.1391],[73.0559,27.1368],[73.0269,27.1087],[73.0285,27.0726],[72.9891,27.053],[73.1059,26.922],[73.2274,26.9084],[73.3115,27.0649],[73.2704,27.0815],[73.289,27.1183],[73.2576,27.1443],[73.1665,27.15],[73.1754,27.1774],[73.2254,27.1882],[73.1536,27.2127]]]]}}]}