{"type":"FeatureCollection","features":[{"type":"Feature","properties":{"cell":417,"feature":2442,"phase":"Unclassified","min_bt_K":232.0,"area_km2":31896,"cold_core_km2":0,"speed_kmh":103.2,"heading_deg":158,"d_min_bt_30":-1.0,"age_min":150,"family":3,"touches_missing":true,"lon":75.0339,"lat":31.0347,"merges_splits_so_far":17},"geometry":{"type":"MultiPolygon","coordinates":[[[[75.4037,32.5094],[75.2978,32.4892],[75.173,32.3964],[75.1092,32.3951],[75.0891,32.3585],[75.0466,32.3576],[75.0369,32.3303],[74.9852,32.2841],[74.9222,32.2646],[74.9022,32.228],[74.8173,32.226],[74.8076,32.1987],[74.7659,32.1797],[74.769,32.0896],[74.812,32.0726],[74.8138,32.0185],[74.8567,32.0014],[74.87,31.9206],[74.7861,31.9005],[74.7662,31.864],[74.6394,31.8608],[74.6266,31.9236],[74.5728,31.9493],[74.5516,31.9488],[74.5318,31.9122],[74.4472,31.91],[74.4384,31.8646],[74.3465,31.7809],[74.294,31.7705],[74.2765,31.6797],[74.2452,31.6698],[74.1442,31.5587],[74.1232,31.5581],[74.1006,31.5935],[73.9415,31.6158],[73.9376,31.7059],[73.9993,31.7439],[73.997,31.7979],[74.0762,31.9266],[74.0638,31.9713],[74.0434,31.9527],[73.9792,31.9688],[73.8961,31.9302],[73.7904,31.9269],[73.7229,32.0149],[73.6924,31.9869],[73.6949,31.9328],[73.6331,31.8947],[73.6559,31.8594],[73.639,31.7686],[73.6862,31.6619],[73.6903,31.5718],[73.7761,31.5385],[73.7575,31.4838],[73.7607,31.4117],[73.7825,31.3943],[73.7639,31.3396],[73.872,31.2709],[73.8518,31.2522],[73.8744,31.2168],[73.8581,31.108],[73.9232,31.0559],[73.9248,31.0199],[74.0115,30.9503],[74.0786,30.8441],[74.0599,30.7894],[74.1032,30.7546],[74.1161,30.6918],[74.2414,30.6954],[74.3053,30.6611],[74.4083,30.7001],[74.5146,30.6488],[74.7662,30.6191],[74.7519,30.736],[74.8856,30.8023],[74.9387,30.7765],[74.8986,30.7215],[74.9009,30.6493],[74.9539,30.6235],[75.0582,30.6259],[75.1095,30.6541],[75.1283,30.7266],[75.2612,30.8287],[75.2826,30.8111],[75.408,30.8136],[75.4503,30.7964],[75.4614,30.7695],[75.5037,30.7523],[75.505,30.6982],[75.6316,30.6464],[75.6333,30.5742],[75.6023,30.5647],[75.5823,30.5282],[75.3749,30.4882],[75.2114,30.3766],[75.19,30.3942],[75.1489,30.3752],[74.9858,30.2634],[74.8926,30.2522],[74.8948,30.1801],[74.9268,30.1538],[74.9689,30.1367],[75.0306,30.1561],[75.0418,30.1293],[75.1051,30.0946],[75.1067,30.0405],[75.0764,30.0128],[75.0142,30.0114],[74.9918,30.065],[74.9296,30.0636],[74.8993,30.0358],[74.9223,29.9642],[74.9866,29.8935],[75.0795,29.9046],[75.1401,29.9601],[75.1821,29.9429],[75.2366,29.8448],[75.2713,29.7102],[75.3765,29.6402],[75.4385,29.6414],[75.5229,29.5708],[75.626,29.5727],[75.6661,29.6276],[75.7074,29.6283],[75.7479,29.6651],[75.8309,29.6484],[75.9331,29.7042],[75.9744,29.7048],[75.9831,29.7862],[76.0034,29.8045],[76.002,29.8767],[75.9708,29.8852],[75.9493,29.921],[75.8051,29.8826],[75.7244,29.791],[75.672,29.8171],[75.6699,29.9073],[75.5858,29.9599],[75.6061,29.9783],[75.6044,30.0505],[75.5624,30.0678],[75.5823,30.1042],[75.5593,30.194],[75.5907,30.1856],[75.6623,30.2319],[75.6602,30.3221],[75.6177,30.3574],[75.6156,30.4476],[75.6666,30.4936],[75.7495,30.5131],[75.8969,30.4434],[76.0426,30.4456],[76.0849,30.4101],[76.1566,30.4743],[76.1252,30.4829],[76.0825,30.5364],[76.02,30.5355],[75.9669,30.5798],[75.9556,30.6247],[75.8926,30.6418],[75.8709,30.6775],[75.8292,30.6768],[75.7117,30.7921],[75.7424,30.8197],[75.8055,30.8027],[75.8256,30.8391],[75.8879,30.8582],[75.9799,30.9588],[76.0214,30.9775],[76.0211,30.9955],[75.9361,31.0484],[75.9773,31.0851],[75.9765,31.1212],[75.9449,31.1297],[75.9231,31.1654],[75.8812,31.1648],[75.8713,31.1375],[75.8401,31.128],[75.7549,31.1807],[75.692,31.1797],[75.6299,31.1425],[75.5251,31.1406],[75.5046,31.1221],[75.4627,31.1213],[75.409,31.1654],[75.4081,31.2015],[75.4496,31.2203],[75.4061,31.2736],[75.4042,31.3457],[75.4438,31.4367],[75.3895,31.4988],[75.3155,31.5063],[75.314,31.5604],[75.3968,31.6162],[75.3953,31.6703],[75.4365,31.7072],[75.4335,31.8154],[75.5898,31.8995],[75.6739,31.919],[75.6834,31.9643],[75.7361,31.9742],[75.7663,32.0379],[75.8398,32.0661],[75.8497,32.0934],[75.9333,32.1488],[75.9533,32.2032],[75.9517,32.2754],[75.8964,32.3737],[75.7056,32.3526],[75.6839,32.3702],[75.5777,32.3683],[75.5347,32.3856],[75.4611,32.3571],[75.4636,32.267],[75.4216,32.2481],[75.4231,32.194],[75.3704,32.184],[75.3502,32.1475],[75.2866,32.1462],[75.2665,32.1097],[75.2747,32.1911],[75.3166,32.21],[75.3135,32.3182],[75.345,32.3278],[75.3652,32.3643],[75.429,32.3655],[75.4596,32.4112],[75.4576,32.4834],[75.4037,32.5094]]],[[[74.1769,31.5326],[74.1791,31.4785],[74.2015,31.4431],[74.2878,31.3914],[74.2783,31.3641],[74.2465,31.3722],[74.1363,31.4953],[74.1348,31.5314],[74.1769,31.5326]]],[[[74.573,31.6516],[74.5954,31.6161],[74.5342,31.5604],[74.496,31.4512],[74.4648,31.4413],[74.4044,31.3675],[74.3624,31.3664],[74.3074,31.428],[74.3053,31.4821],[74.2625,31.4989],[74.2604,31.553],[74.3338,31.5641],[74.352,31.6367],[74.573,31.6516]]],[[[73.8627,31.4871],[73.8635,31.4691],[73.9063,31.4523],[73.8985,31.389],[73.8666,31.397],[73.8642,31.451],[73.8214,31.4677],[73.8307,31.4951],[73.8627,31.4871]]],[[[73.8719,31.758],[73.8524,31.7213],[73.8572,31.6132],[73.8268,31.5852],[73.8102,31.72],[73.8719,31.758]]]]}},{"type":"Feature","properties":{"cell":446,"feature":2406,"phase":"Unclassified","min_bt_K":236.0,"area_km2":1728,"cold_core_km2":0,"speed_kmh":47.1,"heading_deg":87,"d_min_bt_30":1.0,"age_min":30,"family":446,"touches_missing":true,"lon":73.3977,"lat":27.0503,"merges_splits_so_far":0},"geometry":{"type":"MultiPolygon","coordinates":[[[[73.3516,27.3101],[73.3321,27.2914],[73.2506,27.3065],[73.2417,27.2791],[73.1633,27.2221],[73.1455,27.1673],[73.2068,27.1515],[73.2084,27.1154],[73.1495,27.0771],[73.1704,27.0598],[73.1535,26.987],[73.3326,26.8039],[73.5876,26.9752],[73.5944,27.0567],[73.634,27.076],[73.5915,27.1288],[73.6109,27.1475],[73.5886,27.2009],[73.4563,27.2235],[73.4451,27.2502],[73.3943,27.2575],[73.3516,27.3101]]]]}}]}