{"type":"FeatureCollection","features":[{"type":"Feature","properties":{"cell":417,"feature":2519,"phase":"Unclassified","min_bt_K":236.2,"area_km2":24184,"cold_core_km2":0,"speed_kmh":8.5,"heading_deg":35,"d_min_bt_30":4.2,"age_min":180,"family":3,"touches_missing":true,"lon":75.0596,"lat":31.066,"merges_splits_so_far":17},"geometry":{"type":"MultiPolygon","coordinates":[[[[74.1666,32.0465],[74.1046,32.0086],[73.9776,32.0048],[73.9063,31.9395],[73.9087,31.8855],[73.9525,31.8507],[73.911,31.8314],[73.936,31.7419],[73.9157,31.7233],[73.9181,31.6692],[73.8564,31.6312],[73.8588,31.5772],[73.8174,31.5578],[73.8416,31.4864],[73.8011,31.4491],[73.8043,31.377],[73.7841,31.3583],[73.8083,31.2869],[73.7889,31.2502],[73.8643,31.2075],[73.8938,31.2535],[73.9654,31.3008],[74.0625,31.2405],[74.0647,31.1865],[74.1081,31.1517],[74.1356,30.9901],[74.2012,30.9198],[74.2041,30.8477],[74.2365,30.8216],[74.2783,30.8228],[74.2978,30.8594],[74.3403,30.8425],[74.4866,30.8465],[74.5924,30.8132],[74.676,30.8153],[74.7405,30.7628],[74.8336,30.7921],[74.8319,30.8462],[74.8731,30.8652],[74.8493,30.9548],[74.9624,31.0206],[75.0043,31.0216],[75.0241,31.0581],[75.0875,31.0415],[75.1917,31.0618],[75.2147,30.9901],[75.4236,31.0123],[75.527,31.0684],[75.6317,31.0703],[75.6741,31.0531],[75.6852,31.0262],[75.6121,31.0159],[75.5613,30.9518],[75.6993,30.8731],[75.762,30.8742],[75.8153,30.8299],[75.817,30.7578],[75.6001,30.6548],[75.5584,30.6541],[75.5681,30.6813],[75.5366,30.6897],[75.404,30.5699],[75.3643,30.497],[75.2824,30.4412],[75.3038,30.4236],[75.2874,30.2609],[75.2372,30.1967],[75.1855,30.1866],[75.2088,30.0969],[75.2822,30.0713],[75.3652,30.073],[75.4187,30.0109],[75.4606,29.9937],[75.4509,29.9664],[75.3887,29.9652],[75.3381,29.9191],[75.4339,29.8217],[75.496,29.8229],[75.5567,29.8782],[75.6184,29.8974],[75.6391,29.8977],[75.724,29.809],[75.786,29.8101],[75.8672,29.8836],[75.9094,29.8482],[76.0129,29.8498],[76.1571,29.8879],[76.167,29.9151],[76.1354,29.9418],[76.0732,29.9409],[76.0209,29.9672],[76.0199,30.0213],[75.978,30.0387],[75.9456,30.1013],[75.8936,30.1095],[75.8924,30.1636],[75.8505,30.181],[75.8278,30.2708],[75.7434,30.3236],[75.7426,30.3596],[75.8034,30.4328],[75.7821,30.4505],[75.7911,30.5138],[75.9991,30.5352],[76.2569,30.6921],[76.2563,30.7282],[76.2039,30.7365],[76.1823,30.7723],[76.046,30.7975],[76.064,30.942],[76.147,30.9793],[76.146,31.0334],[76.1666,31.0518],[76.1347,31.0784],[76.0508,31.0772],[76.0398,31.1041],[75.9975,31.1215],[76.0174,31.1759],[75.996,31.1936],[75.9712,31.3736],[75.9391,31.4002],[75.9185,31.3818],[75.8344,31.3805],[75.7597,31.4244],[75.841,31.552],[75.9034,31.5891],[75.9225,31.6796],[75.8063,31.6867],[75.7848,31.7044],[75.6582,31.7022],[75.6151,31.7376],[75.5743,31.6827],[75.4698,31.6447],[75.4286,31.6078],[75.3443,31.6061],[75.3228,31.6238],[75.239,31.604],[75.1979,31.5671],[75.1347,31.5657],[75.0726,31.5283],[75.0527,31.4917],[74.9896,31.4903],[74.9697,31.4538],[74.8032,31.3958],[74.7707,31.422],[74.8411,31.523],[74.8832,31.524],[75.0072,31.599],[75.0493,31.5999],[75.1104,31.6734],[75.1736,31.6748],[75.2044,31.7025],[75.1801,31.8102],[75.0403,31.8884],[74.729,31.7187],[74.6938,31.8171],[74.6401,31.8428],[74.5345,31.8401],[74.4915,31.857],[74.4691,31.8925],[74.405,31.9088],[74.2359,31.9041],[74.2023,31.9483],[74.2213,32.003],[74.1666,32.0465]]],[[[75.613,31.4038],[75.5209,31.3029],[75.4892,31.3113],[75.4873,31.3834],[75.5181,31.4111],[75.613,31.4038]]],[[[75.3561,31.5613],[75.3469,31.516],[75.2519,31.5231],[75.3243,31.5697],[75.3561,31.5613]]]]}},{"type":"Feature","properties":{"cell":446,"feature":2492,"phase":"Unclassified","min_bt_K":240.0,"area_km2":1596,"cold_core_km2":0,"speed_kmh":49.0,"heading_deg":100,"d_min_bt_30":4.0,"age_min":60,"family":446,"touches_missing":true,"lon":73.6404,"lat":27.0103,"merges_splits_so_far":0},"geometry":{"type":"MultiPolygon","coordinates":[[[[73.8148,27.3618],[73.6748,27.3212],[73.5879,27.219],[73.6408,27.1575],[73.6916,27.1502],[73.684,27.0867],[73.6437,27.0854],[73.5818,27.1194],[73.5213,27.1174],[73.5026,27.0806],[73.4817,27.098],[73.4212,27.0959],[73.3936,27.0317],[73.416,26.9783],[73.387,26.9502],[73.3459,26.9669],[73.3169,26.9387],[73.3482,26.9128],[73.4086,26.9149],[73.4205,26.8702],[73.4615,26.8535],[73.5352,26.7748],[73.6856,26.7888],[73.7036,26.8436],[73.6828,26.861],[73.7216,26.8984],[73.7181,26.9885],[73.8258,27.0733],[73.8544,27.1193],[73.8691,27.2642],[73.8273,27.299],[73.8148,27.3618]]],[[[73.6563,27.0226],[73.6084,26.9578],[73.5868,26.9932],[73.5279,26.9551],[73.4764,26.9804],[73.5466,26.9919],[73.5653,27.0286],[73.5854,27.0293],[73.607,26.9939],[73.6563,27.0226]]]]}},{"type":"Feature","properties":{"cell":456,"feature":2515,"phase":"Unclassified","min_bt_K":242.0,"area_km2":320,"cold_core_km2":0,"speed_kmh":null,"heading_deg":null,"d_min_bt_30":null,"age_min":0,"family":456,"touches_missing":false,"lon":79.0636,"lat":28.6381,"merges_splits_so_far":0},"geometry":{"type":"MultiPolygon","coordinates":[[[[79.1869,28.6865],[79.0846,28.6874],[79.0639,28.6695],[78.9004,28.6887],[78.8895,28.6076],[79.1039,28.5789],[79.2787,28.6585],[79.1869,28.6865]]]]}}]}