{"type":"FeatureCollection","features":[{"type":"Feature","properties":{"cell":417,"feature":2628,"phase":"Unclassified","min_bt_K":233.1,"area_km2":13180,"cold_core_km2":0,"speed_kmh":127.2,"heading_deg":317,"d_min_bt_30":-3.2,"age_min":210,"family":3,"touches_missing":true,"lon":74.5993,"lat":31.4814,"merges_splits_so_far":17},"geometry":{"type":"MultiPolygon","coordinates":[[[[75.0082,32.2305],[74.9234,32.2285],[74.8011,32.0813],[74.7344,32.1699],[74.6714,32.1503],[74.5675,32.0935],[74.4452,31.964],[74.338,31.9972],[74.1484,31.9738],[74.1185,31.9278],[74.0566,31.8899],[74.0619,31.7638],[74.0306,31.7538],[74.0087,31.7712],[73.936,31.7419],[73.9384,31.6879],[73.9602,31.6705],[73.9415,31.6158],[74.007,31.5637],[73.9867,31.545],[73.9889,31.491],[74.0325,31.4562],[74.058,31.3487],[74.1225,31.3145],[74.1255,31.2424],[74.1689,31.2076],[74.1074,31.1697],[74.1089,31.1337],[74.0684,31.0964],[74.0706,31.0423],[74.1132,31.0255],[74.1709,30.8919],[74.202,30.9018],[74.1984,30.9919],[74.2497,31.0204],[74.3247,30.9774],[74.3369,30.9327],[74.399,30.9524],[74.4827,30.9546],[74.5043,30.9372],[74.5246,30.9558],[74.6711,30.9595],[74.7135,30.9425],[74.7273,30.8436],[74.8032,30.7643],[74.9285,30.7673],[75.0211,30.8145],[75.0382,30.9412],[75.058,30.9777],[75.1197,31.0151],[75.1385,31.0877],[74.9595,31.1108],[74.938,31.1283],[74.8757,31.1088],[74.8631,31.1717],[74.82,31.2067],[74.88,31.2984],[74.9623,31.3544],[74.9788,31.4991],[75.0726,31.5283],[75.2169,31.6396],[75.2801,31.6409],[75.2888,31.7043],[75.3197,31.7319],[75.3614,31.7508],[75.5091,31.7537],[75.6025,31.8185],[75.6227,31.855],[75.5908,31.8634],[75.5687,31.8991],[75.5048,31.916],[75.4842,31.8975],[75.3785,31.8955],[75.3671,31.9223],[75.3243,31.9395],[75.3858,32.0129],[75.3311,32.075],[75.2464,32.0732],[75.2263,32.0367],[75.1839,32.0358],[75.1015,31.9619],[75.0592,31.961],[74.9975,31.9055],[74.9552,31.9045],[74.9426,31.9674],[74.9843,31.9864],[74.9825,32.0404],[74.939,32.0755],[75.0117,32.1223],[75.042,32.1681],[75.0409,32.2041],[75.0082,32.2305]]],[[[74.9244,31.8767],[74.9147,31.8494],[74.8827,31.8577],[74.8924,31.885],[74.9244,31.8767]]]]}},{"type":"Feature","properties":{"cell":456,"feature":2601,"phase":"Developing","min_bt_K":236.1,"area_km2":6216,"cold_core_km2":0,"speed_kmh":106.0,"heading_deg":107,"d_min_bt_30":-5.9,"age_min":30,"family":456,"touches_missing":true,"lon":79.5809,"lat":28.4956,"merges_splits_so_far":0},"geometry":{"type":"MultiPolygon","coordinates":[[[[79.2701,28.794],[79.2086,28.7946],[79.1673,28.7588],[79.1058,28.7594],[79.0852,28.7415],[78.9007,28.7248],[78.8903,28.6978],[78.8492,28.6801],[78.8487,28.6259],[78.818,28.6171],[78.7973,28.5811],[78.7572,28.6896],[78.6344,28.6903],[78.6032,28.6092],[78.6234,28.555],[78.5618,28.5192],[78.5819,28.4469],[78.6123,28.4197],[78.694,28.4193],[78.7143,28.4011],[78.7552,28.4189],[78.817,28.4908],[78.9188,28.454],[79.0211,28.4713],[79.0513,28.4259],[79.0303,28.372],[79.0504,28.3357],[79.1314,28.2809],[79.1308,28.2268],[79.2427,28.2167],[79.4482,28.341],[79.5703,28.3215],[79.6309,28.2847],[79.7331,28.3014],[79.7949,28.3367],[79.8354,28.3181],[79.9781,28.316],[79.9892,28.361],[80.041,28.4053],[80.1223,28.386],[80.1843,28.4211],[80.2863,28.4193],[80.4304,28.4709],[80.553,28.4686],[80.6256,28.5123],[80.5951,28.5219],[80.5856,28.5492],[80.6896,28.6193],[80.6906,28.6553],[80.6606,28.683],[80.6396,28.6654],[80.5787,28.6847],[80.4555,28.669],[80.4138,28.6336],[80.3532,28.6708],[80.1895,28.6736],[80.1479,28.6382],[80.107,28.6389],[80.0757,28.6123],[80.075,28.5762],[80.0234,28.55],[79.9417,28.5512],[79.9011,28.5698],[79.8813,28.6062],[79.8203,28.6251],[79.7586,28.6079],[79.7376,28.5721],[79.5942,28.5558],[79.432,28.6479],[79.3706,28.6486],[79.3506,28.6849],[79.2278,28.6861],[79.228,28.7041],[79.2793,28.7127],[79.2701,28.794]]]]}},{"type":"Feature","properties":{"cell":461,"feature":2583,"phase":"Unclassified","min_bt_K":240.0,"area_km2":1444,"cold_core_km2":0,"speed_kmh":null,"heading_deg":null,"d_min_bt_30":null,"age_min":0,"family":461,"touches_missing":false,"lon":74.8613,"lat":26.0969,"merges_splits_so_far":0},"geometry":{"type":"MultiPolygon","coordinates":[[[[74.9559,26.3278],[74.8182,26.2342],[74.7582,26.2327],[74.6598,26.1761],[74.6198,26.1751],[74.5906,26.1472],[74.6317,26.1122],[74.5928,26.075],[74.5949,26.0028],[75.2041,26.0082],[75.2037,26.0262],[75.1336,26.0338],[75.109,26.2138],[75.0686,26.231],[75.0672,26.2852],[74.9559,26.3278]]]]}},{"type":"Feature","properties":{"cell":462,"feature":2599,"phase":"Unclassified","min_bt_K":239.1,"area_km2":324,"cold_core_km2":0,"speed_kmh":null,"heading_deg":null,"d_min_bt_30":null,"age_min":0,"family":462,"touches_missing":true,"lon":77.9508,"lat":27.8969,"merges_splits_so_far":0},"geometry":{"type":"MultiPolygon","coordinates":[[[[78.0203,28.024],[77.9797,28.024],[77.9289,27.9609],[77.8882,27.9428],[77.8883,27.8525],[77.8681,27.8164],[77.9189,27.7713],[77.9594,27.7713],[77.9696,27.8165],[78.0101,27.8345],[78.0305,27.8706],[78.0508,27.9789],[78.0203,28.024]]]]}},{"type":"Feature","properties":{"cell":466,"feature":2622,"phase":"Unclassified","min_bt_K":240.0,"area_km2":1472,"cold_core_km2":0,"speed_kmh":null,"heading_deg":null,"d_min_bt_30":null,"age_min":0,"family":466,"touches_missing":false,"lon":76.5972,"lat":33.5405,"merges_splits_so_far":0},"geometry":{"type":"MultiPolygon","coordinates":[[[[76.9845,33.8839],[76.7581,33.8549],[76.6943,33.7821],[76.6949,33.7461],[76.6307,33.7093],[76.6097,33.673],[76.5887,33.6367],[76.6108,33.6009],[76.5574,33.5733],[76.5365,33.5369],[76.4507,33.5179],[76.4411,33.4547],[76.3984,33.4361],[76.3991,33.4001],[76.3247,33.354],[76.2617,33.2811],[76.1977,33.2622],[76.1449,33.2163],[76.1457,33.1803],[76.178,33.1717],[76.2002,33.1359],[76.3073,33.1373],[76.4125,33.2469],[76.4766,33.2656],[76.5933,33.3481],[76.6136,33.4205],[76.5701,33.4561],[76.6122,33.5107],[76.6975,33.5657],[76.697,33.6018],[76.8565,33.7566],[77.0392,33.8212],[76.9845,33.8839]]]]}}]}