{"type":"FeatureCollection","features":[{"type":"Feature","properties":{"cell":456,"feature":2696,"phase":"Developing","min_bt_K":239.0,"area_km2":4068,"cold_core_km2":0,"speed_kmh":67.2,"heading_deg":322,"d_min_bt_30":2.9,"age_min":60,"family":456,"touches_missing":true,"lon":79.368,"lat":28.7334,"merges_splits_so_far":0},"geometry":{"type":"MultiPolygon","coordinates":[[[[79.8061,28.9862],[79.7651,28.9868],[79.7439,28.951],[79.6821,28.9337],[79.5795,28.935],[79.414,28.8286],[79.3325,28.8655],[79.189,28.8669],[79.0663,28.9041],[79.0257,28.9405],[78.9436,28.9411],[78.8921,28.9144],[78.8915,28.8422],[78.8504,28.8244],[78.8289,28.6982],[78.9607,28.562],[79.1244,28.5787],[79.1861,28.6143],[79.3088,28.6131],[79.3182,28.5499],[79.43,28.5036],[79.4714,28.5392],[79.5327,28.5385],[79.5526,28.5022],[79.6343,28.5012],[79.6553,28.537],[79.7583,28.5899],[79.8197,28.589],[79.8304,28.6159],[79.882,28.6423],[79.9839,28.6228],[80.1598,28.7192],[80.1501,28.7465],[80.0276,28.7665],[79.9467,28.8218],[79.8647,28.823],[79.8348,28.8685],[79.856,28.9043],[79.8061,28.9862]]]]}},{"type":"Feature","properties":{"cell":461,"feature":2668,"phase":"Unclassified","min_bt_K":240.0,"area_km2":3036,"cold_core_km2":0,"speed_kmh":73.9,"heading_deg":83,"d_min_bt_30":0.0,"age_min":30,"family":461,"touches_missing":false,"lon":75.2284,"lat":26.1354,"merges_splits_so_far":0},"geometry":{"type":"MultiPolygon","coordinates":[[[[75.4744,26.4291],[75.3943,26.4275],[75.3551,26.3906],[75.2139,26.4238],[75.1743,26.4049],[75.0741,26.4027],[75.0569,26.294],[74.9969,26.2926],[74.9378,26.2551],[74.8993,26.2],[74.81,26.1708],[74.8115,26.1167],[74.7721,26.0976],[74.7746,26.0074],[75.1642,26.0073],[75.2037,26.0262],[75.2445,25.991],[75.6837,25.9995],[75.6529,26.0441],[75.6306,26.152],[75.5589,26.232],[75.5087,26.2401],[75.5063,26.3484],[75.5259,26.3668],[75.4744,26.4291]]],[[[75.1286,26.2323],[75.1393,26.2055],[75.069,26.213],[75.0983,26.2407],[75.1286,26.2323]]]]}},{"type":"Feature","properties":{"cell":462,"feature":2679,"phase":"Developing","min_bt_K":236.0,"area_km2":2192,"cold_core_km2":0,"speed_kmh":17.6,"heading_deg":61,"d_min_bt_30":-3.1,"age_min":30,"family":462,"touches_missing":true,"lon":78.0288,"lat":27.9359,"merges_splits_so_far":0},"geometry":{"type":"MultiPolygon","coordinates":[[[[78.1223,28.2406],[77.9491,28.2316],[77.9491,28.1594],[77.9287,28.1413],[77.9288,28.0872],[77.9491,28.0692],[77.8881,28.033],[77.8882,27.9789],[77.8476,27.9608],[77.8883,27.8525],[77.8681,27.8345],[77.8681,27.7623],[77.8276,27.7442],[77.8479,27.7261],[77.848,27.672],[77.9291,27.5998],[77.9089,27.5637],[77.8482,27.5276],[77.8988,27.5005],[77.9494,27.5276],[77.9696,27.5999],[78.0,27.6269],[78.081,27.6269],[78.1216,27.663],[78.1722,27.6358],[78.1522,27.8164],[78.1726,27.8525],[78.2132,27.8704],[78.2336,27.9246],[78.2947,27.9605],[78.2948,27.9966],[78.2542,28.0148],[78.2544,28.105],[78.1935,28.1954],[78.1223,28.2406]]]]}},{"type":"Feature","properties":{"cell":466,"feature":2724,"phase":"Unclassified","min_bt_K":242.1,"area_km2":680,"cold_core_km2":0,"speed_kmh":45.0,"heading_deg":214,"d_min_bt_30":2.1,"age_min":30,"family":466,"touches_missing":false,"lon":76.4608,"lat":33.373,"merges_splits_so_far":0},"geometry":{"type":"MultiPolygon","coordinates":[[[[76.4929,33.5725],[76.4498,33.5721],[76.4183,33.5266],[76.4193,33.4725],[76.3981,33.4542],[76.3991,33.4001],[76.4209,33.3823],[76.3891,33.3548],[76.2821,33.3355],[76.2504,33.308],[76.2624,33.245],[76.4128,33.2288],[76.4974,33.302],[76.5833,33.3029],[76.615,33.3303],[76.6142,33.3844],[76.6566,33.4209],[76.5262,33.5098],[76.4929,33.5725]]]]}},{"type":"Feature","properties":{"cell":470,"feature":2721,"phase":"Unclassified","min_bt_K":237.1,"area_km2":360,"cold_core_km2":0,"speed_kmh":null,"heading_deg":null,"d_min_bt_30":null,"age_min":0,"family":470,"touches_missing":true,"lon":76.4956,"lat":32.2823,"merges_splits_so_far":0},"geometry":{"type":"MultiPolygon","coordinates":[[[[76.5975,32.383],[76.534,32.3642],[76.5134,32.3279],[76.3232,32.2716],[76.3131,32.2444],[76.3454,32.2177],[76.5151,32.2197],[76.5782,32.2565],[76.684,32.2756],[76.6943,32.3028],[76.6725,32.3386],[76.5975,32.383]]]]}}]}