{"type":"FeatureCollection","features":[{"type":"Feature","properties":{"cell":462,"feature":2785,"phase":"Developing","min_bt_K":236.2,"area_km2":2864,"cold_core_km2":0,"speed_kmh":38.0,"heading_deg":26,"d_min_bt_30":0.2,"age_min":60,"family":462,"touches_missing":true,"lon":78.1121,"lat":28.0908,"merges_splits_so_far":0},"geometry":{"type":"MultiPolygon","coordinates":[[[[78.3267,28.4568],[78.1836,28.3668],[78.102,28.3489],[78.0816,28.3128],[78.0,28.3128],[77.9491,28.2496],[77.9083,28.2316],[77.9084,28.1774],[77.8677,28.1413],[77.8881,28.0691],[77.8069,27.9968],[77.8476,27.9608],[77.8477,27.9066],[77.9289,27.8526],[77.9391,27.7894],[78.1015,27.8074],[78.1827,27.8615],[78.325,27.8973],[78.4372,28.0323],[78.458,28.1225],[78.3766,28.1408],[78.3767,28.1769],[78.4278,28.2038],[78.4381,28.2309],[78.3567,28.2853],[78.357,28.3755],[78.3267,28.4568]]]]}},{"type":"Feature","properties":{"cell":470,"feature":2824,"phase":"Developing","min_bt_K":230.6,"area_km2":1268,"cold_core_km2":0,"speed_kmh":21.6,"heading_deg":331,"d_min_bt_30":-6.5,"age_min":30,"family":470,"touches_missing":true,"lon":76.4395,"lat":32.367,"merges_splits_so_far":0},"geometry":{"type":"MultiPolygon","coordinates":[[[[76.9991,32.585],[76.9141,32.5663],[76.8509,32.5117],[76.681,32.4921],[76.5332,32.4184],[76.4473,32.4715],[76.4263,32.4532],[76.32,32.4519],[76.2356,32.4147],[76.1628,32.3326],[76.2074,32.2249],[76.2394,32.2163],[76.2717,32.1897],[76.2724,32.1536],[76.3043,32.145],[76.3983,32.2274],[76.4072,32.3267],[76.45,32.3092],[76.4921,32.3277],[76.5137,32.3099],[76.5556,32.3464],[76.6193,32.3471],[76.6403,32.3654],[76.8527,32.3674],[76.9049,32.449],[76.9685,32.4675],[76.9991,32.585]]]]}},{"type":"Feature","properties":{"cell":473,"feature":2816,"phase":"Unclassified","min_bt_K":235.1,"area_km2":2248,"cold_core_km2":0,"speed_kmh":null,"heading_deg":null,"d_min_bt_30":null,"age_min":0,"family":470,"touches_missing":false,"lon":76.6302,"lat":31.7432,"merges_splits_so_far":0},"geometry":{"type":"MultiPolygon","coordinates":[[[[76.6667,32.0048],[76.5617,31.9496],[76.414,31.9299],[76.2676,31.8379],[76.1835,31.8187],[76.1316,31.7729],[76.1534,31.7371],[76.1856,31.7105],[76.3108,31.7843],[76.3313,31.8206],[76.4155,31.8397],[76.4265,31.8128],[76.3846,31.7942],[76.3644,31.7399],[76.3653,31.6858],[76.4295,31.6324],[76.409,31.5961],[76.4411,31.5694],[76.4832,31.5699],[76.5262,31.5163],[76.6104,31.5172],[76.7152,31.5543],[76.966,31.7369],[76.9762,31.764],[76.9125,31.7996],[76.9328,31.8719],[76.9008,31.8987],[76.7314,31.9153],[76.72,31.9783],[76.6667,32.0048]]]]}},{"type":"Feature","properties":{"cell":474,"feature":2823,"phase":"Unclassified","min_bt_K":226.2,"area_km2":1088,"cold_core_km2":0,"speed_kmh":null,"heading_deg":null,"d_min_bt_30":null,"age_min":0,"family":474,"touches_missing":true,"lon":74.0983,"lat":26.1157,"merges_splits_so_far":0},"geometry":{"type":"MultiPolygon","coordinates":[[[[74.0149,26.3026],[73.9852,26.2927],[73.9374,26.228],[73.8761,26.2622],[73.8284,26.1975],[73.8104,26.1427],[73.884,26.0457],[74.0225,26.0861],[74.094,26.0431],[74.1055,25.9983],[74.3748,26.015],[74.3542,26.0325],[74.3513,26.1227],[74.2908,26.1391],[74.2787,26.202],[74.2187,26.2003],[74.1999,26.1636],[74.1787,26.1991],[74.1393,26.1799],[74.1084,26.2061],[74.1065,26.2602],[74.0562,26.2677],[74.0149,26.3026]]]]}}]}