{"type":"FeatureCollection","features":[{"type":"Feature","properties":{"cell":470,"feature":2922,"phase":"Developing","min_bt_K":228.2,"area_km2":3592,"cold_core_km2":0,"speed_kmh":17.3,"heading_deg":51,"d_min_bt_30":-2.4,"age_min":60,"family":470,"touches_missing":true,"lon":76.511,"lat":32.4157,"merges_splits_so_far":0},"geometry":{"type":"MultiPolygon","coordinates":[[[[76.7416,32.7272],[76.6565,32.7083],[76.6463,32.6811],[76.5934,32.6535],[76.4019,32.6333],[76.3288,32.5513],[76.3295,32.5152],[76.2349,32.4508],[76.0861,32.4488],[76.0779,32.3314],[76.1211,32.2959],[76.1218,32.2598],[76.1963,32.2519],[76.2171,32.2702],[76.2603,32.2347],[76.3027,32.2352],[76.3144,32.1722],[76.4109,32.1103],[76.4951,32.1473],[76.5166,32.1295],[76.6013,32.1304],[76.7065,32.1856],[76.7701,32.1862],[76.8556,32.1329],[76.961,32.1879],[76.9709,32.2511],[76.949,32.305],[76.9697,32.3593],[76.9373,32.4041],[76.8948,32.4038],[76.8529,32.3493],[76.8105,32.349],[76.7685,32.3125],[76.6938,32.3388],[76.704,32.366],[76.7465,32.3664],[76.7885,32.4029],[76.8733,32.4217],[76.9044,32.4851],[76.8395,32.5747],[76.8599,32.6471],[76.7416,32.7272]]]]}},{"type":"Feature","properties":{"cell":473,"feature":2921,"phase":"Developing","min_bt_K":231.2,"area_km2":2268,"cold_core_km2":0,"speed_kmh":56.3,"heading_deg":25,"d_min_bt_30":-4.0,"age_min":30,"family":470,"touches_missing":true,"lon":76.7564,"lat":31.9732,"merges_splits_so_far":0},"geometry":{"type":"MultiPolygon","coordinates":[[[[76.9398,32.1877],[76.8556,32.1329],[76.7701,32.1862],[76.7285,32.1317],[76.6649,32.1311],[76.6434,32.1489],[76.5377,32.1298],[76.4754,32.0569],[76.4118,32.0562],[76.3913,32.0198],[76.3177,31.9919],[76.2559,31.9009],[76.2566,31.8648],[76.3099,31.8384],[76.4247,31.921],[76.4557,31.9665],[76.5191,31.9672],[76.573,31.9046],[76.5743,31.8145],[76.6497,31.716],[76.6919,31.7164],[76.7346,31.6808],[76.8609,31.7],[76.9024,31.7544],[77.0597,31.8548],[77.0592,31.909],[77.0272,31.9358],[77.0063,31.9176],[76.911,31.9259],[76.9529,31.9623],[76.9729,32.0707],[77.0362,32.0892],[77.0143,32.1612],[76.9398,32.1877]]],[[[76.7846,31.8887],[76.7006,31.8518],[76.7105,31.897],[76.7846,31.8887]]]]}},{"type":"Feature","properties":{"cell":474,"feature":2919,"phase":"Developing","min_bt_K":224.7,"area_km2":4812,"cold_core_km2":0,"speed_kmh":50.4,"heading_deg":70,"d_min_bt_30":-1.5,"age_min":30,"family":474,"touches_missing":true,"lon":74.3348,"lat":26.1945,"merges_splits_so_far":0},"geometry":{"type":"MultiPolygon","coordinates":[[[[74.4462,26.6039],[74.2662,26.5809],[74.1586,26.4965],[74.1902,26.4523],[74.2303,26.4534],[74.3081,26.5279],[74.3883,26.5301],[74.4072,26.5668],[74.4588,26.523],[74.4496,26.4957],[74.4387,26.5225],[74.4084,26.5307],[74.3895,26.494],[74.2892,26.4912],[74.2315,26.4174],[74.1914,26.4162],[74.1805,26.443],[74.1501,26.4511],[74.1313,26.4144],[74.0712,26.4127],[74.0524,26.376],[74.0414,26.4027],[74.0699,26.4487],[74.1398,26.4598],[74.1379,26.514],[74.1069,26.5401],[74.0461,26.5564],[73.9865,26.5365],[73.8642,26.5869],[73.7368,26.5016],[73.7479,26.4748],[73.808,26.4768],[73.9096,26.4438],[73.9898,26.4463],[74.0085,26.483],[74.0189,26.4743],[73.9652,26.292],[74.0284,26.2037],[73.9774,26.2292],[73.9484,26.2012],[73.9336,26.0563],[73.875,26.0183],[73.9059,25.9922],[74.8448,26.0],[74.8325,26.081],[74.7516,26.1152],[74.7803,26.161],[74.8013,26.1254],[74.8413,26.1264],[74.872,26.1],[74.8735,26.0459],[74.854,26.0274],[74.8944,26.0103],[74.908,26.2454],[74.8372,26.2708],[74.8193,26.1981],[74.7782,26.2332],[74.7382,26.2323],[74.7253,26.3313],[74.6848,26.3483],[74.6729,26.4112],[74.6528,26.4107],[74.6339,26.3741],[74.5927,26.4092],[74.5337,26.3715],[74.5029,26.3978],[74.5727,26.4086],[74.5819,26.436],[74.5201,26.4885],[74.4972,26.5782],[74.4462,26.6039]]],[[[74.4811,26.4514],[74.492,26.4246],[74.4216,26.4317],[74.4508,26.4596],[74.4811,26.4514]]]]}}]}