{"type":"FeatureCollection","features":[{"type":"Feature","properties":{"cell":470,"feature":3008,"phase":"Developing","min_bt_K":229.3,"area_km2":5972,"cold_core_km2":0,"speed_kmh":34.2,"heading_deg":37,"d_min_bt_30":1.1,"age_min":90,"family":470,"touches_missing":true,"lon":76.6195,"lat":32.5397,"merges_splits_so_far":0},"geometry":{"type":"MultiPolygon","coordinates":[[[[77.0165,32.946],[76.8457,32.9266],[76.7614,32.8356],[76.7403,32.8174],[76.7187,32.8352],[76.6768,32.7807],[76.613,32.762],[76.5914,32.7798],[76.4421,32.7781],[76.273,32.6858],[76.2315,32.6312],[76.1462,32.63],[76.0734,32.5478],[76.0335,32.4209],[76.152,32.3414],[76.2586,32.3248],[76.2697,32.2979],[76.3556,32.2449],[76.3353,32.1905],[76.3676,32.1639],[76.4312,32.1646],[76.4527,32.1468],[76.4739,32.1471],[76.4945,32.1834],[76.5587,32.148],[76.601,32.1485],[76.748,32.2582],[76.8961,32.2956],[76.9905,32.3955],[76.9899,32.4497],[77.0319,32.5041],[77.0954,32.5406],[77.095,32.5767],[77.169,32.6403],[77.2542,32.6408],[77.2855,32.7222],[77.328,32.7404],[77.2524,32.8573],[77.1882,32.875],[77.1236,32.9287],[77.0381,32.9281],[77.0165,32.946]]]]}},{"type":"Feature","properties":{"cell":473,"feature":3007,"phase":"Developing","min_bt_K":232.0,"area_km2":1944,"cold_core_km2":0,"speed_kmh":38.3,"heading_deg":21,"d_min_bt_30":0.8,"age_min":60,"family":470,"touches_missing":true,"lon":76.8294,"lat":32.1345,"merges_splits_so_far":0},"geometry":{"type":"MultiPolygon","coordinates":[[[[77.108,32.3332],[76.9381,32.332],[76.8961,32.2956],[76.7902,32.2766],[76.601,32.1485],[76.4948,32.1654],[76.4849,32.1201],[76.4431,32.0836],[76.4235,31.9932],[76.4557,31.9665],[76.5188,31.9852],[76.5403,31.9674],[76.7309,31.9513],[76.8148,32.0062],[76.8997,31.9889],[76.9839,32.0257],[77.0257,32.0801],[77.2366,32.1897],[77.2891,32.2531],[77.1719,32.3156],[77.1296,32.2973],[77.108,32.3332]]]]}},{"type":"Feature","properties":{"cell":474,"feature":3006,"phase":"Developing","min_bt_K":233.0,"area_km2":9348,"cold_core_km2":0,"speed_kmh":44.4,"heading_deg":75,"d_min_bt_30":8.3,"age_min":60,"family":474,"touches_missing":true,"lon":74.5498,"lat":26.2459,"merges_splits_so_far":1},"geometry":{"type":"MultiPolygon","coordinates":[[[[74.5817,26.7701],[74.5214,26.7685],[74.4427,26.7122],[74.3825,26.7105],[74.2637,26.6531],[74.2211,26.7241],[74.1207,26.7211],[74.1019,26.6845],[74.0416,26.6827],[73.9334,26.6162],[73.925,26.5707],[73.8946,26.5788],[73.8966,26.5247],[73.8772,26.506],[73.9012,26.3984],[73.8528,26.3518],[73.7326,26.3479],[73.6539,26.3092],[73.6063,26.2444],[73.6367,26.2364],[73.6753,26.2738],[73.7153,26.2751],[73.7264,26.2484],[73.7981,26.2055],[73.9923,26.3742],[74.0317,26.3934],[74.152,26.397],[74.1653,26.298],[74.0962,26.2689],[74.0872,26.2416],[74.1575,26.2346],[74.1787,26.1991],[74.2999,26.1664],[74.3108,26.1397],[74.2611,26.1292],[74.252,26.1019],[74.2223,26.092],[74.2114,26.1188],[74.1708,26.1357],[74.1587,26.1985],[74.0587,26.1956],[74.0168,26.2485],[73.9787,26.1931],[73.9387,26.1919],[73.92,26.1552],[73.8704,26.1446],[73.873,26.0724],[73.8344,26.0351],[73.8453,26.0083],[73.8859,25.9916],[74.4849,26.009],[74.5054,25.9915],[75.2041,26.0082],[75.2237,26.0267],[75.2836,26.0279],[75.3129,26.0556],[75.3116,26.1098],[75.3312,26.1282],[75.2908,26.1455],[75.2899,26.1816],[75.2486,26.2349],[75.2677,26.2714],[75.2455,26.3613],[75.2847,26.3982],[75.1832,26.4502],[75.1818,26.5044],[75.0792,26.5924],[75.0778,26.6466],[74.947,26.6526],[74.8848,26.7234],[74.8039,26.7395],[74.7782,26.5854],[74.7483,26.5756],[74.7349,26.6927],[74.5817,26.7701]]],[[[75.1477,26.2689],[75.149,26.2147],[75.1899,26.1795],[75.1913,26.1253],[75.2317,26.1081],[75.2326,26.072],[75.2033,26.0443],[75.1229,26.0606],[75.102,26.0963],[75.083,26.0597],[75.0528,26.0681],[75.1011,26.1324],[75.1118,26.1055],[75.1624,26.0795],[75.1917,26.1073],[75.1508,26.1425],[75.1495,26.1967],[75.089,26.2134],[75.1277,26.2684],[75.1477,26.2689]]],[[[75.1449,26.3772],[75.1859,26.3419],[75.1775,26.2785],[75.0955,26.349],[75.0052,26.356],[75.0345,26.3838],[75.1449,26.3772]]],[[[74.5201,26.4885],[74.5516,26.4442],[74.6718,26.4473],[74.6929,26.4117],[74.7731,26.4137],[74.866,26.3166],[74.7952,26.342],[74.7762,26.3054],[74.7741,26.3776],[74.6545,26.3566],[74.6539,26.3746],[74.6837,26.3844],[74.6729,26.4112],[74.6328,26.4102],[74.5938,26.3731],[74.5109,26.4612],[74.3706,26.4574],[74.3517,26.4208],[74.3214,26.4289],[74.3694,26.4935],[74.5201,26.4885]]],[[[75.083,26.4481],[75.0736,26.4208],[74.9133,26.4171],[74.8943,26.3805],[74.864,26.3888],[74.9123,26.4532],[75.083,26.4481]]]]}}]}