{"type":"FeatureCollection","features":[{"type":"Feature","properties":{"cell":470,"feature":3090,"phase":"Developing","min_bt_K":232.0,"area_km2":6528,"cold_core_km2":0,"speed_kmh":60.3,"heading_deg":33,"d_min_bt_30":2.7,"age_min":120,"family":470,"touches_missing":true,"lon":76.7942,"lat":32.768,"merges_splits_so_far":3},"geometry":{"type":"MultiPolygon","coordinates":[[[[77.4001,33.1287],[77.2295,33.0376],[77.1439,33.0371],[77.0149,33.0903],[76.8436,33.0889],[76.7585,33.0521],[76.7164,32.9975],[76.5889,32.9421],[76.5462,32.9417],[76.5359,32.9145],[76.4829,32.8868],[76.4402,32.8864],[76.3143,32.7585],[76.2077,32.7571],[76.1654,32.7385],[76.0823,32.6291],[76.0606,32.6468],[76.0289,32.6374],[75.9665,32.5643],[75.9673,32.5282],[76.0428,32.4842],[76.1059,32.5212],[76.2548,32.5232],[76.2876,32.4786],[76.2252,32.4056],[76.2575,32.379],[76.3213,32.3798],[76.4269,32.4171],[76.5332,32.4184],[76.6387,32.4736],[76.7025,32.4742],[76.7117,32.5735],[76.807,32.6195],[76.9561,32.6208],[76.9991,32.585],[77.0839,32.6217],[77.1265,32.622],[77.1907,32.5863],[77.3185,32.587],[77.3715,32.6324],[77.3499,32.6684],[77.6685,32.9762],[77.6363,33.0032],[77.5507,33.003],[77.5185,33.0299],[77.5182,33.084],[77.4001,33.1287]]]]}},{"type":"Feature","properties":{"cell":473,"feature":3087,"phase":"Developing","min_bt_K":233.8,"area_km2":1520,"cold_core_km2":0,"speed_kmh":23.2,"heading_deg":305,"d_min_bt_30":1.8,"age_min":90,"family":470,"touches_missing":true,"lon":76.7288,"lat":32.1949,"merges_splits_so_far":0},"geometry":{"type":"MultiPolygon","coordinates":[[[[76.6387,32.4736],[76.6072,32.4462],[76.59,32.1754],[76.5377,32.1298],[76.4849,32.1201],[76.5064,32.1023],[76.5073,32.0482],[76.6249,31.9683],[76.6466,31.9325],[76.71,31.9331],[76.7832,31.9969],[76.7827,32.033],[76.8141,32.0603],[76.8777,32.0609],[76.9408,32.0975],[77.0043,32.098],[77.0887,32.1347],[77.1727,32.2254],[77.2151,32.2257],[77.2783,32.2802],[77.3313,32.2894],[77.278,32.3162],[77.1719,32.3156],[77.151,32.2794],[77.0449,32.2787],[77.0133,32.2514],[77.0137,32.2153],[76.94,32.1696],[76.834,32.1688],[76.813,32.1505],[76.8014,32.2316],[76.7372,32.2671],[76.714,32.4112],[76.6712,32.4288],[76.6387,32.4736]]]]}},{"type":"Feature","properties":{"cell":474,"feature":3038,"phase":"Developing","min_bt_K":236.9,"area_km2":10984,"cold_core_km2":0,"speed_kmh":54.3,"heading_deg":79,"d_min_bt_30":3.9,"age_min":90,"family":474,"touches_missing":true,"lon":74.817,"lat":26.2918,"merges_splits_so_far":2},"geometry":{"type":"MultiPolygon","coordinates":[[[[75.3216,26.9497],[75.2326,26.8847],[75.2166,26.7218],[75.1469,26.6933],[75.0867,26.6919],[75.075,26.7549],[74.9632,26.7975],[74.6214,26.7891],[74.5725,26.7427],[74.5742,26.6886],[74.515,26.6509],[74.5374,26.5793],[74.4984,26.5421],[74.5,26.488],[74.3511,26.4388],[74.2904,26.4552],[74.2029,26.3714],[74.1848,26.3167],[74.1362,26.2701],[74.0775,26.2322],[73.9974,26.2298],[73.989,26.1844],[73.931,26.1284],[73.9355,26.0021],[74.4649,26.0084],[74.4729,26.0719],[74.5226,26.0822],[74.5334,26.0554],[74.5048,26.0095],[74.705,25.9966],[74.6972,26.2673],[74.728,26.241],[74.7649,25.9981],[75.2241,26.0086],[75.2445,25.991],[75.3843,25.9938],[75.4332,26.04],[75.412,26.0937],[75.4707,26.1491],[75.4895,26.2036],[75.5385,26.2497],[75.5785,26.2504],[75.5876,26.2958],[75.6469,26.3329],[75.6257,26.3867],[75.6435,26.4954],[75.623,26.5131],[75.6211,26.6034],[75.5396,26.656],[75.5365,26.8004],[75.5057,26.827],[75.3846,26.8427],[75.3332,26.8868],[75.3216,26.9497]]],[[[74.4284,26.2152],[74.4598,26.1709],[74.3987,26.2053],[74.3507,26.1408],[74.3011,26.1304],[74.2435,26.0565],[74.2132,26.0646],[74.2999,26.1664],[74.3399,26.1676],[74.3981,26.2234],[74.4284,26.2152]]],[[[74.5034,26.3797],[74.6339,26.3741],[74.6447,26.3473],[74.4948,26.3343],[74.4038,26.359],[74.413,26.3863],[74.5034,26.3797]]]]}}]}