{"type":"FeatureCollection","features":[{"type":"Feature","properties":{"cell":470,"feature":3159,"phase":"Developing","min_bt_K":235.0,"area_km2":11924,"cold_core_km2":0,"speed_kmh":16.6,"heading_deg":81,"d_min_bt_30":3.0,"age_min":150,"family":470,"touches_missing":true,"lon":76.8818,"lat":32.7793,"merges_splits_so_far":7},"geometry":{"type":"MultiPolygon","coordinates":[[[[77.3134,33.2726],[77.1846,33.2718],[77.142,33.2355],[77.0777,33.2351],[77.0352,33.1987],[76.821,33.1789],[76.7146,33.1238],[76.694,33.0695],[76.5661,33.0321],[76.3541,32.9214],[76.2591,32.8571],[76.2598,32.821],[76.2283,32.7935],[76.165,32.7566],[75.9738,32.7177],[75.798,32.4894],[75.9364,32.4826],[75.9677,32.5102],[75.9669,32.5462],[76.0827,32.6111],[76.1892,32.6126],[76.2328,32.559],[76.318,32.5601],[76.3599,32.5967],[76.4025,32.5973],[76.3949,32.4258],[76.4167,32.39],[76.3536,32.3531],[76.3771,32.2271],[76.4309,32.1827],[76.473,32.2012],[76.6851,32.2035],[76.706,32.2217],[76.7597,32.1771],[76.7282,32.1498],[76.6228,32.1126],[76.4954,32.1293],[76.4852,32.1021],[76.549,32.0848],[76.5287,32.0304],[76.6037,31.9681],[76.7511,32.0237],[76.7613,32.0508],[76.8034,32.0693],[76.8025,32.1414],[76.8869,32.1782],[76.8864,32.2143],[76.9286,32.2327],[76.9282,32.2688],[76.9915,32.3053],[77.0859,32.4233],[77.2234,32.5053],[77.2231,32.5414],[77.584,32.7415],[77.5836,32.8317],[77.7755,32.9404],[77.8395,33.0307],[77.8394,33.1028],[77.9036,33.157],[77.8284,33.2201],[77.5926,33.2015],[77.4851,33.2553],[77.3779,33.2548],[77.3351,33.2366],[77.3134,33.2726]]],[[[77.0302,32.6664],[77.0519,32.6305],[77.0202,32.6032],[76.7112,32.6096],[76.7852,32.6554],[76.8704,32.6562],[76.8915,32.6744],[77.0302,32.6664]]]]}},{"type":"Feature","properties":{"cell":488,"feature":3149,"phase":"Unclassified","min_bt_K":242.0,"area_km2":400,"cold_core_km2":0,"speed_kmh":null,"heading_deg":null,"d_min_bt_30":null,"age_min":0,"family":488,"touches_missing":true,"lon":82.2357,"lat":29.6808,"merges_splits_so_far":0},"geometry":{"type":"MultiPolygon","coordinates":[[[[82.3251,29.794],[82.2937,29.786],[82.2822,29.7593],[82.2202,29.7613],[81.9963,29.5968],[82.1095,29.5843],[82.2149,29.6351],[82.3174,29.6138],[82.3503,29.6578],[82.3542,29.7479],[82.3251,29.794]]]]}}]}