{"type":"FeatureCollection","features":[{"type":"Feature","properties":{"cell":470,"feature":3256,"phase":"Developing","min_bt_K":230.1,"area_km2":12080,"cold_core_km2":0,"speed_kmh":29.5,"heading_deg":5,"d_min_bt_30":-4.9,"age_min":180,"family":470,"touches_missing":true,"lon":76.8959,"lat":32.9117,"merges_splits_so_far":7},"geometry":{"type":"MultiPolygon","coordinates":[[[[77.6775,33.4544],[77.613,33.4542],[77.4843,33.3996],[77.3983,33.3993],[77.3343,33.3448],[77.2699,33.3445],[77.2481,33.3805],[77.1621,33.3799],[77.141,33.3437],[76.9907,33.3427],[76.8632,33.2334],[76.7772,33.2507],[76.6824,33.1325],[76.5028,32.9773],[76.4173,32.9763],[76.3965,32.94],[76.3113,32.9209],[76.2276,32.8296],[76.0568,32.8272],[76.0153,32.7725],[75.9086,32.7708],[75.8358,32.6885],[75.8167,32.598],[75.8709,32.5537],[75.9561,32.5551],[75.9766,32.5915],[76.0405,32.5924],[76.0823,32.6291],[76.1462,32.63],[76.2308,32.6673],[76.2514,32.7036],[76.4223,32.6877],[76.53,32.6168],[76.5934,32.6535],[76.7004,32.6185],[76.712,32.5555],[76.6912,32.5192],[76.5856,32.464],[76.6091,32.3199],[76.5564,32.2923],[76.4078,32.2906],[76.3768,32.2452],[76.4315,32.1466],[76.4742,32.129],[76.5375,32.1478],[76.6879,32.005],[76.7302,32.0055],[76.7613,32.0508],[76.8034,32.0693],[76.8025,32.1414],[76.8445,32.1779],[76.8228,32.2138],[76.8646,32.2682],[76.9171,32.3138],[77.0338,32.3237],[76.9697,32.3593],[77.0643,32.4592],[77.1068,32.4595],[77.2654,32.5777],[77.2651,32.6138],[77.3074,32.6501],[77.307,32.7042],[77.3494,32.7405],[77.3492,32.7586],[77.3172,32.7674],[77.2961,32.7313],[77.1043,32.7121],[77.062,32.6757],[77.0509,32.7207],[77.1038,32.7662],[77.2317,32.785],[77.2954,32.8214],[77.3377,32.8758],[77.4232,32.8762],[77.5721,33.003],[77.7644,33.0937],[77.8073,33.0938],[77.8286,33.1299],[77.9357,33.13],[77.9464,33.1931],[78.0214,33.2382],[78.1286,33.166],[78.2038,33.2471],[78.2254,33.3192],[78.1718,33.3644],[78.0215,33.3826],[77.9785,33.3465],[77.9356,33.3465],[77.9141,33.3825],[77.8496,33.3825],[77.8281,33.4005],[77.7637,33.3824],[77.6775,33.4544]]]]}},{"type":"Feature","properties":{"cell":488,"feature":3233,"phase":"Developing","min_bt_K":237.0,"area_km2":2056,"cold_core_km2":0,"speed_kmh":57.8,"heading_deg":85,"d_min_bt_30":-5.0,"age_min":30,"family":488,"touches_missing":false,"lon":82.5329,"lat":29.7041,"merges_splits_so_far":0},"geometry":{"type":"MultiPolygon","coordinates":[[[[82.8284,29.9209],[82.7861,29.9044],[82.579,29.9117],[82.2478,29.6792],[82.2233,29.5897],[82.2631,29.5524],[82.2464,29.3995],[82.2876,29.3982],[82.3296,29.4148],[82.3731,29.4675],[82.4143,29.4662],[82.4587,29.5369],[82.5008,29.5535],[82.6039,29.5499],[82.6262,29.5853],[82.7303,29.5996],[82.7625,29.6255],[82.8503,29.7306],[82.8925,29.7471],[82.8951,29.8011],[82.9167,29.8184],[82.9202,29.8904],[82.8887,29.8826],[82.8284,29.9209]]]]}}]}