{"type":"FeatureCollection","features":[{"type":"Feature","properties":{"cell":2,"feature":429,"phase":"Unclassified","min_bt_K":242.1,"area_km2":140,"cold_core_km2":0,"speed_kmh":null,"heading_deg":null,"d_min_bt_30":null,"age_min":0,"family":2,"touches_missing":true,"lon":81.4206,"lat":32.8023,"merges_splits_so_far":0},"geometry":{"type":"MultiPolygon","coordinates":[[[[81.5249,32.8489],[81.4815,32.832],[81.3968,32.8522],[81.3191,32.773],[81.4574,32.7605],[81.4802,32.796],[81.5339,32.8036],[81.5132,32.8222],[81.5249,32.8489]]]]}}]}