{"type":"FeatureCollection","features":[{"type":"Feature","properties":{"cell":2,"feature":481,"phase":"Developing","min_bt_K":237.4,"area_km2":1632,"cold_core_km2":0,"speed_kmh":86.9,"heading_deg":68,"d_min_bt_30":-4.7,"age_min":30,"family":2,"touches_missing":true,"lon":81.8498,"lat":32.9512,"merges_splits_so_far":0},"geometry":{"type":"MultiPolygon","coordinates":[[[[81.9209,33.1085],[81.7917,33.0942],[81.7363,33.0507],[81.7238,33.0059],[81.6935,33.0519],[81.7378,33.0867],[81.7068,33.1147],[81.5776,33.1001],[81.5209,33.0204],[81.5526,33.0106],[81.6449,32.9089],[81.6118,32.8827],[81.5256,32.8669],[81.4808,32.814],[81.4382,32.8151],[81.4051,32.7889],[81.4045,32.7709],[81.4568,32.7424],[81.5456,32.8303],[81.6523,32.8275],[81.6825,32.7815],[81.7142,32.7716],[81.7576,32.7884],[81.8025,32.8413],[81.8666,32.8395],[81.8887,32.8569],[81.91,32.8562],[81.9504,32.8009],[82.0571,32.7977],[82.1014,32.8324],[82.1868,32.8298],[82.1799,32.9112],[82.1166,32.9312],[82.1174,32.9492],[82.161,32.9659],[82.1651,33.056],[81.9614,33.0532],[81.9733,33.0799],[81.9209,33.1085]]],[[[82.05,32.8791],[82.0168,32.8531],[81.9638,32.8637],[81.9757,32.8904],[82.05,32.8791]]]]}},{"type":"Feature","properties":{"cell":5,"feature":475,"phase":"Unclassified","min_bt_K":238.9,"area_km2":2012,"cold_core_km2":0,"speed_kmh":null,"heading_deg":null,"d_min_bt_30":null,"age_min":0,"family":5,"touches_missing":true,"lon":83.5511,"lat":32.2737,"merges_splits_so_far":0},"geometry":{"type":"MultiPolygon","coordinates":[[[[83.7713,32.518],[83.7288,32.5198],[83.6627,32.4865],[83.6169,32.4343],[83.5095,32.4208],[83.4649,32.3865],[83.4012,32.3891],[83.3608,32.4268],[83.3183,32.4285],[83.3061,32.402],[83.2403,32.3685],[83.2797,32.3128],[83.2777,32.2768],[83.2231,32.2518],[83.117,32.256],[83.0818,32.1942],[83.1766,32.1815],[83.1968,32.1626],[83.3038,32.1765],[83.3129,32.149],[83.2685,32.1147],[83.3178,32.0496],[83.3813,32.047],[83.4014,32.0282],[83.5072,32.0238],[83.6619,32.1256],[83.8102,32.1192],[83.8459,32.1808],[83.7946,32.2102],[83.7488,32.158],[83.644,32.1805],[83.6206,32.1454],[83.5905,32.1738],[83.6473,32.2345],[83.7008,32.2413],[83.6807,32.2602],[83.7142,32.2858],[83.7991,32.2821],[83.8192,32.2632],[83.9052,32.2775],[83.9464,32.2576],[83.98,32.2832],[83.8897,32.3684],[83.7343,32.4384],[83.7791,32.4725],[83.7713,32.518]]],[[[83.5153,32.3393],[83.6103,32.3263],[83.6394,32.28],[83.607,32.2723],[83.5837,32.2372],[83.52,32.2399],[83.4686,32.2691],[83.4707,32.3051],[83.4941,32.3402],[83.5153,32.3393]]]]}},{"type":"Feature","properties":{"cell":9,"feature":483,"phase":"Unclassified","min_bt_K":234.4,"area_km2":372,"cold_core_km2":0,"speed_kmh":null,"heading_deg":null,"d_min_bt_30":null,"age_min":0,"family":9,"touches_missing":false,"lon":80.3976,"lat":33.9602,"merges_splits_so_far":0},"geometry":{"type":"MultiPolygon","coordinates":[[[[80.6616,34.0057],[80.1525,33.9877],[80.2165,33.9506],[80.2473,33.8869],[80.3337,33.8855],[80.3563,33.9212],[80.5729,33.9352],[80.6167,33.9524],[80.6616,34.0057]]]]}},{"type":"Feature","properties":{"cell":10,"feature":484,"phase":"Unclassified","min_bt_K":231.3,"area_km2":2224,"cold_core_km2":0,"speed_kmh":null,"heading_deg":null,"d_min_bt_30":null,"age_min":0,"family":10,"touches_missing":true,"lon":82.8237,"lat":33.6271,"merges_splits_so_far":0},"geometry":{"type":"MultiPolygon","coordinates":[[[[82.7965,33.8379],[82.7533,33.8395],[82.6866,33.8057],[82.6406,33.7532],[82.5975,33.7547],[82.5834,33.692],[82.4729,33.6416],[82.4702,33.5876],[82.5545,33.5486],[82.5517,33.4946],[82.4854,33.4607],[82.6237,33.4289],[82.6685,33.4635],[82.776,33.4597],[82.7966,33.4409],[82.948,33.4534],[82.9675,33.4166],[83.0104,33.415],[83.0299,33.3782],[83.1373,33.3741],[83.1731,33.4359],[83.1333,33.4916],[83.1364,33.5456],[83.0739,33.5841],[83.0575,33.6749],[83.1694,33.7428],[83.1716,33.7789],[83.0534,33.7924],[83.0329,33.8112],[83.0103,33.794],[82.8808,33.7988],[82.7965,33.8379]]]]}},{"type":"Feature","properties":{"cell":11,"feature":485,"phase":"Unclassified","min_bt_K":230.3,"area_km2":2416,"cold_core_km2":0,"speed_kmh":null,"heading_deg":null,"d_min_bt_30":null,"age_min":0,"family":10,"touches_missing":true,"lon":83.6234,"lat":33.619,"merges_splits_so_far":0},"geometry":{"type":"MultiPolygon","coordinates":[[[[83.3803,33.8338],[83.3587,33.8347],[83.3123,33.7824],[83.2271,33.8038],[83.1705,33.7609],[83.1468,33.7257],[83.1652,33.6708],[83.119,33.6184],[83.0749,33.6021],[83.0841,33.5746],[83.1907,33.5525],[83.203,33.5791],[83.2358,33.5868],[83.288,33.5577],[83.2439,33.5414],[83.2531,33.514],[83.3391,33.5106],[83.4058,33.544],[83.4748,33.6134],[83.5405,33.6287],[83.5711,33.6004],[83.5689,33.5644],[83.5236,33.5301],[83.5508,33.4478],[83.5734,33.4649],[83.5938,33.446],[83.7012,33.4415],[83.8052,33.3828],[83.8719,33.416],[83.9137,33.3961],[83.9907,33.4198],[84.0102,33.7077],[83.9797,33.7362],[83.9365,33.7381],[83.9126,33.703],[83.8036,33.6898],[83.8096,33.7798],[83.5904,33.7349],[83.486,33.7934],[83.4213,33.7961],[83.3803,33.8338]]],[[[83.7207,33.576],[83.6855,33.5324],[83.6323,33.5437],[83.6459,33.5882],[83.7207,33.576]]]]}}]}