{"type":"FeatureCollection","features":[{"type":"Feature","properties":{"cell":2,"feature":532,"phase":"Developing","min_bt_K":236.0,"area_km2":2064,"cold_core_km2":0,"speed_kmh":37.1,"heading_deg":78,"d_min_bt_30":-1.4,"age_min":60,"family":2,"touches_missing":true,"lon":82.0439,"lat":32.987,"merges_splits_so_far":0},"geometry":{"type":"MultiPolygon","coordinates":[[[[82.1376,33.1561],[82.0494,33.1047],[82.0082,33.142],[81.9646,33.1253],[81.9439,33.1439],[81.9217,33.1266],[81.7932,33.1303],[81.6175,33.0269],[81.5533,33.0286],[81.5416,33.0019],[81.4981,32.985],[81.4967,32.9489],[81.7031,33.0245],[81.7547,32.978],[81.7326,32.9606],[81.7525,32.9239],[81.7282,32.8524],[81.8437,32.804],[81.8879,32.8388],[82.0374,32.8344],[82.0817,32.8691],[82.1244,32.8678],[82.1655,32.8305],[82.2935,32.8264],[82.4611,32.9743],[82.4295,32.9844],[82.3278,33.096],[82.3055,33.0786],[82.2858,33.1154],[82.1376,33.1561]]]]}},{"type":"Feature","properties":{"cell":5,"feature":523,"phase":"Developing","min_bt_K":235.3,"area_km2":5724,"cold_core_km2":0,"speed_kmh":34.9,"heading_deg":241,"d_min_bt_30":-3.6,"age_min":30,"family":5,"touches_missing":true,"lon":83.3885,"lat":32.1985,"merges_splits_so_far":1},"geometry":{"type":"MultiPolygon","coordinates":[[[[83.9875,32.5626],[83.8765,32.4953],[83.7713,32.518],[83.6147,32.3983],[83.5052,32.3488],[83.4012,32.3891],[83.3364,32.3737],[83.296,32.4114],[83.2535,32.4131],[83.1959,32.5236],[83.1746,32.5244],[83.1513,32.4892],[82.9599,32.4965],[82.9164,32.4801],[82.8748,32.4996],[82.8148,32.574],[82.6714,32.4799],[82.7222,32.433],[82.8589,32.401],[82.8533,32.2929],[82.8837,32.2647],[82.9058,32.282],[82.9473,32.2624],[82.9907,32.2788],[83.0524,32.2404],[83.0978,32.2928],[83.213,32.2613],[83.1999,32.2167],[83.1353,32.2011],[83.1121,32.1659],[83.0697,32.1676],[83.0022,32.0979],[82.9387,32.1003],[82.9267,32.0737],[82.795,31.9883],[82.7702,31.917],[82.8005,31.8888],[82.9484,31.8834],[83.0137,31.917],[83.0632,31.852],[82.9326,31.7847],[82.9087,31.7315],[82.8436,31.6978],[82.8527,31.6704],[82.9179,31.7041],[82.96,31.7025],[82.983,31.7377],[83.0895,31.7518],[83.1768,31.8025],[83.1889,31.8291],[83.1366,31.8402],[83.1275,31.8676],[83.1949,31.9372],[83.1969,31.9732],[83.2946,32.0144],[83.2895,31.9244],[83.3529,31.9219],[83.372,31.885],[83.4364,31.9004],[83.4977,31.8618],[83.5399,31.8601],[83.6911,31.9078],[83.7322,31.888],[83.7656,31.9136],[83.7667,31.9316],[83.7055,31.9704],[83.7077,32.0064],[83.7411,32.032],[83.7823,32.0122],[83.8915,32.0615],[84.0084,32.0653],[83.9831,32.1657],[83.896,32.1335],[83.8325,32.1363],[83.8024,32.1647],[83.8169,32.2272],[83.9989,32.2462],[84.0059,32.3542],[83.9858,32.3731],[84.0106,32.4262],[83.9905,32.4451],[83.9875,32.5626]]],[[[83.7968,32.0747],[83.7845,32.0482],[83.7533,32.0585],[83.7656,32.0851],[83.7968,32.0747]]],[[[83.6774,32.2062],[83.7187,32.1864],[83.5538,32.0941],[83.4379,32.1079],[83.44,32.1439],[83.4723,32.1516],[83.4956,32.1867],[83.5359,32.149],[83.5804,32.1832],[83.6774,32.2062]]],[[[83.5132,32.3033],[83.501,32.2767],[83.4161,32.2802],[83.3504,32.2468],[83.3191,32.2571],[83.3545,32.3188],[83.5132,32.3033]]],[[[83.8819,32.4139],[83.9009,32.3769],[83.8449,32.3343],[83.7086,32.3673],[83.7321,32.4024],[83.7869,32.4271],[83.8819,32.4139]]]]}},{"type":"Feature","properties":{"cell":9,"feature":539,"phase":"Developing","min_bt_K":232.6,"area_km2":1100,"cold_core_km2":0,"speed_kmh":8.7,"heading_deg":259,"d_min_bt_30":-1.8,"age_min":30,"family":9,"touches_missing":true,"lon":80.3512,"lat":33.9526,"merges_splits_so_far":0},"geometry":{"type":"MultiPolygon","coordinates":[[[[80.7914,34.003],[79.7632,33.9934],[79.8375,33.9293],[79.9232,33.892],[80.0745,33.8897],[80.1618,33.9244],[80.2266,33.9234],[80.29,33.8682],[80.376,33.8486],[80.4201,33.8839],[80.614,33.8622],[80.6589,33.9155],[80.7231,33.8962],[80.8101,33.9124],[80.8434,33.9388],[80.8008,33.9577],[80.7914,34.003]]]]}},{"type":"Feature","properties":{"cell":10,"feature":540,"phase":"Developing","min_bt_K":231.0,"area_km2":4600,"cold_core_km2":0,"speed_kmh":30.5,"heading_deg":98,"d_min_bt_30":-0.3,"age_min":30,"family":10,"touches_missing":true,"lon":82.9867,"lat":33.609,"merges_splits_so_far":0},"geometry":{"type":"MultiPolygon","coordinates":[[[[82.93,33.9053],[82.6473,33.8793],[82.6012,33.8268],[82.5149,33.8297],[82.4596,33.8045],[82.469,33.7771],[82.5553,33.7742],[82.5862,33.7461],[82.5834,33.692],[82.5291,33.6848],[82.5057,33.6495],[82.4626,33.651],[82.385,33.6084],[82.5245,33.5948],[82.5554,33.5666],[82.4424,33.4622],[82.4948,33.4333],[82.5386,33.4499],[82.5695,33.4218],[82.5471,33.4045],[82.5565,33.3771],[82.6209,33.3749],[82.6667,33.4274],[82.8815,33.4198],[82.901,33.383],[83.0299,33.3782],[83.0923,33.3397],[83.215,33.4162],[83.2274,33.4428],[83.2704,33.4411],[83.3214,33.394],[83.2978,33.3588],[83.3498,33.3297],[83.4153,33.3451],[83.5271,33.4127],[83.6243,33.4176],[83.6481,33.4527],[83.6074,33.4906],[83.6323,33.5437],[83.5145,33.5576],[83.4489,33.5422],[83.3818,33.6803],[83.3851,33.7343],[83.4451,33.8312],[83.3803,33.8338],[83.3679,33.8072],[83.3123,33.7824],[83.2055,33.8046],[83.1818,33.7694],[83.0873,33.8182],[83.11,33.8354],[83.0802,33.8816],[82.9506,33.8865],[82.93,33.9053]]]]}},{"type":"Feature","properties":{"cell":11,"feature":541,"phase":"Unclassified","min_bt_K":227.5,"area_km2":1808,"cold_core_km2":0,"speed_kmh":28.3,"heading_deg":57,"d_min_bt_30":-2.9,"age_min":30,"family":10,"touches_missing":true,"lon":83.751,"lat":33.689,"merges_splits_so_far":0},"geometry":{"type":"MultiPolygon","coordinates":[[[[83.7723,33.8716],[83.7268,33.8375],[83.662,33.8402],[83.5518,33.8088],[83.4666,33.8303],[83.3851,33.7343],[83.3818,33.6803],[83.4307,33.5971],[83.5383,33.5927],[83.5791,33.5549],[83.6459,33.5882],[83.732,33.5846],[83.741,33.5571],[83.7183,33.54],[83.7794,33.4832],[83.7634,33.4027],[83.8302,33.4359],[83.8767,33.488],[83.9955,33.4918],[84.0102,33.7077],[83.9898,33.7267],[83.9858,33.8262],[83.9222,33.847],[83.8994,33.83],[83.8347,33.8328],[83.7892,33.7987],[83.7723,33.8716]]]]}},{"type":"Feature","properties":{"cell":15,"feature":527,"phase":"Unclassified","min_bt_K":240.3,"area_km2":388,"cold_core_km2":0,"speed_kmh":null,"heading_deg":null,"d_min_bt_30":null,"age_min":0,"family":15,"touches_missing":true,"lon":76.8398,"lat":32.0613,"merges_splits_so_far":0},"geometry":{"type":"MultiPolygon","coordinates":[[[[76.6858,32.1493],[76.601,32.1485],[76.5909,32.1213],[76.644,32.1128],[76.7297,32.0415],[76.7932,32.0421],[76.836,32.0064],[76.9206,32.0071],[76.9845,31.9716],[77.1006,31.9995],[77.0684,32.0443],[76.9837,32.0437],[76.8344,32.1327],[76.7711,32.1141],[76.6858,32.1493]]]]}}]}