{"type":"FeatureCollection","features":[{"type":"Feature","properties":{"cell":2,"feature":592,"phase":"Developing","min_bt_K":236.3,"area_km2":2048,"cold_core_km2":0,"speed_kmh":41.2,"heading_deg":79,"d_min_bt_30":0.3,"age_min":90,"family":2,"touches_missing":true,"lon":82.2608,"lat":33.021,"merges_splits_so_far":0},"geometry":{"type":"MultiPolygon","coordinates":[[[[82.4607,33.1818],[82.4178,33.1833],[82.3732,33.1486],[82.2661,33.1521],[82.2438,33.1348],[82.1812,33.1728],[81.9019,33.1632],[81.8464,33.1197],[81.9067,33.0278],[81.883,32.9743],[81.9028,32.9376],[81.9535,32.873],[82.0176,32.8711],[82.1055,32.9225],[82.2115,32.9012],[82.2525,32.8638],[82.3166,32.8617],[82.3388,32.8791],[82.4661,32.8568],[82.5097,32.8734],[82.609,32.9332],[82.6666,33.0124],[82.7419,33.0187],[82.7122,33.0649],[82.6042,33.0506],[82.5949,33.078],[82.5419,33.0889],[82.5334,33.1343],[82.4607,33.1818]]]]}},{"type":"Feature","properties":{"cell":5,"feature":582,"phase":"Developing","min_bt_K":236.0,"area_km2":5424,"cold_core_km2":0,"speed_kmh":11.1,"heading_deg":243,"d_min_bt_30":0.7,"age_min":60,"family":5,"touches_missing":true,"lon":83.3364,"lat":32.1755,"merges_splits_so_far":3},"geometry":{"type":"MultiPolygon","coordinates":[[[[83.3064,32.5914],[83.208,32.5502],[83.2496,32.5305],[83.2475,32.4945],[83.2141,32.4688],[83.1715,32.4704],[83.1038,32.4008],[83.0613,32.4025],[83.0207,32.4401],[82.9145,32.4441],[82.8488,32.4104],[82.8285,32.4292],[82.785,32.4127],[82.7398,32.3602],[82.5986,32.3019],[82.9271,32.2812],[82.9734,32.3516],[82.9936,32.3328],[83.0371,32.3492],[83.0674,32.321],[83.0554,32.2944],[83.2059,32.3247],[83.3333,32.3197],[83.3949,32.2811],[83.4797,32.2776],[83.5891,32.3272],[83.6092,32.3083],[83.6661,32.3691],[83.7656,32.428],[83.8182,32.4167],[83.8148,32.3627],[83.7153,32.3038],[83.6027,32.2003],[83.5391,32.203],[83.5168,32.1859],[83.4108,32.1902],[83.3695,32.2099],[83.3462,32.1748],[83.2614,32.1782],[83.2413,32.197],[83.1565,32.2003],[83.116,32.238],[83.0071,32.188],[82.902,32.2099],[82.8356,32.1582],[82.772,32.1605],[82.7389,32.1346],[82.7481,32.1072],[82.7895,32.0877],[82.9166,32.0831],[83.1121,32.1659],[83.096,32.0673],[83.1162,32.0485],[83.0719,32.0141],[83.0459,31.9248],[82.9926,31.9178],[82.9796,31.8732],[82.9052,31.8669],[82.8161,31.78],[82.7629,31.7729],[82.7721,31.7455],[82.8032,31.7353],[82.8005,31.6813],[82.6805,31.6044],[82.533,31.6095],[82.5094,31.5562],[82.6778,31.5503],[82.7191,31.5308],[82.763,31.5654],[82.8481,31.5803],[82.9141,31.632],[82.9563,31.6305],[82.9811,31.7017],[83.0444,31.6993],[83.0645,31.6805],[83.0765,31.7071],[83.0243,31.7181],[83.0152,31.7456],[83.0814,31.7972],[83.0843,31.8512],[83.1607,31.8934],[83.371,31.867],[83.3035,31.7975],[83.2281,31.7734],[83.2794,31.7443],[83.427,31.7384],[83.4613,31.7821],[83.5146,31.7889],[83.5711,31.8497],[83.4655,31.8541],[83.5098,31.8884],[83.512,31.9244],[83.5553,31.9406],[83.4972,32.0333],[83.5205,32.0684],[83.6752,32.1702],[83.6997,32.2233],[83.9966,32.2102],[84.0106,32.4262],[83.9828,32.4906],[83.9356,32.4205],[83.8719,32.4233],[83.7276,32.5018],[83.7153,32.4753],[83.6829,32.4676],[83.5586,32.527],[83.4735,32.5305],[83.4331,32.5683],[83.4107,32.5511],[83.3256,32.5546],[83.3064,32.5914]]]]}},{"type":"Feature","properties":{"cell":9,"feature":597,"phase":"Developing","min_bt_K":232.1,"area_km2":1220,"cold_core_km2":0,"speed_kmh":19.7,"heading_deg":99,"d_min_bt_30":-0.5,"age_min":60,"family":9,"touches_missing":false,"lon":80.4565,"lat":33.9386,"merges_splits_so_far":0},"geometry":{"type":"MultiPolygon","coordinates":[[[[80.8995,34.0007],[80.0338,33.9986],[79.9999,33.936],[80.0423,33.8992],[80.0414,33.8632],[80.0948,33.8353],[80.16,33.8523],[80.1825,33.888],[80.2041,33.8877],[80.267,33.8144],[80.3323,33.8314],[80.3985,33.8843],[80.4849,33.8827],[80.6345,33.8258],[80.6999,33.8425],[80.7447,33.8957],[80.809,33.8763],[80.8644,33.9203],[80.8995,34.0007]]]]}},{"type":"Feature","properties":{"cell":10,"feature":599,"phase":"Developing","min_bt_K":231.1,"area_km2":4612,"cold_core_km2":0,"speed_kmh":22.4,"heading_deg":96,"d_min_bt_30":0.1,"age_min":60,"family":10,"touches_missing":true,"lon":83.1068,"lat":33.5977,"merges_splits_so_far":2},"geometry":{"type":"MultiPolygon","coordinates":[[[[83.2583,33.965],[83.1719,33.9684],[83.036,33.8653],[82.9363,33.8238],[82.9332,33.7698],[82.8308,33.6743],[82.5226,33.5587],[82.502,33.5775],[82.4442,33.4982],[82.5377,33.4319],[82.5779,33.3764],[82.6209,33.3749],[82.6442,33.4102],[82.7096,33.4259],[82.7507,33.3884],[83.2221,33.3528],[83.2179,33.2807],[83.2415,33.3159],[83.2833,33.2962],[83.456,33.3073],[83.4899,33.333],[83.4954,33.423],[83.4343,33.4797],[83.4591,33.5328],[83.5156,33.5756],[83.5587,33.5738],[83.6165,33.6346],[83.6676,33.7588],[83.6166,33.8061],[83.5518,33.8088],[83.4268,33.8861],[83.2961,33.8733],[83.2654,33.9016],[83.2891,33.9367],[83.2583,33.965]]],[[[83.4962,33.784],[83.5564,33.7093],[83.5337,33.6922],[83.553,33.6553],[83.5383,33.5927],[83.5315,33.6562],[83.4895,33.6759],[83.5348,33.7102],[83.4531,33.7857],[83.4962,33.784]]]]}},{"type":"Feature","properties":{"cell":11,"feature":598,"phase":"Unclassified","min_bt_K":228.3,"area_km2":2316,"cold_core_km2":0,"speed_kmh":22.3,"heading_deg":167,"d_min_bt_30":0.8,"age_min":60,"family":10,"touches_missing":true,"lon":83.7787,"lat":33.5912,"merges_splits_so_far":0},"geometry":{"type":"MultiPolygon","coordinates":[[[[83.9919,33.9161],[83.8179,33.9058],[83.7609,33.8631],[83.7335,33.774],[83.6676,33.7588],[83.6426,33.7057],[83.6811,33.6318],[83.6051,33.626],[83.5587,33.5738],[83.5156,33.5756],[83.4591,33.5328],[83.4343,33.4797],[83.4954,33.423],[83.5001,33.3236],[83.6288,33.3182],[83.6683,33.2624],[83.7327,33.2596],[83.8016,33.3288],[83.8816,33.2351],[83.9989,33.2209],[84.0013,33.2569],[83.962,33.3128],[83.8797,33.3706],[83.8833,33.4246],[83.9501,33.4577],[83.9298,33.4766],[83.9346,33.5486],[84.0004,33.5638],[83.9947,33.7987],[83.9414,33.8101],[83.882,33.7315],[83.8605,33.7324],[83.9324,33.8376],[83.9984,33.8527],[83.9919,33.9161]]],[[[83.8498,33.5704],[83.8439,33.4804],[83.7759,33.4292],[83.761,33.3667],[83.7544,33.4302],[83.7782,33.4652],[83.8224,33.4814],[83.8259,33.5354],[83.8056,33.5543],[83.8498,33.5704]]]]}},{"type":"Feature","properties":{"cell":15,"feature":584,"phase":"Developing","min_bt_K":235.2,"area_km2":500,"cold_core_km2":0,"speed_kmh":5.3,"heading_deg":237,"d_min_bt_30":-5.1,"age_min":30,"family":15,"touches_missing":true,"lon":76.8164,"lat":32.0482,"merges_splits_so_far":0},"geometry":{"type":"MultiPolygon","coordinates":[[[[76.6858,32.1493],[76.6332,32.1218],[76.6338,32.0857],[76.709,32.0052],[76.7513,32.0057],[76.7941,31.97],[77.0482,31.954],[77.1008,31.9814],[77.0686,32.0263],[77.0265,32.0079],[76.9839,32.0257],[76.9624,32.0616],[76.92,32.0612],[76.8132,32.1325],[76.7073,32.1315],[76.6858,32.1493]]]]}},{"type":"Feature","properties":{"cell":19,"feature":580,"phase":"Unclassified","min_bt_K":243.4,"area_km2":76,"cold_core_km2":0,"speed_kmh":null,"heading_deg":null,"d_min_bt_30":null,"age_min":0,"family":19,"touches_missing":false,"lon":83.4233,"lat":31.1832,"merges_splits_so_far":0},"geometry":{"type":"MultiPolygon","coordinates":[[[[83.4393,31.2146],[83.3763,31.2171],[83.3433,31.1914],[83.4142,31.1434],[83.5101,31.1665],[83.4393,31.2146]]]]}},{"type":"Feature","properties":{"cell":20,"feature":587,"phase":"Unclassified","min_bt_K":238.1,"area_km2":648,"cold_core_km2":0,"speed_kmh":null,"heading_deg":null,"d_min_bt_30":null,"age_min":0,"family":20,"touches_missing":true,"lon":82.0195,"lat":32.3507,"merges_splits_so_far":0},"geometry":{"type":"MultiPolygon","coordinates":[[[[82.001,32.4927],[81.8381,32.4163],[81.8571,32.3616],[81.8416,32.2447],[81.9477,32.2416],[81.9704,32.2771],[82.0765,32.2738],[82.0986,32.2912],[82.1945,32.2972],[82.2402,32.368],[82.1663,32.3793],[82.0845,32.454],[82.042,32.4553],[82.001,32.4927]]]]}}]}