{"type":"FeatureCollection","features":[{"type":"Feature","properties":{"cell":5,"feature":655,"phase":"Developing","min_bt_K":235.0,"area_km2":5456,"cold_core_km2":0,"speed_kmh":16.0,"heading_deg":15,"d_min_bt_30":-1.0,"age_min":90,"family":5,"touches_missing":true,"lon":83.3589,"lat":32.2449,"merges_splits_so_far":3},"geometry":{"type":"MultiPolygon","coordinates":[[[[83.9946,32.6705],[83.8869,32.6573],[83.8207,32.6241],[83.8005,32.643],[83.647,32.5774],[83.5787,32.5081],[83.449,32.4774],[83.3437,32.4997],[83.2981,32.4474],[83.2364,32.4859],[83.1088,32.4909],[83.0207,32.4401],[82.8923,32.4268],[82.8802,32.4002],[82.7924,32.3493],[82.8016,32.3219],[82.9705,32.2976],[82.9825,32.3242],[83.0593,32.3664],[83.1008,32.3468],[83.1453,32.3812],[83.1877,32.3796],[83.2595,32.3316],[83.2585,32.3136],[83.2039,32.2887],[83.0978,32.2928],[83.0524,32.2404],[82.9666,32.2256],[82.9001,32.1739],[82.8375,32.1942],[82.7315,32.198],[82.7094,32.1808],[82.5212,32.2414],[82.4974,32.1881],[82.3702,32.1924],[82.3575,32.1477],[82.3253,32.1397],[82.3134,32.113],[82.3541,32.0756],[82.3313,32.0403],[82.3727,32.0209],[82.3685,31.9308],[82.421,31.92],[82.4818,31.8638],[82.5183,31.9619],[82.5835,31.9957],[82.531,32.0065],[82.4904,32.044],[82.4168,32.0555],[82.4176,32.0735],[82.516,32.1334],[82.5575,32.1139],[82.6845,32.1095],[82.7923,32.1417],[82.877,32.1387],[82.8963,32.1019],[82.9599,32.0995],[83.0003,32.0619],[83.0426,32.0603],[83.0869,32.0947],[83.213,32.0718],[83.2362,32.107],[83.3421,32.1028],[83.3612,32.0659],[83.5506,32.0401],[83.5807,32.0118],[83.5675,31.9672],[83.4194,31.9733],[83.374,31.921],[83.3106,31.9236],[83.2885,31.9064],[83.2059,31.9457],[83.0993,31.9318],[83.0219,31.8716],[82.9979,31.8184],[83.0914,31.7878],[83.1106,31.7509],[83.1729,31.7305],[83.1849,31.7571],[83.2382,31.764],[83.2834,31.8164],[83.3488,31.8498],[83.4122,31.8473],[83.4354,31.8824],[83.5209,31.8969],[83.5875,31.9483],[83.6277,31.9105],[83.799,31.9393],[83.8034,32.0112],[83.6765,32.0167],[83.6464,32.0451],[83.8313,32.1183],[83.9106,32.196],[83.818,32.2452],[83.7723,32.1931],[83.6451,32.1985],[83.6217,32.1634],[83.5369,32.167],[83.5301,32.2304],[83.4484,32.2879],[83.4527,32.3599],[83.4862,32.3856],[83.5499,32.383],[83.6125,32.3623],[83.6517,32.3065],[83.6751,32.3416],[83.8014,32.3181],[83.8248,32.3532],[83.9322,32.3665],[83.9445,32.393],[83.9055,32.4489],[83.9279,32.466],[83.9314,32.52],[83.9987,32.5711],[83.9946,32.6705]]]]}},{"type":"Feature","properties":{"cell":9,"feature":673,"phase":"Developing","min_bt_K":232.2,"area_km2":1020,"cold_core_km2":0,"speed_kmh":5.8,"heading_deg":225,"d_min_bt_30":0.2,"age_min":90,"family":9,"touches_missing":false,"lon":80.4347,"lat":33.9202,"merges_splits_so_far":1},"geometry":{"type":"MultiPolygon","coordinates":[[[[80.7265,34.0044],[80.0554,33.9983],[80.0439,33.9714],[80.0982,33.9796],[80.1724,33.9152],[80.1494,33.8615],[80.1816,33.8519],[80.2023,33.8155],[80.3524,33.7769],[80.3971,33.8302],[80.6124,33.8081],[80.6456,33.8346],[80.6483,33.9247],[80.737,33.9951],[80.7265,34.0044]]]]}},{"type":"Feature","properties":{"cell":10,"feature":669,"phase":"Developing","min_bt_K":230.0,"area_km2":6176,"cold_core_km2":0,"speed_kmh":9.8,"heading_deg":34,"d_min_bt_30":-1.0,"age_min":90,"family":10,"touches_missing":true,"lon":83.1364,"lat":33.6341,"merges_splits_so_far":4},"geometry":{"type":"MultiPolygon","coordinates":[[[[83.7374,33.9995],[83.5211,34.0086],[83.52,33.9906],[83.5723,33.9613],[83.5689,33.9073],[83.5121,33.8645],[83.2961,33.8733],[83.2324,33.8938],[83.1645,33.8423],[83.0802,33.8816],[82.9722,33.8857],[82.927,33.8513],[82.7543,33.8575],[82.6904,33.8778],[82.5656,33.7648],[82.5806,33.638],[82.5357,33.6034],[82.5329,33.5493],[82.4881,33.5148],[82.4836,33.4247],[82.5798,33.4124],[82.6022,33.4297],[82.6228,33.4109],[82.6872,33.4087],[82.7096,33.4259],[82.7507,33.3884],[82.8366,33.3853],[82.8776,33.3477],[82.9195,33.3281],[82.9635,33.3446],[83.0044,33.3069],[83.219,33.2987],[83.2425,33.3339],[83.3069,33.3314],[83.3407,33.3571],[83.2988,33.3768],[83.2908,33.4222],[83.4886,33.4865],[83.5949,33.464],[83.6617,33.4973],[83.6776,33.5778],[83.723,33.612],[83.7253,33.648],[83.7923,33.6812],[83.7731,33.7182],[83.806,33.7258],[83.8413,33.7694],[83.8233,33.8243],[83.8473,33.8594],[83.8917,33.8755],[83.7987,33.9427],[83.7327,33.9275],[83.7374,33.9995]]]]}},{"type":"Feature","properties":{"cell":11,"feature":671,"phase":"Unclassified","min_bt_K":232.0,"area_km2":1468,"cold_core_km2":0,"speed_kmh":21.5,"heading_deg":125,"d_min_bt_30":3.7,"age_min":90,"family":10,"touches_missing":true,"lon":83.8742,"lat":33.5361,"merges_splits_so_far":1},"geometry":{"type":"MultiPolygon","coordinates":[[[[83.9894,33.8801],[83.8917,33.8755],[83.8449,33.8234],[83.8844,33.7675],[83.815,33.6983],[83.7253,33.648],[83.723,33.612],[83.6776,33.5778],[83.6719,33.4878],[83.7091,33.396],[83.7837,33.3838],[83.813,33.3374],[83.7892,33.3023],[83.8613,33.254],[83.9054,33.2702],[83.9685,33.2493],[84.0025,33.2748],[84.0097,33.3828],[83.9895,33.4018],[84.0102,33.7077],[83.9898,33.7267],[83.9894,33.8801]]]]}},{"type":"Feature","properties":{"cell":19,"feature":651,"phase":"Developing","min_bt_K":240.7,"area_km2":852,"cold_core_km2":0,"speed_kmh":40.4,"heading_deg":97,"d_min_bt_30":-2.7,"age_min":30,"family":19,"touches_missing":true,"lon":83.6336,"lat":31.1594,"merges_splits_so_far":0},"geometry":{"type":"MultiPolygon","coordinates":[[[[83.5725,31.3354],[83.5515,31.3362],[83.5063,31.284],[83.4864,31.3029],[83.4103,31.2609],[83.4083,31.2249],[83.4492,31.2051],[83.4063,31.1888],[83.4042,31.1528],[83.4531,31.0877],[83.6018,31.1176],[83.6171,31.1981],[83.6501,31.2238],[83.68,31.1955],[83.6548,31.1243],[83.7134,31.0497],[83.7212,31.0042],[83.8875,30.9789],[83.9636,31.0206],[83.9559,31.0661],[83.8511,31.0707],[83.8324,31.1076],[83.7453,31.0573],[83.7375,31.1027],[83.8136,31.1446],[83.8257,31.1711],[83.7948,31.1815],[83.776,31.2184],[83.7131,31.2211],[83.6522,31.2598],[83.5725,31.3354]]]]}},{"type":"Feature","properties":{"cell":20,"feature":658,"phase":"Unclassified","min_bt_K":239.1,"area_km2":592,"cold_core_km2":0,"speed_kmh":34.1,"heading_deg":89,"d_min_bt_30":1.0,"age_min":30,"family":20,"touches_missing":false,"lon":82.2008,"lat":32.3543,"merges_splits_so_far":0},"geometry":{"type":"MultiPolygon","coordinates":[[[[82.2979,32.4654],[82.2758,32.448],[82.1483,32.4521],[82.0176,32.3839],[82.0058,32.3572],[82.0372,32.3472],[82.0467,32.3199],[82.0011,32.2491],[82.0962,32.2372],[82.1182,32.2545],[82.1818,32.2525],[82.2259,32.2872],[82.3108,32.2845],[82.3226,32.3112],[82.366,32.3278],[82.3464,32.3646],[82.3694,32.3999],[82.3498,32.4366],[82.2979,32.4654]]]]}},{"type":"Feature","properties":{"cell":26,"feature":648,"phase":"Unclassified","min_bt_K":239.5,"area_km2":492,"cold_core_km2":0,"speed_kmh":null,"heading_deg":null,"d_min_bt_30":null,"age_min":0,"family":26,"touches_missing":true,"lon":79.1097,"lat":30.4802,"merges_splits_so_far":0},"geometry":{"type":"MultiPolygon","coordinates":[[[[78.9593,30.6009],[78.8966,30.5833],[78.8649,30.5384],[78.9168,30.511],[78.9793,30.5106],[79.0617,30.4197],[79.1445,30.3829],[79.2698,30.4179],[79.3433,30.4623],[79.292,30.5259],[79.2293,30.5085],[79.1672,30.5451],[79.0213,30.5463],[78.9593,30.6009]]]]}},{"type":"Feature","properties":{"cell":33,"feature":667,"phase":"Unclassified","min_bt_K":230.2,"area_km2":912,"cold_core_km2":0,"speed_kmh":null,"heading_deg":null,"d_min_bt_30":null,"age_min":0,"family":33,"touches_missing":true,"lon":75.9402,"lat":32.6476,"merges_splits_so_far":0},"geometry":{"type":"MultiPolygon","coordinates":[[[[75.9073,32.8249],[75.8433,32.8239],[75.727,32.7769],[75.7283,32.7228],[75.7941,32.6517],[75.7949,32.6157],[75.9356,32.5187],[75.9991,32.5377],[76.0211,32.5019],[76.1279,32.4854],[76.2011,32.5496],[76.1567,32.6392],[76.1025,32.6835],[76.0599,32.6829],[76.0378,32.7187],[75.9738,32.7177],[75.9625,32.7446],[75.9195,32.762],[75.9404,32.7804],[75.9073,32.8249]]]]}},{"type":"Feature","properties":{"cell":35,"feature":670,"phase":"Unclassified","min_bt_K":233.1,"area_km2":604,"cold_core_km2":0,"speed_kmh":null,"heading_deg":null,"d_min_bt_30":null,"age_min":0,"family":10,"touches_missing":true,"lon":82.167,"lat":33.5752,"merges_splits_so_far":0},"geometry":{"type":"MultiPolygon","coordinates":[[[[82.3791,33.7079],[82.2067,33.7134],[82.161,33.6607],[82.1179,33.662],[82.0611,33.6006],[81.9949,33.5665],[81.9925,33.5124],[82.0872,33.4645],[82.1956,33.4791],[82.3178,33.5565],[82.3221,33.6466],[82.3886,33.6805],[82.3791,33.7079]]]]}},{"type":"Feature","properties":{"cell":36,"feature":672,"phase":"Unclassified","min_bt_K":234.0,"area_km2":1796,"cold_core_km2":0,"speed_kmh":null,"heading_deg":null,"d_min_bt_30":null,"age_min":0,"family":10,"touches_missing":true,"lon":82.0266,"lat":33.7639,"merges_splits_so_far":0},"geometry":{"type":"MultiPolygon","coordinates":[[[[82.4151,33.9955],[82.1988,34.0024],[82.1867,33.9757],[82.2153,33.8936],[82.1288,33.8963],[82.0882,33.9517],[82.0649,33.9163],[81.9793,33.9369],[81.9344,33.9021],[81.8912,33.9034],[81.8233,33.8332],[81.7801,33.8344],[81.7465,33.8083],[81.745,33.7722],[81.678,33.7199],[81.6981,33.6833],[81.7731,33.6722],[81.7931,33.6355],[81.8578,33.6337],[81.8777,33.597],[81.9208,33.5958],[81.9838,33.5578],[82.0293,33.6106],[82.1179,33.662],[82.161,33.6607],[82.2067,33.7134],[82.3791,33.7079],[82.3921,33.7526],[82.3543,33.8621],[82.3768,33.8794],[82.3138,33.9175],[82.4133,33.9594],[82.4151,33.9955]]]]}}]}