{"type":"FeatureCollection","features":[{"type":"Feature","properties":{"cell":5,"feature":729,"phase":"Developing","min_bt_K":239.1,"area_km2":704,"cold_core_km2":0,"speed_kmh":157.2,"heading_deg":262,"d_min_bt_30":4.1,"age_min":120,"family":5,"touches_missing":true,"lon":82.5329,"lat":32.1487,"merges_splits_so_far":4},"geometry":{"type":"MultiPolygon","coordinates":[[[[82.5672,32.3121],[82.5349,32.3041],[82.5331,32.2681],[82.4779,32.2249],[82.3507,32.2291],[82.3168,32.1851],[82.3473,32.157],[82.4524,32.1355],[82.5398,32.1867],[82.5455,32.0872],[82.471,32.0807],[82.4583,32.0361],[82.5301,31.9885],[82.5936,31.9863],[82.6699,32.0288],[82.6717,32.0648],[82.7149,32.0813],[82.7177,32.1354],[82.6974,32.1541],[82.7241,32.2615],[82.6724,32.2904],[82.6079,32.2746],[82.5672,32.3121]]]]}},{"type":"Feature","properties":{"cell":9,"feature":747,"phase":"Developing","min_bt_K":234.1,"area_km2":1988,"cold_core_km2":0,"speed_kmh":21.3,"heading_deg":98,"d_min_bt_30":1.9,"age_min":120,"family":9,"touches_missing":true,"lon":80.5488,"lat":33.9069,"merges_splits_so_far":2},"geometry":{"type":"MultiPolygon","coordinates":[[[[80.9428,33.9998],[79.9362,33.991],[80.0745,33.8897],[80.1177,33.8891],[80.1816,33.8519],[80.3112,33.8498],[80.3318,33.8133],[80.3544,33.849],[80.3975,33.8482],[80.4071,33.803],[80.385,33.7853],[80.4387,33.7753],[80.4809,33.7385],[80.524,33.7377],[80.5682,33.7729],[80.5893,33.7545],[80.6971,33.7523],[80.7397,33.7334],[80.7851,33.8047],[80.8714,33.8028],[80.8918,33.7663],[81.0571,33.8619],[81.0373,33.9165],[80.9428,33.9998]]]]}},{"type":"Feature","properties":{"cell":10,"feature":743,"phase":"Developing","min_bt_K":230.0,"area_km2":5440,"cold_core_km2":0,"speed_kmh":9.4,"heading_deg":263,"d_min_bt_30":-0.0,"age_min":120,"family":10,"touches_missing":true,"lon":83.0861,"lat":33.6287,"merges_splits_so_far":5},"geometry":{"type":"MultiPolygon","coordinates":[[[[83.4984,33.9915],[83.347,33.9976],[83.2551,33.911],[83.2119,33.9127],[83.1666,33.8783],[83.146,33.8972],[82.9732,33.9037],[82.9526,33.9225],[82.8662,33.9257],[82.7562,33.8935],[82.6998,33.8504],[82.7195,33.8136],[82.7617,33.7941],[82.7597,33.758],[82.6696,33.689],[82.6115,33.6098],[82.5685,33.6113],[82.5236,33.5767],[82.4917,33.5868],[82.4657,33.4975],[82.6013,33.4117],[82.7302,33.4072],[82.7722,33.3876],[82.7956,33.4229],[82.86,33.4206],[82.9645,33.3626],[83.0299,33.3782],[83.0698,33.3225],[83.1556,33.3192],[83.1546,33.3012],[83.0902,33.3037],[83.0677,33.2865],[83.0473,33.3053],[82.9829,33.3077],[82.943,33.3634],[82.7805,33.3422],[82.8317,33.2952],[82.9585,33.2545],[83.0392,33.1613],[83.0821,33.1596],[83.0739,33.2051],[83.1311,33.266],[83.174,33.2644],[83.2425,33.3339],[83.2854,33.3322],[83.3541,33.4017],[83.4841,33.4145],[83.5191,33.4581],[83.5859,33.4915],[83.5451,33.5293],[83.545,33.8722],[83.4598,33.8938],[83.462,33.9298],[83.5291,33.9631],[83.4984,33.9915]]]]}},{"type":"Feature","properties":{"cell":26,"feature":721,"phase":"Developing","min_bt_K":238.2,"area_km2":672,"cold_core_km2":0,"speed_kmh":12.8,"heading_deg":170,"d_min_bt_30":-1.2,"age_min":30,"family":26,"touches_missing":false,"lon":79.1212,"lat":30.4234,"merges_splits_so_far":0},"geometry":{"type":"MultiPolygon","coordinates":[[[[79.3129,30.5257],[79.2504,30.5263],[79.1874,30.4908],[79.0626,30.5099],[79.0206,30.4742],[78.9581,30.4746],[78.9473,30.4296],[79.0195,30.3659],[79.0611,30.3656],[79.1023,30.3292],[79.1859,30.3645],[79.2479,30.3279],[79.3729,30.3447],[79.3844,30.4258],[79.3639,30.444],[79.3646,30.4981],[79.3129,30.5257]]]]}},{"type":"Feature","properties":{"cell":33,"feature":741,"phase":"Developing","min_bt_K":230.0,"area_km2":2464,"cold_core_km2":0,"speed_kmh":32.2,"heading_deg":93,"d_min_bt_30":-0.2,"age_min":30,"family":33,"touches_missing":true,"lon":76.1117,"lat":32.6407,"merges_splits_so_far":0},"geometry":{"type":"MultiPolygon","coordinates":[[[[76.0987,32.8639],[76.056,32.8633],[76.0141,32.8266],[75.886,32.8246],[75.8642,32.8423],[75.8006,32.8232],[75.7479,32.7953],[75.7488,32.7592],[75.707,32.7224],[75.9356,32.5187],[75.9991,32.5377],[76.1077,32.431],[76.1715,32.4319],[76.2363,32.3787],[76.3631,32.4164],[76.406,32.3989],[76.5119,32.4181],[76.5848,32.5181],[76.4343,32.6067],[76.4334,32.6608],[76.3367,32.7047],[76.3143,32.7585],[76.2717,32.758],[76.1849,32.829],[76.1639,32.8107],[76.0987,32.8639]]]]}},{"type":"Feature","properties":{"cell":35,"feature":744,"phase":"Unclassified","min_bt_K":233.3,"area_km2":1064,"cold_core_km2":0,"speed_kmh":26.4,"heading_deg":80,"d_min_bt_30":0.2,"age_min":30,"family":10,"touches_missing":false,"lon":82.3071,"lat":33.5966,"merges_splits_so_far":0},"geometry":{"type":"MultiPolygon","coordinates":[[[[82.4267,33.7965],[82.3611,33.7806],[82.3144,33.71],[82.1627,33.6967],[82.0603,33.5826],[82.2377,33.4598],[82.3882,33.4549],[82.4088,33.4362],[82.4957,33.4513],[82.4657,33.4975],[82.4917,33.5868],[82.4505,33.6243],[82.4532,33.6784],[82.4869,33.7043],[82.5731,33.7014],[82.5872,33.7641],[82.4681,33.7591],[82.4267,33.7965]]]]}},{"type":"Feature","properties":{"cell":36,"feature":745,"phase":"Unclassified","min_bt_K":234.0,"area_km2":2316,"cold_core_km2":0,"speed_kmh":9.2,"heading_deg":324,"d_min_bt_30":0.0,"age_min":30,"family":10,"touches_missing":true,"lon":81.9975,"lat":33.7974,"merges_splits_so_far":1},"geometry":{"type":"MultiPolygon","coordinates":[[[[82.3935,33.9962],[82.069,34.0064],[82.0345,33.9623],[82.0528,33.8896],[81.9752,33.8468],[81.9544,33.8655],[81.868,33.868],[81.8233,33.8332],[81.7801,33.8344],[81.7191,33.9263],[81.6327,33.9287],[81.4785,33.8606],[81.4555,33.8251],[81.3692,33.8273],[81.3769,33.7459],[81.4082,33.7181],[81.4736,33.7344],[81.5843,33.8037],[81.6483,33.7839],[81.6892,33.7287],[81.817,33.689],[81.8362,33.6343],[81.9439,33.6312],[82.0276,33.5745],[82.105,33.6173],[82.1067,33.6533],[82.1627,33.6967],[82.3144,33.71],[82.3499,33.772],[82.4164,33.8059],[82.3957,33.8246],[82.4398,33.8412],[82.4434,33.9133],[82.3813,33.9695],[82.3935,33.9962]]]]}},{"type":"Feature","properties":{"cell":38,"feature":722,"phase":"Unclassified","min_bt_K":237.0,"area_km2":308,"cold_core_km2":0,"speed_kmh":null,"heading_deg":null,"d_min_bt_30":null,"age_min":0,"family":26,"touches_missing":true,"lon":78.554,"lat":30.7602,"merges_splits_so_far":0},"geometry":{"type":"MultiPolygon","coordinates":[[[[78.6898,30.8191],[78.4807,30.82],[78.4493,30.7931],[78.449,30.7389],[78.5219,30.6936],[78.6681,30.7109],[78.7415,30.7557],[78.6898,30.8191]]]]}},{"type":"Feature","properties":{"cell":39,"feature":724,"phase":"Unclassified","min_bt_K":242.4,"area_km2":160,"cold_core_km2":0,"speed_kmh":null,"heading_deg":null,"d_min_bt_30":null,"age_min":0,"family":39,"touches_missing":false,"lon":78.0503,"lat":31.4715,"merges_splits_so_far":0},"geometry":{"type":"MultiPolygon","coordinates":[[[[78.1053,31.5244],[78.0632,31.5064],[77.9579,31.5064],[77.9685,31.4252],[78.1052,31.4342],[78.1262,31.4161],[78.1368,31.4973],[78.1053,31.5244]]]]}},{"type":"Feature","properties":{"cell":41,"feature":728,"phase":"Unclassified","min_bt_K":242.2,"area_km2":96,"cold_core_km2":0,"speed_kmh":null,"heading_deg":null,"d_min_bt_30":null,"age_min":0,"family":41,"touches_missing":false,"lon":76.9212,"lat":32.174,"merges_splits_so_far":0},"geometry":{"type":"MultiPolygon","coordinates":[[[[76.9604,32.242],[76.9183,32.2056],[76.8654,32.1961],[76.8659,32.16],[76.9194,32.1154],[76.9721,32.1428],[76.9715,32.197],[76.9925,32.2152],[76.9604,32.242]]]]}},{"type":"Feature","properties":{"cell":45,"feature":736,"phase":"Unclassified","min_bt_K":235.6,"area_km2":868,"cold_core_km2":0,"speed_kmh":null,"heading_deg":null,"d_min_bt_30":null,"age_min":0,"family":45,"touches_missing":true,"lon":75.9273,"lat":33.3457,"merges_splits_so_far":0},"geometry":{"type":"MultiPolygon","coordinates":[[[[76.128,33.5138],[76.0858,33.4771],[75.9782,33.4755],[75.9669,33.5024],[75.9344,33.511],[75.9133,33.4926],[75.7197,33.4894],[75.6882,33.4618],[75.8409,33.3742],[75.8203,33.3377],[75.9078,33.267],[75.8662,33.2122],[75.8671,33.1761],[75.9439,33.0961],[76.0296,33.0974],[76.0822,33.1433],[76.0603,33.161],[76.0814,33.1794],[76.0381,33.1968],[76.0584,33.2512],[76.0046,33.2594],[75.9495,33.3217],[76.0022,33.3676],[76.0666,33.3686],[76.0982,33.3961],[76.1401,33.4508],[76.128,33.5138]]]]}},{"type":"Feature","properties":{"cell":48,"feature":742,"phase":"Unclassified","min_bt_K":232.3,"area_km2":3324,"cold_core_km2":0,"speed_kmh":null,"heading_deg":null,"d_min_bt_30":null,"age_min":0,"family":10,"touches_missing":false,"lon":83.7218,"lat":33.2523,"merges_splits_so_far":2},"geometry":{"type":"MultiPolygon","coordinates":[[[[83.8815,33.56],[83.8384,33.5619],[83.7567,33.4662],[83.6786,33.4244],[83.5927,33.428],[83.5701,33.4109],[83.5067,33.4316],[83.4401,33.3982],[83.3541,33.4017],[83.2967,33.3408],[83.2689,33.2336],[83.3536,33.2122],[83.3686,33.1033],[83.4712,33.0269],[83.5074,32.9172],[83.5592,32.8879],[83.7087,32.8816],[83.7289,32.8627],[83.7941,32.8779],[83.8403,32.9301],[83.883,32.9282],[83.9168,32.9538],[83.9079,32.9812],[83.9495,32.9614],[84.0035,32.968],[83.9965,33.1849],[83.9334,33.2057],[84.0025,33.2748],[83.9955,33.4918],[83.9424,33.5032],[83.8815,33.56]]],[[[83.7596,33.1772],[83.7799,33.1583],[83.7573,33.1412],[83.7539,33.0872],[83.6975,33.0445],[83.5162,33.0612],[83.5703,33.068],[83.6491,33.1278],[83.6638,33.1904],[83.7596,33.1772]]],[[[83.5882,33.1845],[83.5758,33.158],[83.5442,33.1683],[83.5882,33.1845]]]]}}]}