{"type":"FeatureCollection","features":[{"type":"Feature","properties":{"cell":10,"feature":797,"phase":"Developing","min_bt_K":230.2,"area_km2":6424,"cold_core_km2":0,"speed_kmh":77.3,"heading_deg":277,"d_min_bt_30":0.2,"age_min":150,"family":10,"touches_missing":true,"lon":82.6721,"lat":33.6697,"merges_splits_so_far":8},"geometry":{"type":"MultiPolygon","coordinates":[[[[81.7438,33.9978],[81.441,34.006],[81.4291,33.9792],[81.4933,33.9595],[81.4904,33.8874],[81.4207,33.7629],[81.626,33.7665],[81.6922,33.8008],[81.7354,33.7996],[81.7331,33.7455],[81.7754,33.7263],[81.7978,33.7437],[81.8186,33.725],[81.8833,33.7232],[82.0102,33.6653],[82.0765,33.6994],[82.1627,33.6967],[82.2351,33.6313],[82.1791,33.5879],[82.1146,33.5899],[82.0914,33.5546],[82.0148,33.5298],[82.0434,33.4477],[82.0864,33.4464],[82.1096,33.4818],[82.1956,33.4791],[82.2635,33.5492],[82.3676,33.4736],[82.433,33.4895],[82.5583,33.4131],[82.6228,33.4109],[82.7115,33.462],[82.776,33.4597],[82.7629,33.415],[82.718,33.3805],[82.7581,33.325],[82.8093,33.278],[82.937,33.2553],[82.9717,33.2991],[82.9767,33.3892],[82.902,33.401],[82.8713,33.4292],[82.906,33.473],[82.949,33.4714],[83.1036,33.5378],[83.1333,33.4916],[83.1301,33.4375],[83.2027,33.3896],[83.2489,33.4419],[83.2918,33.4403],[83.3596,33.4917],[83.4569,33.4968],[83.4624,33.5868],[83.4226,33.6426],[83.4249,33.6786],[83.3942,33.7069],[83.3511,33.7086],[83.35,33.6906],[83.3818,33.6803],[83.3693,33.6538],[83.3182,33.7009],[83.343,33.7541],[83.3021,33.7918],[83.335,33.7995],[83.3587,33.8347],[83.3792,33.8158],[83.4132,33.8415],[83.4052,33.887],[83.2756,33.8921],[83.2551,33.911],[83.145,33.8792],[83.1028,33.8988],[83.0247,33.8567],[83.0226,33.8206],[82.9887,33.7948],[82.9445,33.7784],[82.9024,33.798],[82.8337,33.7283],[82.7278,33.7682],[82.7053,33.7509],[82.6406,33.7532],[82.5956,33.7187],[82.575,33.7374],[82.4887,33.7403],[82.4474,33.7778],[82.4034,33.7612],[82.3723,33.7893],[82.3543,33.8621],[82.3111,33.8635],[82.3345,33.8988],[82.2611,33.9463],[82.2282,33.9383],[82.2144,33.8756],[82.0599,33.8082],[82.0167,33.8095],[81.9432,33.8568],[81.968,33.9282],[81.9368,33.9562],[81.828,33.9413],[81.7639,33.9612],[81.7438,33.9978]]]]}},{"type":"Feature","properties":{"cell":26,"feature":780,"phase":"Developing","min_bt_K":238.0,"area_km2":600,"cold_core_km2":0,"speed_kmh":19.5,"heading_deg":114,"d_min_bt_30":-0.2,"age_min":60,"family":26,"touches_missing":true,"lon":79.2142,"lat":30.3878,"merges_splits_so_far":0},"geometry":{"type":"MultiPolygon","coordinates":[[[[79.3126,30.5077],[79.2291,30.4904],[79.2078,30.4546],[79.0617,30.4197],[79.0092,30.375],[79.2264,30.274],[79.2885,30.2553],[79.3303,30.273],[79.3832,30.3356],[79.4052,30.4255],[79.3741,30.4349],[79.3126,30.5077]]]]}},{"type":"Feature","properties":{"cell":33,"feature":794,"phase":"Developing","min_bt_K":231.7,"area_km2":3064,"cold_core_km2":0,"speed_kmh":27.5,"heading_deg":105,"d_min_bt_30":1.7,"age_min":60,"family":33,"touches_missing":true,"lon":76.2529,"lat":32.6083,"merges_splits_so_far":0},"geometry":{"type":"MultiPolygon","coordinates":[[[[76.1636,32.8287],[76.0995,32.8278],[76.0475,32.7639],[75.9738,32.7177],[75.9303,32.7531],[75.8877,32.7525],[75.8145,32.6881],[75.8371,32.6344],[75.7962,32.5616],[75.8509,32.4993],[75.8935,32.5],[75.9368,32.4646],[76.0219,32.4659],[76.0652,32.4304],[76.1715,32.4319],[76.2346,32.4689],[76.299,32.4336],[76.3409,32.4702],[76.4047,32.471],[76.4691,32.4357],[76.5125,32.382],[76.597,32.419],[76.682,32.4199],[76.7038,32.384],[76.7353,32.4114],[76.7758,32.5561],[76.7318,32.6639],[76.6778,32.7085],[76.6565,32.7083],[76.6357,32.672],[76.5707,32.7435],[76.485,32.7606],[76.4417,32.7962],[76.4207,32.7779],[76.3567,32.7771],[76.335,32.7949],[76.2283,32.7935],[76.1636,32.8287]]]]}},{"type":"Feature","properties":{"cell":38,"feature":781,"phase":"Developing","min_bt_K":234.1,"area_km2":1368,"cold_core_km2":0,"speed_kmh":33.6,"heading_deg":122,"d_min_bt_30":-3.0,"age_min":30,"family":26,"touches_missing":true,"lon":78.702,"lat":30.6791,"merges_splits_so_far":0},"geometry":{"type":"MultiPolygon","coordinates":[[[[78.7527,30.8548],[78.69,30.8552],[78.669,30.8372],[78.6063,30.8375],[78.5642,30.8016],[78.5015,30.8019],[78.4696,30.6847],[78.4903,30.6486],[78.6046,30.5669],[78.667,30.5486],[78.7089,30.5844],[78.7916,30.4938],[78.9164,30.4749],[78.9481,30.5198],[78.9069,30.5742],[78.949,30.61],[78.9709,30.7181],[78.9086,30.7546],[78.909,30.7907],[78.8779,30.818],[78.8152,30.8184],[78.7527,30.8548]]]]}},{"type":"Feature","properties":{"cell":39,"feature":785,"phase":"Developing","min_bt_K":240.9,"area_km2":192,"cold_core_km2":0,"speed_kmh":15.7,"heading_deg":62,"d_min_bt_30":-1.5,"age_min":30,"family":39,"touches_missing":false,"lon":78.1231,"lat":31.505,"merges_splits_so_far":0},"geometry":{"type":"MultiPolygon","coordinates":[[[[78.1685,31.5604],[78.1053,31.5605],[78.0211,31.5064],[77.9474,31.4974],[78.0842,31.4703],[78.1893,31.4161],[78.2209,31.4611],[78.1685,31.5604]]]]}},{"type":"Feature","properties":{"cell":41,"feature":793,"phase":"Developing","min_bt_K":229.2,"area_km2":1448,"cold_core_km2":0,"speed_kmh":75.2,"heading_deg":286,"d_min_bt_30":-12.9,"age_min":30,"family":41,"touches_missing":true,"lon":76.5377,"lat":32.2674,"merges_splits_so_far":0},"geometry":{"type":"MultiPolygon","coordinates":[[[[76.4047,32.471],[76.3409,32.4702],[76.3095,32.4428],[76.3115,32.3345],[76.2697,32.2979],[76.4315,32.1466],[76.4951,32.1473],[76.538,32.1117],[76.9089,32.1063],[76.9297,32.1425],[76.9078,32.1964],[76.8123,32.2047],[76.7372,32.2671],[76.7367,32.3032],[76.6938,32.3388],[76.682,32.4199],[76.597,32.419],[76.5125,32.382],[76.5015,32.409],[76.4047,32.471]]]]}},{"type":"Feature","properties":{"cell":45,"feature":795,"phase":"Developing","min_bt_K":230.3,"area_km2":1552,"cold_core_km2":0,"speed_kmh":54.9,"heading_deg":133,"d_min_bt_30":-5.3,"age_min":30,"family":45,"touches_missing":true,"lon":76.1431,"lat":33.1771,"merges_splits_so_far":0},"geometry":{"type":"MultiPolygon","coordinates":[[[[76.1503,33.478],[76.0865,33.4411],[76.0646,33.4588],[76.0001,33.4578],[75.8413,33.3561],[75.896,33.3119],[75.9386,33.3306],[76.0244,33.3319],[76.0463,33.3142],[76.1533,33.3337],[76.2078,33.2894],[76.2082,33.2713],[76.1547,33.2616],[76.0919,33.1885],[76.0276,33.1876],[75.8893,33.1404],[75.9007,33.1135],[75.9544,33.1053],[75.9775,33.0335],[76.0533,32.9895],[76.0743,33.0079],[76.2669,33.0105],[76.3304,33.0474],[76.3946,33.0482],[76.4262,33.0756],[76.36,33.1831],[76.3277,33.1917],[76.2729,33.2541],[76.2719,33.3083],[76.3994,33.382],[76.3448,33.4265],[76.2804,33.4256],[76.2585,33.4434],[76.2159,33.4248],[76.1503,33.478]]]]}},{"type":"Feature","properties":{"cell":48,"feature":799,"phase":"Developing","min_bt_K":231.5,"area_km2":6044,"cold_core_km2":0,"speed_kmh":76.7,"heading_deg":348,"d_min_bt_30":-0.8,"age_min":30,"family":10,"touches_missing":true,"lon":83.6365,"lat":33.5905,"merges_splits_so_far":3},"geometry":{"type":"MultiPolygon","coordinates":[[[[83.8887,33.9929],[83.0659,34.0085],[83.0432,33.9913],[82.8589,33.9891],[82.9084,33.9061],[82.9948,33.9029],[83.0175,33.9201],[83.145,33.8792],[83.2551,33.911],[83.2756,33.8921],[83.4052,33.887],[83.4132,33.8415],[83.3452,33.7901],[83.3441,33.7721],[83.3861,33.7523],[83.3408,33.7181],[83.4804,33.7034],[83.5246,33.7196],[83.5666,33.6998],[83.6549,33.5608],[83.6515,33.5068],[83.7352,33.4671],[83.7227,33.4405],[83.5712,33.4289],[83.6006,33.3825],[83.5543,33.3303],[83.499,33.3055],[83.4357,33.3262],[83.3498,33.3297],[83.3273,33.3125],[83.2457,33.3879],[83.2334,33.3613],[83.2006,33.3536],[83.1199,33.4469],[83.0544,33.4314],[82.9767,33.3892],[82.9575,33.2365],[83.0412,33.1973],[83.1484,33.1932],[83.1892,33.1555],[83.2106,33.1547],[83.2566,33.207],[83.5769,33.176],[83.5849,33.1305],[83.6356,33.0833],[83.7302,33.0522],[83.7571,32.9698],[83.7785,32.9689],[83.8022,33.0039],[83.8449,33.0021],[83.9067,32.9632],[83.9708,32.9604],[84.0047,32.986],[84.0013,33.2569],[83.9346,33.2237],[83.9596,33.2768],[83.9191,33.3147],[83.9519,33.3222],[83.9644,33.3488],[83.8833,33.4246],[83.9161,33.4321],[83.9757,33.3573],[84.0085,33.3648],[83.9895,33.4018],[83.9992,33.5458],[83.9789,33.5647],[84.004,33.6177],[84.0058,33.9606],[83.9091,33.974],[83.8887,33.9929]]],[[[83.7735,33.3932],[83.7486,33.3402],[83.8083,33.2654],[83.7281,33.1876],[83.7191,33.2151],[83.7428,33.2502],[83.7011,33.27],[83.7474,33.3222],[83.7158,33.3325],[83.7068,33.36],[83.7735,33.3932]]]]}},{"type":"Feature","properties":{"cell":54,"feature":796,"phase":"Unclassified","min_bt_K":228.1,"area_km2":1020,"cold_core_km2":0,"speed_kmh":null,"heading_deg":null,"d_min_bt_30":null,"age_min":0,"family":54,"touches_missing":true,"lon":75.0145,"lat":33.2,"merges_splits_so_far":0},"geometry":{"type":"MultiPolygon","coordinates":[[[[75.1007,33.3331],[74.929,33.3293],[74.8873,33.2922],[74.8444,33.2912],[74.7923,33.2449],[74.7527,33.1537],[75.0446,33.0793],[75.0655,33.0978],[75.323,33.0851],[75.3098,33.1661],[75.2004,33.236],[75.1993,33.272],[75.1007,33.3331]]]]}}]}