{"type":"FeatureCollection","features":[{"type":"Feature","properties":{"cell":10,"feature":857,"phase":"Developing","min_bt_K":232.4,"area_km2":1520,"cold_core_km2":0,"speed_kmh":49.1,"heading_deg":130,"d_min_bt_30":2.2,"age_min":180,"family":10,"touches_missing":false,"lon":82.8741,"lat":33.5266,"merges_splits_so_far":12},"geometry":{"type":"MultiPolygon","coordinates":[[[[82.6153,33.6819],[82.5282,33.6668],[82.4926,33.6048],[82.5554,33.5666],[82.5732,33.4938],[82.6358,33.4556],[82.6442,33.4102],[82.7722,33.3876],[82.7805,33.3422],[82.8317,33.2952],[82.9186,33.3101],[82.943,33.3634],[83.0524,33.3954],[83.0861,33.4212],[83.0544,33.4314],[83.0452,33.4588],[83.1015,33.5018],[83.2101,33.5157],[83.2439,33.5414],[83.2256,33.5963],[83.1313,33.645],[83.0883,33.6467],[83.0206,33.5951],[82.7407,33.6053],[82.7211,33.6421],[82.6153,33.6819]]]]}},{"type":"Feature","properties":{"cell":33,"feature":854,"phase":"Developing","min_bt_K":229.0,"area_km2":2548,"cold_core_km2":0,"speed_kmh":17.3,"heading_deg":176,"d_min_bt_30":-2.7,"age_min":90,"family":33,"touches_missing":true,"lon":76.26,"lat":32.5307,"merges_splits_so_far":0},"geometry":{"type":"MultiPolygon","coordinates":[[[[76.8484,32.7101],[76.6363,32.6359],[76.5826,32.6624],[76.6139,32.7079],[76.4229,32.6516],[76.3377,32.6506],[76.2091,32.685],[76.1459,32.6481],[75.9754,32.6456],[75.9653,32.6184],[75.9023,32.5813],[75.9031,32.5452],[75.8401,32.5081],[75.8409,32.4721],[75.8951,32.4278],[76.0231,32.4118],[76.1092,32.3589],[76.2373,32.3246],[76.321,32.3978],[76.4053,32.4349],[76.5116,32.4362],[76.5216,32.4814],[76.5953,32.5273],[76.723,32.5285],[76.8088,32.4752],[76.9152,32.4761],[76.9681,32.5036],[76.9674,32.5577],[76.9885,32.5759],[76.966,32.684],[76.87,32.6922],[76.8484,32.7101]]]]}},{"type":"Feature","properties":{"cell":38,"feature":836,"phase":"Developing","min_bt_K":235.2,"area_km2":1956,"cold_core_km2":0,"speed_kmh":58.0,"heading_deg":122,"d_min_bt_30":1.2,"age_min":60,"family":26,"touches_missing":false,"lon":78.9571,"lat":30.5387,"merges_splits_so_far":1},"geometry":{"type":"MultiPolygon","coordinates":[[[[78.9611,30.7813],[78.8357,30.7822],[78.6565,30.5396],[78.6978,30.4853],[78.791,30.4216],[78.8741,30.4031],[79.0189,30.3118],[79.1021,30.3111],[79.1647,30.3286],[79.2174,30.3913],[79.2201,30.6078],[79.1481,30.6896],[79.1063,30.69],[78.9611,30.7813]]]]}},{"type":"Feature","properties":{"cell":41,"feature":853,"phase":"Developing","min_bt_K":227.7,"area_km2":3236,"cold_core_km2":0,"speed_kmh":34.0,"heading_deg":102,"d_min_bt_30":-1.6,"age_min":60,"family":41,"touches_missing":true,"lon":76.7141,"lat":32.2354,"merges_splits_so_far":0},"geometry":{"type":"MultiPolygon","coordinates":[[[[76.8939,32.476],[76.8088,32.4752],[76.7878,32.457],[76.6599,32.4738],[76.5967,32.4371],[76.5542,32.4366],[76.5122,32.4001],[76.5116,32.4362],[76.4053,32.4349],[76.321,32.3978],[76.2478,32.3337],[76.421,32.1374],[76.5386,32.0756],[76.5603,32.0398],[76.8567,32.0427],[76.9847,31.9535],[77.0478,31.9901],[77.1324,31.9906],[77.1744,32.027],[77.2379,32.0274],[77.248,32.0906],[77.2267,32.1085],[77.2474,32.1627],[77.1944,32.1714],[77.1515,32.2253],[77.0666,32.2247],[77.0131,32.2694],[77.0127,32.3055],[76.9808,32.3143],[76.927,32.377],[76.948,32.3952],[76.9051,32.4309],[76.8939,32.476]]]]}},{"type":"Feature","properties":{"cell":45,"feature":846,"phase":"Developing","min_bt_K":236.2,"area_km2":1064,"cold_core_km2":0,"speed_kmh":50.6,"heading_deg":122,"d_min_bt_30":6.0,"age_min":60,"family":45,"touches_missing":true,"lon":76.3738,"lat":33.0574,"merges_splits_so_far":0},"geometry":{"type":"MultiPolygon","coordinates":[[[[76.2634,33.1909],[76.1562,33.1894],[76.1246,33.1619],[76.104,33.1256],[76.1258,33.1078],[76.1269,33.0537],[76.2462,32.9742],[76.2889,32.9747],[76.3755,32.9217],[76.461,32.9227],[76.5459,32.9597],[76.61,32.9604],[76.6317,32.9426],[76.7481,33.0249],[76.6945,33.0334],[76.6834,33.0604],[76.6403,33.078],[76.6287,33.141],[76.5001,33.1396],[76.4579,33.1031],[76.3936,33.1023],[76.2634,33.1909]]]]}},{"type":"Feature","properties":{"cell":48,"feature":860,"phase":"Developing","min_bt_K":231.0,"area_km2":3752,"cold_core_km2":0,"speed_kmh":43.0,"heading_deg":343,"d_min_bt_30":-0.5,"age_min":60,"family":10,"touches_missing":true,"lon":83.5686,"lat":33.7759,"merges_splits_so_far":5},"geometry":{"type":"MultiPolygon","coordinates":[[[[83.9981,34.0061],[83.932,33.991],[83.2821,34.0002],[83.2686,33.9556],[83.3107,33.9359],[83.1871,33.8595],[83.1244,33.898],[83.0431,33.8018],[83.0616,33.747],[83.1211,33.6545],[83.2256,33.5963],[83.2337,33.5508],[83.2983,33.5483],[83.3209,33.5654],[83.4489,33.5422],[83.4715,33.5594],[83.5791,33.5549],[83.6244,33.5891],[83.732,33.5846],[83.7524,33.5656],[83.8384,33.5619],[83.8611,33.579],[83.9233,33.5401],[83.9687,33.5742],[83.989,33.5552],[84.0102,33.7077],[83.9898,33.7267],[83.9996,33.8707],[83.9577,33.8906],[84.0033,33.9247],[83.9981,34.0061]]],[[[83.3994,33.9684],[83.3972,33.9324],[83.3642,33.9247],[83.3551,33.9521],[83.3994,33.9684]]]]}},{"type":"Feature","properties":{"cell":54,"feature":855,"phase":"Unclassified","min_bt_K":228.5,"area_km2":2012,"cold_core_km2":0,"speed_kmh":41.0,"heading_deg":116,"d_min_bt_30":0.5,"age_min":30,"family":54,"touches_missing":true,"lon":75.212,"lat":33.1188,"merges_splits_so_far":1},"geometry":{"type":"MultiPolygon","coordinates":[[[[75.2736,33.3006],[75.1454,33.2799],[75.1048,33.2069],[75.0619,33.2059],[74.9566,33.1495],[74.9449,33.1763],[74.9015,33.1933],[74.8892,33.2381],[74.8034,33.2361],[74.7514,33.1897],[74.839,33.1377],[74.8202,33.0651],[74.8532,33.0388],[74.9822,33.0237],[75.0476,32.9891],[75.0898,33.0081],[75.2181,33.0108],[75.262,32.9756],[75.3695,32.9598],[75.4321,33.0151],[75.539,33.0171],[75.5809,33.054],[75.7198,33.0654],[75.7398,33.1199],[75.6422,33.1633],[75.5546,33.2339],[75.5336,33.2155],[75.4897,33.2508],[75.4259,33.2315],[75.3605,33.2663],[75.3176,33.2655],[75.2736,33.3006]]]]}},{"type":"Feature","properties":{"cell":57,"feature":840,"phase":"Unclassified","min_bt_K":240.1,"area_km2":308,"cold_core_km2":0,"speed_kmh":null,"heading_deg":null,"d_min_bt_30":null,"age_min":0,"family":57,"touches_missing":false,"lon":83.0414,"lat":31.6481,"merges_splits_so_far":0},"geometry":{"type":"MultiPolygon","coordinates":[[[[83.0895,31.7518],[83.0473,31.7534],[82.9481,31.6759],[82.9673,31.6391],[82.9443,31.6038],[82.9735,31.5576],[83.0798,31.5717],[83.1569,31.6319],[83.1398,31.7047],[83.1086,31.7149],[83.0895,31.7518]]]]}},{"type":"Feature","properties":{"cell":64,"feature":852,"phase":"Unclassified","min_bt_K":240.4,"area_km2":236,"cold_core_km2":0,"speed_kmh":null,"heading_deg":null,"d_min_bt_30":null,"age_min":0,"family":64,"touches_missing":false,"lon":79.7842,"lat":33.9581,"merges_splits_so_far":0},"geometry":{"type":"MultiPolygon","coordinates":[[[[79.904,34.0005],[79.8174,34.0017],[79.7954,33.984],[79.7742,34.0023],[79.6444,34.004],[79.6327,33.959],[79.88,33.8926],[79.935,33.9369],[79.904,34.0005]]]]}},{"type":"Feature","properties":{"cell":65,"feature":856,"phase":"Unclassified","min_bt_K":233.1,"area_km2":3472,"cold_core_km2":0,"speed_kmh":null,"heading_deg":null,"d_min_bt_30":null,"age_min":0,"family":10,"touches_missing":true,"lon":83.6785,"lat":33.2128,"merges_splits_so_far":1},"geometry":{"type":"MultiPolygon","coordinates":[[[[83.946,33.5572],[83.9334,33.5306],[83.8892,33.5145],[83.8642,33.4615],[83.7747,33.4112],[83.7622,33.3847],[83.5893,33.374],[83.5441,33.3398],[83.4401,33.3982],[83.2704,33.4411],[83.2242,33.3888],[83.1813,33.3904],[83.1148,33.3569],[83.0503,33.3594],[83.0351,33.2787],[82.9901,33.2443],[83.0627,33.1965],[83.1484,33.1932],[83.1831,33.237],[83.2608,33.279],[83.2812,33.2602],[83.604,33.2651],[83.613,33.2376],[83.5792,33.212],[83.5149,33.2146],[83.3819,33.1479],[83.285,33.1427],[83.2829,33.1067],[83.3338,33.0596],[83.4215,33.0921],[83.4847,33.0715],[83.5072,33.0886],[83.657,33.0824],[83.6795,33.0995],[83.7539,33.0872],[83.7504,33.0332],[83.6851,33.018],[83.7054,32.9991],[83.6918,32.9545],[83.6491,32.9564],[83.6041,32.9222],[83.4535,32.9104],[83.4198,32.8847],[83.4918,32.8366],[83.6188,32.8133],[83.6413,32.8304],[83.7053,32.8276],[83.7739,32.8969],[83.8818,32.9102],[83.8896,32.8647],[83.857,32.8571],[83.8446,32.8306],[83.8749,32.8022],[83.8974,32.8193],[83.9827,32.8155],[84.0107,33.0759],[83.9905,33.0949],[83.9941,33.1489],[83.9625,33.1593],[83.9185,33.1432],[83.8983,33.1622],[83.8204,33.1205],[83.8227,33.1565],[83.8769,33.1631],[83.912,33.2067],[84.0013,33.2569],[83.9967,33.5098],[83.9651,33.5202],[83.946,33.5572]]]]}},{"type":"Feature","properties":{"cell":67,"feature":859,"phase":"Unclassified","min_bt_K":231.0,"area_km2":2324,"cold_core_km2":0,"speed_kmh":null,"heading_deg":null,"d_min_bt_30":null,"age_min":0,"family":10,"touches_missing":true,"lon":82.8365,"lat":33.7973,"merges_splits_so_far":2},"geometry":{"type":"MultiPolygon","coordinates":[[[[83.1524,34.0052],[83.0659,34.0085],[83.0432,33.9913],[82.6756,34.0047],[82.605,33.8988],[82.4754,33.9032],[82.4547,33.9219],[82.389,33.9061],[82.3872,33.87],[82.5365,33.829],[82.5459,33.8016],[82.5224,33.7663],[82.4231,33.7245],[82.3437,33.6459],[82.4617,33.633],[82.4823,33.6142],[82.5282,33.6668],[82.6153,33.6819],[82.7211,33.6421],[82.7407,33.6053],[83.0206,33.5951],[83.1211,33.6545],[83.0431,33.8018],[83.1358,33.9066],[83.1524,34.0052]]]]}},{"type":"Feature","properties":{"cell":68,"feature":861,"phase":"Unclassified","min_bt_K":233.3,"area_km2":1628,"cold_core_km2":0,"speed_kmh":null,"heading_deg":null,"d_min_bt_30":null,"age_min":0,"family":68,"touches_missing":true,"lon":80.6542,"lat":33.8712,"merges_splits_so_far":0},"geometry":{"type":"MultiPolygon","coordinates":[[[[80.9212,34.0003],[80.6832,34.0052],[80.6383,33.952],[80.5735,33.9532],[80.4885,34.009],[80.4664,33.9914],[80.3366,33.9937],[80.3034,33.9672],[80.2997,33.8229],[80.3966,33.8122],[80.4177,33.7938],[80.4397,33.8114],[80.4608,33.793],[80.6556,33.8073],[80.6656,33.78],[80.6213,33.7448],[80.6529,33.7171],[80.6966,33.7343],[80.7391,33.7154],[80.8487,33.7672],[80.9116,33.7117],[80.9559,33.7469],[81.0847,33.7259],[81.1409,33.7878],[80.9509,33.9184],[80.9212,34.0003]]],[[[80.7979,33.8676],[80.8399,33.8306],[80.8283,33.8038],[80.7541,33.8504],[80.7658,33.8772],[80.7979,33.8676]]]]}},{"type":"Feature","properties":{"cell":69,"feature":862,"phase":"Unclassified","min_bt_K":234.2,"area_km2":1640,"cold_core_km2":0,"speed_kmh":null,"heading_deg":null,"d_min_bt_30":null,"age_min":0,"family":10,"touches_missing":true,"lon":81.7885,"lat":33.8734,"merges_splits_so_far":1},"geometry":{"type":"MultiPolygon","coordinates":[[[[82.3286,33.9983],[81.5491,34.0031],[81.5372,33.9764],[81.5783,33.9212],[81.5545,33.8677],[81.42,33.7448],[81.4172,33.6727],[81.4492,33.6629],[81.493,33.6798],[81.5828,33.7676],[81.6691,33.7653],[81.7539,33.7269],[81.876,33.8046],[81.8664,33.8319],[81.9088,33.8127],[81.9752,33.8468],[82.1106,33.969],[82.1642,33.9584],[82.1375,33.8509],[82.1782,33.7955],[82.2317,33.7848],[82.2619,33.7387],[82.2938,33.7287],[82.3327,33.8628],[82.3656,33.8707],[82.3777,33.8974],[82.3466,33.9255],[82.2377,33.9109],[82.2066,33.939],[82.2403,33.965],[82.3052,33.9629],[82.3286,33.9983]]]]}}]}