{"type":"FeatureCollection","features":[{"type":"Feature","properties":{"cell":10,"feature":910,"phase":"Developing","min_bt_K":232.4,"area_km2":1752,"cold_core_km2":0,"speed_kmh":24.2,"heading_deg":78,"d_min_bt_30":0.0,"age_min":210,"family":10,"touches_missing":false,"lon":83.0013,"lat":33.5496,"merges_splits_so_far":12},"geometry":{"type":"MultiPolygon","coordinates":[[[[83.3069,33.6923],[83.2422,33.6949],[83.1755,33.6614],[83.1119,33.6819],[82.9395,33.6884],[82.8719,33.6367],[82.7417,33.6233],[82.6957,33.5708],[82.6742,33.5716],[82.6546,33.6083],[82.6115,33.6098],[82.5778,33.5839],[82.576,33.5479],[82.6078,33.5378],[82.6302,33.555],[82.6396,33.5276],[82.5947,33.4931],[82.5677,33.3857],[82.6405,33.3381],[82.7629,33.415],[82.776,33.4597],[82.9245,33.4182],[82.947,33.4354],[83.0329,33.4322],[83.0739,33.3946],[83.2038,33.4076],[83.1742,33.4539],[83.2397,33.4694],[83.2418,33.5054],[83.3085,33.5389],[83.3785,33.6263],[83.3807,33.6623],[83.3069,33.6923]]]]}},{"type":"Feature","properties":{"cell":33,"feature":907,"phase":"Developing","min_bt_K":232.3,"area_km2":892,"cold_core_km2":0,"speed_kmh":24.0,"heading_deg":219,"d_min_bt_30":3.3,"age_min":120,"family":33,"touches_missing":true,"lon":76.1795,"lat":32.4464,"merges_splits_so_far":0},"geometry":{"type":"MultiPolygon","coordinates":[[[[76.3386,32.5965],[76.2328,32.559],[76.1051,32.5573],[76.0834,32.575],[76.02,32.556],[76.0099,32.5288],[75.926,32.4734],[76.0455,32.358],[76.1092,32.3589],[76.1736,32.3237],[76.1956,32.2879],[76.238,32.2885],[76.2801,32.3071],[76.353,32.3892],[76.3386,32.5965]]]]}},{"type":"Feature","properties":{"cell":38,"feature":890,"phase":"Developing","min_bt_K":237.0,"area_km2":3840,"cold_core_km2":0,"speed_kmh":3.6,"heading_deg":89,"d_min_bt_30":1.8,"age_min":90,"family":26,"touches_missing":true,"lon":78.9756,"lat":30.5389,"merges_splits_so_far":1},"geometry":{"type":"MultiPolygon","coordinates":[[[[78.6484,30.8914],[78.4811,30.8922],[78.3867,30.8293],[78.4179,30.7841],[78.5013,30.7478],[78.5639,30.7475],[78.5951,30.7203],[78.595,30.7023],[78.5531,30.6844],[78.5527,30.6123],[78.5735,30.5941],[78.5521,30.504],[78.5832,30.4768],[78.729,30.4761],[78.7708,30.4939],[78.8217,30.3583],[78.8737,30.3489],[78.9562,30.2762],[79.1435,30.2928],[79.2054,30.2561],[79.2469,30.2557],[79.3636,30.426],[79.4158,30.4345],[79.4901,30.5329],[79.491,30.587],[79.4297,30.6779],[79.3777,30.6874],[79.3573,30.7237],[79.2947,30.7243],[79.2536,30.7789],[79.17,30.7796],[79.1487,30.7437],[79.0964,30.7352],[79.0956,30.663],[79.064,30.6362],[79.0223,30.6365],[78.9592,30.5829],[78.8964,30.5653],[78.8551,30.6016],[78.7716,30.6021],[78.7616,30.6473],[78.8143,30.7101],[78.8978,30.7096],[78.9924,30.7721],[78.8779,30.818],[78.8573,30.8542],[78.6692,30.8733],[78.6484,30.8914]]]]}},{"type":"Feature","properties":{"cell":41,"feature":906,"phase":"Developing","min_bt_K":231.3,"area_km2":5404,"cold_core_km2":0,"speed_kmh":14.4,"heading_deg":48,"d_min_bt_30":3.6,"age_min":90,"family":41,"touches_missing":true,"lon":76.7707,"lat":32.2786,"merges_splits_so_far":0},"geometry":{"type":"MultiPolygon","coordinates":[[[[76.6576,32.6362],[76.5942,32.5994],[76.4451,32.5978],[76.4235,32.6155],[76.3494,32.5876],[76.353,32.3892],[76.3324,32.3528],[76.2276,32.2793],[76.2815,32.2349],[76.3879,32.2182],[76.4416,32.1738],[76.4422,32.1377],[76.5815,32.04],[76.6662,32.0409],[76.709,32.0052],[76.7513,32.0057],[76.7735,31.9337],[76.8369,31.9343],[76.9219,31.8989],[77.1116,31.9544],[77.323,31.9737],[77.4601,32.0555],[77.3529,32.2354],[77.3738,32.2897],[77.3524,32.3076],[77.3521,32.3617],[77.32,32.3886],[77.2136,32.4061],[77.1714,32.3697],[77.1287,32.3875],[77.0654,32.351],[76.9804,32.3504],[76.9261,32.4492],[76.7978,32.5022],[76.8395,32.5747],[76.7435,32.5829],[76.6576,32.6362]]]]}},{"type":"Feature","properties":{"cell":45,"feature":901,"phase":"Developing","min_bt_K":242.1,"area_km2":176,"cold_core_km2":0,"speed_kmh":22.8,"heading_deg":123,"d_min_bt_30":5.8,"age_min":90,"family":45,"touches_missing":false,"lon":76.4761,"lat":33.0013,"merges_splits_so_far":0},"geometry":{"type":"MultiPolygon","coordinates":[[[[76.4371,33.0667],[76.3623,33.0568],[76.4272,33.0215],[76.4064,32.9852],[76.4607,32.9407],[76.5675,32.9419],[76.5775,32.9871],[76.5556,33.023],[76.523,33.0497],[76.4588,33.0489],[76.4371,33.0667]]]]}},{"type":"Feature","properties":{"cell":48,"feature":913,"phase":"Developing","min_bt_K":232.5,"area_km2":2560,"cold_core_km2":0,"speed_kmh":25.1,"heading_deg":61,"d_min_bt_30":1.5,"age_min":90,"family":10,"touches_missing":false,"lon":83.6876,"lat":33.8304,"merges_splits_so_far":5},"geometry":{"type":"MultiPolygon","coordinates":[[[[83.9981,34.0061],[83.932,33.991],[83.2821,34.0002],[83.2481,33.9744],[83.3313,33.917],[83.3236,33.7909],[83.3646,33.7532],[83.392,33.6709],[83.4146,33.688],[83.5224,33.6836],[83.5643,33.6638],[83.604,33.608],[83.7116,33.6035],[83.732,33.5846],[83.8193,33.5988],[83.8396,33.5799],[83.9042,33.5771],[84.0053,33.6357],[83.9981,34.0061]]]]}},{"type":"Feature","properties":{"cell":54,"feature":908,"phase":"Developing","min_bt_K":228.0,"area_km2":3448,"cold_core_km2":0,"speed_kmh":28.2,"heading_deg":113,"d_min_bt_30":-0.5,"age_min":60,"family":54,"touches_missing":true,"lon":75.3513,"lat":33.0694,"merges_splits_so_far":1},"geometry":{"type":"MultiPolygon","coordinates":[[[[75.2329,33.2276],[74.8898,33.2201],[74.7761,33.1001],[74.918,33.0223],[74.9608,33.0233],[75.114,32.9184],[75.2001,32.9022],[75.2439,32.867],[75.3069,32.9044],[75.3502,32.8872],[75.3601,32.9145],[75.4127,32.9426],[75.4346,32.9249],[75.6274,32.9105],[75.6925,32.8755],[75.8424,32.86],[75.8525,32.8872],[75.8093,32.9046],[75.8617,32.9505],[75.9266,32.9155],[76.0,32.9797],[75.9779,33.0155],[76.0938,33.0984],[76.2013,33.0818],[76.275,33.1459],[76.2743,33.182],[76.2198,33.2264],[76.0919,33.1885],[76.0062,33.1873],[75.9641,33.1506],[75.9204,33.186],[75.857,33.1489],[75.8351,33.1666],[75.7713,33.1475],[75.7056,33.2005],[75.6418,33.1814],[75.6213,33.1449],[75.5356,33.1434],[75.5137,33.161],[75.4494,33.1598],[75.4285,33.1413],[75.2769,33.1925],[75.2329,33.2276]]]]}},{"type":"Feature","properties":{"cell":57,"feature":896,"phase":"Unclassified","min_bt_K":241.0,"area_km2":360,"cold_core_km2":0,"speed_kmh":31.1,"heading_deg":102,"d_min_bt_30":0.9,"age_min":30,"family":57,"touches_missing":true,"lon":83.2018,"lat":31.6192,"merges_splits_so_far":0},"geometry":{"type":"MultiPolygon","coordinates":[[[[83.2141,31.7108],[83.1287,31.6961],[83.0736,31.6531],[83.0697,31.5811],[83.141,31.5332],[83.2904,31.5635],[83.3456,31.6064],[83.3376,31.6518],[83.2543,31.6732],[83.2141,31.7108]]]]}},{"type":"Feature","properties":{"cell":64,"feature":904,"phase":"Developing","min_bt_K":236.8,"area_km2":276,"cold_core_km2":0,"speed_kmh":31.5,"heading_deg":105,"d_min_bt_30":-3.6,"age_min":30,"family":64,"touches_missing":true,"lon":79.9488,"lat":33.9208,"merges_splits_so_far":0},"geometry":{"type":"MultiPolygon","coordinates":[[[[79.9256,34.0002],[79.8391,34.0014],[79.8061,33.9748],[79.8053,33.9387],[79.9012,33.8743],[80.03,33.8363],[80.0647,33.935],[80.0329,33.9625],[80.0109,33.9448],[79.9901,33.9812],[79.9256,34.0002]]]]}},{"type":"Feature","properties":{"cell":65,"feature":909,"phase":"Unclassified","min_bt_K":233.0,"area_km2":1632,"cold_core_km2":0,"speed_kmh":17.7,"heading_deg":35,"d_min_bt_30":-0.1,"age_min":30,"family":10,"touches_missing":true,"lon":83.7327,"lat":33.2783,"merges_splits_so_far":2},"geometry":{"type":"MultiPolygon","coordinates":[[[[83.8767,33.488],[83.7645,33.4207],[83.6989,33.4055],[83.5915,33.41],[83.5508,33.4478],[83.4401,33.3982],[83.4445,33.4702],[83.4015,33.472],[83.3348,33.4385],[83.251,33.478],[83.1915,33.381],[83.2221,33.3528],[83.2457,33.3879],[83.2854,33.3322],[83.3284,33.3305],[83.4175,33.3811],[83.5893,33.374],[83.6526,33.3533],[83.6627,33.3438],[83.63,33.3362],[83.5047,33.2241],[83.4789,33.153],[83.5094,33.1246],[83.6998,33.0805],[83.7776,33.1223],[83.7787,33.1403],[83.737,33.1602],[83.7947,33.2209],[83.8138,33.1839],[83.8566,33.182],[84.0013,33.2569],[83.9931,33.4558],[83.897,33.4691],[83.8767,33.488]]]]}},{"type":"Feature","properties":{"cell":67,"feature":912,"phase":"Unclassified","min_bt_K":232.1,"area_km2":2348,"cold_core_km2":0,"speed_kmh":28.6,"heading_deg":62,"d_min_bt_30":1.1,"age_min":30,"family":10,"touches_missing":true,"lon":82.9732,"lat":33.8575,"merges_splits_so_far":2},"geometry":{"type":"MultiPolygon","coordinates":[[[[83.1956,34.0036],[83.0659,34.0085],[83.0411,33.9553],[83.0195,33.9561],[83.0,33.9929],[82.6323,34.0062],[82.6201,33.9795],[82.5533,33.9457],[82.5721,33.8909],[82.5271,33.8564],[82.6172,33.7179],[82.6828,33.7337],[82.7024,33.6969],[82.7661,33.6766],[82.8308,33.6743],[82.9199,33.7252],[82.9631,33.7236],[82.9826,33.6868],[83.1119,33.6819],[83.1324,33.6631],[83.1755,33.6614],[83.2422,33.6949],[83.3704,33.6718],[83.384,33.7163],[83.3236,33.7909],[83.3313,33.917],[83.28,33.9642],[83.2151,33.9667],[83.1956,34.0036]]],[[[83.0072,33.9295],[82.9938,33.8849],[82.9856,33.9303],[83.0072,33.9295]]]]}},{"type":"Feature","properties":{"cell":68,"feature":903,"phase":"Unclassified","min_bt_K":235.1,"area_km2":1096,"cold_core_km2":0,"speed_kmh":7.7,"heading_deg":77,"d_min_bt_30":1.8,"age_min":30,"family":68,"touches_missing":false,"lon":80.6948,"lat":33.8793,"merges_splits_so_far":0},"geometry":{"type":"MultiPolygon","coordinates":[[[[81.0293,33.9979],[80.5967,34.0069],[80.5524,33.9717],[80.4875,33.9729],[80.4528,33.8924],[80.4729,33.8379],[80.5256,33.7918],[80.6108,33.754],[80.7828,33.7325],[80.8242,33.6775],[80.9104,33.6757],[80.9245,33.7746],[80.9041,33.8112],[80.8078,33.8403],[80.7774,33.9041],[80.8107,33.9304],[80.8966,33.9106],[81.0065,33.9623],[81.0293,33.9979]]]]}},{"type":"Feature","properties":{"cell":69,"feature":911,"phase":"Developing","min_bt_K":232.2,"area_km2":3120,"cold_core_km2":0,"speed_kmh":42.1,"heading_deg":129,"d_min_bt_30":-2.0,"age_min":30,"family":10,"touches_missing":true,"lon":81.9644,"lat":33.7531,"merges_splits_so_far":4},"geometry":{"type":"MultiPolygon","coordinates":[[[[82.4367,33.9947],[81.7005,33.999],[81.5559,33.9037],[81.5746,33.831],[81.5181,33.7694],[81.3894,33.7907],[81.3455,33.7738],[81.3337,33.747],[81.429,33.6995],[81.4513,33.717],[81.4937,33.6978],[81.539,33.7508],[81.6453,33.7118],[81.7962,33.7076],[81.8905,33.6418],[81.908,33.551],[81.8842,33.4976],[81.8292,33.4721],[81.7728,33.4105],[81.9121,33.3975],[81.9534,33.3602],[81.9964,33.3589],[82.0315,33.421],[82.0116,33.4577],[82.0347,33.4931],[82.1009,33.5272],[82.1585,33.6066],[82.2015,33.6053],[82.285,33.5485],[82.3953,33.5991],[82.4384,33.5976],[82.472,33.6236],[82.4738,33.6596],[82.4447,33.7238],[82.3369,33.7273],[82.2696,33.6753],[82.2265,33.6767],[82.1669,33.7868],[82.0815,33.8075],[82.0151,33.7734],[81.9656,33.8742],[82.0208,33.8996],[82.0665,33.9523],[82.1314,33.9504],[82.1928,33.8763],[82.4313,33.8866],[82.4367,33.9947]]]]}},{"type":"Feature","properties":{"cell":71,"feature":895,"phase":"Unclassified","min_bt_K":236.8,"area_km2":224,"cold_core_km2":0,"speed_kmh":null,"heading_deg":null,"d_min_bt_30":null,"age_min":0,"family":71,"touches_missing":true,"lon":77.4624,"lat":31.5393,"merges_splits_so_far":0},"geometry":{"type":"MultiPolygon","coordinates":[[[[77.5152,31.6318],[77.3893,31.5411],[77.3367,31.5318],[77.3686,31.4869],[77.4316,31.5052],[77.5895,31.4967],[77.5892,31.5869],[77.5152,31.6318]]]]}},{"type":"Feature","properties":{"cell":72,"feature":898,"phase":"Unclassified","min_bt_K":234.1,"area_km2":2168,"cold_core_km2":0,"speed_kmh":null,"heading_deg":null,"d_min_bt_30":null,"age_min":0,"family":10,"touches_missing":true,"lon":83.6907,"lat":32.8147,"merges_splits_so_far":2},"geometry":{"type":"MultiPolygon","coordinates":[[[[83.984,33.1584],[83.9185,33.1432],[83.8835,33.0996],[83.8056,33.0579],[83.7189,33.0436],[83.6998,33.0805],[83.6086,32.9942],[83.5771,33.0045],[83.5951,32.9496],[83.5715,32.9145],[83.603,32.9042],[83.6221,32.8673],[83.7064,32.8456],[83.7739,32.8969],[83.7941,32.8779],[83.838,32.8941],[83.8469,32.8666],[83.7929,32.8599],[83.7244,32.7907],[83.6615,32.8114],[83.6166,32.7772],[83.5099,32.7817],[83.4192,32.6952],[83.276,32.6197],[83.2729,32.5657],[83.3022,32.5194],[83.4299,32.5143],[83.4713,32.4945],[83.5618,32.581],[83.7355,32.6278],[83.7591,32.6629],[83.8857,32.6393],[83.8981,32.6658],[83.8567,32.6857],[83.8725,32.7662],[84.0106,32.751],[83.9904,32.77],[83.994,32.824],[83.9537,32.8619],[83.9572,32.9159],[84.0023,32.95],[84.0107,33.0759],[83.984,33.1584]]]]}},{"type":"Feature","properties":{"cell":73,"feature":899,"phase":"Unclassified","min_bt_K":242.4,"area_km2":236,"cold_core_km2":0,"speed_kmh":null,"heading_deg":null,"d_min_bt_30":null,"age_min":0,"family":73,"touches_missing":true,"lon":82.2695,"lat":32.5136,"merges_splits_so_far":0},"geometry":{"type":"MultiPolygon","coordinates":[[[[82.3686,32.6074],[82.2375,32.5395],[82.217,32.5582],[82.1634,32.5508],[82.1618,32.5148],[82.2112,32.432],[82.275,32.43],[82.3098,32.4921],[82.4409,32.5599],[82.3686,32.6074]]]]}},{"type":"Feature","properties":{"cell":74,"feature":905,"phase":"Unclassified","min_bt_K":235.3,"area_km2":728,"cold_core_km2":0,"speed_kmh":null,"heading_deg":null,"d_min_bt_30":null,"age_min":0,"family":74,"touches_missing":true,"lon":72.1373,"lat":33.9021,"merges_splits_so_far":0},"geometry":{"type":"MultiPolygon","coordinates":[[[[72.0452,34.0081],[71.9918,33.9966],[72.0191,33.7542],[72.061,33.7741],[72.085,33.739],[72.1168,33.7495],[72.0916,33.8025],[72.1197,33.8669],[72.1359,33.7864],[72.1689,33.7788],[72.2936,33.8564],[72.38,33.8601],[72.4107,33.8884],[72.3924,34.005],[72.3287,33.9843],[72.3059,34.0013],[72.1545,33.9948],[72.1047,33.9295],[72.1071,33.8935],[72.0753,33.883],[72.0615,33.9275],[72.1011,33.9835],[72.0452,34.0081]]]]}}]}