{"type":"FeatureCollection","features":[{"type":"Feature","properties":{"cell":38,"feature":950,"phase":"Developing","min_bt_K":237.2,"area_km2":1536,"cold_core_km2":0,"speed_kmh":19.5,"heading_deg":221,"d_min_bt_30":0.2,"age_min":120,"family":26,"touches_missing":false,"lon":78.9094,"lat":30.4725,"merges_splits_so_far":1},"geometry":{"type":"MultiPolygon","coordinates":[[[[79.0016,30.6547],[78.9181,30.6553],[78.8135,30.6199],[78.7819,30.575],[78.6352,30.4676],[78.7075,30.386],[78.7906,30.3675],[78.8524,30.2949],[78.9356,30.2944],[78.9455,30.2492],[78.9972,30.2218],[79.1233,30.347],[79.2067,30.3644],[79.2382,30.3911],[79.2385,30.4092],[79.1765,30.4458],[79.1982,30.5178],[79.0219,30.6004],[79.0016,30.6547]]]]}},{"type":"Feature","properties":{"cell":41,"feature":956,"phase":"Developing","min_bt_K":234.5,"area_km2":5336,"cold_core_km2":0,"speed_kmh":19.4,"heading_deg":114,"d_min_bt_30":3.2,"age_min":120,"family":41,"touches_missing":true,"lon":76.8643,"lat":32.2424,"merges_splits_so_far":0},"geometry":{"type":"MultiPolygon","coordinates":[[[[76.9145,32.5302],[76.7443,32.5288],[76.734,32.5016],[76.6812,32.474],[76.5959,32.4912],[76.5539,32.4547],[76.405,32.453],[76.3844,32.4166],[76.2569,32.415],[76.2363,32.3787],[76.2046,32.3692],[76.2478,32.3337],[76.2272,32.2974],[76.3027,32.2352],[76.4309,32.1827],[76.4939,32.2195],[76.5369,32.1839],[76.6005,32.1846],[76.6327,32.1578],[76.6343,32.0496],[76.5925,32.0131],[76.6672,31.9688],[76.7944,31.9519],[76.816,31.916],[76.8794,31.9166],[76.9221,31.8809],[77.1123,31.8823],[77.1225,31.9274],[77.1644,31.9638],[77.1638,32.0359],[77.2163,32.0814],[77.3648,32.0461],[77.5342,32.0468],[77.608,32.1102],[77.5868,32.1281],[77.5757,32.2273],[77.4272,32.2268],[77.3311,32.3255],[77.3308,32.3616],[77.2776,32.3703],[77.2347,32.4242],[77.1712,32.3878],[77.1064,32.4956],[76.936,32.5124],[76.9145,32.5302]]]]}},{"type":"Feature","properties":{"cell":48,"feature":967,"phase":"Developing","min_bt_K":232.4,"area_km2":4028,"cold_core_km2":0,"speed_kmh":70.2,"heading_deg":244,"d_min_bt_30":-0.1,"age_min":120,"family":10,"touches_missing":true,"lon":83.3478,"lat":33.6899,"merges_splits_so_far":6},"geometry":{"type":"MultiPolygon","coordinates":[[[[83.9981,34.0061],[83.932,33.991],[83.3038,33.9993],[83.2881,33.9187],[83.2654,33.9016],[83.3474,33.8261],[83.3441,33.7721],[83.3101,33.7464],[83.2454,33.7489],[83.2249,33.7678],[83.0688,33.6835],[82.9836,33.7048],[82.8924,33.6179],[82.7632,33.6226],[82.7182,33.5881],[82.6752,33.5896],[82.6386,33.5096],[82.633,33.4015],[82.8376,33.4033],[82.8835,33.4558],[83.0155,33.505],[83.1865,33.4805],[83.2552,33.55],[83.3198,33.5474],[83.4026,33.49],[83.415,33.5165],[83.4591,33.5328],[83.4274,33.5431],[83.4182,33.5706],[83.4726,33.5774],[83.5734,33.6364],[83.5768,33.6904],[83.5371,33.7462],[83.5416,33.8182],[83.6428,33.8772],[83.7064,33.8564],[83.7142,33.8109],[83.7676,33.7996],[83.7766,33.7722],[83.8186,33.7523],[83.8126,33.6623],[83.6561,33.5788],[83.6527,33.5248],[83.7058,33.5135],[83.7465,33.4756],[83.7907,33.4918],[83.897,33.4691],[83.931,33.4946],[83.8928,33.5685],[83.9472,33.5752],[84.0053,33.6357],[83.9845,33.8082],[83.9516,33.8006],[83.9695,33.7456],[83.9264,33.7476],[83.93,33.8016],[83.9972,33.8347],[83.9981,34.0061]]]]}},{"type":"Feature","properties":{"cell":54,"feature":965,"phase":"Developing","min_bt_K":231.0,"area_km2":2108,"cold_core_km2":0,"speed_kmh":15.6,"heading_deg":117,"d_min_bt_30":3.0,"age_min":90,"family":54,"touches_missing":true,"lon":75.4252,"lat":33.0372,"merges_splits_so_far":2},"geometry":{"type":"MultiPolygon","coordinates":[[[[75.8338,33.2207],[75.7918,33.1839],[75.7699,33.2016],[75.7061,33.1825],[75.6856,33.146],[75.6203,33.181],[75.4489,33.1778],[75.3856,33.1405],[75.1923,33.1546],[75.1505,33.1177],[75.0863,33.1163],[75.0446,33.0793],[74.959,33.0773],[74.9168,33.0583],[74.907,33.031],[74.9504,33.014],[74.9516,32.9779],[74.9846,32.9516],[75.1776,32.9378],[75.3288,32.8868],[75.4565,32.9073],[75.5861,32.8556],[75.6697,32.9293],[75.7125,32.93],[75.7439,32.9576],[75.8063,33.0308],[75.794,33.0937],[75.8587,33.0768],[75.9112,33.1227],[75.8885,33.1765],[75.8561,33.185],[75.8338,33.2207]]]]}},{"type":"Feature","properties":{"cell":67,"feature":968,"phase":"Unclassified","min_bt_K":233.0,"area_km2":2792,"cold_core_km2":0,"speed_kmh":105.7,"heading_deg":263,"d_min_bt_30":0.9,"age_min":60,"family":10,"touches_missing":true,"lon":82.4067,"lat":33.7968,"merges_splits_so_far":3},"geometry":{"type":"MultiPolygon","coordinates":[[[[83.2605,34.001],[82.7404,34.0024],[82.683,33.9412],[82.6689,33.8786],[82.5834,33.8996],[82.5496,33.8736],[82.5477,33.8376],[82.59,33.8181],[82.5881,33.7821],[82.4662,33.723],[82.3818,33.7619],[82.3732,33.8073],[82.3318,33.8448],[82.3822,33.9875],[82.2421,34.001],[82.2412,33.983],[82.2948,33.9723],[82.3147,33.9356],[82.3025,33.9089],[82.1721,33.895],[82.0873,33.9337],[82.064,33.8983],[82.0208,33.8996],[81.9648,33.8561],[81.8521,33.7511],[81.8505,33.7151],[81.9016,33.6505],[82.0301,33.6286],[82.0396,33.6012],[82.0922,33.5726],[82.1369,33.6073],[82.2231,33.6046],[82.3549,33.6545],[82.6331,33.6091],[82.7558,33.686],[82.7578,33.722],[82.694,33.7423],[82.7082,33.805],[82.8161,33.8011],[82.8509,33.845],[82.9064,33.8701],[82.9702,33.8497],[82.9928,33.8669],[83.145,33.8792],[83.2027,33.9401],[83.2048,33.9761],[83.2594,33.983],[83.2605,34.001]]]]}},{"type":"Feature","properties":{"cell":68,"feature":961,"phase":"Unclassified","min_bt_K":235.3,"area_km2":984,"cold_core_km2":0,"speed_kmh":31.6,"heading_deg":89,"d_min_bt_30":0.1,"age_min":60,"family":68,"touches_missing":true,"lon":80.8656,"lat":33.8814,"merges_splits_so_far":0},"geometry":{"type":"MultiPolygon","coordinates":[[[[81.224,33.9933],[81.1375,33.9954],[81.0275,33.9438],[81.0176,33.9711],[81.0503,33.9793],[81.051,33.9974],[80.7697,34.0035],[80.747,33.9678],[80.6927,33.9599],[80.6677,33.8522],[80.6235,33.8169],[80.6982,33.7884],[80.8277,33.7857],[80.9128,33.7478],[80.9356,33.7834],[80.9787,33.7824],[80.9862,33.683],[81.0613,33.6723],[81.118,33.7522],[81.0872,33.798],[80.9806,33.8365],[80.9713,33.8819],[81.0268,33.9257],[81.1781,33.9222],[81.224,33.9933]]]]}},{"type":"Feature","properties":{"cell":71,"feature":953,"phase":"Unclassified","min_bt_K":237.8,"area_km2":252,"cold_core_km2":0,"speed_kmh":10.3,"heading_deg":117,"d_min_bt_30":1.0,"age_min":30,"family":71,"touches_missing":true,"lon":77.5103,"lat":31.518,"merges_splits_so_far":0},"geometry":{"type":"MultiPolygon","coordinates":[[[[77.5787,31.5779],[77.4523,31.5774],[77.3791,31.4959],[77.4528,31.4872],[77.474,31.4512],[77.5582,31.4515],[77.5793,31.4336],[77.6317,31.4788],[77.6316,31.5149],[77.5787,31.5779]]]]}},{"type":"Feature","properties":{"cell":72,"feature":966,"phase":"Developing","min_bt_K":234.0,"area_km2":3304,"cold_core_km2":0,"speed_kmh":32.9,"heading_deg":35,"d_min_bt_30":-0.1,"age_min":30,"family":10,"touches_missing":true,"lon":83.791,"lat":32.9366,"merges_splits_so_far":3},"geometry":{"type":"MultiPolygon","coordinates":[[[[83.9388,33.4492],[83.8922,33.3971],[83.8052,33.3828],[83.7361,33.3136],[83.6717,33.3164],[83.5938,33.2745],[83.6141,33.2556],[83.6085,33.1656],[83.5634,33.1314],[83.604,33.0936],[83.5466,33.0328],[83.5264,33.0517],[83.4926,33.0261],[83.5006,32.9806],[83.6716,32.9735],[83.702,32.9451],[83.6783,32.91],[83.7177,32.8542],[83.5526,32.7799],[83.5189,32.7543],[83.5381,32.7174],[83.4395,32.6763],[83.3937,32.624],[83.3308,32.6446],[83.2223,32.6128],[83.1878,32.569],[83.2161,32.5048],[83.2384,32.5219],[83.3022,32.5194],[83.3144,32.546],[83.3915,32.588],[83.5149,32.5108],[83.6862,32.5216],[83.8005,32.643],[83.8207,32.6241],[83.9105,32.6923],[84.0082,32.7151],[83.9904,32.77],[84.0107,33.0759],[83.9905,33.0949],[83.9941,33.1489],[83.9221,33.1972],[83.8792,33.1991],[83.8239,33.1745],[83.799,33.1214],[83.72,33.0616],[83.6761,33.0455],[83.6468,33.0918],[83.6728,33.1629],[83.7269,33.1696],[83.7958,33.2389],[83.9483,33.2682],[83.9685,33.2493],[84.0013,33.2569],[84.0097,33.3828],[83.9907,33.4198],[83.9388,33.4492]]]]}},{"type":"Feature","properties":{"cell":73,"feature":958,"phase":"Unclassified","min_bt_K":242.1,"area_km2":80,"cold_core_km2":0,"speed_kmh":13.4,"heading_deg":67,"d_min_bt_30":-0.3,"age_min":30,"family":73,"touches_missing":false,"lon":82.3351,"lat":32.5378,"merges_splits_so_far":0},"geometry":{"type":"MultiPolygon","coordinates":[[[[82.3669,32.5714],[82.303,32.5735],[82.2698,32.5475],[82.3413,32.482],[82.4188,32.5426],[82.3669,32.5714]]]]}},{"type":"Feature","properties":{"cell":74,"feature":963,"phase":"Developing","min_bt_K":235.0,"area_km2":760,"cold_core_km2":0,"speed_kmh":24.2,"heading_deg":159,"d_min_bt_30":-0.3,"age_min":30,"family":74,"touches_missing":true,"lon":72.1844,"lat":33.8005,"merges_splits_so_far":0},"geometry":{"type":"MultiPolygon","coordinates":[[[[72.3742,33.9501],[72.3526,33.9492],[72.3333,33.9122],[72.1605,33.9048],[72.0346,33.8451],[72.0041,33.8167],[71.9935,33.6537],[72.0492,33.6291],[72.0581,33.6566],[72.1305,33.7049],[72.2598,33.7106],[72.3437,33.7502],[72.3505,33.8137],[72.4322,33.8893],[72.3742,33.9501]]]]}},{"type":"Feature","properties":{"cell":76,"feature":959,"phase":"Unclassified","min_bt_K":239.0,"area_km2":332,"cold_core_km2":0,"speed_kmh":null,"heading_deg":null,"d_min_bt_30":null,"age_min":0,"family":76,"touches_missing":true,"lon":81.8465,"lat":32.8254,"merges_splits_so_far":0},"geometry":{"type":"MultiPolygon","coordinates":[[[[81.9124,32.9103],[81.8055,32.9134],[81.7495,32.8518],[81.7061,32.835],[81.6825,32.7815],[81.7554,32.7344],[81.7767,32.7338],[81.7995,32.7692],[81.8848,32.7668],[81.9054,32.7481],[81.9615,32.8096],[81.963,32.8456],[81.9211,32.8649],[81.9124,32.9103]]]]}},{"type":"Feature","properties":{"cell":77,"feature":964,"phase":"Unclassified","min_bt_K":231.3,"area_km2":1564,"cold_core_km2":0,"speed_kmh":null,"heading_deg":null,"d_min_bt_30":null,"age_min":0,"family":54,"touches_missing":true,"lon":75.9041,"lat":32.9456,"merges_splits_so_far":1},"geometry":{"type":"MultiPolygon","coordinates":[[[[76.1352,33.1711],[76.1141,33.1528],[76.0284,33.1515],[76.0078,33.1151],[75.9007,33.1135],[75.8058,33.0488],[75.7125,32.93],[75.6697,32.9293],[75.5757,32.8464],[75.8663,32.7521],[76.037,32.7547],[76.0591,32.719],[76.1227,32.7379],[76.1542,32.7654],[76.1205,32.8462],[76.0564,32.8452],[76.0145,32.8085],[75.9931,32.8082],[75.9819,32.8351],[76.0238,32.8718],[76.023,32.9079],[76.0969,32.9541],[76.1824,32.9553],[76.2567,32.9833],[76.1487,33.036],[76.1588,33.0632],[76.2121,33.0729],[76.2111,33.127],[76.1352,33.1711]]]]}}]}