{"type":"FeatureCollection","features":[{"type":"Feature","properties":{"cell":41,"feature":1010,"phase":"Developing","min_bt_K":240.0,"area_km2":3300,"cold_core_km2":0,"speed_kmh":34.2,"heading_deg":123,"d_min_bt_30":5.5,"age_min":150,"family":41,"touches_missing":false,"lon":77.0163,"lat":32.1587,"merges_splits_so_far":0},"geometry":{"type":"MultiPolygon","coordinates":[[[[77.2348,32.4062],[77.1925,32.3879],[77.1286,32.4055],[77.0862,32.3872],[76.9375,32.3861],[76.7685,32.3125],[76.6615,32.3656],[76.619,32.3651],[76.5454,32.3193],[76.5677,32.2473],[76.5055,32.1565],[76.538,32.1117],[76.6016,32.1124],[76.6225,32.1307],[76.9618,32.1157],[77.004,32.1341],[77.0148,32.1071],[76.994,32.0708],[77.0158,32.0169],[77.037,32.017],[77.0682,32.0624],[77.1003,32.0355],[77.1006,31.9995],[77.0585,31.9811],[76.9853,31.8994],[76.943,31.8991],[76.9328,31.8719],[76.9646,31.8632],[77.0066,31.8815],[77.0493,31.8458],[77.1338,31.8463],[77.1763,31.8105],[77.3453,31.8115],[77.3554,31.8746],[77.3976,31.8929],[77.3973,31.929],[77.3548,31.9648],[77.4497,32.0104],[77.5767,32.0108],[77.6083,32.038],[77.5764,32.083],[77.3645,32.1002],[77.2474,32.1627],[77.2789,32.208],[77.3531,32.2174],[77.3524,32.3076],[77.3308,32.3616],[77.2348,32.4062]]]]}},{"type":"Feature","properties":{"cell":48,"feature":1023,"phase":"Developing","min_bt_K":234.0,"area_km2":3692,"cold_core_km2":0,"speed_kmh":16.8,"heading_deg":216,"d_min_bt_30":1.6,"age_min":150,"family":10,"touches_missing":true,"lon":83.2947,"lat":33.6285,"merges_splits_so_far":6},"geometry":{"type":"MultiPolygon","coordinates":[[[[83.7374,33.9995],[83.5211,34.0086],[83.5086,33.982],[83.5291,33.9631],[83.4836,33.9289],[83.503,33.892],[83.4451,33.8312],[83.2907,33.7832],[83.2044,33.7866],[83.1694,33.7428],[83.0914,33.7007],[83.0165,33.7126],[83.0842,33.7642],[83.0863,33.8002],[83.0133,33.8481],[82.9702,33.8497],[82.9363,33.8238],[82.9558,33.787],[82.9332,33.7698],[82.9498,33.679],[82.7911,33.5403],[82.7584,33.5325],[82.7125,33.48],[82.648,33.4822],[82.6508,33.5363],[82.5432,33.54],[82.5302,33.4953],[82.4975,33.4874],[82.4854,33.4607],[82.5377,33.4319],[82.6022,33.4297],[82.6424,33.3741],[82.6648,33.3914],[82.6853,33.3726],[82.7927,33.3688],[82.8151,33.3861],[82.943,33.3634],[82.9879,33.3978],[83.0524,33.3954],[83.1322,33.4735],[83.1988,33.5071],[83.2009,33.5431],[83.2574,33.586],[83.3004,33.5843],[83.4566,33.6683],[83.629,33.6611],[83.6516,33.6782],[83.638,33.6337],[83.7116,33.6035],[83.7762,33.6007],[83.7989,33.6178],[83.8611,33.579],[83.9915,33.5912],[84.0102,33.7077],[83.9898,33.7267],[83.9894,33.8801],[83.9426,33.8281],[83.7495,33.8546],[83.7256,33.8195],[83.6825,33.8213],[83.6314,33.8686],[83.6337,33.9046],[83.7476,33.99],[83.7374,33.9995]]]]}},{"type":"Feature","properties":{"cell":67,"feature":1024,"phase":"Unclassified","min_bt_K":234.0,"area_km2":3772,"cold_core_km2":0,"speed_kmh":30.6,"heading_deg":277,"d_min_bt_30":1.0,"age_min":90,"family":10,"touches_missing":true,"lon":82.243,"lat":33.8142,"merges_splits_so_far":5},"geometry":{"type":"MultiPolygon","coordinates":[[[[83.1091,34.0069],[83.0432,33.9913],[82.7404,34.0024],[82.7282,33.9757],[82.7695,33.9382],[82.7675,33.9022],[82.7336,33.8763],[82.6041,33.8808],[82.4763,33.9212],[82.3926,33.9781],[82.3061,33.981],[82.2853,33.9997],[82.2205,34.0017],[82.1522,33.9317],[82.1011,33.9964],[82.069,34.0064],[82.0458,33.971],[81.9593,33.9736],[81.9144,33.9388],[81.828,33.9413],[81.74,33.9077],[81.6096,33.8932],[81.5307,33.8141],[81.5508,33.7775],[81.5188,33.7874],[81.507,33.7606],[81.5598,33.7322],[81.5799,33.6955],[81.623,33.6944],[81.6431,33.6577],[81.7955,33.6896],[81.9512,33.7934],[82.0031,33.7467],[81.9352,33.6765],[81.987,33.6299],[82.0524,33.646],[82.0732,33.6273],[82.1179,33.662],[82.2472,33.658],[82.2679,33.6393],[82.4842,33.6503],[82.5048,33.6315],[82.5694,33.6293],[82.7568,33.704],[82.7739,33.8207],[82.8848,33.8709],[82.9928,33.8669],[83.0596,33.9005],[83.0936,33.9262],[83.1091,34.0069]]]]}},{"type":"Feature","properties":{"cell":68,"feature":1020,"phase":"Unclassified","min_bt_K":240.0,"area_km2":288,"cold_core_km2":0,"speed_kmh":20.7,"heading_deg":76,"d_min_bt_30":4.8,"age_min":90,"family":68,"touches_missing":true,"lon":80.9739,"lat":33.9044,"merges_splits_so_far":0},"geometry":{"type":"MultiPolygon","coordinates":[[[[81.051,33.9974],[80.9644,33.9993],[80.9089,33.9554],[80.8861,33.9198],[80.8825,33.8116],[80.914,33.7839],[80.9368,33.8195],[81.0564,33.8439],[81.051,33.9974]]]]}},{"type":"Feature","properties":{"cell":72,"feature":1012,"phase":"Developing","min_bt_K":235.1,"area_km2":2688,"cold_core_km2":0,"speed_kmh":19.5,"heading_deg":177,"d_min_bt_30":1.1,"age_min":60,"family":10,"touches_missing":true,"lon":83.7959,"lat":32.8486,"merges_splits_so_far":3},"geometry":{"type":"MultiPolygon","coordinates":[[[[83.9864,33.1943],[83.9423,33.1783],[83.9221,33.1972],[83.8769,33.1631],[83.7912,33.1669],[83.746,33.1327],[83.639,33.1373],[83.6052,33.1116],[83.6029,33.0756],[83.5703,33.068],[83.5579,33.0414],[83.6401,32.9838],[83.6367,32.9298],[83.657,32.9109],[83.612,32.8767],[83.6098,32.8407],[83.6884,32.7291],[83.6548,32.7034],[83.5908,32.7061],[83.5504,32.7439],[83.4853,32.7286],[83.4619,32.6934],[83.3399,32.6172],[83.3591,32.5803],[83.3368,32.5632],[83.3458,32.5357],[83.3884,32.534],[83.4543,32.5674],[83.6246,32.5603],[83.6862,32.5216],[83.731,32.5558],[83.8587,32.5503],[83.9597,32.627],[84.007,32.6971],[84.0106,32.751],[83.9904,32.77],[84.0107,33.0759],[83.9905,33.0949],[83.9864,33.1943]]]]}},{"type":"Feature","properties":{"cell":76,"feature":1013,"phase":"Unclassified","min_bt_K":242.6,"area_km2":60,"cold_core_km2":0,"speed_kmh":9.8,"heading_deg":177,"d_min_bt_30":3.5,"age_min":30,"family":76,"touches_missing":false,"lon":81.8492,"lat":32.7812,"merges_splits_so_far":0},"geometry":{"type":"MultiPolygon","coordinates":[[[[81.9077,32.8022],[81.801,32.8053],[81.7892,32.7785],[81.8201,32.7506],[81.8627,32.7493],[81.9172,32.7748],[81.9077,32.8022]]]]}},{"type":"Feature","properties":{"cell":77,"feature":1022,"phase":"Developing","min_bt_K":231.2,"area_km2":3212,"cold_core_km2":0,"speed_kmh":17.0,"heading_deg":86,"d_min_bt_30":-0.1,"age_min":30,"family":54,"touches_missing":true,"lon":75.9947,"lat":32.9503,"merges_splits_so_far":2},"geometry":{"type":"MultiPolygon","coordinates":[[[[76.1784,33.1537],[76.1141,33.1528],[76.051,33.0977],[75.9872,33.0788],[75.5809,33.054],[75.3272,32.9409],[75.3179,32.8956],[75.3507,32.8692],[75.3715,32.8876],[75.4997,32.8901],[75.5643,32.8732],[75.5866,32.8376],[75.6934,32.8395],[75.8015,32.7872],[75.9935,32.7902],[76.0564,32.8452],[76.0991,32.8459],[76.1328,32.7651],[76.1863,32.7569],[76.2297,32.7214],[76.4,32.7416],[76.4417,32.7962],[76.495,32.8058],[76.4941,32.8599],[76.4724,32.8777],[76.5148,32.8962],[76.5139,32.9503],[76.5561,32.9869],[76.5125,33.0405],[76.5872,33.0504],[76.5975,33.0775],[76.5755,33.1134],[76.5433,33.1221],[76.4585,33.067],[76.3729,33.066],[76.2883,33.0108],[76.2974,33.0921],[76.2648,33.1187],[76.2005,33.1179],[76.1784,33.1537]]]]}},{"type":"Feature","properties":{"cell":80,"feature":1015,"phase":"Unclassified","min_bt_K":238.5,"area_km2":456,"cold_core_km2":0,"speed_kmh":null,"heading_deg":null,"d_min_bt_30":null,"age_min":0,"family":80,"touches_missing":true,"lon":82.0495,"lat":33.3565,"merges_splits_so_far":0},"geometry":{"type":"MultiPolygon","coordinates":[[[[82.1964,33.4972],[82.1104,33.4998],[82.0872,33.4645],[81.9996,33.431],[81.8986,33.3348],[81.8962,33.2807],[82.0782,33.2662],[82.0901,33.2929],[82.1785,33.3443],[82.1587,33.381],[82.2059,33.4698],[82.1964,33.4972]]]]}}]}