{"type":"FeatureCollection","features":[{"type":"Feature","properties":{"cell":67,"feature":1081,"phase":"Unclassified","min_bt_K":234.2,"area_km2":3972,"cold_core_km2":0,"speed_kmh":41.9,"heading_deg":83,"d_min_bt_30":0.2,"age_min":120,"family":10,"touches_missing":true,"lon":82.4674,"lat":33.8374,"merges_splits_so_far":5},"geometry":{"type":"MultiPolygon","coordinates":[[[[83.1307,34.0061],[83.0659,34.0085],[83.0432,33.9913],[82.1339,34.0044],[82.0657,33.9343],[82.0009,33.9363],[81.8944,33.9755],[81.828,33.9413],[81.7631,33.9432],[81.7072,33.8996],[81.6587,33.7746],[81.7108,33.7281],[81.8401,33.7244],[81.9312,33.8301],[82.0184,33.8455],[82.0865,33.9156],[82.1729,33.913],[82.2032,33.8669],[82.2455,33.8475],[82.2325,33.8028],[82.1911,33.8402],[82.0823,33.8255],[82.0694,33.7808],[81.9902,33.702],[81.9711,33.7567],[81.9487,33.7393],[81.928,33.758],[81.8952,33.7499],[81.8921,33.6778],[81.924,33.6679],[81.9854,33.5939],[82.1411,33.6974],[82.1842,33.6961],[82.2256,33.6587],[82.6125,33.6278],[82.6799,33.6796],[82.7651,33.6586],[82.8974,33.708],[82.9548,33.769],[82.9383,33.8599],[82.9722,33.8857],[83.0154,33.8841],[83.0349,33.8472],[83.0997,33.8448],[83.1563,33.8877],[83.1471,33.9152],[83.1028,33.8988],[83.072,33.9271],[83.1307,34.0061]]]]}},{"type":"Feature","properties":{"cell":72,"feature":1077,"phase":"Developing","min_bt_K":237.0,"area_km2":2344,"cold_core_km2":0,"speed_kmh":11.8,"heading_deg":304,"d_min_bt_30":1.9,"age_min":90,"family":10,"touches_missing":true,"lon":83.7434,"lat":32.878,"merges_splits_so_far":3},"geometry":{"type":"MultiPolygon","coordinates":[[[[83.99,33.2483],[83.8138,33.1839],[83.8001,33.1394],[83.8204,33.1205],[83.764,33.0778],[83.657,33.0824],[83.6153,33.1022],[83.5758,33.158],[83.4259,33.1641],[83.3852,33.2019],[83.3075,33.1599],[83.284,33.1247],[83.4172,33.0201],[83.505,33.0526],[83.5568,33.0234],[83.5671,32.8425],[83.6693,32.766],[83.62,32.6598],[83.5864,32.6341],[83.49,32.6291],[83.4879,32.5931],[83.5182,32.5648],[83.6055,32.5972],[83.6481,32.5954],[83.6571,32.568],[83.6884,32.5576],[83.7008,32.5842],[83.7557,32.6089],[83.9059,32.6204],[83.9295,32.6554],[84.0046,32.6611],[84.0023,32.95],[83.8865,32.9822],[83.8146,33.0305],[83.8508,33.0921],[83.915,33.0892],[83.9352,33.0703],[84.0107,33.0759],[83.9905,33.0949],[83.99,33.2483]]],[[[83.9537,32.8619],[83.914,32.7463],[83.8287,32.7501],[83.7783,32.7974],[83.8143,32.859],[83.9537,32.8619]]]]}},{"type":"Feature","properties":{"cell":77,"feature":1079,"phase":"Developing","min_bt_K":235.9,"area_km2":1248,"cold_core_km2":0,"speed_kmh":98.3,"heading_deg":99,"d_min_bt_30":4.7,"age_min":60,"family":54,"touches_missing":true,"lon":76.5139,"lat":32.8831,"merges_splits_so_far":2},"geometry":{"type":"MultiPolygon","coordinates":[[[[76.5667,32.996],[76.5025,32.9953],[76.4814,32.977],[76.2244,32.9919],[76.2143,32.9647],[76.1719,32.9461],[76.3442,32.8762],[76.1628,32.8648],[76.0673,32.8364],[76.1209,32.8281],[76.1867,32.7388],[76.25,32.7758],[76.3354,32.7768],[76.357,32.7591],[76.3994,32.7776],[76.6344,32.7622],[76.6768,32.7807],[76.6976,32.817],[76.7617,32.8176],[76.7933,32.8449],[76.8138,32.9173],[76.7813,32.944],[76.6528,32.9608],[76.5667,32.996]]]]}},{"type":"Feature","properties":{"cell":80,"feature":1080,"phase":"Unclassified","min_bt_K":237.3,"area_km2":416,"cold_core_km2":0,"speed_kmh":25.1,"heading_deg":72,"d_min_bt_30":-1.1,"age_min":30,"family":80,"touches_missing":true,"lon":82.1779,"lat":33.3916,"merges_splits_so_far":0},"geometry":{"type":"MultiPolygon","coordinates":[[[[82.3254,33.4931],[82.2592,33.4591],[82.1311,33.4812],[82.1191,33.4545],[82.0529,33.4204],[82.0489,33.3303],[82.0051,33.3136],[82.079,33.2843],[82.1236,33.319],[82.1665,33.3176],[82.2506,33.2789],[82.2841,33.3049],[82.2902,33.431],[82.334,33.4477],[82.3254,33.4931]]]]}}]}