{"type":"FeatureCollection","features":[{"type":"Feature","properties":{"cell":72,"feature":1140,"phase":"Developing","min_bt_K":238.5,"area_km2":2212,"cold_core_km2":0,"speed_kmh":26.6,"heading_deg":332,"d_min_bt_30":1.5,"age_min":120,"family":10,"touches_missing":true,"lon":83.6771,"lat":32.9842,"merges_splits_so_far":3},"geometry":{"type":"MultiPolygon","coordinates":[[[[83.8196,33.2739],[83.6435,33.2093],[83.6243,33.2462],[83.6029,33.2471],[83.5792,33.212],[83.5589,33.2309],[83.5025,33.1881],[83.4868,33.1075],[83.3787,33.0939],[83.2889,33.0253],[83.2461,33.027],[83.2124,33.0012],[83.2307,32.9463],[83.2073,32.9112],[83.2388,32.9009],[83.2581,32.8641],[83.3242,32.8975],[83.4097,32.8941],[83.5143,32.8537],[83.6008,32.8682],[83.6604,32.7934],[83.7975,32.9319],[83.8054,32.8865],[83.9276,32.7909],[83.9253,32.7549],[83.8927,32.7473],[83.8354,32.6866],[83.8857,32.6393],[83.9922,32.6346],[84.0082,32.7151],[83.9489,32.7899],[83.9548,32.8799],[83.9786,32.9149],[83.937,32.9348],[83.9869,33.0409],[83.9679,33.0778],[83.9929,33.1309],[83.8757,33.1451],[83.7392,33.0247],[83.675,33.0275],[83.6232,33.0567],[83.6254,33.0927],[83.7021,33.1165],[83.8036,33.1934],[83.8196,33.2739]]]]}}]}