{"type":"FeatureCollection","features":[{"type":"Feature","properties":{"cell":92,"feature":1281,"phase":"Unclassified","min_bt_K":239.0,"area_km2":1048,"cold_core_km2":0,"speed_kmh":null,"heading_deg":null,"d_min_bt_30":null,"age_min":0,"family":92,"touches_missing":true,"lon":82.5935,"lat":33.4571,"merges_splits_so_far":0},"geometry":{"type":"MultiPolygon","coordinates":[[[[82.6986,33.6248],[82.5469,33.612],[82.5339,33.5674],[82.4796,33.5602],[82.4675,33.5335],[82.3685,33.4917],[82.3116,33.4303],[82.4706,33.38],[82.4799,33.3526],[82.5939,33.2675],[82.6946,33.3453],[82.7077,33.3899],[82.8151,33.3861],[82.8488,33.4119],[82.8293,33.4487],[82.8742,33.4832],[82.865,33.5106],[82.7359,33.5152],[82.7266,33.5426],[82.7491,33.5599],[82.6986,33.6248]]]]}},{"type":"Feature","properties":{"cell":95,"feature":1284,"phase":"Unclassified","min_bt_K":237.0,"area_km2":1668,"cold_core_km2":0,"speed_kmh":null,"heading_deg":null,"d_min_bt_30":null,"age_min":0,"family":95,"touches_missing":false,"lon":82.9598,"lat":33.876,"merges_splits_so_far":0},"geometry":{"type":"MultiPolygon","coordinates":[[[[83.1956,34.0036],[82.7404,34.0024],[82.6924,33.9138],[82.5609,33.8823],[82.4933,33.8304],[82.4295,33.8506],[82.3723,33.7893],[82.424,33.7425],[82.5356,33.8109],[82.5787,33.8095],[82.62,33.772],[82.6866,33.8057],[82.771,33.7667],[82.8573,33.7636],[82.9836,33.7048],[83.0914,33.7007],[83.1048,33.7453],[83.1376,33.7531],[83.1952,33.814],[83.1974,33.8501],[83.3302,33.899],[83.3221,33.9444],[83.2367,33.9659],[83.1956,34.0036]]]]}}]}