{"type":"FeatureCollection","features":[{"type":"Feature","properties":{"cell":92,"feature":1344,"phase":"Unclassified","min_bt_K":239.2,"area_km2":804,"cold_core_km2":0,"speed_kmh":16.1,"heading_deg":110,"d_min_bt_30":0.2,"age_min":30,"family":92,"touches_missing":true,"lon":82.6744,"lat":33.4317,"merges_splits_so_far":0},"geometry":{"type":"MultiPolygon","coordinates":[[[[82.7436,33.6594],[82.6527,33.5723],[82.5657,33.5573],[82.4657,33.4975],[82.4845,33.4427],[82.548,33.4225],[82.5565,33.3771],[82.6312,33.3655],[82.6284,33.3115],[82.5939,33.2675],[82.6368,33.2661],[82.6601,33.3013],[82.7991,33.2874],[82.8068,33.4315],[82.8395,33.4393],[82.8518,33.466],[82.7481,33.5419],[82.751,33.5959],[82.796,33.6304],[82.7436,33.6594]]]]}},{"type":"Feature","properties":{"cell":95,"feature":1347,"phase":"Unclassified","min_bt_K":236.0,"area_km2":1176,"cold_core_km2":0,"speed_kmh":22.7,"heading_deg":69,"d_min_bt_30":-1.0,"age_min":30,"family":95,"touches_missing":true,"lon":83.0738,"lat":33.9133,"merges_splits_so_far":0},"geometry":{"type":"MultiPolygon","coordinates":[[[[83.4767,33.9924],[82.8486,33.9985],[82.7714,33.9742],[82.7921,33.9554],[82.7655,33.8661],[82.923,33.7792],[83.0113,33.812],[83.076,33.8096],[83.1171,33.7719],[83.1602,33.7703],[83.2044,33.7866],[83.2961,33.8733],[83.362,33.8887],[83.4199,33.9495],[83.487,33.9829],[83.4767,33.9924]]]]}},{"type":"Feature","properties":{"cell":98,"feature":1345,"phase":"Unclassified","min_bt_K":233.1,"area_km2":964,"cold_core_km2":0,"speed_kmh":null,"heading_deg":null,"d_min_bt_30":null,"age_min":0,"family":98,"touches_missing":true,"lon":72.0852,"lat":33.7693,"merges_splits_so_far":0},"geometry":{"type":"MultiPolygon","coordinates":[[[[72.0452,34.0081],[71.9918,33.9966],[72.0102,33.7267],[71.9898,33.7077],[72.0146,33.5012],[72.1072,33.5685],[72.1568,33.6339],[72.2214,33.6367],[72.2441,33.6196],[72.362,33.6337],[72.3359,33.7048],[72.2438,33.7911],[72.2414,33.8271],[72.1695,33.9323],[72.1125,33.9749],[72.1047,33.9295],[72.0729,33.919],[72.0591,33.9635],[72.1011,33.9835],[72.0452,34.0081]]],[[[72.1287,33.8944],[72.1299,33.8764],[72.1743,33.8603],[72.1347,33.8044],[72.1677,33.7968],[72.2042,33.7352],[72.2485,33.7191],[72.2395,33.6916],[72.1132,33.8035],[72.1323,33.8404],[72.1071,33.8935],[72.1287,33.8944]]]]}}]}