{"type":"FeatureCollection","features":[{"type":"Feature","properties":{"cell":95,"feature":1403,"phase":"Unclassified","min_bt_K":236.0,"area_km2":620,"cold_core_km2":0,"speed_kmh":16.0,"heading_deg":71,"d_min_bt_30":-0.0,"age_min":60,"family":95,"touches_missing":false,"lon":83.1559,"lat":33.9363,"merges_splits_so_far":0},"geometry":{"type":"MultiPolygon","coordinates":[[[[83.4119,33.995],[83.0659,34.0085],[83.0432,33.9913],[82.9567,33.9946],[82.9187,33.8967],[83.0133,33.8481],[83.1429,33.8431],[83.1871,33.8595],[83.2108,33.8947],[83.3836,33.8878],[83.4404,33.9307],[83.3562,33.9702],[83.4108,33.977],[83.4119,33.995]]]]}},{"type":"Feature","properties":{"cell":98,"feature":1404,"phase":"Developing","min_bt_K":230.9,"area_km2":2864,"cold_core_km2":0,"speed_kmh":29.7,"heading_deg":156,"d_min_bt_30":-2.2,"age_min":30,"family":98,"touches_missing":true,"lon":72.1498,"lat":33.6469,"merges_splits_so_far":0},"geometry":{"type":"MultiPolygon","coordinates":[[[[72.0452,34.0081],[71.9918,33.9966],[72.0102,33.7267],[71.9898,33.7077],[72.0105,33.4018],[71.9903,33.3828],[71.9939,33.3288],[72.038,33.3128],[72.0642,33.2417],[72.0035,33.1849],[72.0042,33.0134],[72.0547,33.0608],[72.0321,33.0778],[72.0285,33.1318],[72.0678,33.1877],[72.1601,33.255],[72.2662,33.2776],[72.3565,33.3807],[72.3089,33.4509],[72.3496,33.4888],[72.3473,33.5248],[72.3779,33.5531],[72.4005,33.536],[72.5296,33.5414],[72.5602,33.5697],[72.5536,33.6777],[72.4277,33.7899],[72.2367,33.8991],[72.2127,33.9342],[72.2308,33.9891],[72.068,33.991],[72.0452,34.0081]]],[[[72.3201,33.6138],[72.3212,33.5958],[72.2793,33.576],[72.2828,33.522],[72.241,33.5022],[72.2445,33.4482],[72.2909,33.396],[72.2007,33.2928],[72.1882,33.3194],[72.2073,33.3563],[72.2491,33.3762],[72.2456,33.4302],[72.2003,33.4643],[72.2398,33.5202],[72.2375,33.5562],[72.3087,33.6224],[72.3201,33.6138]]]]}},{"type":"Feature","properties":{"cell":100,"feature":1402,"phase":"Unclassified","min_bt_K":238.2,"area_km2":448,"cold_core_km2":0,"speed_kmh":null,"heading_deg":null,"d_min_bt_30":null,"age_min":0,"family":100,"touches_missing":true,"lon":82.4058,"lat":33.9105,"merges_splits_so_far":0},"geometry":{"type":"MultiPolygon","coordinates":[[[[82.5665,33.9904],[82.2957,33.9903],[82.3147,33.9356],[82.2904,33.8822],[82.3111,33.8635],[82.2662,33.8288],[82.2722,33.7294],[82.3265,33.7367],[82.3292,33.7907],[82.3732,33.8073],[82.3854,33.834],[82.4745,33.8852],[82.5289,33.8924],[82.5759,33.963],[82.5665,33.9904]]]]}}]}