{"type":"FeatureCollection","features":[{"type":"Feature","properties":{"cell":98,"feature":1463,"phase":"Developing","min_bt_K":233.0,"area_km2":3584,"cold_core_km2":0,"speed_kmh":32.4,"heading_deg":168,"d_min_bt_30":2.1,"age_min":60,"family":98,"touches_missing":true,"lon":72.1846,"lat":33.5039,"merges_splits_so_far":1},"geometry":{"type":"MultiPolygon","coordinates":[[[[72.3333,33.9122],[72.3266,33.8488],[72.3505,33.8137],[72.3097,33.7759],[72.3018,33.7304],[72.2869,33.7929],[72.3187,33.8033],[72.3175,33.8213],[72.0586,33.8101],[72.0065,33.7807],[72.0102,33.7267],[71.9898,33.7077],[72.0105,33.4018],[71.9903,33.3828],[72.0095,33.0949],[71.9893,33.0759],[72.0102,32.9234],[72.117,32.9282],[72.1372,32.9471],[72.2452,32.9338],[72.2755,32.9622],[72.2721,33.0162],[72.2259,33.0683],[72.1819,33.0845],[72.1333,33.1726],[72.1297,33.2266],[72.159,33.273],[72.1816,33.2559],[72.4592,33.2858],[72.4829,33.2507],[72.5258,33.2524],[72.5563,33.2807],[72.5338,33.2979],[72.5519,33.3528],[72.5046,33.423],[72.5239,33.4599],[72.4764,33.5301],[72.5715,33.5611],[72.5785,33.6246],[72.5105,33.6759],[72.5287,33.7308],[72.4584,33.8182],[72.4027,33.843],[72.3891,33.8875],[72.3333,33.9122]]],[[[72.0595,33.3137],[72.063,33.2597],[72.1071,33.2436],[72.0666,33.2057],[72.0702,33.1517],[72.0928,33.1347],[72.0963,33.0807],[72.129,33.0731],[72.164,33.0295],[72.1551,33.0021],[72.0749,33.0798],[72.0714,33.1337],[72.0261,33.1678],[72.0238,33.2038],[72.0654,33.2237],[72.019,33.2758],[72.038,33.3128],[72.0595,33.3137]]]]}},{"type":"Feature","properties":{"cell":100,"feature":1462,"phase":"Unclassified","min_bt_K":236.1,"area_km2":288,"cold_core_km2":0,"speed_kmh":34.6,"heading_deg":77,"d_min_bt_30":-2.1,"age_min":30,"family":100,"touches_missing":false,"lon":82.5883,"lat":33.9445,"merges_splits_so_far":0},"geometry":{"type":"MultiPolygon","coordinates":[[[[82.6972,34.0039],[82.5016,33.9926],[82.4866,33.9119],[82.5073,33.8931],[82.4745,33.8852],[82.4173,33.8239],[82.4924,33.8124],[82.5815,33.8635],[82.7066,33.9765],[82.6972,34.0039]]]]}}]}