{"type":"FeatureCollection","features":[{"type":"Feature","properties":{"cell":98,"feature":1525,"phase":"Developing","min_bt_K":230.0,"area_km2":4780,"cold_core_km2":0,"speed_kmh":31.8,"heading_deg":195,"d_min_bt_30":-3.0,"age_min":90,"family":98,"touches_missing":true,"lon":72.1395,"lat":33.3656,"merges_splits_so_far":3},"geometry":{"type":"MultiPolygon","coordinates":[[[[72.0452,34.0081],[71.9918,33.9966],[72.0102,33.7267],[71.9898,33.7077],[72.0105,33.4018],[71.9903,33.3828],[72.0054,32.6705],[72.0368,32.681],[72.0759,32.7369],[72.0736,32.7729],[72.1341,32.8297],[72.1104,32.8647],[72.1193,32.8922],[72.1768,32.8316],[72.0949,32.7738],[72.1096,32.7113],[72.1915,32.769],[72.2756,32.7907],[72.3026,32.8731],[72.343,32.9109],[72.3397,32.9649],[72.3599,32.9838],[72.3138,33.036],[72.3318,33.0909],[72.2844,33.1611],[72.3847,33.2736],[72.3825,33.3096],[72.3373,33.3438],[72.4209,33.3834],[72.4164,33.4555],[72.3168,33.4964],[72.259,33.5571],[72.4934,33.603],[72.5094,33.694],[72.379,33.7066],[72.464,33.7282],[72.4413,33.7453],[72.4822,33.7831],[72.48,33.8191],[72.5118,33.8294],[72.5618,33.8946],[72.5574,33.9667],[72.4789,34.0086],[72.068,33.991],[72.0452,34.0081]]],[[[72.2863,33.468],[72.3204,33.2709],[72.2786,33.2511],[72.2821,33.1971],[72.2404,33.1772],[72.2438,33.1232],[72.2889,33.0891],[72.2924,33.0351],[72.2519,32.9972],[72.2755,32.9622],[72.2688,32.8987],[72.2542,32.9613],[72.2103,32.9774],[72.2507,33.0152],[72.219,33.1763],[72.2775,33.2691],[72.2445,33.4482],[72.2863,33.468]]],[[[72.167,33.6434],[72.1275,33.5875],[72.2171,33.5372],[72.2195,33.5012],[72.189,33.4728],[72.1741,33.5354],[72.106,33.5865],[72.1048,33.6045],[72.167,33.6434]]]]}}]}