{"type":"FeatureCollection","features":[{"type":"Feature","properties":{"cell":98,"feature":1584,"phase":"Developing","min_bt_K":225.0,"area_km2":6420,"cold_core_km2":0,"speed_kmh":52.4,"heading_deg":171,"d_min_bt_30":-5.0,"age_min":120,"family":98,"touches_missing":true,"lon":72.182,"lat":33.1321,"merges_splits_so_far":3},"geometry":{"type":"MultiPolygon","coordinates":[[[[72.0452,34.0081],[71.9918,33.9966],[72.0105,33.4018],[71.9903,33.3828],[72.0095,33.0949],[71.9893,33.0759],[72.0096,32.77],[71.9894,32.751],[72.0095,32.4451],[71.9894,32.4262],[72.01,32.2737],[72.1014,32.3409],[72.1103,32.3684],[72.1729,32.3892],[72.2522,32.4829],[72.2948,32.4847],[72.3743,32.5783],[72.4663,32.6454],[72.4608,32.7354],[72.4193,32.7156],[72.4136,32.6341],[72.3969,32.7327],[72.4384,32.7525],[72.4329,32.8425],[72.4745,32.8623],[72.4734,32.8803],[72.3835,32.9487],[72.4252,32.9685],[72.4218,33.0225],[72.4635,33.0423],[72.4602,33.0963],[72.5425,33.1538],[72.5393,33.2078],[72.581,33.2276],[72.5778,33.2816],[72.4638,33.3852],[72.4842,33.4041],[72.4368,33.4744],[72.3938,33.4726],[72.4175,33.4375],[72.4085,33.41],[72.396,33.4366],[72.3519,33.4527],[72.3915,33.5086],[72.3235,33.5598],[72.3201,33.6138],[72.252,33.6651],[72.2485,33.7191],[72.2689,33.738],[72.245,33.7731],[72.2642,33.81],[72.2332,33.9531],[72.1785,33.9598],[72.1545,33.9948],[72.068,33.991],[72.0452,34.0081]]],[[[72.1719,33.8963],[72.1731,33.8783],[72.2175,33.8622],[72.194,33.7258],[72.1743,33.8603],[72.1287,33.8944],[72.1719,33.8963]]]]}}]}