{"type":"FeatureCollection","features":[{"type":"Feature","properties":{"cell":98,"feature":1628,"phase":"Developing","min_bt_K":222.1,"area_km2":13508,"cold_core_km2":0,"speed_kmh":24.1,"heading_deg":102,"d_min_bt_30":-2.9,"age_min":150,"family":98,"touches_missing":true,"lon":72.3082,"lat":33.11,"merges_splits_so_far":3},"geometry":{"type":"MultiPolygon","coordinates":[[[[72.0452,34.0081],[71.9918,33.9966],[72.0105,33.4018],[71.9903,33.3828],[72.0095,33.0949],[71.9893,33.0759],[72.0096,32.77],[71.9894,32.751],[72.0095,32.4451],[71.9894,32.4262],[72.0069,32.1562],[72.1051,32.1155],[72.1363,32.1259],[72.1329,32.1799],[72.1831,32.2272],[72.393,32.2723],[72.5755,32.4243],[72.618,32.426],[72.6786,32.4826],[72.7727,32.5134],[72.7686,32.5854],[72.8092,32.6231],[72.8264,32.6959],[72.7685,32.7749],[72.7614,32.7114],[72.7848,32.6762],[72.7666,32.6214],[72.724,32.6197],[72.7219,32.6557],[72.7635,32.6754],[72.7177,32.7277],[72.7157,32.7638],[72.7562,32.8015],[72.7297,32.8906],[72.7479,32.9455],[72.8201,32.9934],[72.7927,32.9112],[72.751,32.8915],[72.7857,32.8477],[72.8355,32.9128],[72.8334,32.9488],[72.9576,33.0258],[72.9556,33.0618],[72.9118,33.0782],[72.8873,33.1314],[72.9496,33.1699],[72.9476,33.2059],[72.8525,33.3647],[72.8719,33.4015],[72.9753,33.4776],[72.9712,33.5497],[72.9159,33.5746],[72.8513,33.5722],[72.8277,33.6074],[72.7642,33.5868],[72.72,33.6032],[72.6964,33.6383],[72.6237,33.5903],[72.642,33.6452],[72.5015,33.82],[72.497,33.892],[72.5289,33.9023],[72.5458,33.8037],[72.5696,33.7686],[72.6139,33.7523],[72.6285,33.6898],[72.657,33.7541],[72.5879,33.8235],[72.5834,33.8955],[72.5494,33.9212],[72.3958,33.951],[72.3708,34.0041],[72.068,33.991],[72.0452,34.0081]]],[[[72.82,33.1829],[72.8914,33.0594],[72.8843,32.9959],[72.87,33.0585],[72.8252,33.0929],[72.8221,33.1469],[72.7996,33.1641],[72.7986,33.1821],[72.82,33.1829]]],[[[72.7881,33.3622],[72.8342,33.3098],[72.8608,33.2206],[72.8935,33.2128],[72.8945,33.1948],[72.873,33.194],[72.8394,33.2198],[72.8373,33.2558],[72.7933,33.2721],[72.7902,33.3262],[72.7677,33.3433],[72.7666,33.3613],[72.7881,33.3622]]]]}},{"type":"Feature","properties":{"cell":108,"feature":1627,"phase":"Unclassified","min_bt_K":237.1,"area_km2":360,"cold_core_km2":0,"speed_kmh":null,"heading_deg":null,"d_min_bt_30":null,"age_min":0,"family":108,"touches_missing":true,"lon":82.119,"lat":33.9454,"merges_splits_so_far":0},"geometry":{"type":"MultiPolygon","coordinates":[[[[82.2853,33.9997],[82.0474,34.0071],[82.0241,33.9717],[81.9697,33.9643],[81.968,33.9282],[82.0408,33.8629],[82.1496,33.8776],[82.1911,33.8402],[82.2343,33.8389],[82.2472,33.8836],[82.2282,33.9383],[82.2853,33.9997]]]]}}]}