{"type":"FeatureCollection","features":[{"type":"Feature","properties":{"cell":98,"feature":1676,"phase":"Developing","min_bt_K":223.0,"area_km2":19368,"cold_core_km2":0,"speed_kmh":31.5,"heading_deg":153,"d_min_bt_30":0.9,"age_min":180,"family":98,"touches_missing":true,"lon":72.3844,"lat":32.9835,"merges_splits_so_far":3},"geometry":{"type":"MultiPolygon","coordinates":[[[[72.0452,34.0081],[71.9918,33.9966],[72.0105,33.4018],[71.9903,33.3828],[72.0095,33.0949],[71.9893,33.0759],[72.0096,32.77],[71.9894,32.751],[72.0095,32.4451],[71.9894,32.4262],[72.0104,32.1023],[71.9904,32.0833],[72.0085,31.9668],[72.0285,31.9858],[72.2411,31.9771],[72.3013,32.0338],[72.3647,32.0365],[72.4092,32.0023],[72.4515,32.0041],[72.4652,32.131],[72.5881,32.2082],[72.6517,32.2108],[72.7971,32.2707],[72.8456,32.3538],[73.0097,32.4683],[72.9865,32.5035],[73.0067,32.5223],[72.9796,32.6296],[73.0618,32.6868],[73.0701,32.7322],[73.1127,32.7338],[73.1433,32.762],[73.1404,32.816],[73.1608,32.8348],[73.0928,32.9045],[73.087,33.0126],[73.1492,33.0509],[73.0762,33.2107],[73.1253,33.2937],[73.1683,33.2952],[73.241,33.343],[73.1829,33.4221],[73.007,33.4878],[72.9425,33.4854],[72.9517,33.5128],[72.9077,33.5292],[72.9692,33.5857],[72.9456,33.6209],[72.9528,33.6843],[72.9671,33.6217],[73.0327,33.6061],[72.9835,33.7126],[72.9795,33.7846],[73.0411,33.8411],[73.0288,33.8677],[72.8561,33.8611],[72.82,33.9229],[72.787,33.9307],[72.7163,33.8467],[72.6844,33.8364],[72.6266,33.8973],[72.5596,33.9307],[72.5574,33.9667],[72.5233,33.9924],[72.4254,33.9973],[72.5402,33.8938],[72.5084,33.8834],[72.472,33.9451],[72.4277,33.9613],[72.3924,34.005],[72.068,33.991],[72.0452,34.0081]]],[[[72.8944,32.6263],[72.8954,32.6083],[72.9389,32.592],[72.9298,32.5645],[72.8984,32.5543],[72.8994,32.5363],[72.9429,32.5199],[72.9449,32.4839],[72.9145,32.4557],[72.8781,32.5355],[72.8974,32.5723],[72.8731,32.6255],[72.8944,32.6263]]],[[[73.0508,33.2819],[73.0527,33.2459],[73.0119,33.2083],[73.0462,32.975],[73.0685,32.9577],[73.0491,32.9209],[73.0724,32.8857],[73.0632,32.8583],[73.0511,32.8849],[73.0074,32.9013],[73.0472,32.9569],[73.0024,32.9914],[73.0178,33.1002],[72.974,33.1166],[72.969,33.2067],[73.0109,33.2263],[73.0078,33.2803],[73.0508,33.2819]]]]}},{"type":"Feature","properties":{"cell":108,"feature":1675,"phase":"Unclassified","min_bt_K":239.4,"area_km2":240,"cold_core_km2":0,"speed_kmh":31.6,"heading_deg":86,"d_min_bt_30":2.3,"age_min":30,"family":108,"touches_missing":false,"lon":82.2896,"lat":33.9563,"merges_splits_so_far":0},"geometry":{"type":"MultiPolygon","coordinates":[[[[82.4151,33.9955],[82.1772,34.0031],[82.1651,33.9764],[82.1945,33.9123],[82.3233,33.8902],[82.4227,33.932],[82.4151,33.9955]]]]}}]}