{"type":"FeatureCollection","features":[{"type":"Feature","properties":{"cell":98,"feature":1720,"phase":"Developing","min_bt_K":221.0,"area_km2":24308,"cold_core_km2":12,"speed_kmh":54.7,"heading_deg":164,"d_min_bt_30":-2.0,"age_min":210,"family":98,"touches_missing":true,"lon":72.4669,"lat":32.7467,"merges_splits_so_far":3},"geometry":{"type":"MultiPolygon","coordinates":[[[[72.0452,34.0081],[71.9942,33.9606],[72.0102,33.7267],[71.9898,33.7077],[72.0105,33.4018],[71.9903,33.3828],[72.0095,32.4451],[71.9894,32.4262],[72.0104,32.1023],[71.9904,32.0833],[72.01,31.7774],[71.9901,31.7584],[72.0092,31.6239],[72.231,31.7962],[72.2533,31.7791],[72.3799,31.7845],[72.4021,31.7674],[72.5498,31.7735],[72.6301,31.849],[72.6522,31.8318],[72.7156,31.8344],[72.784,31.9363],[72.8666,31.9756],[72.8444,31.9928],[72.8535,32.0202],[72.8766,31.985],[72.9382,32.0235],[73.0016,32.0259],[73.1543,32.1488],[73.1726,32.2036],[73.1505,32.2209],[73.2326,32.278],[73.1873,32.3305],[73.2288,32.35],[73.1956,32.3759],[73.1328,32.3556],[73.1208,32.3822],[73.0773,32.3986],[73.0744,32.4527],[73.0522,32.4699],[73.0594,32.5333],[73.0928,32.5075],[73.0735,32.4707],[73.1531,32.3743],[73.1817,32.4385],[73.1585,32.4738],[73.1992,32.5114],[73.1944,32.6014],[73.162,32.6093],[73.1547,32.5458],[73.1122,32.5443],[73.1102,32.5803],[73.1509,32.6179],[73.1248,32.7072],[73.1563,32.7173],[73.1655,32.7447],[73.0773,32.7956],[73.0734,32.8677],[73.0938,32.8865],[73.0613,32.8943],[73.0491,32.9209],[73.0807,32.9311],[73.0899,32.9585],[73.0462,32.975],[73.0078,33.2803],[73.0508,33.2819],[73.0577,33.1558],[73.0801,33.1386],[73.0962,33.04],[73.1268,33.0682],[73.1045,33.0854],[73.1239,33.1222],[73.1005,33.1574],[73.1161,33.2663],[73.1468,33.2945],[73.2429,33.3069],[73.1878,33.332],[73.1419,33.3845],[73.1204,33.3837],[73.1122,33.3383],[73.0907,33.3375],[73.0877,33.3916],[73.1297,33.4112],[73.1268,33.4652],[73.0828,33.4816],[73.0798,33.5357],[73.1228,33.5372],[73.1512,33.4119],[73.1839,33.4041],[73.1688,33.4848],[73.2005,33.4949],[73.2098,33.5223],[73.1208,33.5733],[73.1188,33.6093],[73.2368,33.6226],[73.3416,33.6804],[73.4166,33.692],[73.4044,33.7187],[73.1663,33.7283],[73.1726,33.8098],[73.1388,33.8356],[73.0545,33.7964],[73.0319,33.8136],[72.9702,33.7572],[72.9271,33.7556],[72.8819,33.7899],[72.8871,33.6999],[72.8747,33.7265],[72.8306,33.7428],[72.8037,33.8321],[72.7595,33.8484],[72.7562,33.9024],[72.7892,33.8947],[72.787,33.9307],[72.6142,33.9238],[72.5482,33.9392],[72.48,33.9906],[72.068,33.991],[72.0452,34.0081]]],[[[73.0462,33.751],[73.0051,33.7134],[73.0082,33.6593],[73.0522,33.6429],[73.0112,33.6053],[73.0132,33.5693],[72.9814,33.5591],[72.9681,33.6037],[73.0102,33.6233],[72.9835,33.7126],[73.0133,33.7588],[73.0462,33.751]]]]}}]}