{"type":"FeatureCollection","features":[{"type":"Feature","properties":{"cell":98,"feature":1763,"phase":"Developing","min_bt_K":212.1,"area_km2":29076,"cold_core_km2":536,"speed_kmh":67.8,"heading_deg":163,"d_min_bt_30":-8.8,"age_min":240,"family":98,"touches_missing":true,"lon":72.5742,"lat":32.4548,"merges_splits_so_far":3},"geometry":{"type":"MultiPolygon","coordinates":[[[[72.814,33.8415],[72.7729,33.8038],[72.6866,33.8004],[72.6661,33.7815],[72.6219,33.7978],[72.5583,33.7772],[72.5129,33.8114],[72.4697,33.8096],[72.3461,33.7142],[72.3018,33.7304],[72.0862,33.721],[72.0569,33.6746],[71.9947,33.6357],[72.0038,31.5425],[72.0371,31.5169],[72.1866,31.4874],[72.2098,31.4524],[72.6084,31.4872],[72.6706,31.5078],[72.6896,31.5446],[72.7728,31.566],[72.812,31.6216],[72.834,31.6044],[72.9173,31.6257],[72.9264,31.6531],[72.9043,31.6703],[72.9537,31.7354],[72.9858,31.7275],[72.9839,31.7636],[73.0141,31.7918],[73.0774,31.7941],[73.0967,31.8309],[73.1398,31.8145],[73.2225,31.8536],[73.2445,31.8363],[73.2849,31.8738],[73.4311,31.915],[73.4597,31.9792],[73.5206,32.0353],[73.5197,32.0534],[73.4765,32.0699],[73.4959,32.1067],[73.64,32.2017],[73.6442,32.3372],[73.5924,32.3084],[73.595,32.2544],[73.5526,32.253],[73.5509,32.289],[73.5907,32.3444],[73.5244,32.3964],[73.52,32.4864],[73.4979,32.5037],[73.5165,32.5585],[73.4935,32.5938],[73.45,32.6104],[73.4455,32.7005],[73.4011,32.735],[73.4206,32.7718],[73.377,32.7883],[73.364,32.833],[73.2341,32.8645],[73.2108,32.8998],[73.2016,32.8724],[73.17,32.8622],[73.156,32.9248],[73.0879,32.9945],[73.0442,33.011],[73.085,33.0486],[73.0821,33.1026],[73.1239,33.1222],[73.121,33.1762],[73.0986,33.1934],[73.1171,33.2483],[73.0937,33.2835],[73.0498,33.2999],[73.0468,33.354],[72.9793,33.4056],[73.0193,33.4612],[72.9743,33.4956],[72.9446,33.6389],[72.9856,33.6765],[72.9918,33.758],[73.0071,33.6774],[72.9661,33.6397],[72.9692,33.5857],[73.002,33.5779],[73.0522,33.6429],[73.0668,33.7698],[73.0329,33.7956],[72.8819,33.7899],[72.8377,33.8063],[72.814,33.8415]]]]}}]}