{"type":"FeatureCollection","features":[{"type":"Feature","properties":{"cell":98,"feature":1796,"phase":"Decaying","min_bt_K":223.0,"area_km2":31308,"cold_core_km2":0,"speed_kmh":38.2,"heading_deg":160,"d_min_bt_30":10.9,"age_min":270,"family":98,"touches_missing":true,"lon":72.6442,"lat":32.2929,"merges_splits_so_far":4},"geometry":{"type":"MultiPolygon","coordinates":[[[[73.0821,33.6892],[73.0184,33.6688],[72.8245,33.6614],[72.7426,33.586],[72.6361,33.5637],[72.6168,33.5268],[72.5953,33.526],[72.5715,33.5611],[72.5285,33.5594],[72.361,33.4802],[72.2535,33.4756],[72.2331,33.4567],[72.189,33.4728],[71.9939,33.3288],[72.0095,32.4451],[71.9894,32.4262],[72.0104,32.1023],[71.9904,32.0833],[72.0008,31.9213],[72.0242,31.8863],[72.0043,31.8674],[72.01,31.7774],[71.9901,31.7584],[72.0123,31.7414],[72.0157,31.6874],[71.9958,31.6685],[72.0846,31.6003],[72.1113,31.5112],[72.1777,31.46],[72.1589,31.4231],[72.1821,31.388],[72.2783,31.3651],[72.3446,31.3138],[72.4076,31.3165],[72.4197,31.2899],[72.4737,31.2651],[72.5157,31.2668],[72.5346,31.3037],[72.6396,31.308],[72.7006,31.3465],[72.7637,31.349],[72.7857,31.3319],[72.9747,31.3392],[72.9948,31.358],[73.0377,31.3415],[73.0779,31.3791],[73.1199,31.3807],[73.1391,31.4175],[73.1812,31.419],[73.2416,31.4753],[73.3652,31.5338],[73.4644,31.6635],[73.5276,31.6657],[73.5369,31.6931],[73.6998,31.8247],[73.6762,31.8781],[73.7177,31.8975],[73.6941,31.9509],[73.7102,32.0596],[73.8112,32.1711],[73.8096,32.2072],[73.7766,32.2332],[73.6942,32.1764],[73.662,32.1844],[73.7443,32.2412],[73.7267,32.394],[73.5567,32.3884],[73.5125,32.423],[73.4275,32.4201],[73.2648,32.4776],[73.2621,32.5317],[73.2398,32.5489],[73.2352,32.639],[73.2759,32.6765],[73.2731,32.7305],[73.2508,32.7478],[73.2628,32.9287],[73.2182,32.9632],[73.2367,33.018],[73.1229,33.1402],[73.0966,33.2295],[73.0415,33.2545],[72.9139,33.2317],[72.9006,33.2763],[72.8556,33.3106],[72.9026,33.4298],[72.9353,33.422],[72.8944,33.3843],[72.9067,33.3577],[72.9691,33.3962],[73.1634,33.3853],[73.1688,33.4848],[73.222,33.4957],[73.293,33.5794],[73.2808,33.6061],[73.0821,33.6892]]],[[[73.7078,32.1137],[73.6281,32.0028],[73.6306,31.9488],[73.6737,31.9322],[73.6331,31.8947],[73.6365,31.8227],[73.5242,31.7377],[73.5233,31.7558],[73.5951,31.8033],[73.5909,31.8933],[73.6323,31.9128],[73.5875,31.9654],[73.5858,32.0014],[73.6273,32.0209],[73.6349,32.0843],[73.6561,32.0849],[73.6756,32.1217],[73.7078,32.1137]]]]}}]}