{"type":"FeatureCollection","features":[{"type":"Feature","properties":{"cell":98,"feature":1832,"phase":"Mature","min_bt_K":220.3,"area_km2":32476,"cold_core_km2":40,"speed_kmh":27.5,"heading_deg":77,"d_min_bt_30":-2.7,"age_min":300,"family":98,"touches_missing":true,"lon":72.7868,"lat":32.32,"merges_splits_so_far":5},"geometry":{"type":"MultiPolygon","coordinates":[[[[72.4288,33.4289],[72.3283,33.3164],[72.2233,33.2758],[72.159,33.273],[72.0059,33.1489],[72.0095,33.0949],[71.9893,33.0759],[72.0096,32.77],[71.9894,32.751],[72.0095,32.4451],[71.9894,32.4262],[71.9997,31.9393],[72.0876,31.8891],[72.101,31.8446],[72.25,31.8331],[72.3498,31.7562],[72.3142,31.6464],[72.2731,31.6266],[72.2753,31.5906],[72.3217,31.5204],[72.325,31.4664],[72.3692,31.4322],[72.3724,31.3781],[72.4055,31.3525],[72.4685,31.3551],[72.5556,31.3046],[72.6425,31.4435],[72.6926,31.4906],[72.7347,31.4923],[72.7536,31.3396],[72.8186,31.3061],[72.9194,31.1927],[73.0014,31.2319],[73.1693,31.2381],[73.2925,31.2967],[73.3218,31.3428],[73.3932,31.3904],[73.4151,31.3731],[73.4773,31.3933],[73.5875,31.5143],[73.5841,31.5864],[73.6145,31.6144],[73.6405,31.507],[73.6708,31.5351],[73.6692,31.5711],[73.7603,31.6553],[73.8642,31.6946],[73.9048,31.732],[73.9782,31.7432],[73.9658,31.788],[73.9454,31.7693],[73.9134,31.7773],[73.8907,31.8127],[73.8867,31.9028],[73.8437,31.9195],[73.8844,31.9569],[73.882,32.0109],[73.8161,32.063],[73.7256,32.1864],[73.8198,32.2165],[73.8496,32.2625],[73.9321,32.3192],[73.9494,32.41],[73.8959,32.4173],[73.7846,32.5221],[73.7191,32.5561],[73.6766,32.5548],[73.5649,32.6594],[73.5445,32.6406],[73.489,32.6839],[73.529,32.7394],[73.4966,32.7473],[73.4178,32.8258],[73.4151,32.8799],[73.3697,32.9324],[73.3046,32.9482],[73.2962,33.1103],[73.1609,33.2318],[73.1804,33.2686],[73.0917,33.3195],[73.1122,33.3383],[73.0785,33.3642],[73.0355,33.3626],[72.9251,33.4126],[72.9047,33.3937],[72.7747,33.4068],[72.7339,33.3691],[72.6695,33.3665],[72.4288,33.4289]]]]}}]}