{"type":"FeatureCollection","features":[{"type":"Feature","properties":{"cell":98,"feature":1862,"phase":"Mature","min_bt_K":219.2,"area_km2":31516,"cold_core_km2":200,"speed_kmh":11.6,"heading_deg":48,"d_min_bt_30":-1.1,"age_min":330,"family":98,"touches_missing":true,"lon":72.833,"lat":32.3549,"merges_splits_so_far":6},"geometry":{"type":"MultiPolygon","coordinates":[[[[72.8146,33.4625],[72.7716,33.4608],[72.4389,33.2669],[72.396,33.2651],[72.3577,33.1913],[72.1819,33.0845],[72.1543,32.8486],[72.0825,32.8003],[72.006,32.824],[72.0096,32.77],[71.9894,32.751],[72.0095,32.4451],[71.9894,32.4262],[72.0104,32.1023],[71.9904,32.0833],[72.0242,31.8863],[72.0054,31.8494],[72.0499,31.8153],[72.0534,31.7613],[72.1078,31.7366],[72.1711,31.7394],[72.1933,31.7223],[72.2555,31.7431],[72.3631,31.7116],[72.5107,31.7178],[72.5312,31.5472],[72.5874,31.4863],[72.6295,31.4881],[72.6685,31.5438],[72.7988,31.4767],[72.882,31.498],[72.8878,31.39],[72.9919,31.412],[73.0111,31.4488],[73.0742,31.4512],[73.1281,31.4261],[73.1318,31.354],[73.2094,31.2757],[73.2925,31.2967],[73.4001,31.2463],[73.5269,31.2326],[73.5866,31.3068],[73.7118,31.3289],[73.7631,31.3576],[73.7413,31.375],[73.7372,31.4651],[73.7785,31.4844],[73.7846,31.5839],[73.8291,31.5311],[73.9329,31.5704],[73.9625,31.6165],[73.8868,31.6592],[73.7393,31.6546],[73.7165,31.6899],[73.6744,31.6886],[73.5976,31.7492],[73.5258,31.9273],[73.5223,31.9993],[73.4571,32.0332],[73.4553,32.0692],[73.5145,32.1615],[73.5653,32.2083],[73.6078,32.2097],[73.7088,32.3212],[73.9628,32.3472],[73.9832,32.3659],[74.0469,32.3678],[74.0564,32.3951],[73.9785,32.474],[73.8926,32.4894],[73.8374,32.5328],[73.8358,32.5689],[73.7584,32.6296],[73.7166,32.6102],[73.7047,32.6369],[73.6612,32.6535],[73.6382,32.6889],[73.657,32.7436],[73.6339,32.7789],[73.5904,32.7955],[73.6313,32.833],[73.6398,32.8784],[73.6723,32.8704],[73.674,32.8344],[73.6424,32.8243],[73.633,32.7969],[73.6962,32.817],[73.7125,32.9258],[73.6244,32.9771],[73.6218,33.0312],[73.5986,33.0665],[73.5549,33.0831],[73.5273,33.2085],[73.5813,33.2013],[73.6327,33.2481],[73.691,33.3763],[73.4874,33.3605],[73.4034,33.3216],[73.3371,33.3554],[73.2307,33.3336],[73.097,33.419],[72.9681,33.4142],[72.8146,33.4625]]]]}}]}