{"type":"FeatureCollection","features":[{"type":"Feature","properties":{"cell":98,"feature":1877,"phase":"Decaying","min_bt_K":223.4,"area_km2":34148,"cold_core_km2":0,"speed_kmh":45.7,"heading_deg":118,"d_min_bt_30":4.2,"age_min":360,"family":98,"touches_missing":true,"lon":73.046,"lat":32.2565,"merges_splits_so_far":7},"geometry":{"type":"MultiPolygon","coordinates":[[[[73.097,33.419],[72.8852,33.3569],[72.7434,33.207],[72.6904,33.1959],[72.701,33.0158],[72.5273,32.8735],[72.4644,32.8528],[72.407,32.7421],[72.2352,32.7529],[71.9965,32.6431],[72.0095,32.4451],[72.0532,32.429],[72.0566,32.375],[71.9976,32.3002],[72.0116,32.0843],[72.1231,31.999],[72.1054,31.9441],[72.2866,31.7535],[72.2898,31.6995],[72.3342,31.6653],[72.3396,31.5753],[72.3717,31.5676],[72.417,31.5154],[72.5453,31.4846],[72.5905,31.4323],[72.6736,31.4537],[72.6926,31.4906],[72.7347,31.4923],[72.8428,31.4424],[72.9059,31.4448],[72.926,31.4636],[73.0952,31.4519],[73.1281,31.4261],[73.1099,31.3713],[73.1547,31.3188],[73.2076,31.3117],[73.2195,31.285],[73.2514,31.2772],[73.2908,31.3327],[73.3949,31.3544],[73.4554,31.4106],[73.5597,31.4322],[73.5984,31.5056],[73.7542,31.5558],[73.7308,31.6092],[73.7486,31.682],[73.7165,31.6899],[73.6609,31.7513],[73.7023,31.7707],[73.7116,31.7981],[73.7327,31.7987],[73.7234,31.7714],[73.7664,31.7547],[73.7672,31.7367],[73.7259,31.7173],[73.7697,31.6826],[73.7846,31.5839],[73.8057,31.5845],[73.8142,31.6299],[73.9267,31.7146],[74.262,31.7786],[74.3532,31.8803],[74.3511,31.9344],[74.3927,31.9536],[74.3701,31.9891],[74.3899,32.0257],[74.3652,32.1152],[74.4062,32.1524],[74.4048,32.1885],[74.3726,32.1966],[74.3062,32.267],[74.2096,32.2913],[74.1649,32.3442],[74.1846,32.3808],[74.1524,32.3889],[74.0746,32.4678],[74.0943,32.5045],[74.0707,32.5579],[73.9738,32.5821],[73.9619,32.6088],[73.8079,32.7123],[73.7508,32.7917],[73.7312,32.755],[73.6988,32.763],[73.7397,32.8004],[73.7389,32.8184],[73.6954,32.8351],[73.7108,32.9619],[73.7432,32.9539],[73.8057,32.992],[73.8365,33.02],[73.8349,33.056],[73.8975,33.0941],[73.8727,33.1655],[73.7759,33.1715],[73.7639,33.1982],[73.7099,33.2055],[73.6867,33.2408],[73.6018,33.22],[73.5666,33.282],[73.6274,33.3562],[73.6042,33.3915],[73.5491,33.4168],[73.4202,33.4124],[73.3791,33.3749],[73.3567,33.3922],[73.2278,33.3876],[73.097,33.419]]]]}}]}