{"type":"FeatureCollection","features":[{"type":"Feature","properties":{"cell":98,"feature":1896,"phase":"Decaying","min_bt_K":224.3,"area_km2":20972,"cold_core_km2":0,"speed_kmh":77.9,"heading_deg":157,"d_min_bt_30":0.8,"age_min":390,"family":98,"touches_missing":true,"lon":73.2052,"lat":31.9323,"merges_splits_so_far":10},"geometry":{"type":"MultiPolygon","coordinates":[[[[72.8751,32.779],[72.8325,32.7774],[72.802,32.7491],[72.803,32.7311],[72.8467,32.7147],[72.8376,32.6873],[72.8163,32.6865],[72.7929,32.7217],[72.7087,32.7003],[72.6287,32.6069],[72.4952,32.5202],[72.5297,32.4765],[72.6148,32.48],[72.6706,32.4371],[72.6291,32.4174],[72.6333,32.3454],[72.5818,32.3162],[72.4969,32.3128],[72.4354,32.2741],[72.356,32.1805],[72.2723,32.1589],[72.2634,32.1315],[72.2857,32.1144],[72.2667,32.0775],[72.1677,31.9649],[72.1922,31.9118],[72.28,31.8615],[72.2611,31.8246],[72.3709,31.7571],[72.3752,31.6851],[72.4185,31.6688],[72.3806,31.5951],[72.4549,31.5892],[72.4749,31.608],[72.5591,31.6115],[72.5722,31.5669],[72.6605,31.4983],[72.6415,31.4615],[72.7577,31.4571],[72.8147,31.3781],[72.8177,31.3241],[72.9155,31.2647],[72.9785,31.2671],[73.0004,31.2499],[73.1465,31.2734],[73.1665,31.2921],[73.2103,31.2576],[73.2523,31.2592],[73.3547,31.3169],[73.4597,31.3205],[73.5841,31.3608],[73.6697,31.3276],[73.7748,31.3309],[73.8573,31.3696],[73.8666,31.397],[73.8448,31.4143],[73.8744,31.4604],[74.0209,31.4829],[74.0818,31.5388],[74.1239,31.5401],[74.1326,31.5854],[74.2147,31.6419],[74.182,31.668],[74.1195,31.6482],[74.1063,31.711],[74.0626,31.7458],[74.0611,31.7818],[74.1019,31.8191],[74.0989,31.8912],[74.1302,31.9011],[74.1535,31.8477],[74.2045,31.8942],[74.2235,31.9489],[74.1987,32.0384],[74.1337,32.0726],[74.1322,32.1087],[74.0773,32.1522],[73.991,32.1857],[73.9494,32.1664],[73.9172,32.1744],[73.8944,32.2098],[73.8904,32.2999],[73.8472,32.3166],[73.8464,32.3346],[73.888,32.354],[73.7377,32.3853],[73.7302,32.5475],[73.6962,32.5915],[73.5471,32.5866],[73.5028,32.6212],[73.3954,32.6356],[73.35,32.6881],[73.2861,32.6859],[73.2065,32.5748],[73.0807,32.5341],[72.9743,32.5301],[72.9612,32.5748],[72.9177,32.5911],[72.9086,32.7532],[72.8751,32.779]]]]}}]}