{"type":"FeatureCollection","features":[{"type":"Feature","properties":{"cell":98,"feature":1917,"phase":"Decaying","min_bt_K":228.2,"area_km2":26336,"cold_core_km2":0,"speed_kmh":57.0,"heading_deg":90,"d_min_bt_30":4.0,"age_min":420,"family":98,"touches_missing":true,"lon":73.5065,"lat":31.9338,"merges_splits_so_far":13},"geometry":{"type":"MultiPolygon","coordinates":[[[[73.86,33.2102],[73.8385,33.2095],[73.8188,33.1728],[73.6688,33.168],[73.6465,33.1854],[73.5616,33.1645],[73.3864,33.0232],[73.3678,32.9685],[73.3167,32.9216],[73.1413,32.798],[73.1442,32.744],[73.0618,32.6868],[73.0638,32.6508],[73.0231,32.6132],[73.027,32.5411],[72.9865,32.5035],[72.9884,32.4675],[72.9469,32.4479],[72.9123,32.3022],[72.7699,32.1884],[72.7739,32.1164],[72.7326,32.0967],[72.7376,32.0067],[72.6974,31.969],[72.6994,31.933],[72.5979,31.8567],[72.6031,31.7667],[72.583,31.7478],[72.6123,31.6047],[72.5522,31.5481],[72.5574,31.458],[72.6125,31.4152],[72.6956,31.4366],[72.8037,31.3867],[72.8878,31.39],[72.9738,31.3572],[72.9866,31.3125],[73.0296,31.2961],[73.0662,31.1982],[73.1081,31.1998],[73.131,31.1645],[73.2148,31.1676],[73.3014,31.1165],[73.4271,31.1209],[73.449,31.1036],[73.511,31.1238],[73.7206,31.1307],[73.761,31.1681],[73.813,31.1788],[73.8106,31.2328],[73.8511,31.2702],[73.8487,31.3243],[73.8059,31.341],[73.8464,31.3783],[73.8238,31.4137],[73.8331,31.441],[73.8884,31.3796],[73.8573,31.3696],[73.8479,31.3423],[73.8915,31.3075],[73.893,31.2715],[73.9249,31.2635],[73.918,31.4256],[74.0442,31.4295],[74.1268,31.468],[74.3155,31.4914],[74.3766,31.5472],[74.4601,31.5675],[74.49,31.6134],[74.488,31.6675],[74.4248,31.6658],[74.4234,31.7018],[74.4643,31.739],[74.4384,31.8646],[74.4063,31.8728],[74.3838,31.9082],[74.3306,31.9158],[74.3271,32.0059],[74.2833,32.0408],[74.325,32.06],[74.3228,32.1141],[74.279,32.1489],[74.3207,32.1681],[74.3193,32.2042],[74.2542,32.2385],[74.1649,32.3442],[74.1524,32.3889],[74.1327,32.3523],[74.1004,32.3603],[74.1406,32.4156],[74.0974,32.4324],[74.073,32.5039],[74.0069,32.556],[74.0045,32.6101],[73.9824,32.6275],[73.9801,32.6815],[74.0512,32.7649],[74.2218,32.7698],[74.252,32.8158],[74.0109,32.9531],[74.0513,33.0085],[74.0497,33.0445],[74.0061,33.0613],[73.9807,33.1507],[73.86,33.2102]]]]}}]}