{"type":"FeatureCollection","features":[{"type":"Feature","properties":{"cell":98,"feature":1942,"phase":"Decaying","min_bt_K":228.3,"area_km2":18344,"cold_core_km2":0,"speed_kmh":56.6,"heading_deg":155,"d_min_bt_30":0.0,"age_min":450,"family":98,"touches_missing":true,"lon":73.6329,"lat":31.7027,"merges_splits_so_far":13},"geometry":{"type":"MultiPolygon","coordinates":[[[[73.6167,32.9137],[73.5322,32.8929],[73.4819,32.828],[73.4659,32.7192],[73.5112,32.6666],[73.4704,32.6291],[73.4739,32.5571],[73.4323,32.5376],[73.435,32.4836],[73.3933,32.4641],[73.396,32.41],[73.3138,32.353],[73.3165,32.299],[73.2777,32.2254],[73.1736,32.1856],[73.2225,32.0611],[73.3283,32.0648],[73.331,32.0108],[73.2905,31.9733],[73.2932,31.9192],[73.3153,31.902],[73.2977,31.8292],[73.3418,31.7946],[73.3233,31.7398],[73.2114,31.6547],[73.0208,31.6657],[72.8891,31.5615],[72.9255,31.2741],[72.9904,31.2405],[73.0033,31.1959],[73.1081,31.1998],[73.151,31.1833],[73.1702,31.2201],[73.2139,31.1856],[73.3817,31.1915],[73.4674,31.1584],[73.4875,31.1771],[73.5303,31.1605],[73.698,31.1661],[73.7594,31.2041],[73.8643,31.2075],[73.907,31.1907],[73.9467,31.2461],[74.0104,31.23],[74.0509,31.2673],[74.1443,31.2971],[74.1377,31.4593],[74.1791,31.4785],[74.1979,31.5332],[74.1754,31.5686],[74.206,31.5966],[74.2902,31.5989],[74.3018,31.5722],[74.3446,31.5553],[74.346,31.5193],[74.3779,31.5111],[74.418,31.5664],[74.6076,31.5713],[74.6171,31.5986],[74.6586,31.6177],[74.6567,31.6718],[74.6983,31.6909],[74.697,31.7269],[74.5998,31.7876],[74.4942,31.7849],[74.4534,31.7477],[74.369,31.7455],[74.3465,31.7809],[74.305,31.7617],[74.2722,31.7879],[74.2715,31.8059],[74.3641,31.8716],[74.4063,31.8728],[74.4786,31.9198],[74.4971,31.9925],[74.538,32.0296],[74.5354,32.1017],[74.2952,32.2757],[74.2923,32.3478],[74.3128,32.3664],[74.2909,32.3838],[74.2865,32.492],[74.2212,32.5262],[74.219,32.5803],[74.0795,32.6033],[73.9919,32.6548],[73.9493,32.6536],[73.9366,32.6983],[73.8924,32.733],[73.9113,32.7877],[73.8789,32.7957],[73.8226,32.8572],[73.768,32.8825],[73.6825,32.8798],[73.6167,32.9137]]],[[[73.7678,32.6569],[73.7686,32.6389],[73.7064,32.6008],[73.731,32.5295],[73.7744,32.5128],[73.7429,32.5028],[73.7098,32.5288],[73.7081,32.5648],[73.6647,32.5814],[73.7567,32.6656],[73.7678,32.6569]]]]}}]}