{"type":"FeatureCollection","features":[{"type":"Feature","properties":{"cell":98,"feature":1964,"phase":"Decaying","min_bt_K":232.1,"area_km2":7308,"cold_core_km2":0,"speed_kmh":79.1,"heading_deg":161,"d_min_bt_30":3.9,"age_min":480,"family":98,"touches_missing":true,"lon":73.7676,"lat":31.3652,"merges_splits_so_far":13},"geometry":{"type":"MultiPolygon","coordinates":[[[[74.0924,31.7917],[74.0502,31.7905],[74.0306,31.7538],[73.8829,31.7493],[73.8602,31.7847],[73.6069,31.7766],[73.5664,31.7392],[73.5022,31.755],[73.4196,31.7161],[73.3563,31.7139],[73.2856,31.6483],[73.2874,31.6123],[73.248,31.5567],[73.2489,31.5387],[73.2919,31.5222],[73.2525,31.4667],[73.2579,31.3586],[73.3446,31.3075],[73.3918,31.2009],[73.2987,31.1706],[73.2904,31.1252],[73.4314,31.0309],[73.537,31.0164],[73.5596,30.9811],[73.686,30.9672],[73.7053,31.0039],[73.7673,31.024],[73.9341,31.0472],[73.9752,31.0665],[73.9947,31.1032],[74.0792,31.0877],[74.1819,31.1448],[74.263,31.2193],[74.3266,31.203],[74.357,31.2309],[74.3557,31.267],[74.3238,31.2751],[74.3035,31.2565],[74.2811,31.292],[74.2493,31.3001],[74.2443,31.4262],[74.3264,31.4827],[74.3257,31.5007],[74.2829,31.5175],[74.2822,31.5356],[74.3236,31.5548],[74.2793,31.6077],[74.3194,31.6629],[74.3159,31.753],[74.1143,31.7743],[74.0924,31.7917]]]]}}]}