{"type":"FeatureCollection","features":[{"type":"Feature","properties":{"cell":98,"feature":1987,"phase":"Decaying","min_bt_K":233.3,"area_km2":6080,"cold_core_km2":0,"speed_kmh":55.0,"heading_deg":103,"d_min_bt_30":1.2,"age_min":510,"family":98,"touches_missing":true,"lon":74.0494,"lat":31.3105,"merges_splits_so_far":13},"geometry":{"type":"MultiPolygon","coordinates":[[[[74.011,31.7172],[73.7157,31.708],[73.6853,31.6799],[73.687,31.6439],[73.719,31.6359],[73.7308,31.6092],[73.6574,31.5978],[73.5883,31.4963],[73.611,31.461],[73.6152,31.3709],[73.6807,31.3189],[73.6855,31.2108],[73.646,31.1554],[73.6896,31.1207],[73.7363,31.0139],[73.8007,30.9799],[73.7813,30.9432],[73.92,30.8844],[74.0866,30.9075],[74.1269,30.9447],[74.2316,30.9477],[74.3139,30.9861],[74.3355,30.9687],[74.4064,31.0338],[74.424,31.1245],[74.4646,31.1617],[74.4593,31.3059],[74.5,31.343],[74.4343,31.4134],[74.4282,31.5757],[74.3078,31.6896],[74.1398,31.6668],[74.011,31.7172]]]]}}]}