{"type":"FeatureCollection","features":[{"type":"Feature","properties":{},"geometry":{"type":"MultiLineString","coordinates":[[[82.7504,33.7854],[82.6406,33.7532],[82.5825,33.674],[82.7455,33.6954],[82.7295,33.5967],[82.8425,33.4934],[82.9888,33.6053],[82.9723,33.6962],[82.7504,33.7854]],[[83.9854,33.5012],[83.9071,33.4596],[83.9818,33.4473],[83.9854,33.5012]],[[83.7954,33.5638],[83.7625,33.5562],[83.7704,33.5107],[83.7954,33.5638]],[[83.8647,33.6329],[83.8091,33.6083],[83.8169,33.5628],[83.8737,33.6055],[83.8647,33.6329]],[[83.9927,33.6092],[83.9383,33.6026],[83.946,33.5572],[84.0016,33.5817],[83.9927,33.6092]],[[83.4395,33.7412],[83.3748,33.7438],[83.316,33.6649],[83.5847,33.6449],[83.6403,33.6697],[83.6312,33.6971],[83.4804,33.7034],[83.4395,33.7412]]]}}]}