{"type":"FeatureCollection","features":[{"type":"Feature","properties":{},"geometry":{"type":"MultiLineString","coordinates":[[[75.0602,33.26],[75.0295,33.2142],[75.1054,33.1889],[75.1361,33.2346],[75.0602,33.26]],[[75.2114,33.2272],[75.1911,33.1907],[75.2444,33.2008],[75.2114,33.2272]],[[82.9692,33.8317],[82.8171,33.8192],[82.7784,33.7032],[82.6452,33.6357],[82.648,33.4822],[83.0329,33.4322],[83.079,33.4846],[83.3085,33.5389],[83.3332,33.592],[83.2493,33.6314],[83.273,33.6666],[83.2422,33.6949],[83.1376,33.7531],[83.0092,33.776],[82.9692,33.8317]],[[83.4874,33.4685],[83.4445,33.4702],[83.4321,33.4437],[83.4637,33.4333],[83.4874,33.4685]],[[82.5863,33.5385],[82.5535,33.5306],[82.562,33.4852],[82.5863,33.5385]],[[82.9508,33.697],[82.9478,33.6429],[83.0114,33.6225],[83.0083,33.5685],[82.8024,33.549],[82.7725,33.5952],[82.9508,33.697]],[[83.9833,33.7902],[83.5938,33.789],[83.4691,33.6948],[83.4657,33.6408],[83.7343,33.6206],[83.8228,33.6528],[83.8091,33.6083],[83.8396,33.5799],[83.9927,33.6092],[84.0102,33.7077],[83.9833,33.7902]],[[81.9687,33.7026],[81.936,33.6946],[81.9455,33.6672],[81.9998,33.6746],[81.9687,33.7026]],[[80.5318,34.0082],[80.2717,33.9948],[80.2602,33.9679],[80.3131,33.9219],[80.3356,33.9576],[80.4865,33.9368],[80.4764,33.9641],[80.5418,33.9809],[80.5318,34.0082]]]}}]}