{"type":"FeatureCollection","features":[{"type":"Feature","properties":{},"geometry":{"type":"MultiLineString","coordinates":[[[83.7727,33.5467],[83.7274,33.5125],[83.6413,33.5162],[83.6006,33.554],[83.5021,33.531],[83.6322,33.3722],[83.7181,33.3685],[83.7782,33.4652],[83.8224,33.4814],[83.8247,33.5174],[83.7727,33.5467]],[[82.96,33.6696],[82.8739,33.6727],[82.6752,33.5896],[82.619,33.5464],[82.6143,33.4563],[82.7115,33.462],[82.7956,33.4229],[82.8435,33.5114],[82.8825,33.4378],[83.0964,33.4117],[83.1833,33.4265],[83.2746,33.5131],[83.3493,33.5011],[83.3515,33.5371],[83.28,33.6032],[83.1723,33.6074],[83.1487,33.5722],[83.0841,33.5746],[82.9991,33.5959],[82.96,33.6696]],[[83.4428,33.7952],[83.3781,33.7978],[83.2557,33.7395],[83.2638,33.694],[83.3591,33.6632],[83.3139,33.6289],[83.3424,33.5646],[83.5281,33.6022],[83.5315,33.6562],[83.4679,33.6768],[83.5144,33.7291],[83.4428,33.7952]],[[82.8161,33.8011],[82.7072,33.787],[82.5937,33.6826],[82.5394,33.6755],[82.5375,33.6394],[82.6115,33.6098],[82.7886,33.6938],[82.847,33.773],[82.8161,33.8011]],[[83.9894,33.8801],[83.8359,33.8508],[83.7778,33.7902],[83.7288,33.702],[83.842,33.6159],[84.0065,33.6537],[83.9845,33.8082],[83.9414,33.8101],[83.8605,33.7324],[83.9324,33.8376],[83.9984,33.8527],[83.9894,33.8801]],[[80.6183,34.0065],[80.1741,33.9874],[80.3131,33.9219],[80.401,33.9745],[80.4644,33.9192],[80.5719,33.8991],[80.6272,33.9432],[80.6183,34.0065]]]}}]}