{"type":"FeatureCollection","features":[{"type":"Feature","properties":{},"geometry":{"type":"MultiLineString","coordinates":[[[83.9887,28.1226],[83.9557,28.0789],[83.9847,28.0505],[83.9887,28.1226]],[[75.8659,32.7702],[75.7806,32.7688],[75.7492,32.7412],[75.8149,32.6701],[75.8162,32.616],[75.9135,32.5544],[75.9766,32.5915],[76.0625,32.5567],[76.0939,32.5842],[76.0711,32.656],[76.0176,32.6643],[75.9758,32.6275],[75.9416,32.7262],[75.8659,32.7702]],[[83.4582,33.3433],[83.4255,33.3356],[83.4346,33.3082],[83.4673,33.3159],[83.4582,33.3433]],[[83.6356,33.4262],[83.535,33.3672],[83.5441,33.3398],[83.6288,33.3182],[83.6627,33.3438],[83.6356,33.4262]],[[83.9769,33.3753],[83.9,33.3516],[83.9078,33.3061],[84.0073,33.3468],[83.9769,33.3753]],[[83.0123,33.83],[82.924,33.7972],[82.7739,33.8207],[82.7175,33.7776],[82.6902,33.6703],[82.5563,33.5846],[82.532,33.5313],[82.6041,33.4657],[82.691,33.4807],[82.7741,33.4236],[82.819,33.4581],[82.86,33.4206],[82.946,33.4174],[82.991,33.4518],[83.0554,33.4494],[83.0964,33.4117],[83.1833,33.4265],[83.4307,33.5971],[83.4952,33.5945],[83.5519,33.6373],[83.5224,33.6836],[83.4566,33.6683],[83.4329,33.6331],[83.196,33.6425],[83.1345,33.6991],[83.0472,33.6843],[82.9949,33.7134],[83.0401,33.7478],[83.0123,33.83]],[[82.1361,33.5893],[82.0148,33.5298],[82.0881,33.4825],[82.1112,33.5179],[82.2093,33.5419],[82.1361,33.5893]],[[83.9102,33.6671],[83.7672,33.6282],[83.7614,33.5382],[83.8313,33.4539],[83.9388,33.4492],[83.974,33.4927],[83.9789,33.5647],[83.9102,33.6671]],[[81.8417,33.7605],[81.8074,33.7163],[81.8817,33.6871],[81.9152,33.7132],[81.8417,33.7605]],[[83.7291,33.8735],[83.7052,33.8384],[83.6189,33.8421],[83.5848,33.8164],[83.5847,33.6449],[83.6924,33.6404],[83.7515,33.7191],[83.8174,33.7343],[83.7346,33.792],[83.7802,33.8262],[83.7291,33.8735]],[[80.6616,34.0057],[80.4885,34.009],[80.4553,33.9825],[80.5192,33.9453],[80.4649,33.9372],[80.4528,33.8924],[80.5276,33.8639],[80.5619,33.9264],[80.6716,33.9784],[80.6616,34.0057]],[[80.8107,33.9304],[80.7242,33.9322],[80.712,33.8874],[80.7436,33.8597],[80.7874,33.8768],[80.8107,33.9304]]]}}]}