{"type":"FeatureCollection","features":[{"type":"Feature","properties":{},"geometry":{"type":"MultiLineString","coordinates":[[[76.0785,32.8095],[75.9726,32.7718],[75.8228,32.7875],[75.7283,32.7228],[75.8262,32.6432],[75.8902,32.6443],[75.9344,32.5728],[75.9762,32.6095],[76.02,32.556],[76.1697,32.5221],[76.2206,32.6401],[76.295,32.65],[76.3049,32.6953],[76.2297,32.7214],[76.2073,32.7752],[76.122,32.774],[76.0785,32.8095]],[[74.8444,33.2912],[74.728,33.2433],[74.8677,33.2376],[74.8444,33.2912]],[[83.6062,33.3011],[83.508,33.2781],[83.6254,33.2642],[83.6062,33.3011]],[[83.8028,33.3468],[83.7271,33.3411],[83.7112,33.2605],[83.8524,33.2815],[83.8028,33.3468]],[[83.3123,33.7824],[83.1829,33.7874],[83.1376,33.7531],[83.0966,33.7908],[82.9661,33.7776],[82.8758,33.7087],[82.8112,33.7111],[82.6312,33.5731],[82.5105,33.5321],[82.5835,33.4845],[82.6508,33.5363],[82.8865,33.5098],[82.9255,33.4362],[83.0575,33.4854],[83.1435,33.4821],[83.1844,33.4445],[83.2725,33.4771],[83.3085,33.5389],[83.4204,33.6066],[83.4066,33.7335],[83.3317,33.7455],[83.3123,33.7824]],[[83.8731,33.434],[83.8403,33.4264],[83.8708,33.398],[83.8731,33.434]],[[82.3756,33.6358],[82.3109,33.6379],[82.2877,33.6026],[82.2463,33.64],[82.1903,33.5966],[82.1878,33.5426],[82.2618,33.5131],[82.3702,33.5277],[82.3756,33.6358]],[[83.5224,33.6836],[83.4237,33.6606],[83.4533,33.6143],[83.5168,33.5936],[83.5507,33.6193],[83.5224,33.6836]],[[81.8641,33.7779],[81.8305,33.7518],[81.924,33.6679],[81.9815,33.7474],[81.8641,33.7779]],[[83.987,33.8442],[83.8335,33.8148],[83.7425,33.7466],[83.6994,33.7484],[83.6426,33.7057],[83.6607,33.6508],[83.6924,33.6404],[83.7629,33.7276],[83.9821,33.7722],[83.987,33.8442]],[[80.614,33.8622],[80.506,33.8643],[80.4945,33.8375],[80.5256,33.7918],[80.5903,33.7905],[80.6235,33.8169],[80.614,33.8622]],[[83.2735,33.8561],[83.1871,33.8595],[83.1747,33.8329],[83.2713,33.8201],[83.2735,33.8561]],[[80.813,34.0026],[80.7481,34.0039],[80.7365,33.9771],[80.8119,33.9665],[80.813,34.0026]]]}}]}