{"type":"FeatureCollection","features":[{"type":"Feature","properties":{},"geometry":{"type":"MultiLineString","coordinates":[[[76.3847,32.3986],[76.3324,32.3528],[76.3125,32.2804],[76.4306,32.2007],[76.5363,32.2199],[76.5796,32.1663],[76.6646,32.1491],[76.6953,32.2306],[76.6311,32.2661],[76.6513,32.3384],[76.5768,32.3467],[76.514,32.2919],[76.3847,32.3986]],[[76.3147,32.7405],[76.1654,32.7385],[76.1448,32.7022],[76.0168,32.7003],[75.9963,32.6639],[75.8893,32.6803],[75.9018,32.5993],[75.8488,32.5895],[75.8392,32.5442],[75.8926,32.5361],[75.9758,32.6275],[76.0827,32.6111],[76.1665,32.6844],[76.2304,32.6853],[76.2203,32.6581],[76.317,32.6142],[76.4022,32.6153],[76.4334,32.6608],[76.3147,32.7405]],[[76.1559,33.2075],[76.0393,33.1427],[75.9977,33.0879],[76.0308,33.0433],[76.1592,33.0451],[76.2546,33.0915],[76.2318,33.1634],[76.1559,33.2075]],[[75.0161,33.2951],[74.8873,33.2922],[74.793,33.2268],[74.7949,33.1727],[74.8929,33.1299],[75.0429,33.1334],[75.106,33.1708],[75.172,33.1181],[75.2675,33.1472],[75.212,33.2092],[75.1477,33.2078],[75.1025,33.279],[75.0161,33.2951]],[[83.6955,33.3515],[83.6503,33.3173],[83.5859,33.32],[83.5273,33.2412],[83.6254,33.2642],[83.6649,33.2084],[83.7078,33.2065],[83.726,33.3231],[83.6955,33.3515]],[[83.3156,33.8364],[83.2076,33.8406],[83.0945,33.7547],[82.9631,33.7236],[82.8944,33.6539],[82.7651,33.6586],[82.7465,33.7134],[82.6818,33.7157],[82.6452,33.6357],[82.5666,33.5753],[82.4684,33.5515],[82.4984,33.5054],[82.648,33.4822],[82.7799,33.5317],[82.8865,33.5098],[83.0186,33.5591],[83.1477,33.5542],[83.1928,33.5885],[83.3209,33.5654],[83.3548,33.5912],[83.3591,33.6632],[83.3182,33.7009],[83.3156,33.8364]],[[82.3998,33.6891],[82.3446,33.6639],[82.354,33.6365],[82.4083,33.6437],[82.3998,33.6891]],[[83.5655,33.6818],[83.511,33.6751],[83.5168,33.5936],[83.5723,33.6184],[83.5655,33.6818]],[[83.5416,33.9897],[83.4119,33.995],[83.3335,33.953],[83.5337,33.8637],[83.4962,33.784],[83.57,33.7538],[83.629,33.6611],[83.6924,33.6404],[83.8641,33.7864],[83.8143,33.8518],[83.6848,33.8573],[83.5416,33.9897]],[[82.7759,33.8567],[82.7111,33.859],[82.6988,33.8324],[82.7298,33.8042],[82.8161,33.8011],[82.8284,33.8278],[82.7759,33.8567]],[[81.6967,33.9089],[81.6416,33.8834],[81.6513,33.856],[81.7272,33.863],[81.6967,33.9089]]]}}]}