{"type":"FeatureCollection","features":[{"type":"Feature","properties":{},"geometry":{"type":"MultiLineString","coordinates":[[[76.7032,32.4201],[76.576,32.4008],[76.5131,32.346],[76.4488,32.3813],[76.3638,32.3803],[76.3115,32.3345],[76.3125,32.2804],[76.4521,32.1829],[76.5366,32.2019],[76.6016,32.1124],[76.7923,32.1143],[76.8549,32.187],[76.9186,32.1875],[76.9499,32.2329],[76.8858,32.2684],[76.9061,32.3408],[76.8525,32.3854],[76.7032,32.4201]],[[76.0823,32.6291],[75.9758,32.6275],[75.8614,32.5085],[75.8835,32.4728],[76.1297,32.3953],[76.299,32.4336],[76.3514,32.4794],[76.3498,32.5696],[76.3173,32.5962],[76.147,32.594],[76.0823,32.6291]],[[75.2967,33.247],[75.1465,33.2439],[75.106,33.1708],[75.0411,33.1874],[75.0,33.1324],[74.9137,33.1485],[74.869,33.2016],[74.8378,33.1738],[74.8416,33.0656],[74.9822,33.0237],[75.217,33.0469],[75.2828,32.9941],[75.3898,32.9962],[75.5261,33.0981],[75.5241,33.1702],[75.4693,33.2143],[75.4274,33.1774],[75.2967,33.247]],[[83.5769,33.176],[83.4912,33.1795],[83.4575,33.1538],[83.5308,33.1237],[83.5769,33.176]],[[83.8696,33.38],[83.7599,33.3487],[83.7022,33.288],[83.797,33.2568],[83.8762,33.3166],[83.8696,33.38]],[[83.3928,33.3279],[83.3171,33.3219],[83.3906,33.2919],[83.3928,33.3279]],[[82.9755,33.5607],[82.8034,33.567],[82.7256,33.5246],[82.9245,33.4182],[83.0063,33.5325],[82.9755,33.5607]],[[81.8609,33.7058],[81.7828,33.6448],[81.8347,33.5983],[81.8889,33.6057],[81.8609,33.7058]],[[82.8702,33.9977],[82.7827,33.9828],[82.6782,33.8512],[82.7082,33.805],[82.7832,33.7933],[82.7558,33.686],[82.8063,33.621],[82.958,33.6335],[82.9929,33.6774],[82.9959,33.7314],[82.9455,33.7964],[82.7852,33.8293],[82.9187,33.8967],[82.8702,33.9977]],[[83.5166,33.9366],[83.4734,33.9383],[83.4598,33.8938],[83.3587,33.8347],[83.294,33.8373],[83.2158,33.7952],[83.1684,33.7248],[83.2186,33.6597],[83.4986,33.6485],[83.5768,33.6904],[83.5166,33.9366]],[[80.4638,33.9012],[80.399,33.9024],[80.3438,33.8582],[80.4186,33.8298],[80.4839,33.8467],[80.4638,33.9012]],[[81.7176,33.8903],[81.6625,33.8647],[81.6714,33.8194],[81.7481,33.8443],[81.7176,33.8903]]]}}]}