{"type":"FeatureCollection","features":[{"type":"Feature","properties":{},"geometry":{"type":"MultiLineString","coordinates":[[[76.5525,32.5448],[76.4248,32.5434],[76.3733,32.4436],[76.4383,32.3722],[76.4183,32.2998],[76.4503,32.2911],[76.4921,32.3277],[76.5247,32.283],[76.5168,32.1115],[76.5595,32.0939],[76.6646,32.1491],[76.6955,32.2126],[76.7904,32.2586],[76.9181,32.2236],[76.9398,32.1877],[77.0351,32.1974],[77.0345,32.2515],[76.949,32.305],[76.8735,32.4036],[76.8095,32.4211],[76.725,32.3842],[76.6927,32.411],[76.713,32.4834],[76.6384,32.4916],[76.5525,32.5448]],[[76.1271,32.5215],[76.0207,32.52],[75.9689,32.4561],[76.0014,32.4295],[76.0864,32.4307],[76.1945,32.342],[76.237,32.3426],[76.3102,32.4067],[76.3092,32.4608],[76.2552,32.5052],[76.1271,32.5215]],[[74.997,33.2225],[74.8904,33.2021],[74.8176,33.1372],[74.874,33.0573],[75.1331,32.991],[75.2642,32.9035],[75.3496,32.9052],[75.37,32.9417],[75.551,32.9722],[75.5475,33.0985],[75.5147,33.1249],[75.4285,33.1413],[75.3867,33.1044],[75.234,33.1916],[75.0411,33.1874],[74.997,33.2225]],[[83.7132,32.9536],[83.6592,32.9469],[83.6671,32.9014],[83.7222,32.9262],[83.7132,32.9536]],[[83.8219,33.3099],[83.648,33.2813],[83.5465,33.2043],[83.5442,33.1683],[83.7483,33.1687],[83.7947,33.2209],[83.8714,33.2446],[83.8738,33.2806],[83.8219,33.3099]],[[83.1939,33.6065],[82.8474,33.5834],[82.8136,33.5576],[82.907,33.491],[83.079,33.4846],[83.1999,33.5251],[83.1939,33.6065]],[[81.8641,33.7779],[81.829,33.7157],[81.9439,33.6312],[82.0309,33.6466],[82.0877,33.7081],[82.0342,33.7187],[82.0143,33.7554],[81.9487,33.7393],[81.8641,33.7779]],[[81.7161,33.8542],[81.6483,33.7839],[81.7242,33.7909],[81.7161,33.8542]],[[83.1655,33.8603],[83.11,33.8354],[83.1181,33.7899],[83.1737,33.8149],[83.1655,33.8603]],[[83.7566,33.9626],[83.6918,33.9653],[83.6451,33.9132],[83.5803,33.9159],[83.4756,33.9743],[83.462,33.9298],[83.5462,33.8902],[83.5427,33.8362],[83.5848,33.8164],[83.5927,33.771],[83.679,33.7673],[83.7189,33.8829],[83.7633,33.8991],[83.7566,33.9626]],[[83.0,33.9929],[82.8805,33.9883],[82.8838,33.8528],[82.9825,33.8763],[82.9856,33.9303],[83.0298,33.9467],[83.0,33.9929]]]}}]}