{"type":"FeatureCollection","features":[{"type":"Feature","properties":{},"geometry":{"type":"MultiLineString","coordinates":[[[76.4287,32.3089],[76.3863,32.3084],[76.3761,32.2812],[76.4081,32.2726],[76.4287,32.3089]],[[76.0082,33.0971],[75.7862,32.9763],[75.8089,32.9226],[75.7666,32.9038],[75.7675,32.8678],[75.8219,32.8236],[75.9073,32.8249],[75.9597,32.8709],[76.0082,33.0971]],[[75.4922,33.1606],[75.2999,33.1388],[75.2587,33.0838],[74.9932,33.015],[75.1326,33.009],[75.2203,32.9387],[75.4336,32.961],[75.5415,32.927],[75.6902,32.9657],[75.7216,32.9933],[75.7193,33.0835],[75.6227,33.0908],[75.4922,33.1606]],[[83.9162,33.1072],[83.7944,33.0494],[83.801,32.9859],[83.8865,32.9822],[83.9204,33.0078],[83.9465,33.0788],[83.9162,33.1072]],[[82.8894,33.5639],[82.7481,33.5419],[82.7311,33.4252],[82.7741,33.4236],[82.82,33.4761],[82.8967,33.5004],[82.8894,33.5639]],[[82.6695,33.4815],[82.6573,33.4548],[82.6891,33.4447],[82.6695,33.4815]],[[82.1454,33.7875],[81.9711,33.7567],[81.9136,33.6772],[82.0533,33.664],[82.0765,33.6994],[82.1627,33.6967],[82.1972,33.7408],[82.1454,33.7875]],[[81.5419,33.8229],[81.4645,33.7798],[81.4728,33.7164],[81.5933,33.7583],[81.5419,33.8229]],[[82.2558,33.8382],[82.2006,33.8129],[82.2101,33.7855],[82.2645,33.7928],[82.2558,33.8382]],[[81.8912,33.9034],[81.848,33.9047],[81.8136,33.8605],[81.8441,33.8145],[81.9216,33.8574],[81.8912,33.9034]]]}}]}