{"type":"FeatureCollection","features":[{"type":"Feature","properties":{},"geometry":{"type":"MultiLineString","coordinates":[[[76.0942,33.0803],[76.0522,33.0436],[75.9023,33.0414],[75.818,32.9859],[75.6897,32.9837],[75.6806,32.9204],[75.7984,32.9134],[75.9065,32.861],[76.1625,32.8828],[76.2567,32.9833],[76.202,33.0457],[76.0942,33.0803]],[[83.0216,33.6131],[82.9888,33.6053],[83.0063,33.5325],[82.8967,33.5004],[82.9245,33.4182],[83.0708,33.53],[83.0216,33.6131]],[[82.1877,33.7681],[82.1005,33.7528],[82.0885,33.7261],[82.1196,33.6981],[82.2282,33.7127],[82.2403,33.7394],[82.1877,33.7681]],[[81.6714,33.8194],[81.617,33.8118],[81.6684,33.7473],[81.6714,33.8194]]]}}]}