{"type":"FeatureCollection","features":[{"type":"Feature","properties":{},"geometry":{"type":"MultiLineString","coordinates":[[[72.0537,33.8821],[72.0016,33.8527],[71.9898,33.7077],[71.9894,32.751],[72.0195,32.4546],[72.1235,32.4953],[72.3351,32.694],[72.3475,32.8389],[72.388,32.8767],[72.3622,32.9478],[72.4027,32.9856],[72.3768,33.0567],[72.4388,33.0954],[72.4772,33.1692],[72.4491,33.2763],[72.3089,33.4509],[72.2567,33.5931],[72.1192,33.7135],[72.1383,33.7504],[72.0904,33.8205],[72.1095,33.8575],[72.0537,33.8821]]]}}]}