{"type":"FeatureCollection","features":[{"type":"Feature","properties":{},"geometry":{"type":"MultiLineString","coordinates":[[[72.0693,33.973],[71.9967,33.9247],[71.9898,33.7077],[71.9894,32.4262],[71.9953,32.3362],[72.0289,32.3106],[72.3026,32.3587],[72.3619,32.4334],[72.4458,32.455],[72.6388,32.6163],[72.6496,32.7972],[72.7073,32.9078],[72.6817,32.979],[72.7224,33.0167],[72.7118,33.1967],[72.6679,33.213],[72.6882,33.2319],[72.6207,33.2833],[72.6163,33.3554],[72.5701,33.4076],[72.6066,33.5174],[72.5161,33.5859],[72.5558,33.6417],[72.489,33.6751],[72.4754,33.7196],[72.3982,33.7435],[72.4152,33.8164],[72.289,33.9284],[72.1365,33.9399],[72.0693,33.973]]]}}]}