{"type":"FeatureCollection","features":[{"type":"Feature","properties":{},"geometry":{"type":"MultiLineString","coordinates":[[[72.0693,33.973],[71.9967,33.9247],[71.9898,33.7077],[72.0062,32.0028],[72.3002,32.0518],[72.481,32.2219],[72.6051,32.2811],[72.7151,32.4028],[72.6897,32.474],[72.7515,32.5125],[72.7899,32.5862],[72.7838,32.6943],[72.737,32.7646],[72.9239,32.8621],[72.8314,32.9849],[72.8466,33.0937],[72.8006,33.1461],[72.8404,33.2018],[72.8148,33.273],[72.8556,33.3106],[72.786,33.3982],[72.7765,33.5603],[72.6678,33.574],[72.6635,33.646],[72.5923,33.7515],[72.4448,33.8628],[72.2457,33.9266],[72.1593,33.9228],[72.0693,33.973]]]}}]}