{"type":"FeatureCollection","features":[{"type":"Feature","properties":{},"geometry":{"type":"MultiLineString","coordinates":[[[72.3788,33.8781],[72.1641,33.8508],[72.1497,33.7419],[72.085,33.739],[72.0814,33.793],[72.0167,33.7902],[71.9898,33.7077],[72.0025,33.6812],[72.0455,33.6831],[72.0647,33.7201],[72.0809,33.6396],[71.9996,33.5638],[71.9903,33.3828],[72.0069,31.6599],[72.2088,31.8133],[72.5477,31.8095],[72.6301,31.849],[72.7206,31.9338],[72.7286,31.9793],[73.0787,32.1731],[73.1284,32.2381],[73.1236,32.3282],[73.0348,32.3971],[72.9865,32.5035],[72.9786,32.6476],[73.0517,32.6774],[73.0812,32.7236],[73.0346,32.7941],[73.054,32.8309],[72.986,32.9005],[73.0044,32.9554],[72.8914,33.0594],[72.9067,33.1682],[72.8383,33.2378],[72.8556,33.3106],[72.786,33.3982],[72.7786,33.5242],[72.6204,33.6443],[72.6581,33.7361],[72.6332,33.7892],[72.5095,33.8654],[72.3788,33.8781]]]}}]}