{"type":"FeatureCollection","features":[{"type":"Feature","properties":{},"geometry":{"type":"MultiLineString","coordinates":[[[72.507,33.5585],[72.1651,33.5079],[72.0397,33.4482],[71.9903,33.3828],[71.9951,33.3108],[72.0392,33.2948],[72.0428,33.2408],[72.1118,33.1716],[72.0375,33.1593],[71.9893,33.0759],[72.0004,31.5965],[72.0536,31.5898],[72.0769,31.5548],[72.2043,31.5424],[72.2929,31.474],[72.5874,31.4863],[72.6064,31.5232],[72.832,31.6405],[72.992,31.809],[73.0343,31.8106],[73.1563,31.9053],[73.2851,32.0813],[73.239,32.1519],[73.2547,32.2607],[73.3165,32.299],[73.3239,32.3624],[73.3978,32.374],[73.4146,32.4648],[73.3861,32.6082],[73.3278,32.7054],[73.2852,32.7039],[73.1525,32.7894],[72.9585,32.8183],[72.9657,32.8817],[72.8904,32.8879],[72.757,32.9729],[72.5646,32.9652],[72.4849,33.0432],[72.4794,33.1332],[72.5099,33.1615],[72.6609,33.1496],[72.7445,33.189],[72.768,33.1538],[72.9394,33.1604],[73.0099,33.2443],[72.9609,33.3508],[72.8125,33.4985],[72.6426,33.4557],[72.6189,33.4908],[72.5329,33.4873],[72.507,33.5585]]]}}]}