{"type":"FeatureCollection","features":[{"type":"Feature","properties":{},"geometry":{"type":"MultiLineString","coordinates":[[[72.7648,33.2079],[72.6812,33.1685],[72.6213,33.0939],[72.5763,33.1281],[72.254,33.1327],[72.122,33.1811],[72.0047,33.1669],[71.9973,31.9753],[72.1533,31.8559],[72.1344,31.819],[72.1788,31.7849],[72.1389,31.747],[72.1422,31.693],[72.2154,31.5338],[72.2929,31.474],[72.4885,31.374],[72.6135,31.3972],[72.6576,31.3629],[72.9528,31.3564],[73.0861,31.4245],[73.0714,31.5052],[73.3682,31.6873],[73.3655,31.7413],[73.4069,31.7608],[73.4438,31.8703],[73.3126,31.956],[73.2777,32.0179],[72.9857,32.1245],[72.9828,32.1786],[73.0334,32.2256],[73.1809,32.249],[73.2676,32.2161],[73.2731,32.3155],[73.1753,32.3571],[73.1338,32.3376],[73.0348,32.3971],[72.9835,32.5575],[72.9167,32.6092],[72.9858,32.711],[73.073,32.6782],[73.1239,32.7252],[73.0012,32.8199],[72.928,32.79],[72.9218,32.7086],[72.8355,32.7233],[72.801,32.7671],[72.7989,32.8031],[72.8599,32.8596],[72.8558,32.9317],[72.9383,32.989],[72.977,33.0626],[72.8751,33.158],[72.7884,33.1727],[72.7648,33.2079]],[[73.3972,32.5995],[73.3462,32.5527],[73.3583,32.526],[73.4323,32.5376],[73.3972,32.5995]]]}}]}