{"type":"FeatureCollection","features":[{"type":"Feature","properties":{},"geometry":{"type":"MultiLineString","coordinates":[[[72.8271,33.2464],[72.484,33.2327],[72.4434,33.1949],[72.378,33.2102],[72.3374,33.1724],[72.2314,33.1498],[72.192,33.0939],[72.085,33.0892],[72.0785,33.0258],[71.9965,32.968],[71.9973,31.9753],[72.0719,31.9697],[72.1176,31.9175],[72.3534,31.8736],[72.5761,31.6844],[72.7036,31.6715],[72.7267,31.6363],[72.8301,31.6765],[72.8872,31.5975],[72.9834,31.5741],[72.9963,31.5294],[73.0393,31.513],[72.916,31.4542],[72.9499,31.4104],[73.268,31.368],[73.3796,31.4531],[73.3568,31.4884],[73.5799,31.6765],[73.536,31.7111],[73.5098,31.8185],[73.6052,31.8126],[73.6433,31.9041],[73.738,31.9162],[73.755,32.0069],[73.6146,32.0655],[73.5917,32.1009],[73.5493,32.0995],[73.5163,32.1254],[73.5366,32.1441],[73.3718,32.2558],[73.1385,32.2475],[73.0508,32.2984],[72.9881,32.278],[72.8891,32.3374],[72.8982,32.3648],[73.0257,32.3696],[73.0701,32.3352],[73.1338,32.3376],[73.1392,32.437],[73.0735,32.4707],[73.1474,32.4824],[73.1649,32.5552],[73.2621,32.5317],[73.238,32.5849],[73.3816,32.6983],[73.3779,32.7703],[73.2796,32.812],[73.2239,32.8551],[73.221,32.9091],[73.155,32.9429],[73.1492,33.0509],[73.0791,33.1566],[72.8945,33.1948],[72.8271,33.2464]],[[72.9642,32.5207],[72.956,32.4753],[72.9004,32.5183],[72.9642,32.5207]]]}}]}