{"type":"FeatureCollection","features":[{"type":"Feature","properties":{},"geometry":{"type":"MultiLineString","coordinates":[[[72.8465,33.2832],[72.7392,33.279],[72.722,33.2062],[72.4377,33.1134],[72.4668,32.9883],[72.4263,32.9505],[72.4712,32.9163],[72.4745,32.8623],[72.5834,32.8306],[72.5541,32.7843],[72.3812,32.8133],[72.297,32.7916],[72.2689,32.7273],[72.196,32.697],[72.1267,32.6128],[72.1436,32.5143],[72.0775,32.5474],[72.0036,32.5351],[72.0058,32.1742],[72.0716,32.1411],[72.0785,32.0331],[72.1654,32.0009],[72.1088,31.8901],[72.0477,31.8513],[72.1055,31.7726],[72.2533,31.7791],[72.3831,31.7305],[72.5508,31.7555],[72.5971,31.6852],[72.9086,31.7878],[72.9848,31.7456],[73.0016,31.6289],[73.2334,31.6374],[73.3049,31.6851],[73.2169,31.7541],[73.3189,31.8299],[73.3162,31.884],[73.3566,31.9215],[73.3531,31.9935],[73.3089,32.0281],[73.3671,32.1384],[73.3581,32.3185],[73.5593,32.3344],[73.5643,32.4518],[73.5174,32.5405],[73.3408,32.6607],[73.2944,32.7313],[73.3334,32.8048],[73.2656,32.8746],[73.3065,32.9122],[73.2619,32.9467],[73.3223,33.021],[73.2971,33.0923],[73.2412,33.1354],[73.1108,33.1668],[73.0211,33.2357],[72.8924,33.2308],[72.8465,33.2832]],[[73.7856,32.035],[73.7119,32.0236],[73.7254,31.9609],[73.799,31.9723],[73.7856,32.035]]]}}]}