{"type":"FeatureCollection","features":[{"type":"Feature","properties":{},"geometry":{"type":"MultiLineString","coordinates":[[[73.2431,33.0994],[73.0719,33.0932],[73.0208,33.0462],[73.0462,32.975],[72.9189,32.9521],[72.9341,32.8715],[72.8497,32.8502],[72.7685,32.7749],[72.6933,32.7809],[72.658,32.6532],[72.7281,32.5477],[72.6967,32.5374],[72.6734,32.5726],[72.5904,32.5331],[72.5196,32.4671],[72.4847,32.3393],[72.4433,32.3196],[72.4465,32.2655],[72.3359,32.1616],[72.2322,32.1211],[72.1832,32.0558],[72.1877,31.9838],[72.2634,31.96],[72.3645,31.8651],[72.4131,31.7588],[72.4006,31.6139],[72.4749,31.608],[72.5422,31.5386],[72.6285,31.5061],[73.1757,31.5271],[73.2783,31.5849],[73.3866,31.7421],[73.5402,31.8465],[73.6306,31.9488],[73.6289,31.9848],[73.4324,32.1045],[73.473,32.142],[73.3838,32.2292],[73.3793,32.3192],[73.3258,32.3264],[73.2473,32.4048],[73.2972,32.4697],[73.3646,32.3999],[73.4385,32.4115],[73.4527,32.5563],[73.5139,32.6125],[73.5308,32.7033],[73.4197,32.7898],[73.4151,32.8799],[73.3483,32.9317],[73.3437,33.0218],[73.2431,33.0994]]]}}]}