{"type":"FeatureCollection","features":[{"type":"Feature","properties":{},"geometry":{"type":"MultiLineString","coordinates":[[[73.5054,32.5671],[73.25,32.5583],[73.1909,32.4659],[73.102,32.5349],[73.0938,32.4895],[73.1382,32.455],[73.0218,32.4417],[72.9943,32.3594],[72.9113,32.3202],[72.9234,32.2936],[72.9871,32.296],[73.0064,32.3328],[73.2371,32.3954],[73.2501,32.3508],[73.3368,32.3177],[73.3736,32.2198],[73.2252,32.2145],[73.1809,32.249],[73.1173,32.2467],[73.098,32.2099],[73.0353,32.1896],[72.9496,32.2044],[72.9254,32.2576],[72.8193,32.2535],[72.7981,32.0632],[72.7276,31.9973],[72.5139,32.0247],[72.3601,31.9371],[72.3723,31.9105],[72.4558,31.9321],[72.4701,31.8695],[72.5356,31.8361],[72.4754,31.7795],[72.4775,31.7435],[72.556,31.6655],[72.6825,31.6706],[72.7226,31.7083],[72.7457,31.6732],[72.8492,31.7133],[72.9455,31.6899],[72.9484,31.6359],[72.8551,31.6053],[72.7848,31.5394],[72.7868,31.5033],[72.8318,31.451],[72.8357,31.3789],[73.0615,31.2883],[73.2076,31.3117],[73.289,31.3687],[73.5168,31.4488],[73.5437,31.5489],[73.585,31.5684],[73.5824,31.6224],[73.6768,31.6345],[73.7234,31.7714],[73.8265,31.8288],[73.8233,31.9008],[73.7904,31.9269],[73.6424,31.9221],[73.5596,31.8833],[73.5359,31.9366],[73.3963,31.977],[73.4055,32.0044],[73.5113,32.008],[73.5417,32.0361],[73.54,32.0721],[73.3874,32.1571],[73.3966,32.1845],[73.4602,32.1867],[73.5502,32.0815],[73.6442,32.1116],[73.6128,32.3271],[73.5032,32.3956],[73.4903,32.4403],[73.3305,32.4438],[73.3397,32.4712],[73.5098,32.4771],[73.5054,32.5671]],[[72.8504,31.8848],[72.8413,31.8574],[72.8091,31.8651],[72.8182,31.8925],[72.8504,31.8848]],[[73.1388,32.6445],[73.0749,32.6422],[73.0464,32.5779],[73.1001,32.5709],[73.1509,32.6179],[73.1388,32.6445]],[[73.5427,32.6767],[73.5112,32.6666],[73.5445,32.6406],[73.5427,32.6767]],[[73.4983,32.7113],[73.4557,32.7098],[73.4464,32.6824],[73.5001,32.6752],[73.4983,32.7113]],[[73.5819,32.7502],[73.5623,32.7134],[73.5939,32.7235],[73.5819,32.7502]],[[73.2582,32.8112],[73.1859,32.7635],[73.2407,32.7384],[73.2712,32.7666],[73.2582,32.8112]],[[73.4431,32.962],[73.379,32.9598],[73.3715,32.8964],[73.2675,32.8386],[73.3334,32.8048],[73.326,32.7414],[73.4966,32.7473],[73.5272,32.7754],[73.545,32.8482],[73.4792,32.8821],[73.4431,32.962]]]}}]}