{"type":"FeatureCollection","features":[{"type":"Feature","properties":{},"geometry":{"type":"MultiLineString","coordinates":[[[73.3052,31.8926],[73.2114,31.8622],[73.2142,31.8081],[73.2582,31.7736],[73.2307,31.6914],[73.0648,31.6313],[72.812,31.6216],[72.7608,31.5925],[72.7237,31.5008],[72.7797,31.4399],[72.8438,31.4244],[72.969,31.4472],[73.2049,31.3657],[73.352,31.3709],[73.5051,31.2499],[73.6109,31.2354],[73.6815,31.3009],[73.6758,31.427],[73.4603,31.5281],[73.4687,31.5735],[73.5327,31.5576],[73.5614,31.6217],[73.4306,31.7075],[73.4227,31.8696],[73.3052,31.8926]]]}}]}