{"type":"FeatureCollection","features":[{"type":"Feature","properties":{},"geometry":{"type":"MultiLineString","coordinates":[[[79.2043,30.1659],[79.1005,30.1668],[78.9748,30.0596],[78.8605,30.0333],[78.7351,29.8897],[78.7133,29.7455],[78.6409,29.7368],[78.6302,29.6737],[78.5783,29.6289],[78.5163,29.6291],[78.423,29.5483],[78.4227,29.458],[78.3709,29.4131],[78.3401,29.4222],[78.3405,29.5485],[78.2582,29.6389],[78.2996,29.6749],[78.2998,29.729],[78.1551,29.7473],[78.1655,29.7744],[78.2896,29.8102],[78.3104,29.8463],[78.3829,29.8551],[78.3418,29.9274],[78.3424,30.1078],[78.1453,30.1533],[78.083,30.1353],[78.0311,30.0902],[78.0104,29.9639],[78.1036,29.9549],[78.1139,29.9097],[78.0103,29.8196],[77.9483,29.7113],[77.9793,29.6843],[78.0,29.7203],[78.0827,29.7203],[78.1136,29.6752],[77.9381,29.5579],[77.7731,29.5217],[77.7011,29.4403],[77.794,29.3774],[77.9382,29.3775],[78.0103,29.3324],[78.0,29.3053],[77.9074,29.2963],[77.9074,29.2422],[77.9692,29.17],[77.8666,29.0256],[77.8666,28.9895],[77.9077,28.9715],[77.8667,28.9173],[77.8667,28.8812],[77.9078,28.8632],[77.8669,28.791],[77.9488,28.7189],[77.9489,28.6647],[78.0102,28.6467],[77.9694,28.5204],[78.0817,28.5113],[78.1123,28.4301],[78.1938,28.3578],[78.1935,28.2134],[78.3259,28.1861],[78.4579,28.1045],[78.4775,27.942],[78.5786,27.8513],[78.5779,27.7249],[78.689,27.6432],[78.77,27.6427],[78.79,27.6065],[78.9922,27.569],[79.0533,27.6047],[79.0725,27.4962],[79.1739,27.5134],[79.2938,27.3859],[79.3545,27.3853],[79.4772,27.4923],[79.5889,27.5181],[79.59,27.5903],[79.6721,27.6614],[79.6843,27.7967],[79.7144,27.7692],[79.6815,27.6162],[79.7326,27.6426],[79.7652,27.7776],[79.8663,27.7581],[79.9285,27.8294],[80.0506,27.8456],[80.1226,27.8896],[80.1864,28.033],[80.2693,28.1038],[80.2709,28.1759],[80.322,28.1841],[80.3747,28.2644],[80.3447,28.292],[80.1613,28.2951],[80.0679,28.2154],[80.0665,28.1432],[80.0255,28.1258],[80.0234,28.0175],[80.0637,27.9989],[80.0117,27.9365],[80.0279,28.2521],[80.3211,28.6082],[80.3733,28.6524],[80.476,28.6686],[80.5182,28.7219],[80.6201,28.7019],[80.6947,28.8177],[80.6347,28.873],[80.6565,28.9267],[80.6196,29.0899],[80.4487,29.2466],[80.387,29.2477],[80.3063,29.3213],[80.2651,29.322],[80.2158,29.4221],[80.1349,29.4956],[80.2182,29.5303],[80.2205,29.6385],[80.1278,29.6491],[79.9955,29.7504],[79.9969,29.8225],[80.1433,29.8924],[80.0518,29.9751],[80.0096,29.9396],[79.9074,30.0133],[79.6794,30.0164],[79.5561,30.0901],[79.4731,30.091],[79.4311,30.0554],[79.2855,30.0208],[79.1931,30.1029],[79.2351,30.1386],[79.2043,30.1659]],[[79.6613,27.6165],[79.6307,27.6078],[79.6405,27.5806],[79.6613,27.6165]],[[78.785,28.3015],[78.8255,28.2651],[78.8242,28.1027],[78.7321,28.022],[78.8038,28.1028],[78.7634,28.1392],[78.8044,28.175],[78.8051,28.2652],[78.7644,28.2835],[78.785,28.3015]],[[77.4297,28.1853],[77.3587,28.1398],[77.3691,28.1128],[77.4403,28.1221],[77.4297,28.1853]],[[77.3677,28.3474],[77.3169,28.3201],[77.3477,28.2751],[77.3984,28.3205],[77.3677,28.3474]],[[75.1588,30.0326],[75.1077,30.0045],[75.1396,29.9781],[75.1906,30.0063],[75.1588,30.0326]],[[75.3773,30.398],[75.2854,30.333],[75.2768,30.2697],[75.2352,30.2688],[75.1744,30.2134],[75.1318,30.2486],[75.0695,30.2472],[75.0397,30.2014],[75.1339,30.1765],[75.2195,30.0881],[75.3227,30.1082],[75.3628,30.1632],[75.4458,30.1648],[75.4966,30.2109],[75.4948,30.283],[75.535,30.3379],[75.3773,30.398]],[[75.8043,30.8568],[75.7002,30.837],[75.6081,30.7542],[75.569,30.6452],[75.6542,30.5746],[75.6797,30.3766],[75.7328,30.3324],[75.7842,30.3603],[75.8038,30.4148],[75.7993,30.6132],[75.8595,30.7224],[75.8043,30.8568]],[[76.8316,34.009],[76.7883,34.0086],[76.7565,33.9632],[76.7792,33.8912],[76.7367,33.8367],[76.7804,33.801],[76.7375,33.7826],[76.7398,33.6202],[76.6335,33.5289],[76.6234,33.4837],[76.4847,33.4191],[76.4853,33.383],[76.3584,33.2733],[76.3594,33.2192],[76.2757,33.1099],[76.1911,33.0546],[76.2353,32.983],[76.1929,32.9644],[76.194,32.9103],[76.1115,32.7648],[76.1867,32.7388],[76.1983,32.6939],[76.2412,32.6764],[76.2217,32.5859],[76.1589,32.531],[76.161,32.4228],[76.0667,32.3583],[75.9581,32.4649],[75.9156,32.4642],[75.8639,32.4003],[75.9497,32.3656],[75.9084,32.3108],[75.9104,32.2206],[75.9544,32.1491],[75.9137,32.0763],[75.851,32.0393],[75.8949,31.9678],[75.8642,31.9222],[75.8116,31.9123],[75.7917,31.8579],[75.8348,31.8225],[75.8365,31.7504],[75.9002,31.7334],[75.9014,31.6792],[75.8278,31.669],[75.7976,31.6054],[75.6734,31.5131],[75.6743,31.477],[75.3851,31.2732],[75.3451,31.2002],[75.3501,31.0199],[75.4148,30.949],[75.3954,30.8945],[75.4284,30.832],[75.5,30.8965],[75.4962,31.0408],[75.4529,31.0941],[75.4939,31.131],[75.4901,31.2752],[75.6045,31.3224],[75.6894,31.2879],[75.7755,31.1991],[75.8594,31.2005],[75.8685,31.2638],[75.9418,31.274],[75.9934,31.3199],[76.1155,31.5201],[76.1312,31.7909],[76.1928,31.882],[76.1703,31.9538],[76.2011,31.9994],[76.2962,32.0096],[76.2714,32.2077],[76.3758,32.2993],[76.3949,32.4258],[76.4473,32.4715],[76.5536,32.4727],[76.6376,32.5457],[76.7015,32.5464],[76.7315,32.682],[76.8487,32.6921],[76.8585,32.7553],[76.9223,32.7739],[76.9208,32.9001],[77.0375,32.9822],[77.1017,32.9827],[77.1119,33.0278],[77.1758,33.0643],[77.1753,33.1184],[77.0995,33.1991],[77.057,33.1628],[76.9713,33.1621],[76.9074,33.1255],[76.6935,33.1056],[76.6609,33.1323],[76.658,33.3307],[76.776,33.3409],[76.7858,33.4041],[76.9035,33.4502],[76.9993,33.5322],[76.9663,33.5951],[76.9123,33.6037],[76.9326,33.7121],[76.9969,33.7487],[76.9962,33.8028],[76.9311,33.8384],[76.9295,33.9647],[76.8316,34.009]],[[75.7772,31.127],[75.725,31.1171],[75.7579,31.0545],[75.7891,31.064],[75.7772,31.127]],[[78.0632,31.5425],[77.9368,31.5244],[77.9053,31.4613],[78.0,31.4523],[78.0737,31.5154],[78.0632,31.5425]],[[75.9408,31.8062],[75.9308,31.7789],[75.899,31.7875],[75.9089,31.8147],[75.9408,31.8062]],[[76.3072,32.569],[76.297,32.5418],[76.2649,32.5504],[76.2751,32.5776],[76.3072,32.569]],[[75.7827,32.6786],[75.6762,32.6768],[75.6449,32.6492],[75.7841,32.6245],[75.7827,32.6786]]]}}]}