{"type":"FeatureCollection","features":[{"type":"Feature","properties":{},"geometry":{"type":"MultiLineString","coordinates":[[[79.5838,30.5228],[79.4999,30.4877],[79.3546,30.5253],[79.2911,30.4538],[79.2389,30.4452],[79.1857,30.3465],[79.1441,30.3469],[79.0809,30.2752],[79.0397,30.3116],[79.0187,30.2938],[78.9873,30.2669],[78.9865,30.1948],[78.8612,30.1054],[78.8189,30.0155],[78.7358,29.998],[78.7457,29.9348],[78.87,29.934],[79.1001,30.1307],[79.1309,30.1034],[79.0888,30.0496],[79.0874,29.9234],[79.0456,29.8876],[79.0863,29.8151],[78.9722,29.7889],[78.8784,29.7084],[78.8464,29.5913],[78.7432,29.592],[78.7223,29.556],[78.588,29.5296],[78.5878,29.4935],[78.6289,29.4753],[78.6279,29.3129],[78.5867,29.295],[78.5863,29.2409],[78.6682,29.1683],[78.6165,29.1235],[78.4829,29.115],[78.4826,29.0609],[78.5643,28.9703],[78.523,28.9163],[78.5635,28.826],[78.5627,28.6816],[78.6648,28.645],[78.7044,28.4463],[78.7859,28.4278],[78.7854,28.3556],[78.8463,28.3191],[78.8456,28.2289],[78.9269,28.2103],[78.9264,28.1562],[78.9772,28.1468],[78.9868,28.0835],[79.0677,28.0287],[79.0468,27.9748],[79.0975,27.9653],[79.107,27.9021],[79.1873,27.8111],[79.268,27.7743],[79.227,27.7385],[79.2465,27.6662],[79.3066,27.6114],[79.3258,27.521],[79.466,27.4112],[79.4451,27.3572],[79.384,27.3218],[79.4026,27.1952],[79.4527,27.1676],[79.5336,27.1847],[79.585,27.2473],[79.5663,27.3559],[79.5889,27.5181],[79.6197,27.5448],[79.6272,27.3732],[79.5865,27.3556],[79.5952,27.2562],[79.7075,27.336],[79.6682,27.4088],[79.6995,27.4715],[79.74,27.471],[79.7998,27.4161],[79.9221,27.4685],[80.1172,27.6189],[80.1386,27.6727],[80.0994,27.7456],[80.1404,27.763],[80.1518,27.826],[80.2016,27.78],[80.2027,27.8341],[80.2858,27.923],[80.2459,27.9598],[80.2877,28.0132],[80.2075,28.0687],[80.2697,28.1218],[80.2709,28.1759],[80.312,28.1933],[80.3351,28.3192],[80.3776,28.3906],[80.4604,28.4433],[80.4613,28.4793],[80.5234,28.5143],[80.5878,28.6394],[80.5905,28.7476],[80.8187,28.8512],[80.8636,28.9946],[80.8546,29.0399],[80.6822,29.1247],[80.6256,29.3244],[80.5648,29.3616],[80.4864,29.5255],[80.3643,29.6],[80.3858,29.6357],[80.293,29.6463],[80.2614,29.6198],[80.3255,29.7089],[80.2436,29.7464],[80.2444,29.7825],[80.1835,29.8376],[80.1847,29.8917],[80.062,29.9659],[80.1249,30.001],[80.0111,30.0118],[79.9088,30.0855],[79.8156,30.0958],[79.8166,30.1499],[79.8588,30.1854],[79.8192,30.2942],[79.7681,30.34],[79.633,30.3508],[79.6351,30.477],[79.5838,30.5228]],[[79.556,28.0419],[79.5547,27.9517],[79.5138,27.9341],[79.5027,27.8711],[79.5151,28.0244],[79.556,28.0419]],[[79.6214,28.3299],[79.6613,28.2753],[79.5994,28.2219],[79.5986,28.1678],[79.639,28.1492],[79.6081,28.1225],[79.5586,28.2224],[79.641,28.2755],[79.6007,28.3121],[79.6214,28.3299]],[[78.5768,29.3763],[78.4944,29.3766],[78.4427,29.3317],[78.4425,29.2775],[78.5556,29.2681],[78.5868,29.3131],[78.5768,29.3763]],[[78.5797,29.8815],[78.5278,29.8546],[78.4861,29.7826],[78.4962,29.7375],[78.5893,29.7461],[78.5797,29.8815]],[[79.0485,30.1582],[79.0378,30.1312],[79.0068,30.1405],[79.0485,30.1582]],[[79.1116,30.2299],[79.1319,30.1936],[79.1005,30.1668],[79.1116,30.2299]],[[75.3448,30.8304],[75.2928,30.8203],[75.3259,30.7578],[75.3448,30.8304]],[[75.2955,31.1],[75.2643,31.0903],[75.2474,30.9457],[75.3112,30.9109],[75.3122,30.8748],[75.3652,30.8488],[75.5111,30.8697],[75.5409,30.9334],[75.4981,30.9687],[75.5395,30.9875],[75.5381,31.0416],[75.4427,31.0849],[75.3598,31.0472],[75.2955,31.1]],[[75.7117,31.2341],[75.6067,31.2323],[75.5759,31.2046],[75.5903,31.0516],[75.716,31.0538],[75.7673,31.0998],[75.7874,31.1362],[75.7117,31.2341]],[[75.7894,31.506],[75.7262,31.505],[75.6546,31.4226],[75.6872,31.378],[75.801,31.4611],[75.7894,31.506]],[[76.7928,33.6838],[76.6422,33.6644],[76.6103,33.637],[76.5907,33.5105],[76.5377,33.4648],[76.3766,33.4539],[76.3844,33.021],[76.2774,33.0197],[76.3426,32.9664],[76.3008,32.9117],[76.3442,32.8762],[76.2812,32.8213],[76.3049,32.6953],[76.1679,32.6123],[76.1372,32.5487],[76.0014,32.4295],[75.9376,32.4285],[75.8547,32.337],[75.7074,32.2804],[75.5527,32.1063],[75.6632,31.9278],[75.6452,31.8012],[75.6793,31.7026],[75.7943,31.7497],[75.8128,31.8582],[75.8949,31.9678],[75.8937,32.0219],[75.9356,32.0406],[75.9333,32.1488],[75.9853,32.1947],[76.0489,32.1957],[76.1322,32.269],[76.3869,32.2723],[76.438,32.3902],[76.5012,32.427],[76.4997,32.5172],[76.542,32.5357],[76.54,32.662],[76.6555,32.7805],[76.7411,32.7632],[76.7938,32.8088],[76.7909,33.0253],[76.7247,33.169],[76.7656,33.3137],[76.808,33.3502],[76.8052,33.5667],[76.8477,33.6031],[76.7928,33.6838]],[[75.8701,32.1298],[75.8601,32.1025],[75.8281,32.1111],[75.8381,32.1383],[75.8701,32.1298]],[[77.3294,33.9943],[77.1567,33.9573],[77.1465,33.8941],[77.2438,33.8856],[77.3294,33.9943]],[[76.9833,33.9921],[76.9293,33.9827],[76.9407,33.9377],[76.9946,33.9471],[76.9833,33.9921]]]}}]}