{"type":"FeatureCollection","features":[{"type":"Feature","properties":{},"geometry":{"type":"MultiLineString","coordinates":[[[79.5432,30.5954],[79.4487,30.5514],[79.4374,30.4883],[79.3014,30.4446],[79.2773,30.1923],[79.1927,30.0668],[79.1408,30.0582],[79.1299,30.0132],[79.0046,29.924],[79.0039,29.8519],[78.9524,29.8793],[78.8487,29.862],[78.7339,29.7273],[78.7115,29.4929],[78.7504,29.1679],[78.7092,29.1501],[78.7083,29.0238],[78.6671,29.0059],[78.6668,28.9518],[78.7385,28.9424],[78.7689,28.8971],[78.7671,28.6445],[78.8583,28.5446],[78.9298,28.5351],[78.929,28.4449],[78.9892,28.3362],[79.0298,28.3178],[79.0293,28.2637],[79.1201,28.1817],[79.2316,28.1356],[79.2505,28.0091],[79.3311,27.9541],[79.3494,27.7915],[79.5092,27.6093],[79.4882,27.5553],[79.5484,27.5185],[79.486,27.3929],[79.5045,27.2663],[79.6544,27.1652],[79.6652,27.2102],[79.7877,27.2989],[79.7488,27.3897],[79.8112,27.4971],[79.852,27.5146],[79.8121,27.5513],[79.8227,27.5782],[79.8928,27.5321],[79.8106,27.461],[79.7787,27.3622],[79.8399,27.3974],[79.9205,27.3782],[79.9622,27.4498],[80.0825,27.3938],[80.1442,27.447],[80.2763,27.4719],[80.2804,27.6704],[80.3218,27.7057],[80.282,27.7425],[80.3245,27.8321],[80.2843,27.8508],[80.3475,27.958],[80.3723,28.1561],[80.413,28.1554],[80.3943,28.2279],[80.4367,28.2993],[80.4388,28.3895],[80.5213,28.4241],[80.5121,28.4694],[80.4409,28.4797],[80.4421,28.5338],[80.5547,28.5407],[80.5669,28.6217],[80.6401,28.6834],[80.7119,28.691],[80.6952,28.8357],[80.7786,28.8881],[80.7811,28.9783],[80.8842,28.9941],[80.8857,29.0483],[80.773,29.0597],[80.7333,29.1147],[80.6822,29.1247],[80.7042,29.1784],[80.6664,29.3055],[80.5258,29.4526],[80.4899,29.6698],[80.4178,29.6802],[80.3963,29.6445],[80.3255,29.7089],[80.2054,29.8914],[80.1034,29.9652],[80.1249,30.001],[80.0034,30.1472],[79.9841,30.2197],[79.8407,30.33],[79.7905,30.4299],[79.6765,30.4585],[79.688,30.5215],[79.5838,30.5228],[79.5432,30.5954]],[[79.6568,27.9865],[79.6463,27.9596],[79.6159,27.969],[79.6265,27.996],[79.6568,27.9865]],[[79.7615,28.1657],[79.7606,28.1116],[79.8007,28.0749],[79.7491,28.0305],[79.6677,28.0315],[79.6596,28.167],[79.7615,28.1657]],[[79.4822,28.5842],[79.4298,28.4855],[79.4103,28.5579],[79.3386,28.5497],[79.3903,28.5943],[79.4307,28.5577],[79.4822,28.5842]],[[75.3793,31.1017],[75.3481,31.092],[75.3593,31.0652],[75.3793,31.1017]],[[75.8874,31.8324],[75.7826,31.7946],[75.6896,31.7118],[75.6931,31.5676],[75.6111,31.4759],[75.6152,31.3136],[75.5839,31.304],[75.541,31.3393],[75.3631,31.3088],[75.3646,31.2547],[75.5675,31.1233],[75.6933,31.1256],[75.7241,31.1531],[75.7232,31.1892],[75.6808,31.2065],[75.6787,31.2967],[75.8232,31.4074],[75.758,31.4965],[75.7993,31.5333],[75.7959,31.6775],[75.9205,31.7698],[75.8874,31.8324]],[[76.8316,34.009],[76.8,33.9455],[76.8226,33.8736],[76.7797,33.8551],[76.7804,33.801],[76.6733,33.7459],[76.6635,33.6826],[76.5672,33.6365],[76.5684,33.5644],[76.6122,33.5107],[76.5701,33.4561],[76.6362,33.3486],[76.6596,33.2225],[76.639,33.1682],[76.5861,33.1225],[76.4998,33.1577],[76.4914,33.0223],[76.3525,33.0116],[76.2798,32.8934],[76.2164,32.8565],[76.2171,32.8204],[76.1646,32.7746],[76.0797,32.7554],[75.8597,32.5806],[75.8718,32.5177],[75.7228,32.5152],[75.6495,32.4688],[75.6518,32.3787],[75.739,32.29],[75.7434,32.1096],[75.7019,32.0729],[75.6933,31.9915],[75.7568,31.9926],[75.7978,32.0474],[75.8618,32.0304],[75.9141,32.0583],[75.9129,32.1124],[75.9548,32.1311],[75.9745,32.2036],[75.9709,32.3659],[76.0551,32.4032],[75.9685,32.4741],[76.0633,32.5206],[76.1484,32.5218],[76.2325,32.5771],[76.467,32.5619],[76.5303,32.5987],[76.6033,32.6987],[76.6228,32.8252],[76.6652,32.8437],[76.6847,32.9702],[76.7794,33.0883],[76.8752,33.1343],[76.8528,33.2063],[76.9161,33.297],[76.8722,33.3688],[76.8711,33.459],[76.9343,33.5678],[76.9121,33.6217],[76.9537,33.7483],[76.9511,33.9648],[76.8316,34.009]]]}}]}