{"type":"FeatureCollection","features":[{"type":"Feature","properties":{},"geometry":{"type":"MultiLineString","coordinates":[[[80.3663,28.3457],[80.2228,28.3121],[80.1802,28.2226],[80.0679,28.2154],[80.0451,28.0894],[80.1572,28.0966],[80.1872,28.0691],[80.1554,28.0064],[80.0324,27.9542],[80.0127,27.9906],[79.8501,27.993],[79.831,28.0655],[79.719,28.058],[79.7181,28.0038],[79.7891,27.9938],[79.7982,27.9305],[79.8385,27.9119],[79.817,27.84],[79.8972,27.7847],[79.7928,27.6057],[79.752,27.5882],[79.8297,27.3886],[79.8073,27.2625],[79.8471,27.2258],[79.8254,27.1359],[79.8552,27.1084],[79.9471,27.1702],[79.95,27.3327],[80.0222,27.4128],[80.1038,27.4476],[80.2034,27.3738],[80.2641,27.3728],[80.3053,27.4082],[80.4472,27.4237],[80.4988,27.4678],[80.5426,27.6114],[80.5836,27.6287],[80.5862,27.7369],[80.5465,27.7738],[80.5508,27.9542],[80.5105,27.973],[80.533,28.0629],[80.462,28.0732],[80.4122,28.1193],[80.4645,28.1815],[80.5157,28.1895],[80.5169,28.2437],[80.3847,28.2552],[80.3663,28.3457]],[[79.6886,30.5575],[79.5832,30.4867],[79.4582,30.4881],[79.4469,30.4251],[79.2997,30.3184],[79.2993,30.2823],[79.1428,30.2386],[79.0057,30.0323],[78.9433,30.0147],[78.9842,29.9603],[78.9424,29.9245],[78.9835,29.8881],[78.9623,29.8341],[79.0348,29.8426],[79.1678,29.7062],[79.1853,29.4354],[79.1438,29.4177],[79.1011,29.2737],[79.142,29.2553],[79.141,29.1651],[79.223,29.1463],[79.1815,29.1106],[79.1809,29.0565],[79.3143,29.0462],[79.4765,28.9001],[79.5588,28.9172],[79.6419,28.9884],[79.6512,28.9251],[79.6099,28.9076],[79.609,28.8534],[79.7305,28.7617],[79.7495,28.6712],[79.7998,28.6254],[79.8716,28.6334],[79.8297,28.5799],[79.9403,28.479],[80.1445,28.4759],[80.1642,28.4394],[80.2051,28.4388],[80.3087,28.5092],[80.4108,28.5074],[80.4509,28.4705],[80.5947,28.5039],[80.6365,28.5391],[80.7591,28.5366],[80.8014,28.5899],[80.8527,28.5978],[80.8552,28.688],[80.8147,28.7069],[80.8162,28.761],[80.7662,28.8072],[80.4576,28.7592],[80.3995,28.9046],[80.3585,28.9053],[80.3372,28.8696],[80.2657,28.8799],[80.2588,29.0334],[80.4016,28.9948],[80.5265,29.0646],[80.7439,29.1235],[80.7037,29.1604],[80.7056,29.2325],[80.6247,29.2883],[80.6261,29.3424],[80.5652,29.3797],[80.5561,29.425],[80.5153,29.4438],[80.4732,29.4085],[80.4535,29.445],[80.4324,29.4273],[80.4021,29.4549],[80.3929,29.5002],[80.2683,29.4663],[80.1769,29.531],[80.2813,29.5834],[80.2825,29.6375],[80.3246,29.6728],[80.3153,29.7181],[80.2217,29.6927],[80.2858,29.7818],[80.2241,29.8009],[80.1949,29.8826],[79.9461,29.8684],[79.8514,29.7886],[79.8399,29.7256],[79.8094,29.7531],[79.8521,29.8247],[79.7709,29.916],[79.9067,29.9772],[79.9281,30.013],[79.9696,30.0124],[80.0012,30.039],[79.9605,30.0757],[80.0125,30.0839],[80.0238,30.1289],[79.9845,30.2377],[79.9433,30.2564],[79.945,30.3465],[79.8622,30.3658],[79.9045,30.4013],[79.9055,30.4554],[79.812,30.4657],[79.7918,30.5021],[79.729,30.4849],[79.6886,30.5575]],[[80.165,28.9718],[80.0912,28.8737],[80.0193,28.8658],[80.0182,28.8117],[80.0589,28.793],[80.0474,28.7301],[79.945,28.7316],[79.9235,28.6778],[79.8319,28.7062],[79.8735,28.7417],[79.8771,28.9401],[79.8364,28.9587],[79.8472,28.9857],[80.165,28.9718]],[[75.6434,31.4494],[75.57,31.4391],[75.625,31.3408],[75.6563,31.3504],[75.6434,31.4494]],[[76.107,32.4671],[76.0219,32.4659],[75.9376,32.4285],[75.8964,32.3737],[75.8326,32.3727],[75.8235,32.3094],[75.7607,32.2723],[75.7944,32.1917],[75.6428,32.3154],[75.5598,32.2417],[75.4858,32.2313],[75.3873,31.9588],[75.4429,31.8607],[75.5264,31.8983],[75.5804,31.8542],[75.5841,31.7099],[75.5017,31.6363],[75.4825,31.5637],[75.5583,31.484],[75.5784,31.5204],[75.6214,31.4851],[75.6949,31.4954],[75.7138,31.586],[75.6609,31.5941],[75.6196,31.5572],[75.6075,31.6202],[75.6591,31.6662],[75.848,31.7055],[75.8998,31.7514],[75.8758,31.8773],[75.9285,31.8871],[75.9504,31.8514],[75.9926,31.852],[76.0645,31.9523],[76.0831,32.0789],[76.1247,32.1156],[76.0794,32.2592],[76.2046,32.3692],[76.2035,32.4233],[76.129,32.4313],[76.107,32.4671]],[[77.7872,32.5165],[77.7234,32.5163],[77.6492,32.435],[77.6494,32.3809],[77.7027,32.3359],[77.7981,32.3812],[77.7872,32.5165]],[[76.056,32.8633],[76.0036,32.8174],[76.0153,32.7725],[76.089,32.8186],[76.056,32.8633]],[[76.1773,33.2078],[76.1134,33.1888],[76.0401,33.1066],[76.0101,33.0069],[76.1389,32.9907],[76.1704,33.0182],[76.2118,33.091],[76.1773,33.2078]],[[76.7712,33.6836],[76.6959,33.6739],[76.5821,33.3751],[76.5168,33.4285],[76.4305,33.4455],[76.3667,33.4087],[76.3018,33.4259],[76.2068,33.3435],[76.2086,33.2533],[76.3696,33.2463],[76.4763,33.2837],[76.5415,33.2303],[76.5844,33.2307],[76.6911,33.2679],[76.7866,33.35],[76.8281,33.4586],[76.8922,33.4953],[76.8802,33.5944],[76.8156,33.5938],[76.7945,33.5576],[76.7406,33.5661],[76.7831,33.6026],[76.7712,33.6836]],[[77.1996,33.9936],[77.124,33.9841],[77.1354,33.921],[77.2107,33.9666],[77.1996,33.9936]]]}}]}