{"type":"FeatureCollection","features":[{"type":"Feature","properties":{},"geometry":{"type":"MultiLineString","coordinates":[[[80.1973,27.067],[80.1252,26.9869],[80.1736,26.8868],[80.2039,26.8953],[80.1973,27.067]],[[80.5672,28.2156],[80.4953,28.1899],[80.4936,28.1178],[80.5949,28.0978],[80.4906,27.9915],[80.5002,27.9642],[80.591,27.9354],[80.5797,27.8905],[80.489,27.9193],[80.4877,27.8652],[80.5879,27.8091],[80.462,27.631],[80.4905,27.5492],[80.3278,27.5161],[80.319,27.5794],[80.2789,27.5982],[80.321,27.6697],[80.4235,27.722],[80.445,27.7757],[80.4459,27.8118],[80.3862,27.8671],[80.3874,27.9212],[80.3472,27.94],[80.4089,27.9749],[80.411,28.0652],[80.3603,28.0751],[80.1432,27.9073],[80.1425,27.8712],[80.1931,27.8614],[80.2023,27.8161],[80.2824,27.7606],[80.2403,27.6891],[80.1585,27.6544],[80.1574,27.6002],[80.0959,27.5651],[80.0743,27.4932],[80.1527,27.3656],[80.1513,27.2934],[80.1102,27.258],[80.1092,27.2038],[80.0685,27.1864],[80.1361,27.0319],[80.1874,27.0762],[80.1899,27.2025],[80.2398,27.1746],[80.231,27.2379],[80.3632,27.2808],[80.4262,27.3879],[80.6283,27.3841],[80.7114,27.4726],[80.7519,27.4718],[80.8243,27.5334],[80.8074,27.6602],[80.7673,27.6791],[80.8314,27.8041],[80.8324,27.8402],[80.772,27.8595],[80.7956,27.9854],[80.735,28.0047],[80.7383,28.131],[80.6062,28.1427],[80.5672,28.2156]],[[80.2394,27.1565],[80.2086,27.13],[80.2178,27.0847],[80.2482,27.0932],[80.2394,27.1565]],[[80.3418,27.227],[80.2908,27.2008],[80.3,27.1555],[80.3513,27.1997],[80.3418,27.227]],[[80.2379,28.0592],[80.2072,28.0507],[80.2168,28.0234],[80.2678,28.0316],[80.2379,28.0592]],[[80.6392,28.6474],[80.4221,28.5523],[80.4296,28.4348],[80.553,28.4686],[80.5643,28.5135],[80.626,28.5303],[80.6269,28.5664],[80.6683,28.5836],[80.6392,28.6474]],[[79.8806,29.6889],[79.8494,29.6803],[79.8484,29.6262],[79.7849,29.5369],[79.7627,29.447],[79.7928,29.4014],[79.8877,29.5174],[79.8806,29.6889]],[[79.9377,29.4355],[79.8553,29.4367],[79.8445,29.4098],[79.9371,29.3994],[79.9377,29.4355]],[[79.7296,30.5209],[79.6246,30.4681],[79.5832,30.4867],[79.5407,30.4331],[79.4993,30.4516],[79.488,30.3886],[79.4253,30.3712],[79.4204,30.0285],[79.5141,30.0545],[79.5235,29.9912],[79.5848,29.9364],[79.5627,29.8464],[79.5207,29.8108],[79.5825,29.7921],[79.5196,29.7387],[79.5186,29.6665],[79.6006,29.6295],[79.559,29.6119],[79.5689,29.5847],[79.6413,29.5929],[79.6219,29.6653],[79.7159,29.7273],[79.8606,29.7253],[79.9026,29.7608],[79.9433,29.7241],[79.9647,29.7599],[80.0895,29.7941],[80.1855,29.9278],[80.094,30.0105],[80.0111,30.0118],[79.9482,29.9766],[79.8666,30.05],[79.7725,30.0062],[79.761,29.9432],[79.71,29.989],[79.7728,30.0242],[79.7119,30.0972],[79.7336,30.151],[79.6722,30.2059],[79.715,30.2776],[79.6843,30.305],[79.6213,30.2697],[79.5495,30.3337],[79.5507,30.4059],[79.582,30.4145],[79.6433,30.3416],[79.6861,30.4132],[79.8315,30.3933],[79.8017,30.4749],[79.7296,30.5209]],[[79.7359,29.6909],[79.7048,29.6823],[79.7147,29.6551],[79.7458,29.6637],[79.7359,29.6909]],[[76.1918,31.3858],[76.1604,31.3764],[76.1625,31.2682],[76.2371,31.2061],[76.3082,31.3423],[76.1918,31.3858]],[[75.7561,32.8947],[75.5374,32.6833],[75.519,32.5747],[75.5521,32.5302],[75.6264,32.5406],[75.6509,32.4147],[75.5347,32.3856],[75.505,32.3038],[75.5909,32.2693],[75.5494,32.2325],[75.5508,32.1784],[75.6388,32.0537],[75.6406,31.9816],[75.7266,31.9289],[75.7538,31.6768],[75.8926,31.5979],[75.899,31.7875],[75.8559,31.8229],[75.8539,31.913],[75.79,31.93],[75.7892,31.9661],[75.8522,31.9852],[75.8256,32.2193],[75.7823,32.2546],[75.9064,32.401],[75.9039,32.5092],[75.8384,32.5803],[75.8571,32.6888],[75.899,32.7256],[75.7901,32.814],[75.7561,32.8947]],[[76.1502,32.4316],[76.076,32.4216],[76.1304,32.3592],[76.1621,32.3687],[76.1502,32.4316]],[[76.2098,32.6489],[76.1141,32.6386],[76.1268,32.5395],[76.222,32.5679],[76.2098,32.6489]],[[76.1831,32.9192],[76.1302,32.8914],[76.1111,32.7829],[76.2399,32.7486],[76.2203,32.6581],[76.2524,32.6495],[76.3468,32.7319],[76.3462,32.768],[76.2602,32.8029],[76.2591,32.8571],[76.1831,32.9192]],[[76.309,33.0471],[76.2557,33.0374],[76.2889,32.9747],[76.3205,33.0022],[76.309,33.0471]],[[76.3428,33.5347],[76.2469,33.4884],[76.2585,33.4434],[76.3544,33.4897],[76.3428,33.5347]]]}}]}