{"type":"FeatureCollection","features":[{"type":"Feature","properties":{},"geometry":{"type":"MultiLineString","coordinates":[[[81.0332,28.1155],[80.9314,28.1178],[80.7346,27.9866],[80.5668,27.7734],[80.5629,27.611],[80.4401,27.5592],[80.4385,27.487],[80.335,27.3806],[80.3925,27.2351],[80.2885,27.0925],[80.2863,26.9842],[80.3262,26.9655],[80.3247,26.8933],[80.3543,26.8657],[80.4257,26.9095],[80.4273,26.9817],[80.5317,27.1422],[80.6433,27.1671],[80.7366,27.2645],[80.7415,27.463],[80.8243,27.5334],[80.8046,27.5519],[80.8757,27.5594],[80.9951,27.4845],[81.047,27.5285],[81.0718,27.6904],[80.9933,27.7824],[81.0349,27.8176],[81.0608,28.0156],[81.0332,28.1155]],[[80.6021,27.5561],[80.6012,27.52],[80.55,27.4939],[80.5409,27.5392],[80.6021,27.5561]],[[81.1644,27.7333],[81.1134,27.7255],[81.1223,27.6802],[81.1732,27.688],[81.1644,27.7333]],[[76.4387,31.7137],[76.3043,31.5587],[76.2445,31.3775],[76.2465,31.2693],[76.3414,31.2435],[76.4056,31.1721],[76.5315,31.1736],[76.5609,31.3092],[76.4861,31.3895],[76.4121,31.4157],[76.4109,31.4879],[76.4527,31.5064],[76.4518,31.5605],[76.4933,31.5971],[76.4922,31.6692],[76.4387,31.7137]],[[76.0439,32.4301],[75.9802,32.4292],[75.908,32.3288],[75.9308,32.257],[76.0065,32.195],[76.0589,32.2229],[76.0578,32.277],[76.0149,32.2944],[76.0138,32.3485],[76.0559,32.3671],[76.0439,32.4301]],[[75.8634,32.8784],[75.7779,32.877],[75.7256,32.831],[75.7265,32.7949],[75.8132,32.7422],[75.8054,32.6248],[75.9436,32.6361],[75.9178,32.8341],[75.8634,32.8784]],[[76.0431,33.4585],[75.8716,33.4378],[75.7769,33.3551],[75.843,33.284],[75.8356,33.1485],[75.8998,33.1496],[75.9305,33.2132],[75.9944,33.2322],[76.0771,33.3778],[76.0431,33.4585]],[[76.5604,33.3929],[76.5283,33.3835],[76.5403,33.3024],[76.5939,33.312],[76.5604,33.3929]]]}}]}