{"type":"FeatureCollection","features":[{"type":"Feature","properties":{},"geometry":{"type":"MultiLineString","coordinates":[[[80.633,26.734],[80.5825,26.7259],[80.5915,26.6806],[80.633,26.734]],[[81.1724,28.0039],[81.101,27.9966],[81.0755,27.8167],[81.0344,27.7996],[81.0214,27.7006],[80.9517,27.7473],[80.9542,27.8375],[80.9037,27.8476],[80.8918,27.7847],[80.8399,27.7407],[80.7588,27.7424],[80.6646,27.627],[80.7042,27.5901],[80.7195,27.3912],[80.7896,27.3627],[80.8314,27.4159],[80.8605,27.3702],[80.7985,27.3174],[80.7549,27.1919],[80.7733,27.1193],[80.8333,27.1],[80.8704,26.9728],[80.9195,26.9265],[80.9701,26.9344],[80.9926,27.0242],[80.9219,27.0168],[80.913,27.0621],[81.0138,27.0598],[81.0153,27.114],[81.1393,27.2194],[81.1435,27.3637],[81.1959,27.4257],[81.2882,27.4685],[81.2696,27.5231],[81.3107,27.5402],[81.3151,27.6845],[81.2159,27.7591],[81.2795,27.8478],[81.2817,27.92],[81.2416,27.939],[81.2328,27.9844],[81.1724,28.0039]],[[80.7012,27.0576],[80.6506,27.0496],[80.6998,27.0035],[80.7012,27.0576]],[[81.1617,28.329],[81.0363,28.2237],[80.9339,28.208],[80.8609,28.1464],[80.8183,28.0751],[80.8367,28.0025],[80.7951,27.9673],[80.8244,27.9216],[80.8957,27.929],[80.9289,28.0276],[80.9899,28.0262],[81.1036,28.0868],[81.0848,28.1413],[81.1695,28.2476],[81.1617,28.329]],[[76.5907,31.4268],[76.4962,31.4167],[76.4766,31.3263],[76.5298,31.2818],[76.6239,31.3098],[76.5907,31.4268]],[[76.3959,31.7493],[76.3433,31.7396],[76.3867,31.668],[76.3685,31.5054],[76.4224,31.4249],[76.4855,31.4256],[76.4945,31.5249],[76.5574,31.5437],[76.5565,31.5978],[76.4506,31.6327],[76.4494,31.7048],[76.3959,31.7493]],[[77.4887,32.6239],[77.3396,32.6232],[77.3296,32.524],[77.1604,32.4148],[77.1712,32.3878],[77.2134,32.4241],[77.2455,32.3972],[77.3006,32.136],[77.4381,32.1817],[77.4374,32.308],[77.6065,32.4709],[77.4887,32.6239]],[[76.2002,33.1359],[76.1682,33.1265],[76.1701,33.0363],[76.2244,32.9919],[76.2764,33.0738],[76.2002,33.1359]],[[75.8321,33.2928],[75.7362,33.2642],[75.7179,33.1376],[75.6465,33.001],[75.6893,33.0018],[75.7416,33.0478],[75.7403,33.1019],[75.8041,33.121],[75.8448,33.2118],[75.7795,33.2469],[75.8329,33.2568],[75.8321,33.2928]],[[76.0846,33.5312],[75.977,33.5297],[75.883,33.4109],[75.9916,33.3585],[75.9823,33.2952],[76.0572,33.3053],[76.0846,33.5312]]]}}]}