{"type":"FeatureCollection","features":[{"type":"Feature","properties":{},"geometry":{"type":"MultiLineString","coordinates":[[[81.3808,28.1612],[81.3297,28.1534],[81.2856,28.0462],[81.1713,27.9678],[81.1103,27.9693],[81.0478,27.9166],[80.9666,27.9184],[80.8938,27.8569],[80.9428,27.7926],[80.9933,27.7824],[80.971,27.7107],[81.0713,27.6723],[81.0703,27.6363],[81.0085,27.6016],[80.965,27.4942],[80.861,27.3882],[80.8803,27.3517],[80.8183,27.2989],[80.8357,27.1902],[80.8952,27.1528],[80.8708,26.9908],[80.9102,26.9538],[80.9087,26.8997],[80.9878,26.8437],[80.9667,26.8081],[80.9952,26.7443],[81.0662,26.7697],[81.1188,26.8497],[81.2199,26.8654],[81.3134,26.9623],[81.2959,27.0531],[81.3591,27.1417],[81.3608,27.1959],[81.3215,27.233],[81.468,27.3917],[81.4495,27.4463],[81.5119,27.4988],[81.5154,27.6071],[81.4581,27.7169],[81.461,27.8071],[81.5028,27.8421],[81.5105,28.0765],[81.4617,28.141],[81.3808,28.1612]],[[81.003,27.4031],[80.9922,27.3763],[80.9621,27.386],[80.9729,27.4128],[81.003,27.4031]],[[81.363,27.9179],[81.4024,27.8808],[81.3914,27.854],[81.3207,27.8649],[81.3223,27.919],[81.363,27.9179]],[[80.9147,29.7063],[80.8215,29.6993],[80.8199,29.6452],[80.7781,29.628],[80.8074,29.5642],[80.8703,29.599],[81.0254,29.6045],[81.027,29.6586],[80.9147,29.7063]],[[76.7312,31.9333],[76.6677,31.9327],[76.6471,31.8964],[76.6043,31.932],[76.5315,31.8501],[76.4919,31.6873],[76.5281,31.39],[76.5702,31.3905],[76.6216,31.4722],[76.6845,31.4909],[76.6629,31.5267],[76.7045,31.5632],[76.7312,31.9333]],[[77.1059,32.5497],[77.0753,32.4142],[77.1184,32.3604],[77.1716,32.3517],[77.204,32.2887],[77.3641,32.1543],[77.4489,32.1547],[77.4592,32.1998],[77.3527,32.2715],[77.3305,32.3977],[77.1708,32.4419],[77.1386,32.4687],[77.1595,32.505],[77.1059,32.5497]],[[77.318,32.6592],[77.2861,32.65],[77.2864,32.6139],[77.3507,32.5601],[77.3514,32.4519],[77.3941,32.4341],[77.405,32.389],[77.4795,32.3623],[77.5117,32.2993],[77.5754,32.2995],[77.5856,32.3987],[77.5641,32.4528],[77.5001,32.4886],[77.4994,32.6149],[77.318,32.6592]],[[77.3995,33.2189],[77.3569,33.1826],[77.2925,33.2003],[77.2605,33.1731],[77.3574,33.1104],[77.4216,33.1287],[77.54,33.0119],[77.476,32.9756],[77.4873,32.8764],[77.4657,32.9124],[77.3588,32.912],[77.3485,32.8668],[77.5308,32.7142],[77.6803,32.6606],[77.8295,32.6608],[77.84,32.724],[77.7973,32.76],[77.8399,32.7781],[77.8399,32.8322],[77.7542,32.9043],[77.754,32.9764],[77.8181,33.0126],[77.7645,33.0757],[77.7217,33.0756],[77.5713,33.1834],[77.3995,33.2189]],[[78.9859,33.1624],[78.943,33.1628],[78.8674,33.1001],[78.8877,32.9917],[78.8446,32.9559],[78.919,32.9103],[78.9939,32.9188],[79.0165,33.0269],[78.9741,33.0633],[78.9859,33.1624]],[[77.764,33.2561],[77.7104,33.247],[77.7213,33.1838],[77.7642,33.1839],[77.7857,33.1479],[77.9036,33.157],[77.764,33.2561]],[[75.8321,33.2928],[75.7791,33.2649],[75.7914,33.202],[75.801,33.2472],[75.8435,33.266],[75.8321,33.2928]]]}}]}