{"type":"FeatureCollection","features":[{"type":"Feature","properties":{},"geometry":{"type":"MultiLineString","coordinates":[[[81.6869,28.171],[81.524,28.1755],[81.5024,28.1399],[81.4309,28.1328],[81.4291,28.0787],[81.5093,28.0405],[81.5464,27.9312],[81.6061,27.8934],[81.555,27.8858],[81.5359,27.9224],[81.2285,27.8401],[81.1863,27.7869],[81.1353,27.7791],[81.1337,27.725],[81.0718,27.6904],[81.0698,27.6182],[81.0085,27.6016],[81.0579,27.5553],[81.1404,27.6075],[81.1482,27.5261],[81.1881,27.5071],[81.0548,27.4471],[81.0015,27.349],[80.9986,27.2407],[81.0546,27.0769],[81.0324,27.0052],[81.1125,26.9853],[81.109,26.859],[81.1791,26.8483],[81.1678,26.8034],[81.2961,26.719],[81.4378,26.7515],[81.5343,26.9385],[81.5855,26.9642],[81.624,26.909],[81.738,27.0051],[81.7399,27.0592],[81.8444,27.1646],[81.8091,27.31],[81.8501,27.3269],[81.8514,27.363],[81.7522,27.42],[81.699,27.6381],[81.7211,27.6917],[81.6412,27.73],[81.6855,27.8371],[81.7267,27.854],[81.7114,27.9988],[81.7533,28.0337],[81.6948,28.1076],[81.6869,28.171]],[[76.772,32.0419],[76.6884,31.969],[76.6241,32.0224],[76.5713,32.0129],[76.5944,31.8868],[76.6481,31.8242],[76.7438,31.7801],[76.7346,31.6808],[76.8189,31.6815],[76.8502,31.7089],[76.8498,31.745],[76.786,31.7805],[76.8267,31.9071],[76.7839,31.9428],[76.8041,32.0152],[76.772,32.0419]],[[77.5739,32.6242],[77.4994,32.6149],[77.5104,32.5518],[77.5848,32.5611],[77.5739,32.6242]],[[75.7628,32.6241],[75.7432,32.5516],[75.7962,32.5616],[75.7628,32.6241]],[[77.6781,33.292],[77.6137,33.2918],[77.5817,33.2466],[77.6248,33.2107],[77.6251,33.1205],[77.6681,33.0845],[77.6469,33.0303],[77.5293,33.0209],[77.4648,33.0568],[77.422,33.0566],[77.4115,33.0295],[77.4764,32.9035],[77.5621,32.8677],[77.6052,32.7776],[77.7868,32.6969],[77.8186,32.76],[77.7971,32.8322],[77.7544,32.8501],[77.7328,32.9403],[77.6579,32.9492],[77.6471,32.9762],[77.7006,32.9853],[77.7218,33.0395],[77.8075,32.9855],[77.8717,32.9856],[77.8823,33.0307],[77.8394,33.1028],[77.7751,33.1208],[77.7749,33.1749],[77.8392,33.2111],[77.6781,33.292]],[[75.8801,33.0771],[75.8268,33.0672],[75.7862,32.9763],[75.7993,32.8773],[75.842,32.878],[75.9359,32.9787],[75.8801,33.0771]],[[75.9435,33.1142],[75.9007,33.1135],[75.8906,33.0863],[75.9443,33.0781],[75.9435,33.1142]],[[77.6758,33.9054],[77.6219,33.8962],[77.6653,33.8242],[77.7626,33.7793],[77.8815,33.6622],[77.8169,33.6441],[77.7848,33.5267],[77.6987,33.5446],[77.6666,33.4994],[77.8282,33.3644],[77.9141,33.3284],[78.0429,33.3284],[78.0537,33.3735],[77.9785,33.4006],[77.9678,33.4457],[78.0753,33.4818],[78.0753,33.5359],[78.0323,33.572],[78.0754,33.59],[78.0862,33.6532],[78.1616,33.6441],[78.1618,33.7343],[78.0863,33.7614],[78.0216,33.8517],[77.8272,33.8516],[77.6758,33.9054]],[[74.8113,33.6152],[74.7911,33.5786],[74.7161,33.5678],[74.7298,33.4869],[74.825,33.5343],[74.8453,33.5709],[74.8113,33.6152]],[[78.0433,33.996],[78.0108,33.987],[78.0108,33.8968],[78.0648,33.8877],[78.0864,33.8516],[78.1512,33.8516],[78.1621,33.9328],[78.0433,33.996]]]}}]}