{"type":"FeatureCollection","features":[{"type":"Feature","properties":{},"geometry":{"type":"MultiLineString","coordinates":[[[81.7492,28.2053],[81.585,28.1738],[81.5727,28.111],[81.6122,28.0738],[81.5598,28.0301],[81.4779,28.0142],[81.3212,27.8829],[81.3195,27.8288],[81.399,27.7726],[81.3331,27.6118],[81.3309,27.5397],[81.3888,27.4479],[81.3658,27.3582],[81.3139,27.3144],[81.2342,27.3525],[81.2227,27.3076],[81.0985,27.2023],[81.0969,27.1482],[81.1471,27.138],[81.2153,27.0551],[81.1528,26.9843],[81.1714,26.9297],[81.2416,26.919],[81.2503,26.8736],[81.3199,26.8448],[81.4166,26.7159],[81.7381,26.7072],[81.8105,26.7683],[81.8331,26.8399],[81.935,26.873],[81.959,26.9806],[82.0526,27.059],[82.1638,27.0646],[82.1679,27.1728],[82.273,27.2777],[82.2347,27.3331],[82.2563,27.3685],[82.1984,27.4426],[82.2278,27.6764],[82.1992,27.7224],[82.1194,27.761],[82.088,27.7349],[82.0636,27.6274],[81.9813,27.5938],[81.9473,27.4955],[81.8578,27.5433],[81.8688,27.8499],[81.9402,27.8568],[81.9933,27.9184],[81.9533,27.9376],[81.9265,28.0377],[81.8261,28.0768],[81.7874,28.132],[81.7158,28.1251],[81.7578,28.16],[81.7492,28.2053]],[[81.0866,27.1394],[81.0561,27.1311],[81.0654,27.1038],[81.0959,27.1121],[81.0866,27.1394]],[[81.7914,27.9604],[81.8098,27.9058],[81.7575,27.8621],[81.7292,27.9261],[81.7613,27.9703],[81.7914,27.9604]],[[81.464,28.2131],[81.382,28.1972],[81.3297,28.1534],[81.3373,28.072],[81.471,28.1137],[81.464,28.2131]],[[76.1337,32.1969],[76.1021,32.1874],[76.1132,32.1605],[76.1337,32.1969]],[[77.8293,32.7691],[77.7547,32.7239],[77.7761,32.6878],[77.7123,32.6516],[77.7125,32.5975],[77.7551,32.5795],[77.7553,32.5254],[77.8086,32.4804],[77.9468,32.5617],[77.9467,32.6519],[77.9893,32.67],[77.936,32.7331],[77.8293,32.7691]],[[75.6846,33.1821],[75.6427,33.1453],[75.5784,33.1441],[75.5271,33.062],[75.5505,32.9903],[75.5082,32.9714],[75.5116,32.8452],[75.4699,32.8083],[75.5032,32.7639],[75.5985,32.7927],[75.6393,32.8656],[75.637,32.9557],[75.7202,33.0474],[75.7398,33.1199],[75.6846,33.1821]],[[78.0856,33.0398],[78.0748,32.9406],[78.1388,32.8323],[78.2562,32.805],[78.2883,32.8501],[78.1924,32.9495],[78.0963,32.9947],[78.0856,33.0398]],[[72.8955,33.1768],[72.7884,33.1727],[72.763,33.0544],[72.866,32.9411],[72.9383,32.989],[72.8955,33.1768]],[[75.1013,33.3151],[75.0584,33.3141],[74.9866,33.2133],[75.0533,33.1426],[75.0122,33.0876],[75.0256,33.0067],[75.0788,33.0169],[75.0741,33.1611],[75.1373,33.1986],[75.1013,33.3151]],[[78.0428,33.0759],[78.0321,33.0488],[78.0642,33.0398],[78.0428,33.0759]],[[77.7196,33.7431],[77.6441,33.7339],[77.6876,33.6438],[77.9355,33.4006],[78.0215,33.4367],[78.0323,33.5359],[77.9785,33.581],[77.9139,33.563],[77.903,33.6622],[77.8491,33.6712],[77.8275,33.7072],[77.7413,33.7071],[77.7196,33.7431]],[[74.9153,33.7259],[74.8075,33.7234],[74.7448,33.6677],[74.6801,33.6662],[74.6286,33.6017],[74.6556,33.458],[74.7214,33.4236],[74.7338,33.3788],[74.7768,33.3798],[74.9332,33.5188],[74.9153,33.7259]],[[75.0961,33.4773],[75.0211,33.4667],[75.0769,33.4048],[75.0961,33.4773]],[[77.9784,33.996],[77.8595,33.9508],[77.8595,33.8967],[77.9244,33.8607],[77.903,33.6802],[78.1509,33.6712],[78.1403,33.7704],[78.2051,33.8244],[78.2052,33.8786],[78.1296,33.8877],[77.9784,33.996]],[[77.6976,33.8694],[77.6652,33.8603],[77.6762,33.8152],[77.7301,33.8243],[77.6976,33.8694]]]}}]}