{"type":"FeatureCollection","features":[{"type":"Feature","properties":{},"geometry":{"type":"MultiLineString","coordinates":[[[81.9753,28.2529],[81.9332,28.218],[81.7702,28.2228],[81.7171,28.1611],[81.788,28.1501],[81.7972,28.1227],[81.7257,28.1158],[81.6862,28.153],[81.6529,28.0727],[81.5709,28.0569],[81.5464,27.9312],[81.5969,27.9208],[81.6184,27.9563],[81.648,27.9284],[81.6067,27.9115],[81.5729,27.8131],[81.4918,27.8153],[81.3562,27.7015],[81.3512,27.5391],[81.2494,27.5236],[81.2478,27.4695],[81.327,27.4134],[81.3254,27.3593],[81.2844,27.3422],[81.3177,27.1067],[81.4272,27.0587],[81.528,27.0561],[81.5665,27.0009],[81.6868,26.9795],[81.7356,26.933],[81.7722,26.8236],[81.8118,26.8044],[81.7904,26.7689],[81.9182,26.6839],[82.0193,26.6989],[82.1258,26.8581],[82.2277,26.891],[82.3952,27.048],[82.4758,27.0453],[82.528,27.0886],[82.5751,27.2495],[82.5168,27.3057],[82.5796,27.3577],[82.5811,27.3937],[82.7266,27.4789],[82.7492,27.5322],[82.7418,27.5957],[82.6608,27.5986],[82.5918,27.6461],[82.5988,27.8084],[82.5492,27.8372],[82.4965,27.7938],[82.4507,27.669],[82.2215,27.5141],[82.1671,27.4165],[82.1189,27.4812],[82.1635,27.5882],[82.0657,27.6815],[82.1705,27.7685],[82.1824,27.8132],[82.2125,27.8032],[82.239,27.7031],[82.2915,27.7465],[82.2734,27.8013],[82.1656,27.904],[82.0942,27.8972],[82.0983,28.0054],[82.0584,28.0247],[82.0611,28.0968],[82.0119,28.1434],[81.941,28.1546],[81.9522,28.1814],[82.0238,28.1882],[81.9753,28.2529]],[[81.6209,27.7306],[81.6099,27.7038],[81.5798,27.7136],[81.5908,27.7404],[81.6209,27.7306]],[[77.4735,31.5414],[77.4528,31.4872],[77.4843,31.4964],[77.4735,31.5414]],[[76.4844,32.7967],[76.3564,32.7951],[76.3357,32.7588],[76.2717,32.758],[76.2423,32.6223],[76.2004,32.5857],[76.1423,32.2962],[76.101,32.2415],[76.2418,32.0901],[76.335,32.2086],[76.3337,32.2807],[76.4291,32.2909],[76.4814,32.3366],[76.5221,32.4453],[76.4574,32.4987],[76.5195,32.6076],[76.5189,32.6437],[76.476,32.6613],[76.4844,32.7967]],[[78.532,32.5156],[78.4787,32.5067],[78.5103,32.4435],[78.6273,32.452],[78.5957,32.4973],[78.532,32.5156]],[[75.7275,33.1828],[75.5794,33.1081],[75.5356,33.1434],[75.4504,33.1237],[75.3574,33.0046],[75.4262,32.8436],[75.4059,32.8071],[75.4501,32.7538],[75.4531,32.6456],[75.5289,32.602],[75.6226,32.6849],[75.6189,32.8291],[75.7639,33.0121],[75.7608,33.1383],[75.7275,33.1828]],[[79.0059,33.036],[78.9737,33.0272],[78.9839,32.982],[79.0059,33.036]],[[75.3589,33.3204],[75.316,33.3195],[75.2219,33.2364],[75.2027,33.1639],[75.2692,33.0931],[75.2505,33.0025],[75.2834,32.9761],[75.3246,33.031],[75.3778,33.0411],[75.3767,33.0772],[75.5017,33.2059],[75.4678,33.2684],[75.4264,33.2135],[75.3589,33.3204]],[[72.9292,33.3405],[72.7719,33.2713],[72.7975,33.2001],[72.7568,33.1624],[72.763,33.0544],[72.8527,32.9857],[72.866,32.9411],[73.0787,32.9671],[73.1453,33.123],[73.1171,33.2483],[72.9292,33.3405]],[[78.7731,33.3443],[78.7192,33.3175],[78.7618,33.2812],[78.8036,33.1546],[78.8782,33.1091],[78.9324,33.1718],[78.8899,33.2082],[78.8908,33.2984],[78.7731,33.3443]],[[78.1073,33.2923],[77.9785,33.2924],[77.9678,33.1931],[78.1286,33.1841],[78.1714,33.1479],[78.1609,33.2291],[78.1073,33.2923]],[[78.386,33.2196],[78.3538,33.2107],[78.3859,33.1836],[78.386,33.2196]],[[78.279,33.2921],[78.1932,33.2922],[78.1824,33.2652],[78.2359,33.22],[78.3431,33.2198],[78.3539,33.2468],[78.3003,33.2559],[78.279,33.2921]],[[75.8509,33.4014],[75.7773,33.337],[75.7892,33.2921],[75.8842,33.3568],[75.8509,33.4014]],[[75.0362,33.9813],[74.9497,33.9793],[74.9194,33.9155],[74.9639,33.8804],[74.9115,33.8341],[74.8467,33.8326],[74.6474,33.6744],[74.6334,33.4755],[74.7566,33.3432],[75.0345,33.3858],[75.048,33.3049],[75.1448,33.298],[75.2797,33.4541],[75.2979,33.5628],[75.2537,33.598],[75.2957,33.6349],[75.2725,33.6886],[75.3344,33.78],[75.216,33.7686],[75.1117,33.6581],[75.0471,33.6567],[75.033,33.7556],[75.0749,33.7927],[75.0362,33.9813]],[[78.4523,33.5983],[78.3767,33.5534],[78.3762,33.4452],[78.4619,33.3908],[78.4938,33.3275],[78.5582,33.3273],[78.6558,33.4622],[78.5811,33.5437],[78.5595,33.5257],[78.4523,33.5983]],[[73.0285,33.4886],[72.9998,33.4244],[73.055,33.3994],[73.0623,33.4628],[73.0285,33.4886]],[[73.074,33.8332],[73.0329,33.7956],[72.9147,33.7822],[72.9733,33.7032],[73.1139,33.6993],[73.074,33.8332]],[[72.7427,33.947],[72.6914,33.8998],[72.6969,33.8098],[72.8613,33.7711],[72.8869,33.8894],[72.7427,33.947]]]}}]}