{"type":"FeatureCollection","features":[{"type":"Feature","properties":{},"geometry":{"type":"MultiLineString","coordinates":[[[82.5246,28.2171],[82.4937,28.2091],[82.526,28.0095],[82.5109,27.8926],[82.4093,27.8961],[82.3717,27.9695],[82.31,27.9535],[82.3023,28.017],[82.2435,28.073],[82.2653,28.1084],[82.1951,28.1377],[82.0323,28.1428],[82.0106,28.1074],[81.939,28.1005],[81.9049,28.0023],[81.7613,27.9703],[81.7625,28.0064],[81.8235,28.0046],[81.8452,28.0401],[81.8963,28.0476],[81.8983,28.1017],[81.8392,28.1576],[81.8313,28.221],[81.6887,28.2251],[81.6948,28.1076],[81.5697,28.0208],[81.5882,27.9661],[81.5168,27.959],[81.4645,27.9153],[81.4593,27.753],[81.6222,27.7666],[81.6111,27.7399],[81.5398,27.7328],[81.538,27.6787],[81.578,27.6595],[81.5536,27.5338],[81.5935,27.5147],[81.5911,27.4425],[81.5494,27.4076],[81.5789,27.3797],[81.6407,27.4141],[81.6493,27.3687],[81.7681,27.2932],[81.6439,27.2064],[81.6928,27.1599],[81.7332,27.1587],[81.7546,27.1942],[81.8041,27.1657],[81.7521,27.1221],[81.6916,27.1238],[81.6172,27.0085],[81.666,26.962],[81.7667,26.9592],[81.8545,26.8754],[81.8624,26.8119],[81.9233,26.8282],[81.9422,26.7915],[82.0226,26.7891],[82.0802,26.7151],[82.1807,26.7119],[82.2195,26.6745],[82.3206,26.6893],[82.5512,26.9163],[82.6436,26.9582],[82.6451,26.9943],[82.7908,27.0974],[82.8359,27.2041],[82.9199,27.2732],[82.9248,27.3813],[82.886,27.4189],[82.928,27.4534],[82.9305,27.5075],[82.8819,27.5544],[82.8212,27.5567],[82.7337,27.6411],[82.6889,27.7781],[82.6077,27.781],[82.5844,27.7096],[82.495,27.7578],[82.5063,27.7845],[82.598,27.7903],[82.5597,27.8458],[82.5636,27.936],[82.6284,28.0239],[82.5909,28.0975],[82.5314,28.1356],[82.5246,28.2171]],[[81.6959,27.548],[81.6836,27.4851],[81.6143,27.5322],[81.6253,27.5589],[81.6959,27.548]],[[82.5693,27.5927],[82.5865,27.5199],[82.4943,27.496],[82.4875,27.5775],[82.519,27.6035],[82.5693,27.5927]],[[82.3719,27.7258],[82.3179,27.6464],[82.2683,27.6751],[82.3418,27.7358],[82.3719,27.7258]],[[77.5377,31.3432],[77.5171,31.253],[77.5486,31.2621],[77.5377,31.3432]],[[77.5368,31.5236],[77.5053,31.5145],[77.5055,31.4604],[77.5795,31.3795],[77.8003,31.3529],[77.8002,31.407],[77.7475,31.452],[77.6213,31.4517],[77.5368,31.5236]],[[78.7389,31.7749],[78.6859,31.7482],[78.6644,31.6942],[78.7167,31.6307],[78.801,31.6303],[78.8124,31.7294],[78.7389,31.7749]],[[78.2118,32.0655],[78.1694,32.0655],[78.1164,32.0024],[78.0739,31.8401],[78.0739,31.786],[78.1266,31.7409],[78.2532,31.7407],[78.3484,31.7856],[78.349,31.966],[78.275,31.9751],[78.2118,32.0655]],[[77.8942,32.0295],[77.799,32.0023],[77.8942,31.9573],[77.9259,32.0025],[77.8942,32.0295]],[[76.6911,33.2679],[76.6267,33.2673],[76.5527,33.2033],[76.4908,33.0583],[76.5134,32.9864],[76.3869,32.8767],[76.3462,32.768],[76.2416,32.6584],[76.2656,32.5144],[76.0779,32.3314],[76.0905,32.2323],[76.1542,32.2332],[76.1956,32.2879],[76.5143,32.2738],[76.5876,32.3378],[76.5856,32.464],[76.6702,32.501],[76.7323,32.6279],[76.7087,32.79],[76.7504,32.8626],[76.7071,32.8982],[76.7496,32.9167],[76.7479,33.0429],[76.7048,33.0606],[76.7033,33.1688],[76.7456,33.2053],[76.6911,33.2679]],[[78.0851,32.4444],[78.0319,32.4354],[78.085,32.3362],[78.0851,32.4444]],[[76.9135,32.6204],[76.8395,32.5747],[76.8509,32.5117],[76.8935,32.512],[76.946,32.5756],[76.9135,32.6204]],[[75.6078,33.6499],[75.4796,33.6114],[75.4081,33.4747],[75.3657,33.4559],[75.3898,33.3661],[75.4558,33.3133],[75.3302,33.2026],[75.2692,33.0931],[75.2927,33.0214],[75.358,32.9866],[75.3424,32.7878],[75.3757,32.7434],[75.4938,32.7186],[75.5526,32.5122],[75.5952,32.513],[75.668,32.5774],[75.6208,32.757],[75.6579,32.9742],[75.6906,32.9477],[75.7652,32.958],[75.8675,33.1581],[75.8448,33.2118],[75.7909,33.22],[75.6874,33.0739],[75.6718,33.2631],[75.6389,33.2896],[75.5641,33.2792],[75.5601,33.4235],[75.7087,33.4983],[75.7078,33.5343],[75.6423,33.5693],[75.6629,33.6057],[75.6078,33.6499]],[[78.5339,32.8403],[78.4912,32.8404],[78.3306,32.7237],[78.3836,32.6604],[78.4902,32.66],[78.5332,32.732],[78.5759,32.7319],[78.597,32.6957],[78.6717,32.7044],[78.6508,32.7586],[78.5339,32.8403]],[[78.8125,32.9471],[78.6842,32.9478],[78.6728,32.8487],[78.7261,32.8394],[78.7682,32.767],[78.8962,32.7662],[78.95,32.8109],[78.9508,32.8831],[78.8335,32.9109],[78.8125,32.9471]],[[78.7522,33.4165],[78.7092,33.4168],[78.6551,33.3539],[78.6761,33.2997],[78.5576,33.219],[78.5147,33.2192],[78.4823,33.1742],[78.5675,33.1017],[78.5027,32.9937],[78.5131,32.9486],[78.5561,32.9845],[78.8769,32.9828],[78.898,32.9466],[78.9407,32.9463],[79.0591,33.0085],[79.0065,33.0901],[78.8142,33.1456],[78.7183,33.2093],[78.7839,33.3532],[78.7522,33.4165]],[[73.1311,33.5827],[73.004,33.5419],[72.7719,33.2713],[72.7975,33.2001],[72.7568,33.1624],[72.8241,33.1109],[72.8058,33.0561],[72.8843,32.9959],[72.9902,33.018],[73.1001,32.9679],[73.1856,32.971],[73.259,33.0007],[73.2562,33.0548],[73.3381,33.1298],[73.3129,33.2011],[73.352,33.2747],[73.2624,33.3437],[73.3016,33.4173],[73.2577,33.4338],[73.2529,33.5239],[73.1311,33.5827]],[[75.2303,34.0035],[74.8625,33.9954],[74.7918,33.8583],[74.7283,33.8207],[74.7512,33.7852],[74.6996,33.7208],[74.6113,33.7727],[74.5466,33.771],[74.5542,33.8524],[74.52,33.8967],[74.4768,33.8955],[74.4276,33.7769],[74.374,33.7665],[74.3331,33.7112],[74.2677,33.7275],[74.2372,33.6815],[74.2864,33.5385],[74.2671,33.4838],[74.3428,33.4769],[74.3947,33.5234],[74.3925,33.5775],[74.4341,33.6147],[74.4119,33.6322],[74.4833,33.7333],[74.5383,33.7077],[74.5411,33.6356],[74.4808,33.5257],[74.537,33.464],[74.6888,33.4318],[74.7748,33.4339],[74.8165,33.471],[74.881,33.4725],[74.9253,33.4374],[74.9676,33.4564],[75.0008,33.4301],[74.9811,33.3756],[75.1019,33.297],[75.3012,33.4546],[75.342,33.5276],[75.2753,33.5984],[75.4455,33.6739],[75.506,33.8194],[75.5035,33.9096],[75.5462,33.9284],[75.5452,33.9645],[75.4909,33.9725],[75.4176,33.8899],[75.4297,33.845],[75.2785,33.8421],[75.2447,33.8865],[75.2635,33.9771],[75.2303,34.0035]],[[76.6016,33.5016],[76.548,33.492],[76.5598,33.4289],[76.6134,33.4385],[76.6016,33.5016]],[[78.3229,33.5626],[78.2368,33.5628],[78.2044,33.5358],[78.2259,33.4997],[78.1828,33.4636],[78.215,33.4365],[78.3549,33.4813],[78.3766,33.5354],[78.3229,33.5626]],[[72.9341,34.0085],[72.8044,34.0036],[72.7541,33.9384],[72.9156,33.9537],[72.9579,33.7838],[73.1261,33.6727],[73.2554,33.6774],[73.3256,33.7791],[73.2728,33.9577],[73.1298,33.9977],[72.9784,33.9921],[72.9589,33.9553],[72.9341,34.0085]],[[78.2809,33.9055],[78.2052,33.8786],[78.2375,33.8154],[78.4209,33.8059],[78.4105,33.8871],[78.2809,33.9055]],[[78.1514,33.9959],[78.0865,33.996],[78.0757,33.9689],[78.1945,33.8876],[78.1514,33.9959]],[[72.5903,33.959],[72.5596,33.9307],[72.5732,33.8861],[72.6255,33.9153],[72.5903,33.959]],[[74.0175,34.009],[73.9638,33.9984],[74.0191,33.973],[74.0944,33.9842],[74.0175,34.009]]]}}]}