{"type":"FeatureCollection","features":[{"type":"Feature","properties":{},"geometry":{"type":"MultiLineString","coordinates":[[[82.278,28.1712],[82.2169,28.1731],[82.1642,28.1297],[82.1621,28.0756],[82.0801,28.0601],[82.0163,27.9899],[82.0129,27.8997],[81.9716,27.8829],[81.9068,27.7766],[81.9775,27.7654],[82.016,27.7101],[82.0998,27.7797],[82.139,27.7424],[82.2418,27.7752],[82.2502,27.7298],[82.188,27.6957],[82.1433,27.5888],[82.0812,27.5546],[82.0575,27.4651],[81.9864,27.4582],[81.9746,27.4135],[81.9127,27.3792],[81.9505,27.3059],[81.8665,27.2181],[81.8646,27.164],[81.9043,27.1447],[81.8627,27.1099],[81.8608,27.0557],[81.931,27.0446],[81.9856,27.1604],[82.0566,27.1672],[82.0818,27.031],[82.0194,26.9788],[81.9927,26.799],[82.0816,26.7511],[82.2617,26.7274],[82.25,26.6826],[82.2984,26.6359],[82.4368,26.5771],[82.9658,26.9464],[83.0529,27.0876],[83.1369,27.1565],[83.1841,27.2991],[83.0734,27.3125],[83.0654,27.3579],[82.9668,27.4158],[82.9887,27.4511],[82.9143,27.5984],[82.9557,27.6149],[82.9582,27.6689],[82.9185,27.6885],[82.9607,27.723],[82.9648,27.8131],[82.8756,27.8616],[82.7935,27.8465],[82.7716,27.8112],[82.7108,27.8134],[82.7358,27.9208],[82.5952,27.9619],[82.517,28.0368],[82.456,28.0389],[82.3791,28.1498],[82.278,28.1712]],[[81.3369,27.4041],[81.2238,27.3437],[81.2429,27.3072],[81.201,27.254],[81.2501,27.2077],[81.3625,27.25],[81.3664,27.3763],[81.3369,27.4041]],[[82.5957,27.7363],[82.5844,27.7096],[82.5544,27.7196],[82.5656,27.7463],[82.5957,27.7363]],[[82.8431,28.0433],[82.7707,28.0189],[82.7984,27.9547],[82.8504,27.9799],[82.8431,28.0433]],[[78.1683,31.4341],[78.1157,31.4252],[78.1892,31.398],[78.1683,31.4341]],[[77.6619,31.8668],[77.5672,31.7853],[77.6519,31.7134],[77.6732,31.6413],[77.6313,31.5871],[77.7157,31.5332],[77.7159,31.461],[77.7686,31.4521],[77.8211,31.4973],[77.821,31.5514],[77.7998,31.6235],[77.7153,31.6775],[77.7363,31.7136],[77.694,31.7496],[77.6619,31.8668]],[[78.9935,33.848],[78.9178,33.8395],[78.8741,33.7857],[78.8953,33.7494],[78.808,33.6417],[78.8073,33.5696],[78.8826,33.5601],[78.9573,33.4964],[78.903,33.4517],[78.7955,33.4524],[78.6551,33.3539],[78.7182,33.1912],[78.6002,33.1828],[78.5249,33.138],[78.5456,33.0116],[78.4593,32.8676],[78.4802,32.7773],[78.4268,32.7685],[78.4056,32.8047],[78.3095,32.7959],[78.3199,32.7327],[78.4159,32.7234],[78.4156,32.6693],[78.3622,32.6244],[78.2663,32.6156],[78.2448,32.5435],[78.3084,32.4712],[78.2869,32.3991],[78.2231,32.3631],[78.2654,32.3089],[78.2016,32.2549],[78.2226,32.1647],[78.1801,32.1286],[78.1801,32.0926],[78.2541,32.0654],[78.3069,32.0021],[78.0845,31.8672],[78.0106,31.9303],[78.0,32.0295],[77.8625,31.9844],[77.8838,31.8581],[77.8416,31.7859],[77.905,31.7499],[77.9473,31.6778],[77.9579,31.5605],[78.1897,31.6325],[78.2216,31.7317],[78.2744,31.7767],[78.3797,31.7043],[78.4538,31.7492],[78.454,31.8033],[78.4119,31.8215],[78.4546,31.9296],[78.3807,31.9568],[78.3492,32.0201],[78.4022,32.0289],[78.4555,32.1099],[78.4135,32.2003],[78.4141,32.3266],[78.4779,32.3444],[78.4786,32.4707],[78.5212,32.4885],[78.6513,32.8307],[78.6941,32.8486],[78.6948,32.9388],[78.7702,33.0015],[78.8129,33.0012],[78.8778,33.073],[78.9203,33.0366],[79.0069,33.1262],[79.1681,33.17],[79.0839,33.297],[79.1167,33.3418],[79.1922,33.3682],[79.2035,33.4132],[79.2574,33.4218],[79.2582,33.4759],[79.1615,33.4858],[79.1083,33.5313],[79.1094,33.6215],[79.0235,33.6403],[79.0241,33.6944],[78.9814,33.7308],[78.9935,33.848]],[[77.5137,31.9204],[77.482,31.9113],[77.4929,31.8482],[77.5246,31.8573],[77.5137,31.9204]],[[76.8418,33.2332],[76.7668,33.2235],[76.7676,33.1694],[76.6832,33.0784],[76.6736,32.9971],[76.5459,32.9597],[76.3771,32.8315],[76.2182,32.7663],[76.1358,32.6209],[76.1585,32.549],[76.117,32.4943],[76.2046,32.3692],[76.1844,32.3148],[76.2603,32.2347],[76.3663,32.236],[76.5032,32.3008],[76.5448,32.3553],[76.5227,32.4092],[76.5851,32.5001],[76.5837,32.5903],[76.6258,32.6268],[76.6244,32.717],[76.7192,32.7991],[76.7619,32.7995],[76.899,32.936],[76.8418,33.2332]],[[76.3939,32.4799],[76.3955,32.3897],[76.3533,32.3712],[76.3438,32.3079],[76.3112,32.3526],[76.353,32.3892],[76.3514,32.4794],[76.3939,32.4799]],[[76.7431,32.6189],[76.6691,32.5731],[76.6712,32.4288],[76.7035,32.4021],[76.7778,32.4118],[76.7758,32.5561],[76.7431,32.6189]],[[75.8616,33.8526],[75.7651,33.824],[75.766,33.7879],[75.6811,33.7323],[75.6404,33.6414],[75.4302,33.4571],[75.4767,33.3317],[75.5202,33.3145],[75.5217,33.2604],[75.3741,33.1673],[75.3966,33.1317],[75.3355,33.0222],[75.3419,32.8059],[75.461,32.745],[75.5643,32.8732],[75.5791,32.7202],[75.5374,32.6833],[75.5706,32.6388],[75.6861,32.704],[75.6829,32.8303],[75.7247,32.8671],[75.743,32.9937],[75.7849,33.0304],[75.7835,33.0845],[75.8889,33.1584],[75.8868,33.2486],[75.8102,33.3105],[75.7252,33.273],[75.6418,33.1814],[75.6094,33.1898],[75.6685,33.3893],[75.7737,33.4813],[75.7623,33.5082],[75.7087,33.4983],[75.7069,33.5704],[75.7605,33.5803],[75.7697,33.6436],[75.8757,33.7175],[75.8312,33.771],[75.8616,33.8526]],[[76.0117,32.9348],[75.9371,32.9246],[75.9287,32.8253],[76.0238,32.8718],[76.0117,32.9348]],[[78.2782,33.0215],[78.246,33.0125],[78.2781,32.9854],[78.2782,33.0215]],[[75.0578,33.3322],[74.9719,33.3302],[74.8788,33.2289],[74.88,33.1928],[74.9235,33.1758],[74.9039,33.1212],[74.9792,33.1139],[75.0464,33.0252],[75.0892,33.0261],[75.161,33.1269],[75.0527,33.1606],[75.0578,33.3322]],[[72.9341,34.0085],[72.5233,33.9924],[72.43,33.9253],[72.4322,33.8893],[72.5345,33.8123],[72.706,33.8373],[72.8292,33.9504],[72.928,33.9271],[73.1109,33.7534],[73.1129,33.7174],[73.0595,33.7064],[72.9466,33.6029],[72.9108,33.4752],[72.8688,33.4555],[72.8771,33.3115],[72.9568,33.2333],[73.1293,33.2216],[73.1843,33.1966],[73.2198,33.1347],[73.3511,33.0852],[73.5469,33.2452],[73.5657,33.3],[73.5639,33.336],[73.4753,33.3872],[73.5164,33.4247],[73.4849,33.6221],[73.4315,33.6113],[73.3969,33.6552],[73.4964,33.821],[73.4908,33.9291],[73.4326,34.0084],[72.9341,34.0085]],[[75.2918,33.4093],[75.1971,33.3442],[75.2422,33.2729],[75.2004,33.236],[75.278,33.1564],[75.3093,33.1841],[75.2857,33.2558],[75.3474,33.3472],[75.2918,33.4093]],[[79.0423,33.4056],[79.0308,33.3425],[78.9128,33.3524],[78.9242,33.4155],[79.0423,33.4056]],[[75.8914,33.5103],[75.8181,33.4279],[75.8303,33.365],[75.8733,33.3657],[75.8825,33.429],[75.9251,33.4477],[75.8914,33.5103]],[[74.6672,34.0087],[74.4948,33.9863],[74.2735,33.8449],[74.2218,33.5367],[74.3005,33.4577],[74.4087,33.4426],[74.5571,33.5006],[74.6895,33.4138],[74.7325,33.4148],[74.9406,33.6182],[75.015,33.647],[75.0965,33.7931],[75.2132,33.8588],[75.2902,33.8152],[75.2719,33.7066],[75.2299,33.6696],[75.2537,33.598],[75.3299,33.5724],[75.3829,33.6005],[75.4223,33.7276],[75.506,33.8194],[75.4829,33.8731],[75.5246,33.928],[75.4693,33.9721],[75.3611,33.97],[75.3168,34.0052],[74.8193,33.9943],[74.8206,33.9583],[74.7354,33.9201],[74.7236,33.9469],[74.7655,33.984],[74.6672,34.0087]],[[75.4197,33.8178],[75.4102,33.7725],[75.314,33.7435],[75.387,33.8262],[75.4197,33.8178]],[[72.4969,33.7205],[72.4652,33.7102],[72.5207,33.6854],[72.4969,33.7205]]]}}]}