{"type":"FeatureCollection","features":[{"type":"Feature","properties":{},"geometry":{"type":"MultiLineString","coordinates":[[[82.4705,26.4134],[82.4401,26.4054],[82.4483,26.36],[82.4705,26.4134]],[[82.4839,28.2185],[82.3602,28.1865],[82.3474,28.1238],[82.4484,28.1024],[82.4469,28.0663],[82.3844,28.0323],[82.3905,27.9328],[82.5823,27.8992],[82.5191,27.8472],[82.5168,27.7931],[82.4755,27.7765],[82.432,27.7058],[82.4507,27.669],[82.387,27.5989],[82.3855,27.5629],[82.4365,27.5702],[82.4845,27.5054],[82.4231,27.4894],[82.4097,27.4086],[82.3692,27.41],[82.3065,27.3579],[82.1643,27.3444],[82.0878,27.1933],[82.1887,27.1902],[82.1839,27.0639],[82.2423,27.0079],[82.2083,26.9097],[82.3819,26.9672],[82.3568,26.8416],[82.4239,26.7581],[82.5043,26.7554],[82.5334,26.7273],[82.4709,26.6753],[82.5067,26.5657],[82.5966,26.5535],[82.6799,26.6228],[82.8822,26.6516],[83.0678,26.7529],[83.2459,26.8994],[83.2545,27.0797],[83.1642,27.0923],[83.1562,27.1377],[83.1807,27.227],[83.2842,27.2771],[83.2877,27.3492],[83.249,27.3868],[83.2534,27.4769],[83.1724,27.4801],[83.2251,27.7308],[83.1766,27.7779],[83.1157,27.7803],[83.1009,27.6815],[83.1397,27.6439],[83.0886,27.6369],[83.0042,27.5679],[82.9468,27.6423],[82.8568,27.6727],[82.8495,27.7362],[82.74,27.7853],[82.705,27.9129],[82.7886,27.9641],[82.7145,28.1292],[82.4839,28.2185]],[[82.7938,26.7],[82.7617,26.656],[82.7127,26.6849],[82.7439,26.7108],[82.7938,26.7]],[[83.4331,26.8105],[83.3404,26.7692],[83.316,26.6799],[83.3649,26.6508],[83.4776,26.6913],[83.4331,26.8105]],[[81.4732,27.2381],[81.4328,27.2391],[81.3499,27.1691],[81.2894,27.1706],[81.2774,27.1077],[81.3275,27.0974],[81.4502,27.1484],[81.5021,27.1922],[81.4732,27.2381]],[[83.4966,27.2774],[83.3342,27.266],[83.3211,27.2034],[83.2798,27.187],[83.2974,27.1321],[83.3877,27.1194],[83.4912,27.1693],[83.5439,27.2122],[83.4966,27.2774]],[[82.0222,27.3308],[81.9707,27.3052],[81.9798,27.2779],[82.0508,27.2848],[82.0222,27.3308]],[[83.0549,27.7826],[83.0037,27.7755],[83.0109,27.7121],[83.062,27.7191],[83.0549,27.7826]],[[82.4064,27.824],[82.3755,27.816],[82.3838,27.7706],[82.4146,27.7786],[82.4064,27.824]],[[82.9524,28.2017],[82.8701,28.1867],[82.8147,28.0895],[82.9431,28.0035],[83.1057,27.9973],[83.1021,28.1328],[82.9702,28.1469],[82.9524,28.2017]],[[83.0975,28.2503],[83.0258,28.2441],[83.0533,28.1798],[83.1047,28.1869],[83.0975,28.2503]],[[79.5157,30.1627],[79.4844,30.1541],[79.4944,30.1269],[79.5257,30.1355],[79.5157,30.1627]],[[79.7505,30.5207],[79.7088,30.5212],[79.6873,30.4854],[79.6463,30.522],[79.5524,30.5141],[79.5512,30.442],[79.592,30.3873],[79.4871,30.3344],[79.5282,30.2979],[79.4753,30.2353],[79.3922,30.2362],[79.3917,30.2002],[79.5163,30.1988],[79.6005,30.27],[79.6415,30.2334],[79.7661,30.2318],[79.7876,30.2676],[79.9225,30.2567],[79.9031,30.3291],[79.8011,30.4388],[79.8021,30.4929],[79.7505,30.5207]],[[79.1504,30.888],[79.0668,30.8887],[78.9927,30.8081],[79.1483,30.7077],[79.2219,30.7521],[79.1601,30.8248],[79.1504,30.888]],[[78.5869,31.0902],[78.524,31.0904],[78.4923,31.0455],[78.5129,30.9732],[78.5754,30.9188],[78.5541,30.8648],[78.6273,30.8555],[78.6589,30.9004],[78.6175,30.9547],[78.6698,30.9635],[78.6806,31.0085],[78.5869,31.0902]],[[78.2532,31.7407],[78.2005,31.7317],[78.2319,31.6505],[78.3058,31.6774],[78.3059,31.7135],[78.2532,31.7407]],[[78.1056,31.777],[78.0211,31.777],[78.0106,31.7499],[78.0844,31.7228],[78.1056,31.777]],[[78.3397,32.2997],[78.2653,32.2909],[78.265,32.1646],[78.2225,32.1466],[78.2224,32.0745],[78.1905,32.0294],[78.1164,32.0024],[78.1162,31.8762],[78.2324,31.8309],[78.2536,31.8669],[78.5601,31.8931],[78.5191,32.1097],[78.3496,32.1283],[78.4134,32.1642],[78.4136,32.2183],[78.3501,32.2365],[78.3397,32.2997]],[[78.7221,32.3343],[78.6796,32.3345],[78.6049,32.2717],[78.6364,32.2265],[78.7531,32.2349],[78.7221,32.3343]],[[76.6922,33.1958],[76.6278,33.1951],[76.4914,33.0223],[76.4064,32.9852],[76.3436,32.9123],[76.3035,32.7674],[76.2612,32.7488],[76.1823,32.423],[76.1844,32.3148],[76.2384,32.2705],[76.4281,32.345],[76.438,32.3902],[76.5848,32.5181],[76.584,32.5722],[76.6263,32.5907],[76.6252,32.6629],[76.7293,32.8443],[76.77,32.989],[76.7688,33.0792],[76.7043,33.0967],[76.6922,33.1958]],[[72.0941,32.6204],[72.0214,32.59],[72.0787,32.5294],[72.1088,32.5578],[72.0941,32.6204]],[[78.9679,33.4873],[78.8819,33.4879],[78.8059,33.4072],[78.7946,33.3441],[78.7413,33.3895],[78.731,33.4527],[78.6128,33.4624],[78.6556,33.4261],[78.6122,33.3722],[78.7621,33.3173],[78.7294,33.2543],[78.6653,33.2907],[78.6114,33.2459],[78.5245,33.0658],[78.5665,32.9394],[78.6409,32.8759],[78.7905,32.8751],[78.8441,32.9018],[78.8985,33.0007],[78.9735,33.0092],[78.9959,33.0992],[78.8899,33.2082],[78.9009,33.2352],[79.0404,33.2432],[79.0414,33.3334],[78.9987,33.3518],[78.9679,33.4873]],[[76.1325,33.2974],[75.9953,33.1961],[76.0101,33.0069],[76.1164,33.0446],[76.2529,33.1817],[76.2729,33.2541],[76.1766,33.2438],[76.1867,33.271],[76.1325,33.2974]],[[75.8651,33.7083],[75.8004,33.7073],[75.7591,33.6344],[75.7156,33.6517],[75.5902,33.5052],[75.5031,33.5397],[75.4181,33.502],[75.395,33.5557],[75.3326,33.4823],[75.2896,33.4814],[75.2979,33.5628],[75.2217,33.5883],[75.0862,33.4501],[75.1518,33.4154],[75.153,33.3793],[74.9008,33.2113],[74.9039,33.1212],[74.9578,33.1134],[75.0898,33.0081],[75.2181,33.0108],[75.3131,33.0579],[75.3752,33.1313],[75.3731,33.2034],[75.4882,33.3049],[75.5426,33.2788],[75.5236,33.1882],[75.4818,33.1514],[75.5371,33.0893],[75.7489,33.1832],[75.7795,33.2469],[75.8329,33.2568],[75.8426,33.302],[75.9689,33.4123],[75.966,33.5385],[75.9006,33.5736],[75.942,33.6464],[75.8651,33.7083]],[[73.4326,34.0084],[73.2812,34.0031],[73.2934,33.9765],[73.2129,33.8654],[73.2393,33.7761],[73.203,33.6484],[73.2612,33.5693],[73.3903,33.5738],[73.4025,33.5471],[73.2997,33.4533],[73.2009,33.2874],[73.1862,33.1605],[73.3511,33.0852],[73.5848,33.1292],[73.7185,33.2508],[73.6927,33.3402],[73.7537,33.4144],[73.7055,33.5211],[73.6392,33.5551],[73.6348,33.6452],[73.6752,33.7006],[73.6519,33.736],[73.7908,33.9931],[73.4326,34.0084]],[[74.0175,34.009],[73.8661,34.0044],[73.8582,33.941],[73.7951,33.903],[73.7986,33.8309],[73.8874,33.7795],[74.0744,33.4603],[74.2337,33.51],[74.4746,33.4083],[74.6445,33.4668],[74.6174,33.3308],[74.5751,33.3116],[74.6194,33.2767],[74.6221,33.2046],[74.6988,33.1614],[74.7832,33.1995],[74.8053,33.182],[74.9419,33.2664],[74.94,33.3205],[74.7852,33.4432],[74.8263,33.4983],[74.8035,33.5338],[75.0471,33.6567],[75.1601,33.8306],[75.2774,33.8781],[75.329,33.9604],[75.3168,34.0052],[74.2346,33.9972],[74.1752,33.8692],[74.1336,33.8319],[74.0264,33.8108],[73.992,33.8548],[74.14,33.9314],[74.1272,33.9761],[74.064,33.9382],[74.0175,34.009]],[[78.6679,33.6335],[78.6032,33.6338],[78.5815,33.5978],[78.5276,33.589],[78.5595,33.5257],[78.6028,33.5616],[78.6455,33.5253],[78.6994,33.5341],[78.6679,33.6335]],[[73.1271,33.6547],[73.041,33.6515],[73.0112,33.6053],[73.05,33.4894],[73.1013,33.5365],[73.0983,33.5905],[73.1404,33.6101],[73.1271,33.6547]],[[79.2117,34.0086],[79.0705,33.9647],[79.0692,33.8564],[79.1224,33.7928],[79.2201,33.8371],[79.2117,34.0086]],[[79.362,33.935],[79.3294,33.9263],[79.3393,33.863],[79.3934,33.8715],[79.362,33.935]],[[72.8476,34.0052],[72.6746,33.9985],[72.6552,33.9616],[72.6097,33.9959],[72.5449,33.9932],[72.6017,33.9504],[72.5857,33.8595],[72.6186,33.8518],[72.6585,33.9076],[72.8508,33.9512],[72.8476,34.0052]],[[75.6418,33.9933],[75.5879,33.9833],[75.6427,33.9572],[75.6418,33.9933]]]}}]}