{"type":"FeatureCollection","features":[{"type":"Feature","properties":{},"geometry":{"type":"MultiLineString","coordinates":[[[83.0566,27.8186],[82.9754,27.8217],[82.8698,27.7354],[82.8293,27.7369],[82.8114,27.7917],[82.6889,27.7781],[82.667,27.7428],[82.5656,27.7463],[82.567,27.5387],[82.3819,27.4727],[82.4599,27.3979],[82.418,27.3632],[82.4158,27.3091],[82.3447,27.3025],[82.2917,27.241],[82.2896,27.1869],[82.2277,27.1528],[82.2548,27.0707],[82.3174,27.1228],[82.5198,27.1341],[82.528,27.0886],[82.6064,27.0317],[82.5221,26.9444],[82.5512,26.9163],[82.6913,26.8933],[82.7389,26.8284],[82.735,26.7382],[82.6219,26.6791],[82.5275,26.583],[82.5031,26.4755],[82.5202,26.4027],[82.5685,26.3558],[82.7079,26.3329],[82.8311,26.4006],[82.9521,26.4142],[83.0283,26.5467],[83.1537,26.6502],[83.1152,26.6879],[83.2085,26.7474],[83.35,26.7598],[83.4671,26.6827],[83.6487,26.6931],[83.6917,26.7454],[83.8141,26.7762],[83.8572,26.8284],[83.9175,26.8257],[83.9913,26.8856],[83.9645,26.95],[83.8437,26.9555],[83.7775,27.0396],[83.7908,27.2919],[83.684,27.3778],[83.6137,27.3898],[83.656,27.4241],[83.629,27.4885],[83.5076,27.4936],[83.3934,27.6428],[83.3211,27.6187],[83.2437,27.4863],[83.1619,27.4715],[83.1134,27.5186],[83.1152,27.5546],[83.0755,27.5742],[83.1034,27.7356],[83.0637,27.7552],[83.0566,27.8186]],[[82.1574,27.1641],[82.1053,27.1206],[82.1332,27.0565],[82.2055,27.0993],[82.1574,27.1641]],[[83.3492,27.3647],[83.4379,27.316],[83.4801,27.3503],[83.5205,27.3486],[83.5292,27.3212],[83.3939,27.2455],[83.3132,27.2488],[83.2842,27.2771],[83.2885,27.3672],[83.3492,27.3647]],[[82.5632,27.4485],[82.552,27.4218],[82.522,27.4319],[82.5332,27.4586],[82.5632,27.4485]],[[82.6569,27.9778],[82.6057,27.9706],[82.6026,27.8985],[82.6514,27.8516],[82.7326,27.8487],[82.7456,27.9115],[82.6569,27.9778]],[[82.9228,28.0042],[82.8512,27.9979],[82.8585,27.9344],[82.93,27.9408],[82.9228,28.0042]],[[79.5774,30.1259],[79.5359,30.1264],[79.5251,30.0995],[79.5769,30.0898],[79.5774,30.1259]],[[79.0249,30.8891],[78.9622,30.8895],[78.9197,30.8177],[78.8779,30.818],[78.8158,30.8905],[78.8042,30.7553],[78.9085,30.7366],[78.9071,30.5923],[78.9381,30.565],[79.187,30.4547],[79.1982,30.5178],[79.1156,30.5907],[79.1683,30.6353],[79.2304,30.5987],[79.2625,30.6615],[79.2006,30.7162],[79.2013,30.7703],[79.0249,30.8891]],[[79.293,30.5981],[79.2616,30.5894],[79.2925,30.562],[79.293,30.5981]],[[79.3352,30.6337],[79.3038,30.625],[79.3139,30.5979],[79.3453,30.6066],[79.3352,30.6337]],[[79.1504,30.888],[79.1189,30.8793],[79.1291,30.8521],[79.1606,30.8609],[79.1504,30.888]],[[78.5046,31.3792],[78.4625,31.3793],[78.4519,31.3523],[78.5044,31.3431],[78.5046,31.3792]],[[78.5904,31.6674],[78.5166,31.6587],[78.4945,31.4604],[78.547,31.4511],[78.5678,31.415],[78.6309,31.4147],[78.6633,31.5318],[78.5904,31.6674]],[[78.5507,32.0825],[78.4763,32.0377],[78.4548,31.9656],[78.5603,31.9111],[78.6125,31.8117],[78.6547,31.8115],[78.6451,31.9468],[78.5507,32.0825]],[[78.5944,32.2988],[78.4883,32.2993],[78.4773,32.2362],[78.6149,32.1905],[78.5944,32.2988]],[[72.0953,32.6024],[72.0314,32.5995],[72.0048,32.5171],[72.1706,32.4252],[72.2836,32.3218],[72.3685,32.3254],[72.44,32.3736],[72.3507,32.442],[72.3474,32.496],[72.2914,32.5387],[72.2253,32.572],[72.1402,32.5683],[72.0953,32.6024]],[[76.6979,32.7989],[76.6338,32.7983],[76.6028,32.7348],[76.5184,32.6798],[76.551,32.635],[76.646,32.6992],[76.6455,32.7353],[76.7089,32.772],[76.6979,32.7989]],[[76.5462,32.9417],[76.451,32.8775],[76.443,32.724],[76.507,32.7248],[76.6017,32.807],[76.6003,32.8972],[76.5462,32.9417]],[[76.3337,32.867],[76.2595,32.839],[76.2717,32.758],[76.3245,32.7857],[76.3337,32.867]],[[73.4326,34.0084],[73.1411,33.9891],[73.2129,33.8654],[73.3256,33.7791],[73.3098,33.6703],[73.2686,33.6327],[73.294,33.5614],[73.2127,33.4683],[73.2371,33.415],[73.1961,33.3775],[73.2029,33.2514],[73.4005,33.1681],[73.3492,33.1212],[73.2738,33.1276],[73.2757,33.0916],[73.3306,33.0664],[73.4153,33.0874],[73.6098,33.0578],[73.757,33.1167],[73.8703,33.2195],[73.8578,33.4898],[73.907,33.5906],[73.9868,33.4938],[73.9669,33.4571],[74.0664,33.3969],[74.1953,33.4006],[74.2843,33.3309],[74.4331,33.3711],[74.6049,33.3756],[74.5966,33.3122],[74.665,33.2056],[74.7417,33.1624],[74.7618,33.199],[74.8904,33.2021],[74.9315,33.2571],[74.9958,33.2586],[74.9872,33.1953],[75.1291,33.1172],[75.1703,33.1722],[75.256,33.174],[75.1615,33.1089],[75.1418,33.0543],[75.1753,33.0099],[75.2395,33.0113],[75.3131,33.0579],[75.3224,33.1032],[75.3867,33.1044],[75.5641,33.2792],[75.5582,33.4956],[75.6002,33.5324],[75.5532,33.6759],[75.6169,33.7132],[75.6135,33.8394],[75.5804,33.8659],[75.5266,33.8559],[75.5276,33.8198],[75.4223,33.7276],[75.4239,33.6735],[75.3493,33.645],[75.3294,33.5905],[75.2019,33.5337],[75.0826,33.5582],[75.0797,33.6484],[75.3333,33.8161],[75.3323,33.8522],[75.396,33.8895],[75.4371,33.9625],[75.4249,34.0074],[74.3211,33.9996],[74.3017,33.945],[74.2562,33.9978],[73.8237,33.9851],[73.4326,34.0084]],[[78.6426,33.1104],[78.5887,33.0656],[78.5993,33.0385],[78.6742,33.0471],[78.6426,33.1104]],[[76.8213,33.1609],[76.7678,33.1514],[76.7585,33.0521],[76.8326,33.1159],[76.8213,33.1609]],[[76.322,33.4983],[76.2913,33.4168],[76.131,33.3695],[76.0369,33.2509],[76.0518,33.0617],[76.2427,33.1545],[76.3151,33.2908],[76.3577,33.3093],[76.3772,33.4178],[76.322,33.4983]],[[76.0344,33.8553],[75.9289,33.7454],[75.8752,33.7356],[75.8774,33.6454],[75.7293,33.5347],[75.6256,33.3886],[75.627,33.3345],[75.5846,33.3156],[75.6837,33.2182],[75.7883,33.3282],[75.8527,33.3292],[75.9474,33.4119],[75.9137,33.4746],[75.8716,33.4378],[75.8602,33.4647],[75.9234,33.5198],[75.9222,33.5739],[76.018,33.6205],[76.0705,33.6844],[76.0344,33.8553]],[[83.6898,33.2615],[83.5171,33.2507],[83.5036,33.2061],[83.5972,33.1571],[83.7258,33.1516],[83.7495,33.1867],[83.8036,33.1934],[83.7744,33.2398],[83.6898,33.2615]],[[79.357,33.6102],[79.2815,33.602],[79.2911,33.5207],[79.3883,33.5468],[79.357,33.6102]],[[74.325,33.6478],[74.3599,33.5856],[74.446,33.588],[74.4876,33.6252],[74.5009,33.5623],[74.3829,33.5502],[74.2953,33.5839],[74.2819,33.6467],[74.325,33.6478]],[[79.2315,33.8821],[79.1224,33.7928],[78.9707,33.7399],[78.9592,33.6768],[79.0992,33.6667],[79.1203,33.6305],[79.1634,33.6301],[79.2184,33.7108],[79.2833,33.7282],[79.2315,33.8821]],[[74.4195,33.9752],[74.5751,33.871],[74.5884,33.8082],[74.6301,33.8454],[74.6865,33.7836],[74.6545,33.7738],[74.6315,33.8093],[74.5925,33.7],[74.5779,33.7989],[74.4545,33.913],[74.3554,33.9555],[74.3651,33.9828],[74.4195,33.9752]],[[73.7338,33.8288],[73.8451,33.7601],[73.8356,33.7328],[73.7364,33.7748],[73.7338,33.8288]],[[73.6924,33.7914],[73.6829,33.764],[73.6285,33.7713],[73.638,33.7987],[73.6924,33.7914]]]}}]}