{"type":"FeatureCollection","features":[{"type":"Feature","properties":{},"geometry":{"type":"MultiLineString","coordinates":[[[83.8701,27.821],[83.7561,27.7809],[83.653,27.5597],[83.5122,27.5837],[83.4339,27.6411],[83.3916,27.6068],[83.3106,27.6101],[83.2842,27.6924],[83.2339,27.7034],[83.2154,27.7402],[83.114,27.7442],[83.092,27.709],[83.0109,27.7121],[82.989,27.6768],[82.9501,27.7144],[82.8893,27.7166],[82.8974,27.6712],[82.8666,27.6633],[82.77,27.7752],[82.7092,27.7774],[82.6971,27.7327],[82.5926,27.6641],[82.5865,27.5199],[82.5243,27.486],[82.5924,27.4204],[82.6344,27.4551],[82.7728,27.3779],[82.7793,27.2964],[82.8383,27.2581],[82.7463,27.2344],[82.652,27.1565],[82.64,27.1118],[82.5795,27.1139],[82.4862,27.0539],[82.5735,26.9697],[82.6959,27.0015],[82.754,26.9452],[82.8345,26.9423],[82.9215,26.8578],[82.9183,26.7857],[82.9874,26.756],[83.0348,26.691],[82.9216,26.6321],[82.8412,26.635],[82.7795,26.6012],[82.7401,26.6207],[82.6219,26.4352],[82.8842,26.2361],[83.0667,26.2834],[83.2857,26.4644],[83.3301,26.5529],[83.4426,26.5934],[83.5159,26.6536],[83.5177,26.6896],[83.6323,26.766],[83.751,26.7248],[83.7749,26.796],[83.9376,26.8248],[83.9913,26.8856],[84.01,27.2279],[83.8823,27.4864],[83.9354,27.5292],[84.0067,27.535],[83.9965,27.716],[83.8701,27.821]],[[83.1303,26.5789],[83.0869,26.5084],[83.1253,26.4707],[83.0723,26.4096],[83.0435,26.4378],[83.0852,26.4723],[83.0467,26.5099],[83.0877,26.5264],[83.0901,26.5805],[83.1303,26.5789]],[[83.9834,26.5519],[83.9309,26.5091],[83.9366,26.4276],[84.0072,26.4334],[83.9834,26.5519]],[[83.0882,26.9779],[83.0769,26.9512],[83.006,26.9449],[83.0181,26.9896],[83.0882,26.9779]],[[83.7072,27.2413],[83.6641,27.189],[83.7698,27.0851],[83.6439,27.1899],[83.6669,27.2431],[83.7072,27.2413]],[[81.942,27.3512],[81.8293,27.3094],[81.8366,27.228],[81.9284,27.2524],[81.9707,27.3052],[81.942,27.3512]],[[82.6267,27.2748],[82.5541,27.2322],[82.5631,27.2048],[82.6349,27.2294],[82.6267,27.2748]],[[82.2927,27.5208],[82.2417,27.5134],[82.2493,27.45],[82.301,27.4754],[82.2927,27.5208]],[[83.7233,27.5476],[83.8014,27.49],[83.7301,27.4841],[83.6819,27.5313],[83.6934,27.5579],[83.7233,27.5476]],[[83.0871,28.0341],[83.035,28.009],[83.0414,27.9275],[83.1129,27.9338],[83.1163,28.0059],[83.0871,28.0341]],[[79.492,29.9645],[79.4193,29.9563],[79.4705,29.9106],[79.553,29.8917],[79.5638,29.9186],[79.492,29.9645]],[[79.4758,30.2714],[79.4237,30.263],[79.4745,30.1812],[79.6406,30.1793],[79.7227,30.1241],[79.7748,30.1324],[79.7655,30.1957],[79.6824,30.1968],[79.6415,30.2334],[79.537,30.1986],[79.4758,30.2714]],[[78.9615,30.8174],[78.9197,30.8177],[78.909,30.7907],[79.1057,30.6359],[79.1373,30.6626],[79.1169,30.6989],[78.9615,30.8174]],[[79.0924,31.3035],[79.0608,31.2947],[79.0388,31.2047],[78.9755,31.1691],[79.0168,31.1146],[78.9642,31.088],[78.9226,31.1244],[78.8177,31.125],[78.8067,31.062],[79.0468,30.9791],[79.2437,30.8241],[79.1588,30.7166],[79.2518,30.6346],[79.2834,30.6613],[79.2736,30.7065],[79.3148,30.67],[79.5652,30.6673],[79.597,30.694],[79.4934,30.7493],[79.484,30.8126],[79.3168,30.8143],[79.224,30.9144],[79.2039,30.9868],[79.2978,30.9588],[79.3182,30.9226],[79.3818,30.976],[79.4859,30.9388],[79.5074,30.9747],[79.5702,30.9739],[79.6442,31.0181],[79.6455,31.0903],[79.5832,31.1271],[79.5734,31.1724],[79.5105,31.1731],[79.4484,31.2279],[79.4359,31.0927],[79.3414,31.0847],[79.0924,31.3035]],[[78.8153,30.8364],[78.8046,30.8094],[78.8359,30.8002],[78.8153,30.8364]],[[78.3356,31.1452],[78.3041,31.1362],[78.3353,31.073],[78.3356,31.1452]],[[79.8482,31.2771],[79.7535,31.2693],[79.7519,31.1791],[79.8251,31.1691],[79.8344,31.1059],[79.9069,31.0597],[80.0326,31.0579],[80.0444,31.1208],[79.9922,31.1306],[79.9307,31.2037],[79.8888,31.2043],[79.8482,31.2771]],[[80.1212,31.273],[80.0162,31.2746],[80.0044,31.2116],[80.1196,31.2008],[80.1212,31.273]],[[79.8931,31.4207],[79.8296,31.4036],[79.7972,31.3589],[79.8599,31.34],[79.8692,31.2768],[79.9322,31.2759],[79.9447,31.3749],[79.8931,31.4207]],[[78.6987,32.0458],[78.614,32.0462],[78.5396,32.0014],[78.6029,31.965],[78.592,31.92],[78.7084,31.9284],[78.6987,32.0458]],[[78.6586,32.3707],[78.6055,32.3619],[78.6045,32.2176],[78.5616,32.1276],[78.6145,32.1183],[78.6354,32.0822],[78.7201,32.0817],[78.7742,32.2167],[78.7319,32.235],[78.7324,32.2891],[78.6586,32.3707]],[[72.1379,32.6042],[72.0013,32.5711],[72.0083,32.4631],[72.2299,32.3285],[72.2791,32.2224],[72.375,32.2174],[72.394,32.2543],[72.4566,32.275],[72.6104,32.1911],[72.6396,32.2374],[72.5138,32.3856],[72.44,32.3736],[72.4123,32.4807],[72.1379,32.6042]],[[76.2517,32.6856],[76.1451,32.6841],[76.1358,32.6209],[76.1683,32.5942],[76.2318,32.6131],[76.2517,32.6856]],[[76.5236,33.0136],[76.4399,32.9044],[76.3866,32.8947],[76.3771,32.8315],[76.4727,32.8597],[76.5561,32.9869],[76.5236,33.0136]],[[78.8125,32.9471],[78.7373,32.9025],[78.7688,32.8391],[78.8115,32.8389],[78.8441,32.9018],[78.8125,32.9471]],[[73.4326,34.0084],[73.1411,33.9891],[73.2119,33.8834],[73.1952,33.7925],[73.1325,33.7542],[73.1384,33.6461],[73.2548,33.4878],[73.2371,33.415],[73.1746,33.3767],[73.159,33.2678],[73.216,33.2067],[73.2803,33.209],[73.3576,33.1666],[73.3725,33.0859],[73.5447,33.0737],[73.6774,32.9879],[73.7629,32.9906],[73.9601,33.1321],[73.9671,33.2135],[74.0513,33.2521],[74.0736,33.2347],[74.1149,33.272],[74.1578,33.2732],[74.203,33.2204],[74.3774,33.1531],[74.5461,33.2297],[74.6741,33.251],[74.7722,33.2083],[74.7631,33.163],[74.828,33.1465],[75.0799,33.3146],[75.2312,33.2817],[75.3578,33.3565],[75.4437,33.3581],[75.4642,33.3946],[75.5941,33.3609],[75.6791,33.3985],[75.8154,33.5361],[75.8321,33.7349],[75.7885,33.7522],[75.7752,33.8512],[75.732,33.8505],[75.6476,33.7769],[75.5392,33.793],[75.5512,33.7481],[75.456,33.6832],[75.3787,33.7448],[75.3323,33.8522],[75.4592,33.9449],[75.4466,34.0078],[74.776,33.9933],[74.7236,33.9469],[74.7256,33.8928],[74.6831,33.8737],[74.6865,33.7836],[74.6545,33.7738],[74.6406,33.8546],[74.7327,33.9923],[74.3427,34.0002],[74.4678,33.8502],[74.6009,33.7634],[74.5925,33.7],[74.525,33.7705],[74.4261,33.813],[74.2786,33.9804],[74.0175,34.009],[73.4326,34.0084]],[[75.3187,33.2294],[75.2543,33.2281],[75.2021,33.1819],[75.2148,33.119],[75.3516,33.203],[75.3187,33.2294]],[[78.708,33.2544],[78.654,33.2096],[78.6645,33.1825],[78.7182,33.1912],[78.708,33.2544]],[[76.2152,33.4609],[76.1507,33.46],[76.067,33.3506],[75.9499,33.3037],[75.9847,33.187],[76.0705,33.1882],[76.1864,33.2891],[76.206,33.3796],[76.2483,33.4162],[76.2152,33.4609]],[[73.8801,33.4725],[73.9256,33.4197],[73.8276,33.4438],[73.8327,33.3357],[73.819,33.3984],[73.7752,33.4151],[73.8259,33.4798],[73.8801,33.4725]],[[76.3657,33.4628],[76.3336,33.4534],[76.3455,33.3904],[76.3776,33.3998],[76.3657,33.4628]],[[74.5411,33.6356],[74.4987,33.6164],[74.5009,33.5623],[74.555,33.5547],[74.5779,33.5192],[74.6529,33.5301],[74.6112,33.493],[74.6465,33.4127],[74.5696,33.4559],[74.5564,33.5187],[74.3517,33.5223],[74.4474,33.5519],[74.4564,33.5973],[74.5084,33.6437],[74.5411,33.6356]],[[83.9209,33.5041],[83.8779,33.506],[83.82,33.4454],[83.8708,33.398],[83.9477,33.4217],[83.9209,33.5041]],[[74.8337,33.8954],[74.861,33.7337],[74.7676,33.6322],[74.7983,33.6781],[74.7539,33.7131],[74.829,33.7239],[74.8375,33.7873],[74.7512,33.7852],[74.8356,33.8413],[74.7904,33.8944],[74.8337,33.8954]],[[76.1401,33.9651],[76.003,33.8097],[76.0038,33.7736],[75.9611,33.7549],[75.9729,33.71],[76.1321,33.8296],[76.1401,33.9651]]]}}]}