{"type":"FeatureCollection","features":[{"type":"Feature","properties":{},"geometry":{"type":"MultiLineString","coordinates":[[[83.3506,28.0056],[83.3099,28.0073],[83.2869,27.954],[83.1835,27.922],[83.0257,27.8108],[83.0198,27.6847],[82.9776,27.6501],[82.992,27.5232],[82.8609,27.5372],[82.8083,27.494],[82.8067,27.4579],[82.9248,27.3813],[82.8827,27.3468],[83.0192,27.2333],[83.0562,27.1597],[83.0521,27.0695],[83.1302,27.0123],[82.9416,26.857],[83.0284,26.7725],[83.1369,26.7231],[83.1336,26.651],[82.8655,26.4987],[82.884,26.4619],[82.82,26.3739],[82.9562,26.2786],[82.9634,26.2151],[83.0042,26.2316],[83.1018,26.1736],[83.3651,26.2354],[83.3781,26.2981],[83.548,26.4897],[84.0075,26.8126],[83.9933,26.9216],[83.954,26.9415],[83.9962,26.9757],[83.9991,27.0297],[83.9598,27.0496],[84.0021,27.0838],[84.01,27.2279],[84.0097,27.589],[83.9752,27.6989],[83.925,27.7102],[83.9184,27.7737],[83.8681,27.785],[83.7725,27.8975],[83.6497,27.8848],[83.5907,27.9234],[83.4688,27.9285],[83.43,27.9663],[83.3691,27.9688],[83.3506,28.0056]],[[83.5999,26.7223],[83.5588,26.706],[83.5561,26.6519],[83.4504,26.548],[83.4373,26.4853],[83.4103,26.5496],[83.4932,26.6004],[83.5177,26.6896],[83.5702,26.7326],[83.5999,26.7223]],[[83.3219,27.2214],[83.3105,27.1948],[83.2807,27.205],[83.2921,27.2316],[83.3219,27.2214]],[[83.9524,27.2847],[83.9772,27.1842],[83.9293,27.2315],[83.9524,27.2847]],[[83.0696,27.448],[83.0582,27.4214],[82.9879,27.4331],[82.9992,27.4598],[83.0696,27.448]],[[81.1015,29.0524],[80.731,29.0245],[80.6269,28.9724],[80.5654,28.9737],[80.4916,28.8939],[80.5827,28.847],[80.7057,28.8445],[80.7486,28.9158],[80.7886,28.8789],[80.8706,28.8771],[80.9127,28.9123],[81.0573,28.9451],[81.1099,28.989],[81.1015,29.0524]],[[80.157,30.0456],[80.0947,30.0466],[80.0311,29.9754],[79.906,29.9412],[79.8952,29.9143],[79.9885,29.9219],[80.091,29.8662],[80.1531,29.8652],[80.1957,29.9186],[80.3102,29.9437],[80.157,30.0456]],[[79.8245,30.0145],[79.7518,30.0064],[79.8853,29.9415],[79.8245,30.0145]],[[79.8097,30.3394],[79.7367,30.3314],[79.809,30.3034],[79.8097,30.3394]],[[79.4801,30.56],[79.4279,30.5516],[79.4482,30.5153],[79.6243,30.4501],[79.6442,30.3957],[79.7383,30.4216],[79.6463,30.522],[79.5004,30.5237],[79.4801,30.56]],[[80.2693,30.4226],[80.2583,30.3957],[80.2893,30.3862],[80.2693,30.4226]],[[79.1951,31.1222],[79.1113,31.1229],[79.0899,31.087],[79.0274,31.1236],[78.9643,31.106],[78.974,31.0248],[79.0157,31.0064],[79.1289,30.8341],[79.3578,30.7598],[79.3699,30.8769],[79.2668,30.9862],[79.1951,31.1222]],[[79.4901,31.2094],[79.4585,31.2007],[79.468,31.1375],[79.4996,31.1461],[79.4901,31.2094]],[[80.0923,31.8688],[79.9444,31.871],[79.9329,31.8261],[79.9744,31.7894],[79.8799,31.8178],[79.8885,31.7185],[79.803,31.6655],[79.802,31.6114],[79.8742,31.5293],[80.0215,31.5271],[80.0942,31.4809],[80.0831,31.454],[79.9879,31.4284],[80.0487,31.3192],[79.9749,31.3113],[79.9348,31.4021],[79.8503,31.3853],[79.8072,31.3317],[79.7439,31.3145],[79.5243,31.3804],[79.5752,31.2806],[79.6382,31.2798],[79.7002,31.2249],[79.8265,31.2413],[79.9307,31.2037],[79.9712,31.131],[80.0132,31.1303],[80.0349,31.1661],[80.0551,31.1297],[80.118,31.1287],[80.1307,31.2277],[80.1838,31.2539],[80.3401,31.2062],[80.3209,31.2787],[80.218,31.3706],[80.138,31.5523],[80.0449,31.635],[79.9081,31.646],[79.9199,31.709],[79.9614,31.6723],[80.0775,31.6796],[80.0783,31.7156],[80.0162,31.7707],[80.0492,31.8334],[80.1735,31.7231],[80.2475,31.7309],[80.0923,31.8688]],[[78.5251,31.2889],[78.4514,31.2621],[78.4824,31.1628],[78.5561,31.2076],[78.5251,31.2889]],[[80.1323,31.2999],[80.1212,31.273],[80.0899,31.2825],[80.101,31.3094],[80.1323,31.2999]],[[78.4862,31.9024],[78.4122,31.8936],[78.3907,31.8215],[78.4327,31.7492],[78.3689,31.6412],[78.474,31.5687],[78.4522,31.4244],[78.5045,31.3611],[78.5372,31.5684],[78.4952,31.6047],[78.496,31.749],[78.5382,31.7488],[78.5477,31.5774],[78.5795,31.6044],[78.5802,31.7126],[78.5596,31.8029],[78.5175,31.8211],[78.4862,31.9024]],[[78.9257,31.4491],[78.9146,31.386],[78.946,31.3767],[78.9257,31.4491]],[[80.3826,31.6474],[80.3405,31.6482],[80.3293,31.6213],[80.3817,31.6113],[80.3826,31.6474]],[[80.3203,31.6846],[80.2884,31.6761],[80.3194,31.6485],[80.3203,31.6846]],[[80.279,31.7214],[80.2471,31.7129],[80.2781,31.6853],[80.279,31.7214]],[[72.1154,32.6213],[72.0001,32.5891],[72.0142,32.3731],[72.135,32.3154],[72.1986,32.3181],[72.2467,32.23],[72.3304,32.2516],[72.3538,32.2165],[72.4174,32.2192],[72.5722,32.1173],[72.6145,32.1191],[72.594,32.2897],[72.5293,32.3051],[72.4926,32.3848],[72.3619,32.4334],[72.2545,32.4469],[72.2355,32.41],[72.1795,32.4527],[72.1974,32.5076],[72.1154,32.6213]],[[78.8312,32.6584],[78.7778,32.6497],[78.7775,32.6136],[78.8302,32.5501],[78.8728,32.5498],[78.8841,32.6129],[78.8312,32.6584]],[[78.7714,33.1458],[78.78,32.9022],[78.736,32.7401],[78.8532,32.7304],[78.9071,32.7932],[78.9303,32.9734],[78.9095,33.0277],[78.7714,33.1458]],[[73.4326,34.0084],[73.0546,33.9859],[73.1677,33.8998],[73.1049,33.8615],[73.0462,33.751],[73.1198,33.5913],[73.1248,33.5012],[73.2147,33.4323],[73.1961,33.3775],[73.241,33.343],[73.2057,33.1973],[73.352,33.0672],[73.4581,33.0889],[73.5678,33.0384],[73.603,32.9764],[73.68,32.9338],[73.7868,32.9372],[73.8312,32.9025],[73.9365,32.9419],[74.0806,33.0725],[74.4659,33.0832],[74.5958,33.0505],[74.7008,33.1073],[74.7832,33.1995],[74.9541,33.2216],[75.153,33.3793],[75.1623,33.4246],[75.2896,33.4814],[75.4186,33.484],[75.5031,33.5397],[75.8681,33.5821],[75.9636,33.6467],[75.9627,33.6828],[76.0474,33.7562],[76.0348,33.8372],[75.9712,33.7822],[75.9065,33.7812],[75.862,33.8346],[75.6921,33.7235],[75.649,33.7228],[75.6375,33.7496],[75.7219,33.8233],[75.6975,33.9311],[75.7614,33.9683],[75.7499,33.9952],[75.36,34.0061],[75.3184,33.9511],[75.2951,34.0048],[74.0399,33.9916],[73.4326,34.0084]],[[76.2655,33.0827],[76.2125,33.0549],[76.2241,33.0099],[76.2774,33.0197],[76.2981,33.056],[76.2655,33.0827]],[[78.9214,33.1449],[78.8672,33.0821],[79.0485,33.0176],[79.0385,33.0809],[78.9214,33.1449]],[[78.9234,33.3433],[78.8691,33.2805],[78.9005,33.1991],[78.9434,33.1988],[78.9762,33.2617],[78.9234,33.3433]],[[76.3408,33.6429],[76.2776,33.5699],[76.1269,33.5679],[76.0635,33.5129],[75.9673,33.4844],[75.9685,33.4303],[75.8855,33.3027],[75.8872,33.2306],[75.92,33.204],[75.9839,33.223],[76.1846,33.3793],[76.2469,33.4884],[76.3531,33.5619],[76.3408,33.6429]],[[75.4448,33.3221],[75.371,33.2755],[75.4034,33.2671],[75.4448,33.3221]],[[74.8324,33.9315],[74.7904,33.8944],[74.835,33.8594],[74.7931,33.8223],[74.8375,33.7873],[74.8408,33.6971],[74.7259,33.5951],[74.799,33.66],[74.7944,33.7862],[74.7499,33.8212],[74.7918,33.8583],[74.7472,33.8934],[74.7996,33.9397],[74.8324,33.9315]],[[73.9778,33.692],[73.9898,33.6653],[73.9157,33.636],[73.95,33.5919],[73.8605,33.6614],[73.8175,33.66],[73.7976,33.6233],[73.7433,33.6306],[73.8373,33.6967],[73.9778,33.692]],[[75.1578,33.9027],[75.1595,33.8486],[75.1169,33.8297],[75.1612,33.7945],[75.163,33.7404],[75.1204,33.7215],[75.1222,33.6674],[75.0698,33.6211],[75.0779,33.7025],[75.1198,33.7395],[75.0953,33.8292],[75.1578,33.9027]],[[74.3129,33.9363],[74.4671,33.8682],[74.4693,33.8141],[74.6023,33.7274],[74.5925,33.7],[74.4833,33.7333],[74.3696,33.8746],[74.2936,33.8816],[74.3129,33.9363]],[[74.2095,33.8251],[74.1152,33.7592],[73.9953,33.7828],[74.0264,33.8108],[74.1351,33.7959],[74.1552,33.8326],[74.2095,33.8251]]]}}]}