{"type":"FeatureCollection","features":[{"type":"Feature","properties":{},"geometry":{"type":"MultiLineString","coordinates":[[[83.8741,27.893],[83.8025,27.8872],[83.7996,27.8331],[83.758,27.8169],[83.7522,27.7088],[83.648,27.6592],[83.6231,27.57],[83.4708,27.5674],[83.4795,27.5399],[83.3959,27.4892],[83.4345,27.4515],[83.4291,27.3434],[83.2745,27.2865],[83.2202,27.2074],[83.2579,27.1517],[83.2502,26.9895],[83.1583,26.9661],[83.0849,26.9057],[83.1507,26.8039],[83.4961,26.8621],[83.545,26.833],[83.503,26.7986],[83.5195,26.7257],[83.4863,26.6639],[83.4068,26.6852],[83.3736,26.6234],[83.323,26.6164],[83.3012,26.5812],[83.2218,26.6024],[83.1591,26.5507],[83.1006,26.5891],[83.0484,26.546],[83.0251,26.4746],[83.0235,26.4386],[83.0531,26.4284],[83.1366,26.4974],[83.1654,26.4692],[83.1421,26.3979],[83.2397,26.3398],[83.1972,26.2873],[83.2155,26.2505],[83.3451,26.2362],[83.4608,26.1411],[83.5416,26.1558],[83.6556,26.2322],[83.6584,26.2863],[83.763,26.3721],[83.8087,26.4784],[83.9032,26.5555],[83.9433,26.5537],[83.9978,26.6325],[83.9586,26.6523],[84.0026,26.7226],[84.0097,27.589],[83.9955,27.698],[83.9559,27.7178],[83.9619,27.8259],[83.9117,27.8372],[83.8741,27.893]],[[83.4469,26.4759],[83.5236,26.4004],[83.4286,26.305],[83.4199,26.3325],[83.4826,26.3841],[83.426,26.4587],[83.4469,26.4759]],[[83.6588,27.4782],[83.6473,27.4516],[83.6174,27.4619],[83.629,27.4885],[83.6588,27.4782]],[[80.5922,29.2258],[80.499,29.2005],[80.5292,29.1729],[80.6119,29.1893],[80.5922,29.2258]],[[80.7415,29.4213],[80.6692,29.4137],[80.6984,29.35],[80.7501,29.3579],[80.7415,29.4213]],[[81.1364,29.5207],[81.0116,29.4876],[80.9994,29.4247],[81.1342,29.4486],[81.1364,29.5207]],[[79.1534,31.1406],[79.1009,31.132],[79.0997,31.0238],[79.1718,30.9239],[79.2973,30.9228],[79.3072,30.8776],[79.4213,30.8133],[79.484,30.8126],[79.5266,30.8662],[79.5888,30.8294],[79.6415,30.8558],[79.6109,30.9013],[79.3807,30.9039],[79.3397,30.9584],[79.2668,30.9862],[79.2672,31.0223],[79.1534,31.1406]],[[79.7825,31.1336],[79.7406,31.1342],[79.7296,31.1073],[79.7819,31.0976],[79.7825,31.1336]],[[80.4366,31.2856],[80.3209,31.2787],[80.4763,31.1947],[80.4884,31.2576],[80.4366,31.2856]],[[79.9776,31.4376],[79.9034,31.4116],[79.9237,31.3752],[79.9753,31.3293],[80.0804,31.3277],[79.9776,31.4376]],[[80.2119,31.5601],[80.1276,31.5615],[80.1165,31.5346],[80.1673,31.4526],[80.272,31.4328],[80.2832,31.4597],[80.2119,31.5601]],[[80.5321,31.7168],[80.436,31.6735],[80.5077,31.591],[80.6742,31.5156],[80.6238,31.5978],[80.6464,31.6514],[80.5321,31.7168]],[[78.6339,31.8657],[78.5808,31.8208],[78.5592,31.7307],[78.6853,31.658],[78.7057,31.5677],[78.7372,31.5585],[78.727,31.6036],[78.7695,31.6395],[78.6857,31.7121],[78.6862,31.7842],[78.7287,31.8201],[78.6339,31.8657]],[[79.7159,32.0906],[79.6409,32.0465],[79.8595,31.8542],[79.9647,31.8346],[80.0062,31.7979],[80.0923,31.8688],[80.1345,31.8681],[80.1863,31.8222],[80.1851,31.7681],[80.2372,31.7401],[80.2605,31.8299],[80.3984,31.8546],[80.3148,31.8922],[80.2229,32.029],[80.1378,32.0124],[80.0727,31.9412],[80.0101,31.9783],[79.924,31.9074],[79.7159,32.0906]],[[80.4981,32.0241],[80.4656,31.9977],[80.5483,31.924],[80.5576,31.8787],[80.6416,31.859],[80.7164,31.8846],[80.7066,31.9118],[80.6427,31.8951],[80.5704,31.9596],[80.5714,31.9957],[80.4981,32.0241]],[[78.699,32.0818],[78.6671,32.073],[78.6772,32.0098],[78.7091,32.0186],[78.699,32.0818]],[[80.0568,32.176],[80.0036,32.1678],[80.0763,32.1036],[80.0879,32.1485],[80.0568,32.176]],[[72.2389,32.356],[72.1662,32.3257],[72.1708,32.2538],[72.2946,32.1418],[72.3794,32.1454],[72.4896,32.0778],[72.6701,32.0762],[72.6861,32.167],[72.6204,32.2005],[72.585,32.2622],[72.3304,32.2516],[72.2389,32.356]],[[79.931,32.2501],[79.8987,32.2235],[79.9931,32.177],[80.0047,32.2219],[79.931,32.2501]],[[80.2285,32.2635],[80.1965,32.255],[80.1956,32.2189],[80.248,32.191],[80.2285,32.2635]],[[79.5327,32.5439],[79.5003,32.5172],[79.5423,32.4806],[79.5405,32.3724],[79.5934,32.3628],[79.6267,32.4436],[79.5327,32.5439]],[[79.4685,32.5266],[79.3726,32.5186],[79.4453,32.4005],[79.4773,32.4092],[79.4356,32.4638],[79.4685,32.5266]],[[72.0101,32.5986],[72.0071,32.4811],[72.062,32.4565],[72.0698,32.502],[72.0101,32.5986]],[[73.4326,34.0084],[72.9568,33.9913],[72.9064,33.9262],[72.8911,33.8174],[72.923,33.6381],[72.9579,33.5943],[73.0615,33.6703],[73.0953,33.6445],[73.2019,33.2694],[73.3576,33.1666],[73.4497,33.0435],[73.6261,32.9411],[73.6509,32.8697],[73.7893,32.8832],[73.9413,32.8338],[74.5598,32.8692],[74.6219,32.9249],[74.7067,32.9451],[74.9137,33.1485],[74.978,33.1499],[75.1239,33.2795],[75.2521,33.3002],[75.3557,33.4286],[75.3992,33.4114],[75.4936,33.4944],[75.5031,33.5397],[75.6523,33.5965],[75.8726,33.8438],[75.9793,33.8996],[75.9662,33.9986],[75.4682,34.0082],[75.4824,33.8912],[75.5266,33.8559],[75.4945,33.8463],[75.4387,33.9084],[75.4582,33.9809],[75.4033,34.0069],[74.6895,33.9912],[73.4326,34.0084]],[[76.3093,33.0291],[76.2357,32.965],[76.2689,32.9023],[76.3643,32.9486],[76.3093,33.0291]],[[78.9882,33.3789],[78.9342,33.3522],[78.955,33.2799],[78.9866,33.2346],[79.051,33.2341],[79.0625,33.2972],[78.9882,33.3789]],[[79.0354,33.7394],[78.9707,33.7399],[78.9377,33.677],[78.9804,33.6406],[78.9784,33.4602],[79.0101,33.4148],[79.0531,33.4145],[79.1078,33.4953],[79.087,33.5496],[79.1312,33.6394],[79.0354,33.7394]],[[75.142,33.7219],[75.1863,33.6868],[75.1891,33.5966],[75.1367,33.5504],[75.0815,33.5943],[75.1653,33.6683],[75.121,33.7034],[75.142,33.7219]],[[75.156,33.623],[75.1239,33.6133],[75.1356,33.5865],[75.1676,33.5962],[75.156,33.623]],[[76.3395,33.7151],[76.232,33.6957],[76.2221,33.6504],[76.2765,33.6241],[76.3395,33.7151]]]}}]}