{"type":"FeatureCollection","features":[{"type":"Feature","properties":{},"geometry":{"type":"MultiLineString","coordinates":[[[83.997,26.8041],[83.9749,26.769],[83.8419,26.7298],[83.8458,26.6122],[83.7683,26.6698],[83.6127,26.5773],[83.6501,26.5215],[83.589,26.506],[83.5828,26.3799],[83.6306,26.3327],[83.7202,26.3198],[83.7529,26.1738],[83.7102,26.1215],[83.7066,26.0494],[83.7742,26.0013],[83.855,26.0158],[83.9072,26.0586],[83.9966,26.2352],[84.0034,26.3613],[83.9452,26.4001],[84.0072,26.4334],[83.997,26.8041]],[[83.5885,26.6957],[83.5579,26.6879],[83.5867,26.6596],[83.5885,26.6957]],[[83.8525,27.4968],[83.7677,27.4283],[83.6647,27.3967],[83.6417,27.3435],[83.5811,27.3461],[83.3632,27.2378],[83.3395,27.1665],[83.3947,27.0559],[83.3325,27.0223],[83.3307,26.9863],[83.4209,26.9736],[83.4296,26.9461],[83.2161,26.9096],[83.1436,26.8673],[83.1725,26.8391],[83.3124,26.8155],[83.371,26.777],[83.6406,26.9282],[83.8629,26.9365],[83.9972,26.9937],[83.9997,27.4089],[83.9719,27.4553],[83.8707,27.4599],[83.8525,27.4968]],[[72.1034,27.1879],[72.066,27.132],[72.115,27.1613],[72.1034,27.1879]],[[79.3207,31.1029],[79.2472,31.0946],[79.2776,31.0132],[79.3301,31.0217],[79.3207,31.1029]],[[79.3066,31.6082],[79.2538,31.5997],[79.2638,31.5545],[79.3165,31.563],[79.3066,31.6082]],[[80.0262,31.7435],[79.9303,31.6998],[79.9399,31.6546],[80.0775,31.6796],[80.0783,31.7156],[80.0262,31.7435]],[[81.1082,31.903],[81.0551,31.8953],[81.0527,31.8231],[81.0835,31.7954],[81.1167,31.8397],[81.1082,31.903]],[[80.8112,31.8736],[80.7792,31.8652],[80.789,31.838],[80.821,31.8463],[80.8112,31.8736]],[[81.046,31.9406],[81.014,31.9323],[81.0448,31.9045],[81.046,31.9406]],[[72.5277,32.1516],[72.4552,32.1215],[72.5039,32.0153],[72.626,31.921],[72.7548,31.8901],[72.785,31.9183],[72.7598,31.9895],[72.5965,32.0642],[72.5277,32.1516]],[[80.0568,32.176],[80.0959,32.0311],[80.1382,32.0304],[80.1586,31.994],[80.3175,32.0004],[80.2341,32.0559],[80.2354,32.11],[80.2034,32.1015],[80.1835,32.156],[80.0979,32.1213],[80.0568,32.176]],[[79.5049,32.1473],[79.4413,32.148],[79.4303,32.1211],[79.4829,32.0934],[79.5049,32.1473]],[[72.023,32.4006],[71.9918,32.3902],[72.0111,32.2557],[72.0536,32.2576],[72.1026,32.3229],[72.023,32.4006]],[[79.9642,32.8089],[79.932,32.8003],[79.9308,32.7462],[79.865,32.6569],[80.0861,32.5364],[80.1903,32.4445],[80.2329,32.4438],[80.2663,32.5064],[80.1503,32.5534],[80.0564,32.6361],[80.0576,32.6902],[79.9642,32.8089]],[[80.5558,32.5823],[80.428,32.5847],[80.436,32.4853],[80.6581,32.436],[80.6695,32.4628],[80.5558,32.5823]],[[79.3227,32.7446],[79.2263,32.7185],[79.3319,32.6453],[79.3311,32.5912],[79.2665,32.5377],[79.2978,32.4923],[79.3831,32.5095],[79.4589,32.5898],[79.4595,32.6259],[79.3643,32.672],[79.3227,32.7446]],[[80.3451,32.6764],[80.2699,32.6507],[80.2477,32.6149],[80.279,32.5874],[80.375,32.5947],[80.3451,32.6764]],[[72.9341,34.0085],[72.8806,33.9975],[72.9043,33.9623],[72.8632,33.9246],[72.9301,33.891],[72.9558,33.8198],[73.0688,33.7338],[73.0718,33.6798],[72.9897,33.6045],[73.0223,33.4072],[73.099,33.383],[73.1185,33.4198],[73.2214,33.3062],[73.2243,33.2521],[73.3986,33.2041],[73.4219,33.1688],[73.3613,33.0946],[73.3846,33.0593],[73.3548,33.0131],[73.4627,32.9988],[73.5139,33.0456],[73.5103,33.1177],[73.4442,33.1515],[73.4415,33.2056],[73.4723,33.2337],[73.5478,33.2272],[73.529,33.1725],[73.751,33.0173],[73.7424,32.9719],[73.6475,32.9418],[73.6305,32.851],[73.6766,32.7803],[73.7755,32.7203],[73.9248,32.725],[74.029,32.7823],[74.2424,32.7884],[74.352,32.7193],[74.4586,32.7222],[74.6266,32.7987],[74.6873,32.8904],[74.7417,32.8647],[74.732,32.8374],[74.7747,32.8385],[74.8369,32.8941],[74.9009,32.8956],[75.2318,33.2637],[75.3594,33.3024],[75.5592,33.4595],[75.5472,33.5044],[75.6433,33.5332],[75.706,33.6065],[75.6835,33.6422],[75.8321,33.7349],[75.8938,33.8622],[76.0209,33.9724],[76.0095,33.9993],[74.0399,33.9916],[72.9341,34.0085]],[[79.5821,32.9402],[79.5285,32.9318],[79.5595,32.8683],[79.5917,32.877],[79.5821,32.9402]]]}}]}