{"type":"FeatureCollection","features":[{"type":"Feature","properties":{},"geometry":{"type":"MultiLineString","coordinates":[[[83.9815,26.5158],[83.908,26.4559],[83.8157,26.2252],[83.9167,26.0491],[84.009,26.0901],[84.0091,26.4694],[83.9815,26.5158]],[[72.4766,27.0054],[72.4075,26.9754],[72.4198,26.9308],[72.4898,26.9428],[72.4766,27.0054]],[[72.1197,27.2608],[72.0112,27.2108],[72.0161,27.1207],[72.1774,26.9383],[72.2981,26.9436],[72.3242,27.026],[72.2935,27.0337],[72.2867,26.9702],[72.2464,26.9685],[72.2436,27.0225],[72.2829,27.0423],[72.2389,27.1126],[72.2677,27.1409],[72.2811,27.0783],[72.3118,27.0706],[72.3176,27.1521],[72.2437,27.2121],[72.163,27.2086],[72.1197,27.2608]],[[83.9818,27.6354],[83.84,27.6418],[83.7667,27.5999],[83.7648,27.5638],[83.8043,27.5441],[83.7995,27.454],[83.8505,27.4608],[83.8794,27.4324],[83.7042,27.3769],[83.6302,27.3169],[83.6228,27.1728],[83.5114,27.1684],[83.4482,27.1169],[83.3281,27.1399],[83.3254,27.0858],[83.3859,27.0834],[83.4043,27.0465],[83.5252,27.0415],[83.5875,27.075],[83.8687,27.0446],[83.8917,27.0978],[83.9839,27.1207],[83.9957,27.3369],[83.8967,27.3774],[84.0007,27.4269],[84.0097,27.589],[83.9818,27.6354]],[[81.3418,30.7246],[81.1951,30.7102],[81.1831,30.6654],[81.3393,30.6525],[81.3418,30.7246]],[[81.1621,30.9816],[81.1095,30.9739],[81.1179,30.9105],[81.1705,30.9183],[81.1621,30.9816]],[[81.2934,31.7542],[81.2614,31.746],[81.2589,31.6739],[81.3746,31.662],[81.3867,31.7068],[81.2934,31.7542]],[[72.1322,31.6836],[72.069,31.6808],[72.0602,31.6533],[72.1145,31.6286],[72.1322,31.6836]],[[79.6115,32.1822],[79.5796,32.1735],[79.579,32.1374],[79.6204,32.0828],[79.7142,32.0005],[79.7565,31.9999],[79.768,32.0449],[79.6115,32.1822]],[[72.3783,32.1634],[72.3281,32.1162],[72.3335,32.0262],[72.3669,32.0005],[72.4393,32.0306],[72.3783,32.1634]],[[72.0433,32.7444],[71.993,32.6971],[71.9999,32.2642],[72.1006,32.1875],[72.2311,32.1391],[72.2824,32.1684],[72.2768,32.2584],[72.2076,32.3456],[72.2254,32.4005],[72.1347,32.4868],[72.1548,32.5057],[72.0651,32.574],[72.0771,32.7189],[72.0433,32.7444]],[[73.4326,34.0084],[73.0546,33.9859],[73.0597,33.8959],[73.1285,33.8262],[73.0873,33.7886],[73.1003,33.5545],[73.1341,33.5286],[73.1751,33.5662],[73.3043,33.5708],[73.3875,33.4203],[73.4968,33.3879],[73.4986,33.3519],[73.4248,33.3223],[73.4164,33.2769],[73.3334,33.2199],[73.3223,33.021],[73.3567,32.9771],[73.4876,32.9275],[73.627,32.9231],[73.6527,32.8337],[73.557,32.8215],[73.581,32.7682],[73.8592,32.759],[73.8838,32.6876],[73.9903,32.6909],[74.074,32.7295],[74.0923,32.8022],[74.1997,32.7872],[74.2564,32.7076],[74.2395,32.5989],[74.2726,32.5728],[74.3042,32.5827],[74.3115,32.6641],[74.6706,32.7637],[74.6906,32.8003],[74.8167,32.8575],[74.9449,32.8605],[75.017,32.9433],[75.014,33.0335],[75.0562,33.0525],[75.055,33.0885],[75.2032,33.1458],[75.2224,33.2184],[75.3777,33.411],[75.4207,33.4118],[75.4622,33.4667],[75.5052,33.4676],[75.6744,33.5789],[75.8246,33.5994],[75.8774,33.6454],[75.9188,33.7182],[75.8942,33.8441],[76.0213,33.9543],[76.0095,33.9993],[74.0399,33.9916],[73.4326,34.0084]],[[79.9424,32.7911],[79.8784,32.792],[79.8664,32.7291],[79.9832,32.7003],[80.0157,32.7269],[79.9424,32.7911]],[[79.6226,32.8134],[79.5904,32.8048],[79.6003,32.7596],[79.6325,32.7682],[79.6226,32.8134]],[[79.5406,33.0129],[79.4653,32.9867],[79.4963,32.9232],[79.5508,32.9857],[79.5406,33.0129]],[[79.5686,33.3914],[79.5256,33.3919],[79.4708,33.3294],[79.5766,33.238],[79.5334,33.2204],[79.5104,33.1305],[79.5421,33.1031],[79.7039,33.1642],[79.6617,33.2009],[79.7067,33.3085],[79.5686,33.3914]],[[79.875,33.6581],[79.8421,33.6315],[79.895,33.5857],[79.875,33.6581]]]}}]}