{"type":"FeatureCollection","features":[{"type":"Feature","properties":{},"geometry":{"type":"MultiLineString","coordinates":[[[74.623,26.0668],[74.5437,26.0467],[74.4951,26.0002],[74.8545,26.0093],[74.8438,26.0361],[74.664,26.0317],[74.623,26.0668]],[[72.5294,26.7548],[72.4997,26.7445],[72.5024,26.6905],[72.5539,26.6655],[72.5827,26.6938],[72.5294,26.7548]],[[72.4859,27.2225],[72.2447,27.1941],[72.1265,27.1347],[72.0785,27.0874],[72.0623,27.0144],[72.1285,26.9091],[72.1112,26.8541],[72.2672,26.7617],[72.386,26.8029],[72.5285,26.7728],[72.6063,26.8302],[72.6377,26.8044],[72.6211,26.7315],[72.6727,26.7065],[72.7609,26.7552],[72.7496,26.7819],[72.7111,26.7442],[72.6806,26.752],[72.719,26.7897],[72.7165,26.8437],[72.6745,26.8782],[72.6912,26.9511],[72.7261,26.8532],[72.7498,26.9895],[72.6255,27.0567],[72.579,27.1812],[72.4859,27.2225]],[[72.0202,26.859],[71.9905,26.8487],[72.0069,26.732],[72.0471,26.7338],[72.0356,26.7604],[72.0739,26.7983],[72.0202,26.859]],[[72.5247,27.6575],[72.4367,27.5906],[72.4386,27.5545],[72.5724,27.515],[72.619,27.5982],[72.5468,27.6223],[72.538,27.5948],[72.5803,27.5605],[72.5504,27.5502],[72.4975,27.5931],[72.5362,27.6309],[72.5247,27.6575]],[[72.5642,28.8686],[72.5349,28.8403],[72.608,28.8162],[72.5642,28.8686]],[[77.3916,31.1803],[77.2764,31.1526],[77.256,31.0804],[77.2882,30.9813],[77.3822,31.0089],[77.3609,31.0629],[77.4026,31.0992],[77.3916,31.1803]],[[72.0291,32.6355],[71.9977,32.6251],[71.9894,32.4262],[72.0083,31.4705],[72.118,31.4032],[72.1202,31.3672],[72.2207,31.2724],[72.2837,31.2751],[72.3545,31.3233],[72.3481,31.4313],[72.284,31.4466],[72.17,31.586],[72.1811,31.7489],[72.221,31.7867],[72.111,31.8541],[72.151,31.8919],[72.1454,31.9819],[72.318,32.1067],[72.3826,32.0914],[72.4727,32.005],[72.6038,31.9382],[72.6319,32.0025],[72.5663,32.0359],[72.5812,32.1448],[72.5378,32.161],[72.5325,32.2511],[72.4555,32.293],[72.3919,32.2903],[72.2657,32.4384],[72.3059,32.4762],[72.1615,32.5692],[72.0976,32.5664],[72.0291,32.6355]],[[82.6305,31.4437],[82.6077,31.4084],[82.6397,31.4163],[82.6305,31.4437]],[[80.0449,31.635],[80.012,31.5723],[80.0847,31.5261],[80.0966,31.5891],[80.0449,31.635]],[[80.5399,32.0053],[80.5079,31.9969],[80.5173,31.9516],[80.5493,31.96],[80.5399,32.0053]],[[81.0942,32.1199],[81.041,32.1121],[81.061,32.0755],[81.0175,32.0404],[81.0689,31.9942],[81.1233,32.038],[81.0942,32.1199]],[[72.2143,32.2376],[72.2802,32.2044],[72.2534,32.122],[72.1564,32.1448],[72.173,32.2178],[72.2143,32.2376]],[[81.2495,32.3146],[81.1742,32.2894],[81.2476,32.2606],[81.2495,32.3146]],[[72.4894,32.4388],[72.4256,32.4361],[72.3965,32.3898],[72.4501,32.383],[72.4894,32.4388]],[[73.4326,34.0084],[73.173,33.9993],[73.1421,33.9711],[73.1932,33.8286],[73.4849,33.6221],[73.4886,33.5501],[73.3063,33.3272],[73.3362,33.1659],[73.2636,33.1182],[73.1361,33.0956],[73.0656,33.0118],[73.1448,32.9335],[73.3808,32.9238],[73.4503,32.8179],[73.5597,32.7675],[73.6885,32.7536],[73.7567,32.6656],[74.0116,32.6915],[74.0345,32.6561],[74.1418,32.6412],[74.1867,32.5884],[74.2711,32.6088],[74.2755,32.5007],[74.4457,32.5053],[74.5274,32.5977],[74.6332,32.6184],[74.7165,32.6747],[74.8456,32.6417],[75.0235,32.745],[74.9888,32.8254],[74.9479,32.7704],[74.915,32.7967],[74.9138,32.8327],[74.9656,32.879],[75.0297,32.8805],[75.0597,32.9443],[75.0146,33.0154],[75.008,33.2138],[75.1976,33.3261],[75.2675,33.499],[75.3961,33.5196],[75.4791,33.6295],[75.66,33.7139],[75.6586,33.768],[75.6145,33.8034],[75.7114,33.8141],[75.7642,33.8601],[75.7835,33.9506],[75.8475,33.9877],[73.4326,34.0084]],[[80.1153,32.8787],[80.0512,32.8797],[80.0391,32.8168],[79.9413,32.737],[79.8448,32.7113],[79.8437,32.6572],[79.9584,32.5383],[80.0564,32.6361],[80.0592,32.7623],[80.1128,32.7705],[80.1458,32.8151],[80.1153,32.8787]],[[72.7357,32.9721],[72.6502,32.9687],[72.6309,32.9318],[72.5027,32.9266],[72.4553,32.8254],[72.5776,32.7492],[72.6405,32.7698],[72.7502,32.72],[72.8,32.7851],[72.8151,32.894],[72.8131,32.93],[72.7591,32.9369],[72.7357,32.9721]],[[80.0371,33.2047],[79.9942,33.2053],[79.9821,33.1424],[79.9389,33.125],[79.9377,33.0708],[79.9902,33.025],[80.033,33.0243],[80.0452,33.0873],[80.0884,33.1047],[80.0371,33.2047]],[[79.7896,33.6954],[79.7669,33.6415],[79.7994,33.6501],[79.7896,33.6954]],[[79.8781,33.8024],[79.8349,33.803],[79.8236,33.7761],[79.8773,33.7663],[79.8781,33.8024]],[[79.9689,33.9996],[79.8929,33.9917],[79.913,33.9192],[79.8474,33.884],[79.9322,33.8107],[79.942,33.7654],[79.9754,33.81],[79.955,33.8645],[80.0219,33.9537],[79.9689,33.9996]]]}}]}