{"type":"FeatureCollection","features":[{"type":"Feature","properties":{},"geometry":{"type":"MultiLineString","coordinates":[[[75.361,26.1379],[75.301,26.1367],[75.2819,26.1001],[75.1819,26.098],[75.1638,26.0254],[74.9431,26.0566],[74.9144,26.0107],[75.4841,25.9958],[75.4319,26.0941],[75.361,26.1379]],[[74.7839,26.0347],[74.684,26.0322],[74.6748,26.0049],[74.8345,26.0088],[74.7839,26.0347]],[[74.4438,26.044],[74.3947,26.0156],[74.4649,26.0084],[74.4438,26.044]],[[72.1216,26.4663],[72.1035,26.4294],[72.1331,26.4397],[72.1216,26.4663]],[[72.5464,27.225],[72.4859,27.2225],[72.3387,27.135],[72.2647,27.0054],[72.2808,26.8887],[72.2223,26.85],[72.161,26.8654],[71.9954,26.7586],[72.0023,26.4428],[72.178,26.5411],[72.323,26.4571],[72.3107,26.5017],[72.369,26.5403],[72.3828,26.6674],[72.3485,26.7472],[72.3887,26.7489],[72.4945,26.645],[72.5548,26.6475],[72.5932,26.6852],[72.6342,26.6688],[72.7111,26.7442],[72.8108,26.7662],[72.8526,26.7318],[72.9636,26.727],[72.9771,26.872],[73.0165,26.8916],[73.0141,26.9457],[72.9722,26.9802],[73.0495,27.0553],[73.0181,27.0812],[72.9173,27.0774],[72.771,27.18],[72.6281,27.2103],[72.5886,27.1907],[72.5464,27.225]],[[72.437,26.5884],[72.4074,26.5781],[72.4101,26.524],[72.5016,26.5008],[72.5086,26.5643],[72.437,26.5884]],[[72.2768,26.7711],[72.2814,26.681],[72.3234,26.6467],[72.328,26.5566],[72.2993,26.5283],[72.2824,26.663],[72.2403,26.6973],[72.2375,26.7514],[72.2768,26.7711]],[[72.7173,26.8257],[72.7199,26.7716],[72.6902,26.7614],[72.6771,26.8241],[72.7173,26.8257]],[[72.6832,27.7362],[72.5731,27.7046],[72.5951,27.6694],[72.5583,27.5957],[72.6006,27.5613],[72.5628,27.5056],[72.7202,27.3946],[72.802,27.3798],[72.8241,27.5522],[72.862,27.6079],[72.6832,27.7362]],[[72.7236,28.9653],[72.656,28.8814],[72.6438,28.7184],[72.6769,28.6746],[72.7275,28.6857],[72.8618,28.8715],[72.8074,28.9325],[72.7236,28.9653]],[[83.0833,30.0377],[83.0301,30.0126],[83.121,29.964],[83.1328,29.9906],[83.0833,30.0377]],[[82.9011,30.1348],[82.8695,30.1269],[82.8561,30.0643],[82.9084,30.0713],[82.9011,30.1348]],[[82.9679,30.2225],[82.9155,30.2154],[82.9444,30.1693],[82.976,30.1771],[82.9679,30.2225]],[[83.1037,30.4339],[83.0304,30.4277],[83.0791,30.3627],[83.1108,30.3705],[83.1037,30.4339]],[[83.1737,30.5755],[83.1202,30.5506],[83.1245,30.4331],[83.2205,30.4745],[83.1737,30.5755]],[[82.2619,30.7343],[82.1869,30.6916],[82.2062,30.6549],[82.1637,30.6382],[82.1491,30.5394],[82.2239,30.5822],[82.2619,30.7343]],[[72.0125,32.8875],[71.9896,31.4336],[72.002,31.2356],[72.1136,31.1323],[72.0739,31.0945],[72.0893,31.0139],[72.0265,31.0111],[71.9923,31.0547],[72.0158,30.5053],[72.0234,30.5508],[72.2806,30.7967],[72.2246,30.8575],[72.1719,30.8642],[72.1015,30.9874],[72.1511,31.0347],[72.237,31.0024],[72.2668,31.0307],[72.2426,31.0838],[72.3023,31.1406],[72.16,31.2336],[72.065,31.2384],[72.0815,31.3114],[72.1523,31.3596],[72.1954,31.3435],[72.3389,31.2324],[72.3211,31.1775],[72.4401,31.1193],[72.482,31.1211],[72.5109,31.1674],[72.4354,31.3808],[72.4533,31.4357],[72.387,31.487],[72.4059,31.5239],[72.3396,31.5753],[72.3352,31.6473],[72.1955,31.6864],[72.1389,31.747],[72.1577,31.784],[72.0688,31.8522],[72.0854,31.9251],[72.1276,31.927],[72.1321,31.855],[72.1655,31.8294],[72.3066,31.7724],[72.3342,31.6653],[72.4317,31.6243],[72.4733,31.8155],[72.4479,31.8866],[72.3834,31.902],[72.378,31.992],[72.4282,32.0392],[72.6933,32.041],[72.6892,32.113],[72.6336,32.1559],[72.5478,32.1705],[72.5234,32.2236],[72.4598,32.221],[72.345,32.3605],[72.2701,32.3664],[72.2657,32.4384],[72.3697,32.4789],[72.3037,32.5122],[72.3194,32.6031],[72.2858,32.6287],[72.1042,32.6298],[72.112,32.6753],[72.2196,32.662],[72.2286,32.6894],[72.1747,32.6961],[72.0736,32.7729],[72.0125,32.8875]],[[81.5957,30.8082],[81.5114,30.7924],[81.4785,30.7482],[81.548,30.6471],[81.5796,30.6553],[81.5822,30.7274],[81.6247,30.7443],[81.5957,30.8082]],[[82.474,30.7995],[82.3346,30.7229],[82.3414,30.6415],[82.4815,30.7361],[82.474,30.7995]],[[81.5578,30.9175],[81.4627,30.8929],[81.4709,30.8296],[81.5869,30.8535],[81.5578,30.9175]],[[77.3505,31.0538],[77.3191,31.0446],[77.3298,31.0176],[77.3821,31.0269],[77.3505,31.0538]],[[77.537,31.4875],[77.4427,31.406],[77.4641,31.352],[77.4222,31.3157],[77.4226,31.2616],[77.3807,31.2434],[77.4125,31.1984],[77.4648,31.2257],[77.4644,31.2979],[77.569,31.3884],[77.5687,31.4606],[77.537,31.4875]],[[82.5296,31.5374],[82.4976,31.5295],[82.5152,31.4567],[82.4706,31.4041],[82.4185,31.4149],[82.3857,31.3889],[82.405,31.3522],[82.5858,31.3912],[82.6462,31.3349],[82.6607,31.4156],[82.6086,31.4265],[82.5296,31.5374]],[[80.2596,31.7939],[80.1962,31.7949],[80.1851,31.7681],[80.2587,31.7578],[80.2596,31.7939]],[[72.7487,31.9981],[72.6762,31.9681],[72.7206,31.9338],[72.7035,31.861],[72.8241,31.7845],[72.8322,31.8299],[72.8735,31.8496],[72.7487,31.9981]],[[81.2145,31.9186],[81.1608,31.8928],[81.2133,31.8825],[81.2145,31.9186]],[[74.0175,34.009],[73.6498,33.9976],[73.4917,33.9111],[73.5019,33.7129],[73.4391,33.6747],[73.3997,33.6012],[73.4268,33.4938],[73.4716,33.4593],[73.4556,33.3504],[73.3838,33.2848],[73.2569,33.2443],[73.1648,33.1598],[73.0724,32.8857],[73.2573,32.8292],[73.3213,32.8315],[73.404,32.8885],[73.481,32.846],[73.4837,32.792],[73.628,32.6795],[73.8436,32.6323],[73.932,32.5628],[73.9951,32.5828],[74.0297,32.5206],[74.0841,32.4952],[74.1251,32.5325],[74.1581,32.5064],[74.1509,32.425],[74.277,32.4646],[74.5959,32.4732],[74.6159,32.5098],[74.7416,32.567],[74.8694,32.5701],[74.9631,32.6354],[74.9613,32.6895],[74.8864,32.6968],[74.8742,32.7416],[74.9046,32.7874],[74.9577,32.7976],[74.9962,32.9248],[75.0476,32.9891],[75.1216,33.0178],[75.1621,33.0908],[75.1773,33.2896],[75.1071,33.4686],[75.1263,33.5411],[75.1891,33.5966],[75.1659,33.6503],[75.2189,33.6784],[75.4023,33.6731],[75.4865,33.7469],[75.4413,33.8182],[75.4834,33.8551],[75.4814,33.9272],[75.4165,33.926],[75.4249,34.0074],[74.6895,33.9912],[74.0175,34.009]],[[72.6726,32.9515],[72.632,32.9138],[72.5882,32.9301],[72.4937,32.8992],[72.4553,32.8254],[72.4619,32.7174],[72.6723,32.5906],[72.7453,32.6206],[72.7219,32.6557],[72.7726,32.7028],[72.8416,32.6153],[72.9075,32.5817],[72.9927,32.585],[73.0841,32.6696],[73.0172,32.7212],[72.992,32.7925],[72.869,32.8871],[72.805,32.8846],[72.6726,32.9515]],[[80.3489,32.8207],[80.3266,32.785],[80.3802,32.7931],[80.3489,32.8207]],[[80.1169,32.9508],[80.0205,32.9433],[80.0193,32.8892],[79.9762,32.8718],[79.9855,32.8085],[80.1257,32.8695],[80.1484,32.9233],[80.1169,32.9508]],[[72.6245,33.0398],[72.594,33.0115],[72.6074,32.967],[72.6582,33.0141],[72.6245,33.0398]],[[80.0825,33.3122],[80.0501,33.3037],[80.0489,33.2496],[80.1657,33.2027],[80.1776,33.2476],[80.1241,33.2574],[80.0825,33.3122]],[[80.2441,33.7607],[80.1578,33.7621],[80.1463,33.7352],[80.2216,33.725],[80.2441,33.7607]],[[74.421,33.9392],[74.4657,33.9043],[74.4477,33.8136],[74.4833,33.7333],[74.4186,33.7316],[74.339,33.8287],[74.3561,33.9374],[74.421,33.9392]],[[73.4326,34.0084],[73.2812,34.0031],[73.2718,33.9757],[73.3283,33.9326],[73.3931,33.9348],[73.4326,34.0084]]]}}]}