{"type":"FeatureCollection","features":[{"type":"Feature","properties":{},"geometry":{"type":"MultiLineString","coordinates":[[[75.3427,26.0653],[75.2543,26.0002],[75.3843,25.9938],[75.3936,26.0211],[75.3427,26.0653]],[[75.6212,26.1248],[75.5718,26.0968],[75.5839,25.9977],[75.6438,25.9988],[75.6725,26.0625],[75.6212,26.1248]],[[76.0422,26.0595],[75.8624,26.0567],[75.8333,26.0111],[76.1128,26.0154],[76.0422,26.0595]],[[74.2987,26.2025],[74.2696,26.1746],[74.341,26.1315],[74.3502,26.1588],[74.2987,26.2025]],[[72.9662,27.332],[72.9476,27.2952],[72.8668,27.2921],[72.8484,27.2553],[72.7272,27.2505],[72.7097,27.1956],[72.5632,27.0903],[72.5984,26.9924],[72.2579,26.9419],[72.1313,26.855],[72.1543,26.8019],[72.1179,26.728],[72.1409,26.6749],[72.1216,26.4663],[72.1407,26.4852],[72.2647,26.4184],[72.3622,26.4768],[72.4624,26.4811],[72.4807,26.518],[72.5557,26.4218],[72.5801,26.3325],[72.7123,26.2927],[72.7978,26.3955],[72.7544,26.466],[72.7928,26.5037],[72.7991,26.5852],[72.8296,26.5773],[72.8058,26.441],[72.8931,26.5076],[72.9002,26.5711],[72.9236,26.4997],[73.0728,26.5325],[73.068,26.6407],[73.146,26.6978],[73.1243,26.7331],[73.1637,26.7526],[73.1613,26.8067],[73.0874,26.8852],[73.1292,26.8507],[73.27,26.8558],[73.3013,26.8298],[73.2828,26.7931],[73.3342,26.7678],[73.4227,26.8161],[73.4168,26.9603],[73.3258,26.9661],[73.2196,27.0887],[73.1696,27.0779],[73.1657,27.168],[73.1245,27.1845],[73.1003,27.2739],[72.9662,27.332]],[[73.3372,26.6957],[73.2568,26.6928],[73.19,26.6091],[73.2421,26.5658],[73.3216,26.5868],[73.3506,26.6149],[73.3372,26.6957]],[[73.1586,27.5559],[73.0776,27.5529],[73.0687,27.5255],[73.1852,27.4125],[73.3081,27.3808],[73.3349,27.463],[73.1586,27.5559]],[[72.9249,27.7818],[72.8243,27.7599],[72.7758,27.7128],[72.7978,27.6776],[72.8911,27.6361],[72.9388,27.7011],[72.9249,27.7818]],[[74.5205,28.682],[74.4299,28.6345],[74.4621,28.5902],[74.5526,28.6377],[74.5205,28.682]],[[74.123,28.9055],[74.0,28.9019],[73.9703,28.8739],[74.1264,28.8154],[74.123,28.9055]],[[72.9029,29.0806],[72.8136,29.014],[72.8396,28.9067],[72.893,28.8637],[73.057,28.8699],[73.1258,28.9356],[73.0616,28.9874],[73.0377,29.0587],[72.9029,29.0806]],[[83.104,30.0369],[83.0418,30.0393],[83.0301,30.0126],[83.122,29.982],[83.104,30.0369]],[[72.0373,32.5095],[72.006,32.4991],[71.9894,32.4262],[71.9961,30.3149],[72.03,30.2713],[72.1536,30.2949],[72.2191,30.2436],[72.2793,30.2824],[72.3043,30.2112],[72.3884,30.1968],[72.4377,30.244],[72.4347,30.298],[72.4753,30.3177],[72.387,30.4043],[72.4661,30.4798],[72.4641,30.5158],[72.5256,30.5364],[72.459,30.6058],[72.4987,30.6436],[72.4707,30.7687],[72.2874,30.8602],[72.2523,30.9218],[72.3856,30.9727],[72.4034,31.0276],[72.6338,31.0371],[72.7576,31.2676],[72.7136,31.3019],[72.6856,31.4271],[72.6215,31.4426],[72.6395,31.4975],[72.5512,31.5661],[72.5481,31.6201],[72.3177,31.7638],[72.2544,31.7611],[72.2199,31.8047],[72.3111,31.8718],[72.3988,31.8214],[72.4912,31.8704],[72.5092,31.9253],[72.4637,31.9775],[72.4684,32.077],[72.5975,32.0462],[72.6662,31.9587],[72.7588,32.0075],[72.7145,32.0419],[72.7083,32.1499],[72.5585,32.3514],[72.516,32.3496],[72.3962,32.2183],[72.3538,32.2165],[72.3304,32.2516],[72.2556,32.2574],[72.2523,32.3114],[72.0373,32.5095]],[[83.2847,30.6975],[83.2112,30.6914],[83.2154,30.5739],[83.3315,30.5964],[83.3344,30.6504],[83.2847,30.6975]],[[82.3052,30.769],[82.2317,30.7624],[82.2294,30.7083],[82.1869,30.6916],[82.2155,30.6275],[82.2572,30.6262],[82.2696,30.6709],[82.333,30.6869],[82.3052,30.769]],[[77.624,30.7662],[77.5824,30.712],[77.6346,30.7211],[77.624,30.7662]],[[81.7168,31.2379],[81.6538,31.2396],[81.6199,31.1774],[81.5557,31.1431],[81.5746,31.0884],[81.5274,30.9454],[81.4843,30.9104],[81.502,30.8197],[81.5424,30.7826],[81.4974,30.6936],[81.5486,30.6651],[81.6859,30.7065],[81.688,30.7606],[81.6071,30.835],[81.7238,30.8768],[81.8284,30.8739],[81.8629,30.9541],[81.8087,31.1721],[81.7168,31.2379]],[[77.8533,31.0553],[77.7801,31.0282],[77.7593,30.956],[77.8222,30.8839],[77.7805,30.8297],[77.812,30.7847],[77.9477,30.8299],[77.9058,31.0103],[77.8533,31.0553]],[[82.5174,30.8341],[82.4756,30.8355],[82.4205,30.7742],[82.4698,30.7094],[82.5667,30.7693],[82.5174,30.8341]],[[72.5989,30.9093],[72.5293,30.8433],[72.5313,30.8073],[72.6079,30.7473],[72.6497,30.749],[72.6965,30.8501],[72.5989,30.9093]],[[78.3771,31.0549],[78.2618,31.0281],[78.2826,30.9739],[78.2407,30.9379],[78.2719,30.8747],[78.3452,30.9016],[78.3244,30.9558],[78.3664,30.9737],[78.3771,31.0549]],[[82.0001,30.9771],[81.8731,30.9447],[81.8601,30.882],[81.9329,30.8708],[81.9553,30.9062],[81.9971,30.905],[82.0001,30.9771]],[[82.4404,30.9811],[82.4086,30.9731],[82.417,30.9277],[82.4488,30.9357],[82.4404,30.9811]],[[72.1466,30.9353],[72.1807,30.8916],[72.107,30.8974],[72.1048,30.9334],[72.1466,30.9353]],[[82.5524,31.5727],[82.4782,31.5662],[82.4513,31.4408],[82.3983,31.4336],[82.3638,31.3716],[82.3824,31.3168],[82.484,31.2413],[82.5016,31.1685],[82.603,31.0928],[82.5904,31.0482],[82.5167,31.0417],[82.4915,30.9523],[82.5434,30.9415],[82.566,30.9768],[82.7117,30.9537],[82.7479,31.0516],[82.5872,31.2016],[82.6616,31.4336],[82.5607,31.5273],[82.5524,31.5727]],[[77.287,31.1437],[77.2138,31.1162],[77.2249,31.0351],[77.2878,31.0354],[77.3397,31.0989],[77.287,31.1437]],[[80.618,31.7693],[80.5527,31.6984],[80.6479,31.7055],[80.618,31.7693]],[[82.6657,31.7312],[82.6327,31.7053],[82.641,31.6599],[82.6657,31.7312]],[[80.4383,32.1696],[80.3625,32.1078],[80.4003,31.9267],[80.3647,31.774],[80.429,31.8089],[80.5665,31.8154],[80.536,31.8611],[80.4628,31.8895],[80.506,31.9248],[80.5074,31.9789],[80.5714,31.9957],[80.5946,32.0674],[80.4383,32.1696]],[[72.7347,31.8712],[72.7055,31.8249],[72.7397,31.7812],[72.7347,31.8712]],[[83.0205,32.0431],[82.8935,32.0478],[82.8806,32.0032],[82.9532,31.9734],[83.0205,32.0431]],[[80.7011,32.4532],[80.6368,32.4364],[80.6249,32.3916],[80.5819,32.3744],[80.6327,32.2922],[80.7088,32.3538],[80.7011,32.4532]],[[74.768,32.4233],[74.7152,32.413],[74.7287,32.3321],[74.8233,32.3615],[74.768,32.4233]],[[74.5081,32.5431],[74.3599,32.521],[74.299,32.4472],[74.2462,32.4367],[74.4506,32.3791],[74.4588,32.4425],[74.5205,32.4983],[74.5081,32.5431]],[[80.4469,32.4942],[80.4242,32.4405],[80.4776,32.4485],[80.4469,32.4942]],[[74.0175,34.009],[73.6394,33.9882],[73.5989,33.9327],[73.6052,33.8066],[73.7192,33.684],[73.702,33.5932],[73.6392,33.5551],[73.6849,33.5024],[73.6454,33.4289],[73.5621,33.3721],[73.5648,33.318],[73.5049,33.2258],[73.3921,33.1227],[73.2869,33.0829],[73.2479,33.0094],[73.1837,33.0071],[73.0807,32.9311],[72.98,33.0086],[72.977,33.0626],[72.8557,33.1212],[72.7873,33.1907],[72.723,33.1882],[72.6416,33.1127],[72.5886,33.1016],[72.5513,33.0098],[72.6176,32.9764],[72.6218,32.9044],[72.6523,32.9327],[72.6646,32.9061],[72.5946,32.8221],[72.4193,32.7156],[72.5078,32.6651],[72.5211,32.6206],[72.6053,32.642],[72.6734,32.5726],[72.7818,32.5408],[72.9155,32.4377],[72.957,32.4573],[73.1309,32.3916],[73.2186,32.5481],[73.1277,32.6531],[73.0172,32.7212],[73.0662,32.8043],[73.2184,32.7557],[73.2638,32.7031],[73.326,32.7414],[73.4575,32.6738],[73.7116,32.7183],[73.891,32.5255],[74.0605,32.5486],[74.1266,32.4964],[74.2212,32.5262],[74.3101,32.7001],[74.4572,32.7582],[74.4903,32.732],[74.449,32.6949],[74.5803,32.6081],[74.5624,32.5174],[74.6604,32.4567],[74.7016,32.4939],[74.7558,32.4681],[74.75,32.6304],[74.792,32.6494],[74.8108,32.722],[74.7876,32.7756],[74.7443,32.7926],[74.741,32.8827],[74.8149,32.9116],[74.8814,32.841],[74.9571,32.8157],[74.9912,32.7533],[75.0338,32.7543],[75.0846,32.8366],[75.0609,32.9082],[75.1025,32.9452],[75.0979,33.0895],[75.2016,33.1999],[75.1524,33.3974],[75.0402,33.5393],[75.0815,33.5943],[75.0138,33.683],[74.9485,33.6996],[74.9572,33.763],[75.0243,33.6923],[75.0767,33.7386],[75.1548,33.9929],[74.4076,34.002],[74.4203,33.9572],[74.3681,33.9107],[74.3643,34.0008],[74.0175,34.009]],[[72.1292,33.398],[71.9903,33.3828],[71.9989,32.6071],[72.0965,32.5844],[72.1873,32.4981],[72.3149,32.5036],[72.2992,32.5842],[72.2084,32.6705],[72.3845,32.7592],[72.3924,32.8047],[72.343,32.9109],[72.2103,32.9774],[72.1784,33.1385],[72.1321,33.1906],[72.1714,33.2465],[72.1292,33.398]],[[80.7927,32.6678],[80.7288,32.6691],[80.7173,32.6423],[80.7698,32.6141],[80.7927,32.6678]],[[75.6042,32.9822],[75.5186,32.9807],[75.2581,32.75],[75.293,32.6515],[75.4422,32.6545],[75.6407,32.8115],[75.6602,32.884],[75.6042,32.9822]],[[80.8877,32.9725],[80.886,32.9184],[80.9189,32.9447],[80.8877,32.9725]],[[75.6455,33.0371],[75.5928,33.0091],[75.6256,32.9826],[75.6574,32.9922],[75.6455,33.0371]],[[72.655,33.0681],[72.6459,33.0407],[72.6133,33.0484],[72.6224,33.0759],[72.655,33.0681]],[[74.6368,33.3854],[74.7345,33.3607],[74.7904,33.2989],[74.6284,33.322],[74.5876,33.2668],[74.5447,33.2657],[74.5093,33.346],[74.5613,33.3925],[74.6368,33.3854]],[[74.5189,33.653],[74.5633,33.6181],[74.5349,33.5181],[74.5023,33.5263],[74.4765,33.6339],[74.5189,33.653]],[[74.8591,33.7878],[74.8493,33.7605],[74.7944,33.7862],[74.8591,33.7878]],[[80.2487,33.941],[80.1728,33.9333],[80.2262,33.9053],[80.2487,33.941]]]}}]}