{"type":"FeatureCollection","features":[{"type":"Feature","properties":{},"geometry":{"type":"MultiLineString","coordinates":[[[75.2623,26.0817],[75.2126,26.0716],[75.2445,25.991],[75.2942,26.001],[75.2623,26.0817]],[[74.1914,26.4162],[74.1653,26.298],[74.3399,26.1676],[74.4798,26.1714],[74.5187,26.2086],[74.6209,26.139],[74.7695,26.1879],[74.7382,26.2323],[74.6782,26.2307],[74.6371,26.2658],[74.5587,26.2096],[74.5673,26.255],[74.4742,26.3519],[74.3541,26.3486],[74.3329,26.3841],[74.2133,26.3627],[74.1914,26.4162]],[[73.4129,27.2942],[73.3725,27.2928],[73.3644,27.2474],[73.3143,27.2366],[73.2568,27.1623],[73.194,27.2142],[73.1649,27.186],[73.2021,27.2596],[73.1302,27.2841],[73.0341,27.1721],[72.9833,27.1792],[72.9656,27.1244],[73.0181,27.0812],[72.8761,27.0938],[72.8182,27.0374],[72.6763,27.0498],[72.6176,27.0113],[72.4556,27.0226],[72.4093,26.9394],[72.4349,26.8321],[72.3179,26.7549],[72.3024,26.6639],[72.2441,26.6252],[72.2478,26.5532],[72.2104,26.4973],[72.2542,26.427],[72.4286,26.3532],[72.4851,26.4279],[72.4782,26.3644],[72.5601,26.3317],[72.594,26.2518],[72.6619,26.2997],[72.635,26.4431],[72.6638,26.4714],[72.7039,26.473],[72.7674,26.4033],[73.1064,26.4525],[73.1939,26.5189],[73.1854,26.7173],[73.224,26.7548],[73.2483,26.8911],[73.2858,26.7209],[73.3506,26.6149],[73.4019,26.5896],[73.4814,26.6104],[73.5865,26.7494],[73.603,26.8403],[73.6016,26.8763],[73.5182,26.9458],[73.5667,26.9925],[73.6674,26.9959],[73.6764,27.0233],[73.6153,27.0393],[73.6534,27.0947],[73.5789,27.1916],[73.5295,27.1628],[73.5026,27.0806],[73.3906,27.1039],[73.4862,27.2336],[73.4129,27.2942]],[[72.4711,26.5086],[72.405,26.4245],[72.3927,26.4691],[72.4406,26.5163],[72.4711,26.5086]],[[72.4274,26.579],[72.4292,26.5429],[72.3996,26.5326],[72.3873,26.5773],[72.4274,26.579]],[[72.1234,28.3081],[72.0566,28.2239],[72.0616,28.1339],[72.114,28.1091],[72.1644,28.1204],[72.1197,28.1906],[72.1778,28.2474],[72.1234,28.3081]],[[74.9764,28.4947],[74.7628,28.4626],[74.7258,28.3353],[74.7804,28.2193],[74.8828,28.2038],[74.9925,28.2875],[74.9711,28.3231],[75.0093,28.4143],[74.968,28.4314],[74.9764,28.4947]],[[72.0153,28.4116],[71.9903,28.3112],[72.0113,28.1226],[72.0749,28.2608],[72.0688,28.3689],[72.0153,28.4116]],[[74.6355,28.2879],[74.6262,28.2606],[74.657,28.2524],[74.6355,28.2879]],[[72.0326,28.4665],[72.025,28.421],[72.0561,28.4134],[72.0326,28.4665]],[[74.032,29.1375],[73.9703,29.1356],[73.9031,29.0162],[73.9576,28.9367],[74.0191,28.9385],[74.1144,28.8602],[74.1178,28.77],[74.2743,28.6933],[74.3357,28.6951],[74.358,28.6415],[74.5638,28.611],[74.6169,28.5492],[74.5977,28.5126],[74.6694,28.5054],[74.6782,28.5507],[74.6146,28.6213],[74.6543,28.6584],[74.6117,28.7115],[74.5801,28.7377],[74.4883,28.7263],[74.5654,28.8727],[74.4069,29.0038],[74.262,29.0359],[74.1566,29.1051],[74.032,29.1375]],[[73.1673,29.1447],[73.044,29.1402],[73.0145,29.112],[72.9804,28.9663],[72.9412,28.9287],[72.99,28.7681],[73.1482,28.6748],[73.1892,28.6763],[73.2178,28.7224],[73.194,28.7938],[73.2653,28.8054],[73.3325,28.907],[73.3087,28.9784],[73.3481,29.0159],[73.2298,29.129],[73.2101,29.1102],[73.1673,29.1447]],[[74.0175,34.009],[73.9422,33.9977],[74.0112,33.9096],[74.0169,33.7834],[73.9754,33.7461],[74.0209,33.6933],[73.9347,33.6907],[73.9314,33.7628],[73.8737,33.8422],[73.821,33.8135],[73.8561,33.5259],[73.8148,33.4885],[73.8224,33.3263],[73.6371,33.158],[73.5875,33.0752],[73.5036,33.0363],[73.4814,33.0536],[73.3585,32.9411],[73.2962,33.1103],[73.2188,33.1527],[73.177,33.1331],[73.0455,33.1825],[72.8302,33.1924],[72.7424,33.225],[72.7016,33.1873],[72.5945,33.183],[72.5447,33.1178],[72.5469,33.0818],[72.648,33.0047],[72.7111,33.0253],[72.7672,32.9824],[72.7703,32.9283],[72.6789,32.8435],[72.5946,32.8221],[72.5545,32.9558],[72.4106,33.0311],[72.3306,33.1089],[72.3915,33.1656],[72.3294,33.2984],[72.0827,33.1252],[72.0184,33.1224],[71.9893,33.0759],[71.9906,30.4049],[72.0081,30.1169],[72.0408,30.0913],[72.185,30.1158],[72.2482,30.1005],[72.3788,29.9979],[72.7104,30.0115],[72.7034,29.9481],[72.7359,29.9223],[72.8385,29.9444],[72.8672,29.9906],[72.8598,30.1347],[72.8985,30.1904],[72.7701,30.2575],[72.7606,30.4376],[72.717,30.472],[72.7141,30.526],[72.6625,30.5149],[72.6278,30.5767],[72.6973,30.6426],[72.8542,30.6398],[72.8514,30.6938],[72.9483,30.8419],[72.9517,30.9774],[73.0382,30.9265],[73.151,30.9758],[73.1483,31.0298],[73.0954,31.0369],[73.018,31.1152],[72.9838,31.3666],[72.915,31.4722],[72.7718,31.584],[72.7106,31.5454],[72.6575,31.5523],[72.6493,31.6964],[72.7287,31.7898],[72.7226,31.8978],[72.6762,31.9681],[72.6871,32.149],[72.5005,32.4302],[72.5531,32.4414],[72.6646,32.3557],[72.8992,32.3468],[73.0951,32.264],[73.3312,32.2183],[73.396,32.41],[73.263,32.5136],[73.2713,32.559],[73.3139,32.5606],[73.375,32.6168],[73.6323,32.5894],[73.9517,32.5995],[73.9714,32.6362],[74.0243,32.6468],[74.0535,32.7108],[74.1175,32.7127],[74.2278,32.6256],[74.4394,32.6675],[74.5329,32.7332],[74.5419,32.7785],[74.5949,32.7889],[74.6115,32.9156],[74.8189,33.1011],[74.7949,33.1727],[74.8561,33.2644],[74.825,33.5343],[74.8668,33.5714],[74.8851,33.6621],[74.8081,33.7054],[74.705,33.5765],[74.6286,33.6017],[74.6872,33.7656],[74.7297,33.7847],[74.7492,33.8393],[74.7655,33.984],[74.6672,34.0087],[74.0175,34.009]],[[83.0296,30.6172],[82.9562,30.6109],[82.9634,30.5475],[83.0368,30.5538],[83.0296,30.6172]],[[77.9371,31.1275],[77.7486,31.0371],[77.7174,30.9559],[77.7178,30.8296],[77.8015,30.7756],[77.833,30.6945],[77.9374,30.6946],[78.0313,30.8118],[78.0523,30.9922],[77.9371,31.1275]],[[78.4598,30.802],[78.4489,30.7209],[78.4802,30.7118],[78.491,30.7749],[78.4598,30.802]],[[72.4956,30.6976],[72.5613,30.6461],[72.5523,30.6187],[72.4987,30.6436],[72.4956,30.6976]],[[83.3265,30.6958],[83.2529,30.6897],[83.26,30.6263],[83.3543,30.6315],[83.3265,30.6958]],[[82.7238,30.7728],[82.6703,30.7476],[82.7194,30.6827],[82.7521,30.7086],[82.7238,30.7728]],[[83.058,30.7605],[83.0053,30.7534],[83.0125,30.69],[83.0651,30.697],[83.058,30.7605]],[[77.4977,30.9462],[77.4349,30.946],[77.4247,30.9008],[77.383,30.8826],[77.4149,30.8015],[77.4879,30.8289],[77.4977,30.9462]],[[72.3882,30.7472],[72.4002,30.7206],[72.3475,30.7274],[72.3882,30.7472]],[[81.6463,31.0414],[81.5618,31.0256],[81.549,30.9628],[81.464,30.929],[81.5754,30.8268],[81.7433,30.8402],[81.7973,30.8838],[81.8009,30.9739],[81.7503,31.0204],[81.6463,31.0414]],[[77.286,31.27],[77.2336,31.2606],[77.1507,31.1339],[77.2251,31.0171],[77.3298,31.0176],[77.3816,31.0991],[77.286,31.27]],[[82.9589,32.0815],[82.8521,32.0674],[82.8364,31.9687],[82.6958,31.9106],[82.6728,31.8753],[82.6323,31.9128],[82.4657,31.7471],[82.6081,31.634],[82.5743,31.59],[82.4142,31.5503],[82.4731,31.4582],[82.4891,31.3493],[82.5302,31.3299],[82.4975,31.304],[82.4571,31.3414],[82.4437,31.2787],[82.5335,31.1764],[82.6073,31.1829],[82.5697,31.2744],[82.6856,31.2794],[82.7741,31.3665],[82.8344,31.3102],[82.9093,31.3345],[82.892,31.4073],[82.8307,31.4456],[82.8335,31.4997],[82.9277,31.4872],[82.9424,31.5678],[82.8921,31.6148],[82.8261,31.5631],[82.7354,31.6475],[82.8225,31.6985],[82.8308,31.8606],[82.909,31.939],[83.0508,32.0149],[82.9589,32.0815]],[[77.4324,31.3789],[77.4009,31.3697],[77.4116,31.3427],[77.443,31.3519],[77.4324,31.3789]],[[81.871,31.4139],[81.8391,31.4058],[81.847,31.3424],[81.9014,31.386],[81.871,31.4139]],[[83.5799,31.4614],[83.5167,31.464],[83.4926,31.4109],[83.4526,31.4486],[83.3685,31.452],[83.2884,31.338],[83.4884,31.3389],[83.5546,31.3902],[83.6387,31.3867],[83.6508,31.4133],[83.5799,31.4614]],[[80.6983,31.6233],[80.6665,31.6149],[80.6321,31.5164],[80.685,31.5244],[80.6983,31.6233]],[[81.9317,31.8632],[81.8465,31.8477],[81.8239,31.8122],[81.6863,31.8071],[81.6575,31.6094],[81.688,31.5815],[81.7105,31.617],[81.7526,31.6158],[81.7403,31.571],[81.7904,31.5065],[81.8434,31.5139],[81.8783,31.5941],[81.9524,31.601],[81.9438,31.6463],[82.0702,31.6425],[82.1695,31.7387],[82.1414,31.8208],[82.0569,31.8234],[82.0342,31.788],[81.9317,31.8632]],[[72.5681,31.6389],[72.5743,31.5309],[72.5232,31.5018],[72.4227,31.5968],[72.4938,31.6449],[72.5681,31.6389]],[[83.6087,31.9474],[83.5532,31.9046],[83.5156,31.8069],[83.4354,31.8824],[83.3156,31.8241],[83.3065,31.6621],[83.3466,31.6244],[83.3525,31.5429],[83.3946,31.5412],[83.4177,31.5764],[83.543,31.5531],[83.5873,31.5874],[83.7247,31.5906],[83.7134,31.7535],[83.7812,31.8227],[83.7756,31.9042],[83.6355,31.8651],[83.6534,31.8102],[83.5879,31.7768],[83.608,31.758],[83.5626,31.7057],[83.5204,31.7075],[83.57,31.8317],[83.6366,31.8831],[83.6087,31.9474]],[[80.4436,32.3679],[80.3161,32.3702],[80.2836,32.3437],[80.3021,32.2352],[80.3865,32.2156],[80.3851,32.1615],[80.3423,32.1442],[80.3828,32.0714],[80.3386,32.0],[80.7938,32.0002],[80.802,31.9189],[80.906,31.8625],[80.9038,31.7904],[80.978,31.7978],[81.0756,31.8767],[80.9969,32.059],[80.903,32.1061],[80.8183,32.108],[80.796,32.0723],[80.7536,32.0732],[80.7258,32.2091],[80.6741,32.2553],[80.565,32.1492],[80.5147,32.2493],[80.4516,32.2686],[80.4436,32.3679]],[[83.0752,31.8786],[83.0291,31.8082],[83.0823,31.8152],[83.0752,31.8786]],[[82.0851,31.9849],[82.0303,31.9415],[82.0585,31.8594],[82.1117,31.8668],[82.1156,31.9569],[82.0851,31.9849]],[[83.4394,32.3154],[83.3382,32.2202],[83.441,32.1619],[83.4379,32.1079],[83.4972,32.0333],[83.4527,31.999],[83.4929,31.9613],[83.4665,31.8721],[83.5178,31.8429],[83.532,31.9055],[83.6575,32.0536],[83.6198,31.956],[83.6621,31.9542],[83.7132,32.0964],[83.6407,32.1265],[83.5538,32.0941],[83.4644,32.197],[83.4697,32.2871],[83.4394,32.3154]],[[83.8949,32.1155],[83.8179,32.0738],[83.848,32.0454],[83.9015,32.052],[83.8949,32.1155]],[[74.8524,32.4434],[74.7583,32.396],[74.7634,32.2518],[74.7961,32.2255],[74.9228,32.2466],[74.9956,32.2933],[74.9708,32.401],[74.8524,32.4434]],[[80.8058,32.3969],[80.742,32.3982],[80.7083,32.3358],[80.8863,32.2508],[80.8983,32.2957],[80.8058,32.3969]],[[83.7544,32.248],[83.7209,32.2224],[83.7277,32.1589],[83.7845,32.2196],[83.7544,32.248]],[[73.5992,32.3898],[73.5567,32.3884],[73.5474,32.361],[73.6451,32.3192],[73.5992,32.3898]],[[80.6654,32.6884],[80.5905,32.6809],[80.5662,32.5731],[80.5226,32.5379],[80.574,32.4737],[80.6373,32.4545],[80.7016,32.4712],[80.7349,32.5156],[80.6721,32.553],[80.696,32.6427],[80.6654,32.6884]],[[83.4832,32.6926],[83.3947,32.642],[83.3755,32.6789],[83.204,32.6677],[83.1695,32.6239],[83.1867,32.551],[83.2394,32.5399],[83.2851,32.5923],[83.3469,32.5537],[83.4969,32.5657],[83.4814,32.4851],[83.5106,32.4388],[83.5698,32.5356],[83.4832,32.6926]],[[75.5784,33.1441],[75.5356,33.1434],[75.5266,33.08],[75.4843,33.0612],[75.5077,32.9895],[75.4331,32.979],[75.3491,32.9233],[75.2357,32.7857],[75.2614,32.6418],[75.3362,32.6343],[75.4229,32.5819],[75.6993,32.605],[75.7836,32.6425],[75.8563,32.7249],[75.8755,32.8154],[75.8102,32.8685],[75.8307,32.9049],[75.5784,33.1441]],[[80.7315,32.7593],[80.6779,32.7513],[80.6867,32.688],[80.7403,32.6959],[80.7315,32.7593]],[[81.5491,32.9205],[81.5167,32.9123],[81.5256,32.8669],[81.558,32.8751],[81.5491,32.9205]],[[80.9786,33.1329],[80.8703,33.0992],[80.7934,33.0376],[80.7923,33.0016],[80.9524,32.9891],[80.9786,33.1329]],[[81.2765,33.0718],[81.2226,33.0641],[81.2317,33.0187],[81.2855,33.0264],[81.2765,33.0718]],[[83.7032,33.1345],[83.639,33.1373],[83.6018,33.0576],[83.5039,33.0346],[83.4915,33.0081],[83.6086,32.9942],[83.7111,33.0891],[83.7032,33.1345]]]}}]}