{"type":"FeatureCollection","features":[{"type":"Feature","properties":{},"geometry":{"type":"MultiLineString","coordinates":[[[74.7967,26.2879],[74.5965,26.2828],[74.509,26.1993],[74.5317,26.1096],[74.6014,26.1204],[74.663,26.0678],[74.7029,26.0688],[74.7408,26.142],[74.8008,26.1435],[74.889,26.2088],[74.7967,26.2879]],[[75.0569,26.294],[74.9881,26.2473],[75.0193,26.2028],[75.1281,26.2504],[75.0569,26.294]],[[72.3476,26.3678],[72.1988,26.3343],[72.1625,26.2604],[72.2366,26.1824],[72.3462,26.1962],[72.3826,26.27],[72.3476,26.3678]],[[72.8091,26.3688],[72.7595,26.3578],[72.762,26.3037],[72.8349,26.2434],[72.8412,26.3249],[72.8091,26.3688]],[[74.4302,26.4771],[74.2922,26.401],[74.2618,26.4092],[74.2642,26.337],[74.2952,26.3108],[74.4622,26.4147],[74.4302,26.4771]],[[74.7114,26.4664],[74.5911,26.4633],[74.4725,26.406],[74.4645,26.3426],[74.5554,26.3179],[74.5743,26.3545],[74.6344,26.3561],[74.6956,26.3215],[74.7037,26.3849],[74.7433,26.404],[74.7114,26.4664]],[[73.6127,27.3552],[73.5132,27.3157],[73.4563,27.2235],[73.2956,27.1998],[73.1769,27.1413],[73.1584,27.1045],[73.0785,27.0835],[72.8971,27.0766],[72.8787,27.0398],[72.6789,26.9957],[72.6308,26.9486],[72.636,26.8405],[72.6998,26.7708],[72.5687,26.7745],[72.5198,26.7454],[72.5224,26.6913],[72.4841,26.6536],[72.4894,26.5455],[72.54,26.5385],[72.5731,26.4767],[72.655,26.4439],[72.6376,26.389],[72.6689,26.3632],[72.8275,26.4057],[72.8851,26.4621],[72.9252,26.4637],[72.9685,26.3931],[73.0286,26.3954],[73.0198,26.368],[73.0703,26.3608],[73.0783,26.4063],[73.1947,26.5009],[73.2213,26.5831],[73.2807,26.6034],[73.3633,26.5521],[73.4502,26.6364],[73.3833,26.7966],[73.4317,26.8435],[73.5531,26.8296],[73.6577,26.9866],[73.6441,27.3292],[73.6127,27.3552]],[[74.4852,26.6411],[74.4158,26.6121],[74.4502,26.4776],[74.5385,26.5432],[74.4852,26.6411]],[[74.8435,28.8345],[74.7217,28.7955],[74.6625,28.7218],[74.5217,28.6459],[74.4751,28.5093],[74.5907,28.4131],[74.6834,28.3884],[74.6879,28.2441],[74.7507,28.1915],[74.715,28.0282],[74.8714,27.8966],[74.973,27.899],[75.1694,28.1561],[75.2518,28.1217],[75.3196,28.2585],[75.4098,28.3235],[75.5117,28.3254],[75.5408,28.3891],[75.4575,28.4598],[75.477,28.4962],[75.3113,28.5832],[75.2781,28.6818],[75.1338,28.7148],[75.0944,28.6598],[74.9916,28.6756],[74.9071,28.7638],[74.8767,28.7541],[74.8435,28.8345]],[[72.052,28.4855],[72.0035,28.4381],[72.0077,28.3661],[72.0505,28.3319],[72.0576,28.2059],[72.1507,28.183],[72.1992,28.2303],[72.1768,28.2654],[72.1942,28.3203],[72.1611,28.364],[72.0678,28.3869],[72.0842,28.4598],[72.052,28.4855]],[[73.312,29.1319],[73.1789,29.1181],[73.1693,28.8831],[73.2448,28.8046],[73.2948,28.8335],[73.3169,28.7982],[73.2775,28.7607],[73.3316,28.6994],[73.3725,28.7009],[73.4374,28.8565],[73.5194,28.8594],[73.5352,28.9682],[73.4582,29.0829],[73.312,29.1319]],[[74.2156,29.1789],[74.0943,29.1213],[74.0659,29.0573],[74.0057,29.0194],[74.0113,28.8751],[74.0734,28.859],[74.0861,28.7962],[74.2077,28.8358],[74.2704,28.8015],[74.3492,28.894],[74.5138,28.8804],[74.5361,28.8268],[74.6181,28.8289],[74.6479,28.8568],[74.6456,28.9289],[74.5811,29.0175],[74.5799,29.0535],[74.6204,29.0726],[74.5881,29.1169],[74.5264,29.1153],[74.4218,29.1666],[74.2991,29.1452],[74.2156,29.1789]],[[74.6672,34.0087],[74.3427,34.0002],[74.4225,33.9031],[74.3844,33.7758],[74.3108,33.7287],[74.243,33.799],[74.1783,33.7971],[74.1191,33.6691],[74.0513,33.7393],[74.0201,33.7113],[74.1127,33.5697],[74.0927,33.533],[74.1635,33.3907],[74.1474,33.2639],[74.0751,33.1986],[74.0521,33.2341],[73.9886,33.2141],[73.937,33.1674],[73.9205,33.0587],[73.8477,33.0113],[73.7835,33.0093],[73.6962,33.0426],[73.6508,33.0953],[73.5438,33.0917],[73.434,33.1422],[73.393,33.1047],[73.2431,33.0994],[73.175,33.1692],[73.0679,33.1653],[73.0649,33.2193],[72.8945,33.1948],[72.8812,33.2394],[72.9435,33.2779],[72.736,33.3331],[72.5912,33.237],[72.5527,33.1633],[72.4445,33.1769],[72.4299,33.2394],[72.509,33.351],[72.4751,33.3767],[72.3802,33.3456],[72.3746,33.2642],[72.3091,33.2795],[72.239,33.3667],[72.1125,33.3251],[72.0416,33.2588],[72.0869,33.2247],[72.0951,33.0987],[72.1842,33.0485],[72.1877,32.9945],[72.2845,32.9896],[72.3228,33.0635],[72.3599,32.9838],[72.3307,32.9375],[72.244,32.9518],[72.2137,32.9234],[72.2194,32.8334],[72.1892,32.805],[72.1205,32.8742],[72.0778,32.8723],[72.0072,32.806],[71.9918,32.7151],[71.9949,29.99],[72.3506,29.762],[72.4116,29.7827],[72.4766,29.7313],[72.58,29.7355],[72.6992,29.8306],[72.7632,29.7971],[72.8459,29.8003],[72.9268,29.8396],[72.9844,29.932],[73.1492,29.9562],[73.0294,30.069],[73.0881,30.1434],[73.0827,30.2515],[73.0167,30.3212],[73.1271,30.4065],[73.2129,30.3555],[73.2961,30.3585],[73.3044,30.4039],[73.3452,30.4234],[73.3409,30.5134],[73.4008,30.5697],[73.3983,30.6237],[73.3357,30.6215],[73.3323,30.6936],[73.3732,30.7131],[73.3646,30.8932],[73.2966,30.9991],[73.3114,31.1259],[73.2103,31.2576],[73.1474,31.2554],[73.0058,31.3494],[73.0202,31.4762],[72.9772,31.4926],[73.0183,31.5122],[73.0107,31.6563],[72.9666,31.6907],[72.982,31.7996],[72.9388,31.816],[72.9118,31.9232],[72.9502,31.9969],[73.1653,32.1402],[73.3578,32.111],[73.5104,32.026],[73.5739,32.0281],[73.6527,32.157],[73.7595,32.1424],[73.852,32.2085],[73.7181,32.3486],[73.7871,32.4681],[73.9533,32.5635],[74.1007,32.6039],[74.2138,32.7064],[74.2226,32.7518],[74.2652,32.753],[74.3211,32.6914],[74.2814,32.6181],[74.3805,32.5397],[74.7857,32.8297],[74.8409,33.0836],[74.8163,33.1733],[74.8775,33.2649],[74.8529,33.3546],[74.8883,33.5719],[74.8126,33.5792],[74.7709,33.5421],[74.7272,33.559],[74.6905,33.6754],[74.6238,33.7279],[74.6329,33.7732],[74.7297,33.7847],[74.6851,33.8197],[74.6672,34.0087]],[[73.3157,29.9441],[73.2562,29.8879],[73.1716,29.9209],[73.1419,29.8927],[73.1751,29.8488],[73.2794,29.8346],[73.3489,29.9002],[73.3157,29.9441]],[[78.1682,31.362],[78.084,31.3079],[77.979,31.326],[77.8846,31.1906],[77.8217,31.1545],[77.9267,31.0283],[77.8848,31.0102],[77.8639,30.9561],[77.885,30.8659],[77.8327,30.8568],[77.8015,30.7937],[77.7389,30.7575],[77.7601,30.6493],[77.8123,30.5862],[77.8749,30.5682],[78.0626,30.6044],[78.2402,30.7395],[78.1986,30.8478],[78.1359,30.8839],[78.1779,30.9741],[78.2408,31.0101],[78.262,31.0822],[78.1993,31.1545],[78.2416,31.3168],[78.1682,31.362]],[[73.2035,30.7612],[73.2488,30.6906],[73.2406,30.6452],[73.178,30.643],[73.1236,30.6861],[73.12,30.7581],[73.2035,30.7612]],[[77.664,31.2715],[77.5069,31.1898],[77.5281,31.1538],[77.4654,31.1175],[77.4867,31.0454],[77.4241,31.009],[77.4247,30.9008],[77.4987,30.7478],[77.5925,30.8112],[77.5923,30.8473],[77.5084,30.9011],[77.5395,30.9644],[77.6857,31.055],[77.7906,30.9831],[77.8638,31.0283],[77.8533,31.0914],[77.717,31.1002],[77.7169,31.1363],[77.7588,31.1544],[77.664,31.2715]],[[83.2109,30.8809],[83.1791,30.8731],[83.1752,30.8011],[83.1325,30.7847],[83.1775,30.6476],[83.2828,30.6615],[83.3195,30.7593],[83.3215,30.7953],[83.2109,30.8809]],[[73.5469,30.8002],[73.475,30.7707],[73.4892,30.69],[73.5811,30.7382],[73.5469,30.8002]],[[77.246,31.0172],[77.2147,31.008],[77.2254,30.981],[77.2567,30.9902],[77.246,31.0172]],[[83.054,31.0854],[83.0011,31.0784],[82.9983,31.0244],[83.0764,30.9132],[83.1282,30.9021],[83.1729,30.9545],[83.2257,30.9615],[83.1768,31.0266],[83.054,31.0854]],[[77.5367,31.5417],[77.4315,31.5232],[77.3585,31.4237],[77.4323,31.3969],[77.5373,31.4154],[77.5686,31.4786],[77.5367,31.5417]],[[81.8724,31.45],[81.8405,31.4419],[81.8383,31.3878],[81.9311,31.34],[81.9442,31.4027],[81.8724,31.45]],[[83.1675,32.7774],[83.07,32.754],[83.0873,32.6812],[83.0398,32.5928],[82.9323,32.5787],[82.9294,32.5247],[83.0247,32.5121],[83.0531,32.4479],[82.9975,32.4049],[82.957,32.4425],[82.8821,32.4362],[82.9179,32.3086],[82.8919,32.2193],[82.8486,32.2029],[82.8448,32.1308],[82.8116,32.1049],[82.7499,32.1433],[82.5888,32.1038],[82.6285,32.0483],[82.6046,31.995],[82.6856,31.92],[82.5984,31.8689],[82.5958,31.8148],[82.4868,31.7464],[82.4833,31.6743],[82.5154,31.6823],[82.5449,31.6362],[82.5423,31.5821],[82.4993,31.5655],[82.5152,31.4567],[82.5555,31.4193],[82.5521,31.3472],[82.6033,31.3184],[82.6773,31.3248],[82.6642,31.4877],[82.7739,31.574],[82.6933,31.649],[82.7482,31.6922],[82.8729,31.6516],[82.9059,31.6775],[82.8656,31.715],[83.0329,31.8802],[83.1808,31.8745],[83.2191,31.8009],[83.2844,31.8344],[83.3347,31.7873],[83.3075,31.6801],[83.3987,31.6132],[83.5183,31.6715],[83.5225,31.7435],[83.5557,31.7692],[83.6591,31.7287],[83.678,31.6918],[83.8789,31.6921],[83.8245,31.8389],[83.9112,31.8711],[84.0073,32.0473],[84.0106,32.4262],[83.9704,32.4641],[84.007,32.6971],[83.897,32.6478],[83.9171,32.6289],[83.8239,32.5067],[83.844,32.4877],[83.6561,32.3785],[83.5589,32.3556],[83.5981,32.2998],[83.52,32.2399],[83.4686,32.2691],[83.4729,32.3411],[83.5387,32.3744],[83.4224,32.3883],[83.3305,32.4551],[83.3235,32.5186],[83.2273,32.5134],[83.3082,32.438],[83.2636,32.4036],[83.304,32.3659],[83.2413,32.3865],[83.2657,32.4397],[83.205,32.4962],[83.2293,32.5494],[83.1888,32.587],[83.2212,32.5948],[83.282,32.5383],[83.2952,32.5829],[83.3388,32.5992],[83.3431,32.6712],[83.27,32.7012],[83.2264,32.6848],[83.2193,32.7483],[83.1675,32.7774]],[[81.1264,32.4439],[81.0304,32.4371],[80.9929,32.2665],[80.7171,32.2724],[80.6632,32.2465],[80.6405,32.1928],[80.6715,32.1651],[80.778,32.181],[80.809,32.1533],[80.8031,31.9549],[80.8437,31.8999],[80.8605,31.7552],[80.9016,31.7183],[80.835,31.6115],[80.8545,31.5569],[80.8102,31.4857],[80.8825,31.439],[80.9786,31.482],[80.9387,31.5551],[80.9443,31.7354],[81.0316,31.8236],[80.9305,31.9702],[80.9854,32.0321],[81.0489,32.0307],[81.1094,31.9391],[81.1934,31.9191],[81.2895,31.9438],[81.2914,31.9979],[81.1475,32.1276],[81.198,32.361],[81.1264,32.4439]],[[81.8676,31.847],[81.8042,31.8489],[81.6841,31.753],[81.7337,31.6704],[81.8071,31.6593],[81.8347,31.5593],[81.94,31.5562],[81.9524,31.601],[81.9155,31.7284],[81.8741,31.7476],[81.8676,31.847]],[[83.6569,31.6927],[83.6015,31.6499],[83.6505,31.5847],[83.6569,31.6927]],[[82.8979,31.9304],[82.829,31.8246],[82.8684,31.7691],[82.7922,31.7267],[82.762,31.7549],[82.7656,31.8269],[82.7041,31.8652],[82.8207,31.87],[82.8244,31.9421],[82.8979,31.9304]],[[83.6355,31.8651],[83.6423,31.8016],[83.5922,31.8489],[83.6355,31.8651]],[[81.862,32.7313],[81.7649,32.707],[81.8053,32.6518],[81.8016,32.5616],[81.7157,32.546],[81.6915,32.4745],[81.7326,32.4373],[81.6433,32.3315],[81.6418,32.2955],[81.6836,32.2763],[81.6772,32.1141],[81.7612,32.0937],[81.6933,31.9873],[81.724,31.9594],[81.8297,31.9564],[81.9393,32.0434],[82.0451,32.0402],[82.089,32.075],[82.2096,31.9269],[82.2637,31.9522],[82.2763,31.9969],[82.3381,31.9588],[82.4159,32.0375],[82.421,32.1456],[82.3804,32.183],[82.4253,32.2356],[82.4101,32.3625],[82.3141,32.3566],[82.2946,32.3933],[82.0199,32.438],[81.9743,32.3672],[81.9106,32.369],[81.9042,32.4685],[81.8631,32.5057],[81.949,32.5213],[81.9521,32.5934],[81.862,32.7313]],[[83.8312,31.9469],[83.819,31.9203],[83.7667,31.9316],[83.7789,31.9582],[83.8312,31.9469]],[[83.2373,32.3145],[83.2575,32.2956],[83.211,32.2253],[83.2039,32.0992],[83.0244,32.1151],[83.0162,32.1606],[83.1039,32.2114],[83.1524,32.3178],[83.2373,32.3145]],[[81.0239,32.2388],[81.0324,32.1754],[80.9809,32.2217],[80.9924,32.2485],[81.0239,32.2388]],[[83.3869,32.3265],[83.3848,32.2905],[83.4453,32.2339],[83.431,32.1713],[83.4241,32.2348],[83.3423,32.2922],[83.3444,32.3282],[83.3869,32.3265]],[[82.8681,32.3736],[82.6751,32.3444],[82.6604,32.2637],[82.7112,32.2168],[82.8384,32.2122],[82.8967,32.3094],[82.8681,32.3736]],[[80.8304,32.5046],[80.7343,32.4976],[80.7851,32.4154],[80.8614,32.4769],[80.8304,32.5046]],[[81.239,32.6216],[81.1854,32.6139],[81.1786,32.4156],[81.2951,32.4037],[81.3306,32.5021],[81.2887,32.5212],[81.239,32.6216]],[[75.7498,33.1471],[75.6322,33.1361],[75.656,33.0463],[75.5624,32.9454],[75.4341,32.943],[75.2768,32.8406],[75.2384,32.6955],[75.2526,32.5785],[75.2952,32.5794],[75.3783,32.6532],[75.4006,32.6176],[75.4536,32.6276],[75.4809,32.7995],[75.5235,32.8003],[75.5573,32.7378],[75.5611,32.5935],[75.6798,32.5325],[75.8501,32.5354],[75.944,32.618],[76.0261,32.7636],[75.9819,32.8351],[76.0024,32.8715],[75.9153,32.9423],[75.9141,32.9964],[75.8486,33.0495],[75.8478,33.0856],[75.7498,33.1471]],[[80.7731,32.7223],[80.7091,32.7236],[80.6867,32.688],[80.5697,32.6993],[80.5246,32.61],[80.5761,32.5459],[80.7038,32.5433],[80.8233,32.622],[80.825,32.6761],[80.7731,32.7223]],[[83.4257,32.8032],[83.3403,32.8066],[83.3259,32.7441],[83.3878,32.7055],[83.3846,32.6515],[83.4879,32.5931],[83.4846,32.5391],[83.44,32.5048],[83.5117,32.4568],[83.5976,32.6427],[83.4629,32.7114],[83.4257,32.8032]],[[81.8743,33.0197],[81.8418,33.0116],[81.8387,32.9395],[81.7945,32.9047],[81.8437,32.804],[81.8974,32.8115],[81.9013,32.9016],[81.9448,32.9184],[81.9472,32.9724],[81.8743,33.0197]],[[73.0462,32.975],[73.2155,32.8097],[73.2907,32.8033],[73.1302,32.8066],[72.985,32.9185],[72.983,32.9545],[73.0462,32.975]],[[83.8804,33.2171],[83.8375,33.219],[83.7799,33.1583],[83.8204,33.1205],[83.792,33.0134],[83.8795,32.8742],[83.9358,32.9168],[83.9619,32.9879],[84.0059,33.0039],[84.0107,33.0759],[83.9965,33.1849],[83.8804,33.2171]],[[83.5489,33.0689],[83.4611,33.0364],[83.3541,33.0407],[83.3418,33.0141],[83.4161,33.0021],[83.4343,32.9472],[83.5411,32.9428],[83.5489,33.0689]],[[81.843,33.2912],[81.7564,33.2757],[81.678,33.1966],[81.6743,33.1065],[81.7053,33.0786],[81.7481,33.0774],[81.8146,33.1297],[81.9741,33.0979],[81.9797,33.2241],[81.905,33.2353],[81.843,33.2912]],[[83.8516,33.435],[83.7657,33.4387],[83.6853,33.3609],[83.639,33.3087],[83.657,33.2538],[83.5679,33.2034],[83.5206,33.1332],[83.5511,33.1049],[83.6592,33.1184],[83.7845,33.2303],[83.795,33.3923],[83.8493,33.399],[83.8516,33.435]],[[81.1697,33.6878],[81.105,33.6894],[81.0933,33.6626],[81.1469,33.6523],[81.1697,33.6878]]]}}]}