{"type":"FeatureCollection","features":[{"type":"Feature","properties":{},"geometry":{"type":"MultiLineString","coordinates":[[[72.4214,26.4974],[72.3212,26.4931],[72.196,26.3883],[72.2016,26.2802],[72.2453,26.2099],[72.3071,26.1764],[72.2889,26.1395],[72.3393,26.1327],[72.4228,26.064],[72.5418,26.0871],[72.7233,26.0584],[72.8278,26.1799],[72.7957,26.2238],[72.7661,26.2136],[72.7636,26.2677],[72.8037,26.2693],[72.802,26.3053],[72.6977,26.3915],[72.7064,26.4189],[72.7281,26.3837],[72.7361,26.4291],[72.6446,26.4525],[72.6228,26.4878],[72.5226,26.4836],[72.4843,26.4459],[72.4214,26.4974]],[[75.1988,26.2248],[75.169,26.2152],[75.1708,26.1429],[75.241,26.1354],[75.2499,26.1808],[75.1988,26.2248]],[[75.137,26.2957],[75.0769,26.2944],[75.0378,26.2574],[74.8572,26.2713],[74.848,26.244],[74.9402,26.1649],[75.0002,26.1663],[75.0988,26.2227],[75.1588,26.224],[75.137,26.2957]],[[73.8322,27.4346],[73.743,27.3866],[73.7667,27.2971],[73.6971,27.2677],[73.6102,27.1655],[73.6549,27.0587],[73.5347,27.0366],[73.5369,26.9825],[73.4973,26.9631],[73.4995,26.909],[73.5412,26.8743],[73.4928,26.8275],[73.4116,26.8428],[73.3833,26.7966],[73.4279,26.6898],[73.5305,26.6392],[73.494,26.5476],[73.5832,26.5778],[73.6352,26.5343],[73.6401,26.4081],[73.5696,26.4148],[73.4858,26.5022],[73.4056,26.4994],[73.3373,26.4519],[73.341,26.3617],[73.3722,26.3357],[73.4923,26.3399],[73.6146,26.2898],[73.6705,26.4001],[73.7409,26.3933],[73.7679,26.4755],[73.8902,26.4252],[74.0189,26.4743],[74.0551,26.5837],[74.0027,26.6454],[73.8939,26.5969],[73.8869,26.5154],[73.8267,26.5135],[73.7832,26.6024],[73.6836,26.5811],[73.6524,26.6072],[73.7279,26.736],[73.7258,26.7901],[73.7854,26.8101],[73.8396,26.9744],[73.8085,27.2623],[73.867,27.3183],[73.8636,27.4085],[73.8322,27.4346]],[[73.283,26.5493],[73.1835,26.5276],[73.1754,26.4821],[73.2267,26.4569],[73.283,26.5493]],[[74.4789,26.8396],[74.3991,26.8194],[74.3308,26.7543],[74.3928,26.7018],[74.3745,26.6471],[74.4462,26.6039],[74.4955,26.6323],[74.472,26.7401],[74.51,26.8133],[74.4789,26.8396]],[[73.6109,26.6419],[73.6019,26.6145],[73.5714,26.6225],[73.5804,26.6499],[73.6109,26.6419]],[[73.8789,26.7318],[73.8103,26.6845],[73.8213,26.6578],[73.8906,26.6871],[73.8789,26.7318]],[[73.2414,27.0534],[72.9592,27.0429],[72.8925,26.959],[72.941,26.7803],[73.0961,26.6869],[73.1966,26.6906],[73.2151,26.7274],[73.2955,26.7303],[73.3237,26.7765],[73.3153,26.9748],[73.2534,27.0087],[73.2414,27.0534]],[[74.605,29.2256],[74.4816,29.2224],[74.372,29.1202],[74.3752,29.03],[74.4511,28.9148],[74.751,28.8413],[74.7111,28.8042],[74.714,28.714],[74.5941,28.6208],[74.5965,28.5486],[74.5568,28.5115],[74.6204,28.441],[74.6233,28.3508],[74.776,28.3636],[74.9,28.3125],[74.9314,28.2861],[74.9131,28.2135],[74.9554,28.1603],[74.959,28.0341],[74.8985,28.0146],[74.9214,27.9249],[75.076,27.8472],[75.2592,27.8331],[75.3291,27.8796],[75.3273,27.9518],[75.4363,28.0713],[75.599,28.0744],[75.6485,28.1384],[75.6469,28.2106],[75.6976,28.2205],[75.8369,28.3853],[75.9593,28.3873],[75.9686,28.4325],[76.049,28.5059],[75.9773,28.5139],[75.9045,28.5759],[75.8718,28.6746],[75.7491,28.6726],[75.5616,28.8136],[75.4382,28.8294],[75.4464,28.9107],[75.3521,28.9901],[75.1659,29.0403],[75.0017,29.0367],[74.9285,29.0801],[74.9363,29.1615],[74.7741,29.0855],[74.7202,29.1654],[74.6268,29.1901],[74.605,29.2256]],[[72.0153,28.0505],[72.0041,27.8875],[72.0737,27.9178],[72.09,27.9907],[72.0153,28.0505]],[[72.2318,28.5656],[72.191,28.5639],[72.1541,28.49],[72.0929,28.4873],[72.0444,28.44],[72.1631,28.328],[72.3272,28.3171],[72.301,28.4242],[72.2106,28.3932],[72.2883,28.4688],[72.2854,28.5229],[72.2318,28.5656]],[[73.531,29.3019],[73.4222,29.1989],[73.4041,29.1442],[73.2455,29.0122],[73.2718,28.8868],[73.3554,28.8537],[73.3594,28.7636],[73.4323,28.7391],[73.5142,28.7419],[73.6127,28.8354],[73.7167,28.8027],[73.7455,28.8488],[73.7213,28.9383],[73.8528,28.9876],[73.8818,29.0336],[73.8804,29.0696],[73.6979,29.2533],[73.531,29.3019]],[[72.9243,29.4785],[72.8938,29.4683],[72.9467,29.4433],[72.9243,29.4785]],[[72.8794,29.549],[72.8615,29.4941],[72.9117,29.5231],[72.8794,29.549]],[[74.6455,34.0082],[74.5716,33.9612],[74.5626,33.9158],[74.4992,33.8781],[74.3912,33.8752],[74.2974,33.7915],[74.4348,33.5967],[74.5002,33.5804],[74.4808,33.5257],[74.5481,33.4553],[74.5287,33.4007],[74.5731,33.3657],[74.5135,33.2379],[74.5592,33.1669],[74.5177,33.1297],[74.5447,32.9861],[74.4936,32.9216],[74.3676,32.8641],[74.2696,32.9065],[74.2888,32.9612],[74.2445,32.996],[74.2415,33.0681],[74.1647,33.111],[73.911,33.0313],[73.6705,33.132],[73.5625,33.1465],[73.4853,33.189],[73.4499,33.251],[73.3875,33.2128],[73.3539,33.2387],[73.3735,33.2754],[73.2288,33.3696],[72.9292,33.3405],[72.7328,33.3871],[72.6931,33.3314],[72.5225,33.3064],[72.5294,33.3699],[72.6109,33.4454],[72.5748,33.5071],[72.3383,33.4973],[72.2874,33.45],[72.2932,33.36],[72.3271,33.3344],[72.4785,33.3227],[72.492,33.2781],[72.4151,33.1305],[72.4399,33.0774],[72.3194,32.946],[72.3453,32.8749],[72.2678,32.7453],[72.278,32.5833],[72.2376,32.5454],[72.2444,32.4374],[72.2142,32.4091],[72.1281,32.4233],[72.098,32.3949],[72.1496,32.2528],[72.2054,32.2102],[72.269,32.2129],[72.3036,32.1693],[72.1932,32.0652],[72.0851,32.0966],[71.9904,32.0833],[71.9906,30.062],[72.0036,29.846],[72.0983,29.8232],[72.27,29.7225],[72.3526,29.726],[72.3655,29.6815],[72.4383,29.6755],[72.5051,29.5881],[72.8588,29.5482],[72.8631,29.6656],[72.9511,29.7683],[73.0338,29.7714],[73.0563,29.7362],[73.1794,29.7588],[73.244,29.707],[73.2746,29.7171],[73.3117,29.8086],[73.2139,29.9044],[73.1617,29.9115],[73.1582,29.9836],[73.1971,30.0391],[73.1331,30.0729],[73.1061,30.1982],[72.9978,30.2844],[73.0674,30.3502],[73.2355,30.3202],[73.367,30.1805],[73.5156,30.1135],[73.5762,30.1516],[73.6808,30.137],[73.7084,30.2191],[73.7692,30.2572],[73.7661,30.3292],[73.847,30.3859],[73.8655,30.4406],[73.8131,30.448],[73.7467,30.5361],[73.675,30.5067],[73.6974,30.4714],[73.6674,30.4433],[73.5533,30.4305],[73.5717,30.4853],[73.7135,30.5802],[73.704,30.7964],[73.5737,30.9004],[73.5051,31.0244],[73.4314,31.0309],[73.376,31.0921],[73.3743,31.1281],[73.4363,31.1483],[73.4128,31.2016],[73.4496,31.3112],[73.4908,31.3306],[73.4874,31.4027],[73.4234,31.4185],[73.4427,31.4553],[73.3761,31.5252],[73.3945,31.5799],[73.3498,31.6325],[73.3418,31.7946],[73.2537,31.8637],[73.25,31.9357],[73.3659,31.9488],[73.3888,31.9136],[73.4742,31.8984],[73.6196,31.9574],[73.7254,31.9609],[73.9408,31.8774],[73.9478,31.9588],[73.8812,32.029],[73.856,32.1184],[73.9298,32.1297],[73.958,32.2117],[74.0201,32.2497],[74.0595,32.323],[74.0533,32.4672],[74.1676,32.5337],[74.4017,32.5402],[74.5673,32.6709],[74.6099,32.672],[74.7016,32.7916],[74.8472,32.9033],[74.8875,32.9765],[74.8409,33.0836],[74.9033,33.1392],[74.8927,33.4457],[74.9123,33.5003],[74.9756,33.5378],[74.9947,33.6104],[74.919,33.6177],[74.8342,33.5797],[74.7527,33.4514],[74.6112,33.493],[74.6529,33.5301],[74.5863,33.5826],[74.5849,33.6186],[74.6865,33.7836],[74.642,33.8186],[74.6824,33.8918],[74.6365,33.9628],[74.6455,34.0082]],[[78.2313,31.416],[78.0525,31.353],[78.0105,31.2989],[78.0105,31.1546],[77.8952,31.0914],[77.8323,31.0914],[77.78,31.0462],[77.7384,30.9379],[77.7804,30.8838],[77.7596,30.8477],[77.8119,30.8207],[77.9059,30.8659],[77.9058,30.9742],[77.9372,30.9832],[77.9686,30.8479],[78.0627,30.7667],[78.1985,30.8117],[78.1778,30.9019],[78.2092,30.9289],[78.2824,30.8837],[78.2821,30.7935],[78.209,30.8027],[78.0313,30.5773],[78.0937,30.469],[78.1665,30.4239],[78.2706,30.4237],[78.3228,30.4687],[78.3125,30.4958],[78.2603,30.4688],[78.2816,30.6131],[78.3129,30.6401],[78.3229,30.5048],[78.3647,30.5227],[78.3859,30.6128],[78.3443,30.649],[78.3861,30.685],[78.3866,30.8113],[78.3343,30.7844],[78.3241,30.8475],[78.4078,30.8834],[78.4292,30.9916],[78.4713,31.0275],[78.4401,31.0727],[78.3353,31.073],[78.283,31.1182],[78.2623,31.2085],[78.3466,31.2985],[78.1996,31.3168],[78.2417,31.3528],[78.2313,31.416]],[[73.0674,30.5577],[73.2194,30.4369],[73.1705,30.372],[73.052,30.4488],[73.0266,30.5381],[73.0674,30.5577]],[[73.9365,30.4879],[73.8848,30.4773],[73.938,30.4519],[73.9365,30.4879]],[[73.171,30.9946],[73.2992,30.945],[73.2718,30.8629],[73.2091,30.8606],[73.1109,30.9382],[73.1291,30.993],[73.171,30.9946]],[[77.7267,31.3798],[77.6533,31.3346],[77.6325,31.2623],[77.5906,31.2442],[77.5909,31.172],[77.6437,31.091],[77.6856,31.0911],[77.7588,31.1544],[77.7164,31.3167],[77.7583,31.3528],[77.7267,31.3798]],[[83.7402,33.7106],[83.5779,33.5369],[83.4069,33.562],[83.3504,33.5191],[83.3891,33.4454],[83.3396,33.3391],[83.2281,33.2713],[83.1912,33.1915],[83.1025,33.1408],[83.0606,33.1604],[82.9822,33.1002],[82.9772,33.0102],[83.0505,32.9804],[83.0801,32.9341],[83.0048,32.9279],[82.9703,32.8841],[82.9808,32.6852],[82.8621,32.6625],[82.8278,32.6187],[82.897,32.5169],[82.9821,32.5137],[83.0531,32.4479],[82.9975,32.4049],[82.9357,32.4433],[82.7296,32.3695],[82.7047,32.2982],[82.7462,32.2787],[82.7389,32.1346],[82.6911,32.0281],[82.7279,31.9185],[82.7785,31.8716],[82.8446,31.9233],[82.9071,31.903],[83.1143,32.0125],[83.0768,32.1041],[83.101,32.1573],[82.9941,32.1433],[83.0827,32.2122],[83.0443,32.2858],[83.0492,32.3759],[83.127,32.436],[83.2312,32.3959],[83.2465,32.4765],[83.206,32.5142],[83.3266,32.5726],[83.3681,32.5529],[83.3858,32.3085],[83.318,32.2391],[83.3459,31.9853],[83.3006,31.933],[83.381,31.8576],[83.2713,31.7898],[83.2131,31.6928],[83.1077,31.6969],[83.0957,31.6703],[83.1579,31.6499],[83.155,31.5958],[83.2052,31.5488],[83.3004,31.554],[83.2934,31.6175],[83.3124,31.5806],[83.4177,31.5764],[83.483,31.6098],[83.4888,31.5283],[83.5709,31.4888],[83.5446,31.3997],[83.6554,31.3138],[83.7383,31.2922],[83.7925,31.3169],[83.7958,31.3709],[83.8599,31.3861],[83.8632,31.4401],[83.7824,31.4978],[83.7447,31.5716],[83.84,31.5765],[83.8799,31.5387],[83.9974,31.5605],[83.9575,31.5984],[83.9831,31.6694],[83.9432,31.7073],[83.9501,31.8153],[83.8334,31.8114],[83.8045,31.8578],[83.8412,31.9374],[84.0003,31.9393],[84.0096,32.0833],[83.9796,32.1117],[83.8102,32.1192],[83.7945,32.0387],[83.7511,32.0225],[83.7689,31.9676],[83.7366,31.96],[83.7299,32.0235],[83.547,32.1575],[83.5592,32.1841],[83.5994,32.1463],[83.644,32.1805],[83.8972,32.1515],[83.9206,32.1866],[83.9954,32.1922],[83.9999,32.914],[83.911,32.8638],[83.8725,32.7662],[83.7861,32.752],[83.7356,32.7993],[83.7886,32.9594],[84.0059,33.0039],[84.0013,33.2569],[83.8785,33.3526],[83.9036,33.4056],[83.845,33.4984],[83.8904,33.5325],[83.7876,33.6092],[83.7402,33.7106]],[[83.6205,31.6131],[83.6804,31.5564],[83.6783,31.5204],[83.7603,31.4807],[83.7459,31.4182],[83.7071,31.474],[83.644,31.4767],[83.6062,31.5505],[83.5541,31.5617],[83.6205,31.6131]],[[73.1325,31.751],[73.3112,31.559],[73.2836,31.4768],[73.2059,31.5552],[73.2242,31.61],[73.0903,31.7495],[73.1325,31.751]],[[81.7932,33.1303],[81.7075,33.1327],[81.6522,33.0891],[81.6389,33.0263],[81.5865,33.0548],[81.5776,33.1001],[81.5348,33.1013],[81.4671,33.0128],[81.3614,33.0516],[81.3698,32.9883],[81.2739,32.9997],[81.2408,32.9734],[81.2603,32.9188],[81.1522,32.8853],[81.1497,32.8132],[81.2299,32.6669],[81.3042,32.6561],[81.3165,32.7009],[81.2538,32.7385],[81.2978,32.7735],[81.2784,32.8281],[81.3948,32.7982],[81.4602,32.8326],[81.4726,32.8774],[81.4312,32.9145],[81.4871,32.9762],[81.5298,32.9751],[81.5498,32.9385],[81.625,32.9455],[81.6228,32.8914],[81.6847,32.8356],[81.6666,32.385],[81.5775,32.2792],[81.6574,32.1507],[81.6546,32.0786],[81.6845,32.0327],[81.7583,32.0216],[81.7546,31.9315],[81.8057,31.8849],[81.8479,31.8837],[81.8924,31.9365],[82.0796,31.8588],[82.0858,31.7593],[82.1561,31.6759],[82.1914,31.756],[82.1507,31.7934],[82.1344,31.9022],[82.1673,31.9282],[82.2612,31.8982],[82.2864,31.9876],[82.2254,32.0437],[82.2279,32.0977],[82.3024,32.1043],[82.3159,32.1671],[82.265,32.2138],[82.2014,32.2158],[82.1786,32.1805],[82.1284,32.2452],[82.2573,32.2772],[82.2427,32.422],[82.2018,32.4594],[82.2358,32.5034],[82.3115,32.5281],[82.3362,32.5995],[82.2834,32.6102],[82.2646,32.6649],[82.2322,32.6569],[82.2372,32.765],[82.3123,32.7717],[82.3473,32.8337],[82.2961,32.8805],[82.1474,32.9032],[82.0928,32.8778],[82.0452,32.771],[81.9915,32.7636],[81.9852,32.863],[82.1635,33.02],[82.1668,33.0921],[82.0914,33.0854],[82.0684,33.05],[82.0486,33.0867],[81.9844,33.0886],[81.917,33.0184],[81.8972,33.0551],[81.833,33.057],[81.7932,33.1303]],[[82.7573,31.8723],[82.6362,31.7774],[82.6134,31.7421],[82.6428,31.6959],[82.7061,31.6937],[82.761,31.7369],[82.7638,31.7909],[82.828,31.8066],[82.7573,31.8723]],[[81.0686,32.6256],[81.0363,32.6174],[81.0257,32.2928],[80.9924,32.2485],[80.8966,32.2416],[80.9585,32.1861],[80.9643,32.0326],[81.1124,32.0292],[81.1886,32.0906],[81.1475,32.1276],[81.1736,32.2714],[81.1324,32.3084],[81.1998,32.4151],[81.0686,32.6256]],[[72.789,32.2253],[72.7799,32.1978],[72.6548,32.1568],[72.6458,32.1293],[72.6892,32.113],[72.6388,32.0659],[72.6066,32.0736],[72.6479,32.0933],[72.6024,32.1456],[72.6528,32.1928],[72.7164,32.1953],[72.7355,32.2322],[72.789,32.2253]],[[72.8639,32.4086],[72.878,32.346],[72.8547,32.3812],[72.7718,32.3419],[72.7172,32.3668],[72.791,32.3787],[72.8102,32.4156],[72.8639,32.4086]],[[75.9947,32.7361],[75.8668,32.7341],[75.8354,32.7065],[75.7954,32.5976],[75.8497,32.5534],[75.9344,32.5728],[76.0281,32.6734],[75.9947,32.7361]],[[81.3668,32.6184],[81.3132,32.6108],[81.3429,32.5469],[81.3977,32.5906],[81.3668,32.6184]],[[82.7355,33.1002],[82.6926,33.1017],[82.6256,33.0499],[82.5419,33.0889],[82.5039,32.9728],[82.5671,32.9527],[82.4131,32.8676],[82.4105,32.8136],[82.4906,32.7026],[82.4155,32.6961],[82.3805,32.6341],[82.4733,32.5679],[82.5575,32.547],[82.6769,32.5879],[82.6824,32.696],[82.7724,32.7831],[82.8042,32.9804],[82.7355,33.1002]],[[73.4729,33.0082],[73.7184,32.7997],[73.7124,32.7003],[73.5272,32.7754],[73.5246,32.8294],[73.4319,32.9707],[73.4301,33.0067],[73.4729,33.0082]],[[75.0274,32.9526],[74.9956,32.9428],[75.0297,32.8805],[75.0274,32.9526]],[[74.9419,32.9506],[74.9101,32.9409],[74.9223,32.8961],[74.9419,32.9506]],[[83.6615,32.9829],[83.6592,32.9469],[83.6266,32.9393],[83.6176,32.9667],[83.6615,32.9829]],[[77.7406,33.9416],[77.6865,33.9325],[77.6869,33.8423],[77.7089,33.716],[77.7845,33.6711],[77.7735,33.7522],[77.8166,33.7884],[77.8164,33.8606],[77.7406,33.9416]],[[81.2673,33.9923],[81.1591,33.9949],[81.146,33.932],[81.243,33.9207],[81.2673,33.9923]],[[81.614,34.0014],[81.5275,34.0037],[81.5156,33.977],[81.6125,33.9654],[81.614,34.0014]]]}}]}