{"type":"FeatureCollection","features":[{"type":"Feature","properties":{},"geometry":{"type":"MultiLineString","coordinates":[[[73.0989,26.1632],[73.0493,26.1523],[73.0724,26.081],[72.9662,25.9956],[73.1059,26.0009],[73.1347,26.0291],[73.0989,26.1632]],[[72.8417,26.5327],[72.7064,26.4189],[72.6245,26.4517],[72.5487,26.3583],[72.4851,26.4279],[72.3248,26.421],[72.3198,26.3215],[72.2816,26.2837],[72.3262,26.1953],[72.3089,26.1404],[72.4219,26.082],[72.5062,25.9953],[72.7258,26.0043],[72.7928,26.0702],[72.7895,26.1423],[72.819,26.1525],[72.8327,26.0717],[72.7553,26.0145],[72.8256,26.0082],[72.8886,26.1642],[72.8261,26.216],[72.8453,26.2348],[72.7845,26.2505],[72.7603,26.3398],[72.83,26.3516],[72.8717,26.3171],[73.0014,26.3311],[72.999,26.3852],[72.918,26.4002],[72.9148,26.4723],[72.8417,26.5327]],[[76.8798,26.2138],[76.8101,26.1861],[76.8603,26.1594],[76.8798,26.2138]],[[73.897,26.7866],[73.8568,26.7853],[73.8186,26.7299],[73.7182,26.7267],[73.6891,26.6987],[73.6725,26.6078],[73.6227,26.5971],[73.5564,26.4956],[73.58,26.4061],[73.522,26.3499],[73.5531,26.3239],[73.7733,26.3312],[73.8889,26.4613],[74.0777,26.5122],[74.0739,26.6204],[73.9509,26.6889],[73.897,26.7866]],[[73.9742,26.8793],[73.8839,26.8674],[73.9158,26.8233],[74.0663,26.8369],[73.9742,26.8793]],[[74.0749,27.442],[73.9452,27.393],[73.9297,27.2661],[73.9714,27.2313],[73.8927,27.1747],[73.9162,27.0851],[74.0098,27.0067],[74.1197,27.0371],[74.0963,27.1267],[74.1354,27.164],[74.1335,27.2181],[74.0821,27.2436],[74.0117,27.2325],[74.071,27.2704],[74.0684,27.3425],[74.1277,27.3804],[74.0749,27.442]],[[74.9304,29.3599],[74.8074,29.3389],[74.759,29.2385],[74.6985,29.2009],[74.7002,29.1468],[74.6597,29.1278],[74.6016,29.018],[74.6064,28.8737],[74.6801,28.8125],[74.7399,28.8681],[74.8014,28.8696],[74.8545,28.8077],[74.7566,28.661],[74.7837,28.445],[74.846,28.4105],[74.8681,28.3568],[75.0014,28.3329],[75.0432,28.2977],[75.2367,28.3109],[75.1987,28.2018],[75.2613,28.149],[75.1415,28.0562],[75.1227,28.0016],[75.1265,27.8573],[75.2384,27.8507],[75.2989,27.87],[75.358,27.9434],[75.4393,27.945],[75.5388,28.0371],[75.5998,28.0383],[75.761,28.1133],[76.1229,28.3716],[76.1841,28.3725],[76.2538,28.4727],[76.2725,28.5812],[76.1573,28.7331],[76.0543,28.7677],[75.9623,28.7573],[75.9192,28.8649],[75.9595,28.9016],[75.9775,29.0282],[75.9249,29.0906],[75.7397,29.1056],[75.6974,29.159],[75.5132,29.1195],[75.3872,29.2254],[75.182,29.2031],[75.1188,29.2559],[75.0365,29.2541],[75.0249,29.2989],[74.9304,29.3599]],[[72.2278,28.6377],[72.1665,28.635],[72.1199,28.5517],[72.1474,28.4265],[72.1902,28.3923],[72.1932,28.3383],[72.1534,28.3185],[72.1992,28.2303],[72.2312,28.2046],[72.4339,28.2314],[72.5533,28.2905],[72.5825,28.3188],[72.5779,28.4089],[72.4828,28.4681],[72.4322,28.4569],[72.4158,28.5736],[72.3749,28.5718],[72.3106,28.6232],[72.2707,28.6034],[72.2278,28.6377]],[[73.6475,29.4682],[73.5163,29.4007],[73.5599,29.348],[73.5653,29.2219],[73.5258,29.1844],[73.5115,29.0396],[73.5542,29.0049],[73.5785,28.9155],[73.4382,28.8385],[73.4618,28.7671],[73.6188,28.6912],[73.803,28.6972],[73.7756,28.6151],[73.8694,28.573],[73.9504,28.5935],[73.9793,28.6395],[73.9943,28.7844],[73.9307,28.8366],[73.9491,28.8913],[73.9993,28.9199],[74.125,28.8515],[74.2156,28.8992],[74.1713,28.9882],[74.2116,29.0074],[74.1686,29.0603],[74.207,29.1336],[74.1433,29.1859],[74.1413,29.24],[73.8758,29.4395],[73.6475,29.4682]],[[73.9966,29.5154],[73.8935,29.5122],[73.8843,29.4848],[74.0186,29.4799],[73.9966,29.5154]],[[73.6737,33.5111],[73.5455,33.4888],[73.4986,33.3519],[73.3838,33.2848],[73.339,33.3194],[73.2102,33.3148],[73.1059,33.2569],[72.9557,33.2513],[72.9159,33.1956],[72.7873,33.1907],[72.7568,33.1624],[72.7803,33.1272],[72.7058,33.1153],[72.6662,33.0596],[72.5571,33.0913],[72.4747,33.0337],[72.3644,33.0833],[72.3002,33.0805],[72.1889,32.9765],[72.216,32.8874],[72.122,32.6848],[72.1571,32.4697],[72.3798,32.4883],[72.3954,32.4078],[72.2858,32.2858],[72.1195,32.2244],[72.0493,32.1581],[72.0528,32.1042],[72.0127,32.0663],[72.0385,31.9952],[71.9985,31.9573],[72.0061,31.5065],[72.0803,31.5008],[72.0936,31.4563],[71.9896,31.4336],[72.0036,29.846],[72.046,29.8299],[72.0296,29.757],[72.1285,29.6621],[72.1925,29.6289],[72.2111,29.6658],[72.2524,29.6676],[72.5268,29.5709],[72.5709,29.5186],[72.7781,29.5089],[72.8264,29.574],[72.7627,29.6076],[72.8533,29.6562],[72.8613,29.7017],[72.9323,29.7315],[72.9502,29.7863],[73.0041,29.7432],[72.9134,29.6947],[72.9152,29.6586],[72.9978,29.6618],[73.1497,29.7306],[73.148,29.7666],[73.2661,29.8972],[73.2635,29.9513],[73.324,29.9895],[73.2956,30.1509],[73.2524,30.1855],[73.4126,30.3175],[73.4101,30.3715],[73.4501,30.409],[73.4051,30.4796],[73.455,30.5264],[73.4875,30.5005],[73.4734,30.3556],[73.5806,30.2871],[73.6261,30.1984],[73.6078,30.1436],[73.7254,30.0663],[73.8053,30.141],[73.8876,30.1616],[74.1188,30.0964],[74.1782,30.1704],[74.2613,30.1727],[74.29,30.2367],[74.2887,30.2727],[74.172,30.3326],[73.9562,30.263],[73.9547,30.299],[73.9956,30.3183],[73.9904,30.4445],[73.9265,30.4786],[73.9235,30.5507],[73.8911,30.5768],[73.7869,30.5735],[73.7537,30.6175],[73.7521,30.6536],[73.8742,30.7296],[73.8719,30.7837],[73.8069,30.8358],[73.8263,30.8725],[73.686,30.9672],[73.6232,30.9652],[73.5026,31.0784],[73.5118,31.1058],[73.6577,31.1287],[73.7073,31.1935],[73.6411,31.2635],[73.6378,31.3355],[73.5933,31.3882],[73.5841,31.5864],[73.6886,31.6078],[73.6804,31.788],[73.7725,31.8541],[73.9032,31.768],[73.9876,31.7706],[74.0072,31.8073],[74.0698,31.8272],[74.1558,31.7936],[74.1863,31.8215],[74.1834,31.8936],[74.1396,31.9284],[74.1578,32.0011],[74.0475,32.1062],[74.0459,32.1422],[74.0932,32.2789],[74.2235,32.2105],[74.3171,32.2582],[74.2506,32.3286],[74.3011,32.3931],[74.3539,32.4036],[74.3298,32.4751],[74.2197,32.5623],[74.2373,32.653],[74.3321,32.6827],[74.3666,32.6205],[74.4312,32.6042],[74.469,32.4518],[74.5959,32.4732],[74.6049,32.5185],[74.7087,32.5933],[74.7074,32.6293],[74.8321,32.7226],[74.8711,32.8317],[74.8655,32.994],[74.8104,33.0378],[74.7695,32.9827],[74.6536,32.9347],[74.6562,32.8626],[74.6252,32.8348],[74.5612,32.8331],[74.4206,32.8745],[74.5447,32.9861],[74.5102,33.0483],[74.4481,32.9926],[74.277,32.9879],[74.2113,33.0221],[74.1914,32.9855],[74.022,32.9444],[73.9705,32.8978],[74.0045,32.8537],[74.0892,32.8743],[74.1879,32.814],[74.1468,32.7767],[74.1491,32.7226],[73.9288,32.6349],[73.8711,32.7324],[73.8891,32.8051],[73.9302,32.8424],[73.9459,32.9692],[74.0505,33.0265],[74.0687,33.0992],[73.9576,33.1861],[73.9503,33.3483],[73.8516,33.3904],[73.7606,33.4958],[73.6737,33.5111]],[[78.5241,31.1085],[78.4611,31.0907],[78.2825,30.9378],[78.2719,30.8928],[78.1568,30.8478],[78.1357,30.7216],[78.167,30.7125],[78.188,30.7486],[78.2192,30.7215],[78.2087,30.6583],[78.3341,30.7122],[78.3653,30.6851],[78.3443,30.649],[78.3963,30.6038],[78.459,30.6397],[78.5214,30.6034],[78.5736,30.6122],[78.6157,30.6841],[78.5744,30.7565],[78.5971,31.045],[78.5241,31.1085]],[[73.3732,30.7131],[73.4392,30.6432],[73.4309,30.5978],[73.3266,30.5941],[73.294,30.6201],[73.2906,30.6921],[73.3206,30.7202],[73.3732,30.7131]],[[73.6389,30.8484],[73.6839,30.7777],[73.6128,30.7302],[73.5803,30.7562],[73.577,30.8283],[73.6389,30.8484]],[[83.9981,34.0061],[83.8329,33.9683],[83.8737,33.9304],[83.8587,33.8679],[83.7723,33.8716],[83.6825,33.8213],[83.553,33.8268],[83.5337,33.8637],[83.4019,33.8329],[83.3668,33.7892],[83.3851,33.7343],[83.1805,33.5619],[83.1978,33.4891],[83.078,33.4666],[82.952,33.5255],[82.9275,33.4722],[82.8415,33.4754],[82.7767,33.2702],[82.8512,33.2584],[82.8644,33.3031],[82.941,33.3273],[83.0094,33.397],[83.078,33.2771],[83.1617,33.2378],[83.1565,33.1477],[83.238,33.0724],[83.2349,33.0184],[83.1462,32.9677],[83.0882,32.8887],[83.0567,32.8989],[83.0393,32.9718],[83.1045,32.9873],[83.0872,33.0602],[83.1218,33.104],[82.9739,33.1457],[82.8936,33.0494],[82.9305,32.9397],[82.9081,32.9225],[83.0051,32.7384],[82.9575,32.65],[83.0348,32.5027],[83.0207,32.4401],[82.8932,32.4448],[82.8358,32.3657],[82.8108,32.2945],[82.8457,32.1488],[82.8982,32.1379],[82.9647,32.1896],[83.0495,32.1864],[83.1514,32.2998],[83.1554,32.3718],[83.2424,32.4045],[83.1827,32.479],[83.1857,32.533],[83.2537,32.6025],[83.2355,32.6574],[83.3036,32.7269],[83.3067,32.7809],[83.2651,32.8006],[83.3109,32.8529],[83.367,32.8958],[83.6446,32.8844],[83.6738,32.838],[83.639,32.7943],[83.4918,32.8366],[83.4571,32.7929],[83.4868,32.5751],[83.4602,32.486],[83.5016,32.4662],[83.4995,32.4302],[83.4474,32.2699],[83.3917,32.2271],[83.317,32.2211],[83.3584,32.2014],[83.3552,32.1473],[83.4157,32.0908],[83.3914,32.0376],[83.503,31.9518],[83.6087,31.9474],[83.6911,31.9078],[83.7812,31.8227],[83.7367,31.7886],[83.8045,31.6864],[83.8933,31.7546],[83.941,31.6713],[83.8755,31.6381],[83.9675,31.5889],[84.0019,31.6325],[84.0099,31.7584],[84.0097,33.3828],[83.9777,33.5467],[84.0102,33.7077],[83.9981,34.0061]],[[82.1913,33.3891],[82.1269,33.3911],[82.0369,33.3036],[81.9304,33.3248],[81.7652,33.2303],[81.76,33.1041],[81.7164,33.0873],[81.7525,32.9239],[81.6987,32.9164],[81.6574,32.9536],[81.6235,32.9094],[81.6435,32.8728],[81.6192,32.8013],[81.5758,32.7844],[81.5496,32.6588],[81.6313,32.5664],[81.5557,32.5414],[81.5214,32.4791],[81.5515,32.4332],[81.6468,32.4216],[81.6843,32.2943],[81.8079,32.2006],[81.8262,32.1279],[81.7794,32.021],[81.8101,31.993],[81.9166,32.008],[81.9645,31.8893],[82.0366,31.842],[82.121,31.8394],[82.1446,31.8928],[82.1868,31.8915],[82.2063,31.8548],[82.2596,31.8621],[82.2246,32.0256],[82.1721,32.0363],[82.1525,32.073],[82.089,32.075],[82.0608,32.157],[82.0844,32.2105],[82.2369,32.2959],[82.1585,32.4427],[82.2272,32.5488],[82.3456,32.5721],[82.5132,32.5124],[82.6019,32.5815],[82.6769,32.5879],[82.6268,32.6528],[82.4675,32.6673],[82.4803,32.712],[82.586,32.6903],[82.6416,32.7335],[82.6303,32.9324],[82.5671,32.9527],[82.5596,33.0161],[82.4852,33.0276],[82.487,33.0636],[82.3758,33.2027],[82.333,33.2041],[82.2712,33.2602],[82.1957,33.2536],[82.1913,33.3891]],[[72.8646,32.0116],[72.8766,31.985],[72.9613,31.9883],[72.9733,31.9617],[72.8786,31.949],[72.8555,31.9842],[72.8152,31.9466],[72.7195,31.9518],[72.7286,31.9793],[72.8646,32.0116]],[[83.6551,32.1891],[83.6619,32.1256],[83.547,32.1575],[83.5592,32.1841],[83.6551,32.1891]],[[72.8294,32.2629],[72.8415,32.2363],[72.9264,32.2396],[72.9616,32.1778],[72.9284,32.2036],[72.8435,32.2003],[72.787,32.2613],[72.8294,32.2629]],[[83.7936,32.3636],[83.8226,32.3172],[83.7801,32.3191],[83.7511,32.3654],[83.7936,32.3636]],[[83.7646,32.5814],[83.8262,32.5427],[83.8239,32.5067],[83.6381,32.4334],[83.6079,32.4618],[83.6325,32.5149],[83.573,32.5896],[83.6033,32.5612],[83.7646,32.5814]],[[81.2784,33.1259],[81.2246,33.1181],[81.2169,32.9018],[81.1515,32.8673],[81.1497,32.8132],[81.2325,32.739],[81.2177,32.6221],[81.2603,32.6211],[81.3371,32.6823],[81.3204,32.8091],[81.3644,32.844],[81.3231,32.8812],[81.3264,32.9713],[81.3705,33.0063],[81.2784,33.1259]],[[82.3388,32.6535],[82.3268,32.6268],[82.2961,32.6549],[82.3388,32.6535]],[[83.3435,32.8607],[83.3078,32.7989],[83.3462,32.7252],[83.2791,32.6737],[83.2861,32.6103],[83.3889,32.7235],[83.3953,32.8315],[83.3435,32.8607]],[[83.8423,32.7946],[83.8276,32.7321],[83.7535,32.7443],[83.7682,32.8069],[83.8423,32.7946]],[[73.3455,32.9857],[73.3371,32.9403],[73.2814,32.9835],[73.3455,32.9857]],[[77.8707,33.6351],[77.7739,33.5718],[77.7525,33.5357],[77.7849,33.5087],[77.8494,33.5088],[77.9031,33.5539],[77.8707,33.6351]],[[82.7584,33.5325],[82.6723,33.5355],[82.6592,33.4909],[82.7555,33.4785],[82.7584,33.5325]],[[77.8055,33.8876],[77.7084,33.8604],[77.7517,33.8244],[77.644,33.752],[77.6442,33.7159],[77.8707,33.6712],[77.9461,33.7524],[77.8381,33.8245],[77.8055,33.8876]],[[81.6789,33.9996],[81.5775,33.9031],[81.6297,33.8566],[81.7161,33.8542],[81.7361,33.8176],[81.7793,33.8164],[81.7928,33.8792],[81.6789,33.9996]],[[83.5416,33.9897],[83.5086,33.982],[83.5166,33.9366],[83.5712,33.9433],[83.5416,33.9897]]]}}]}