{"type":"FeatureCollection","features":[{"type":"Feature","properties":{},"geometry":{"type":"MultiLineString","coordinates":[[[72.8333,26.2795],[72.7332,26.2755],[72.6374,26.1813],[72.5366,26.1952],[72.4783,26.1567],[72.494,26.0399],[72.5826,26.0707],[72.606,25.9994],[72.6459,26.001],[72.6642,26.0379],[72.6859,26.0027],[72.8464,25.991],[73.2752,26.0162],[73.27,26.1424],[73.3092,26.1619],[73.2774,26.2059],[72.8782,26.1729],[72.8333,26.2795]],[[76.8982,26.3765],[76.778,26.3754],[76.7689,26.2941],[76.7992,26.2673],[76.8591,26.2859],[76.9198,26.2141],[77.1492,26.2971],[77.1389,26.3422],[77.0389,26.3234],[77.0186,26.3594],[76.8982,26.3765]],[[77.0773,26.5223],[77.0276,26.4768],[77.0283,26.3866],[77.1788,26.3605],[77.2481,26.4783],[77.0773,26.5223]],[[74.4283,27.777],[74.3674,27.7754],[74.2482,27.6998],[74.2096,27.6446],[74.1592,27.6341],[74.1213,27.5608],[74.1252,27.4525],[74.1682,27.3816],[74.1492,27.3449],[74.1915,27.292],[74.0938,27.1988],[74.0963,27.1267],[74.1483,27.0831],[74.229,27.0854],[74.2821,27.0057],[74.093,26.937],[74.0637,26.9091],[74.089,26.7653],[74.0189,26.7542],[73.9567,26.8065],[73.9489,26.743],[73.98,26.7169],[74.1207,26.7211],[74.1596,26.7584],[74.2029,26.6694],[74.3033,26.6722],[74.3698,26.7915],[74.3686,26.8275],[74.3278,26.8445],[74.3266,26.8805],[74.3662,26.8997],[74.3431,26.9893],[74.3724,27.0172],[74.453,27.0194],[74.54,27.1391],[74.5383,27.1932],[74.5775,27.2304],[74.5736,27.3567],[74.4892,27.4628],[74.5488,27.5004],[74.5673,27.5551],[74.5042,27.6256],[74.5013,27.7158],[74.4283,27.777]],[[74.9506,27.9707],[74.9115,27.9156],[74.9824,27.9263],[74.9506,27.9707]],[[75.3198,29.4406],[75.2378,29.4208],[75.0987,29.2374],[74.9563,29.18],[74.8463,29.0782],[74.8485,29.0061],[74.8091,28.951],[74.9691,28.7472],[75.1967,28.662],[75.3799,28.7019],[75.4591,28.8117],[75.6841,28.8339],[75.6949,28.807],[75.6247,28.7426],[75.4208,28.7027],[75.2799,28.6096],[75.1577,28.589],[75.1198,28.4799],[75.0576,28.5146],[74.9554,28.5123],[74.9067,28.4299],[74.9999,28.387],[75.0636,28.2982],[75.1869,28.2648],[75.4288,28.378],[75.5187,28.4609],[75.517,28.5331],[75.547,28.5607],[75.8317,28.6379],[75.9672,28.5047],[75.7676,28.2849],[75.7691,28.2127],[75.6285,28.12],[75.6305,28.0298],[75.5708,27.9746],[75.7234,27.9683],[75.7633,28.0051],[75.9463,28.008],[76.1083,28.0466],[76.2185,28.1474],[76.2173,28.2195],[76.3582,28.3297],[76.3979,28.4023],[76.3764,28.4743],[76.4878,28.5388],[76.5498,28.4853],[76.6109,28.504],[76.6614,28.5497],[76.66,28.6579],[76.6289,28.6847],[76.4857,28.6831],[76.4841,28.7914],[76.382,28.7721],[76.2683,28.8338],[76.2671,28.906],[76.3075,28.9426],[76.2242,29.0137],[76.2432,29.1042],[76.211,29.185],[76.1287,29.1838],[76.0245,29.2545],[75.7571,29.2502],[75.7373,29.2138],[75.6961,29.2131],[75.6025,29.2565],[75.6008,29.3287],[75.5062,29.4081],[75.4659,29.3713],[75.3198,29.4406]],[[72.4908,28.7031],[72.2658,28.6935],[72.1859,28.6539],[72.0821,28.4958],[72.1117,28.3347],[72.1651,28.2919],[72.3311,28.245],[72.396,28.1756],[72.4793,28.143],[72.5598,28.1644],[72.7068,28.0801],[72.6908,28.1968],[72.6492,28.2132],[72.6854,28.3049],[72.6437,28.3213],[72.6169,28.4466],[72.5858,28.4543],[72.5283,28.3797],[72.4963,28.4055],[72.5361,28.4252],[72.4925,28.4775],[72.5676,28.607],[72.4908,28.7031]],[[75.6508,28.4904],[75.61,28.4897],[75.5604,28.4256],[75.6933,28.419],[75.7025,28.4643],[75.6508,28.4904]],[[73.9293,28.6109],[73.8679,28.609],[73.8588,28.5817],[73.9328,28.5208],[73.9736,28.5221],[73.9821,28.5674],[73.9293,28.6109]],[[76.4142,28.6733],[76.4044,28.6461],[76.3736,28.6547],[76.3834,28.6819],[76.4142,28.6733]],[[73.9068,29.6931],[73.8035,29.6898],[73.6322,29.585],[73.5995,29.3854],[73.6232,29.314],[73.5828,29.2946],[73.5526,29.041],[73.6857,29.0544],[73.7488,29.0204],[73.7624,28.9396],[73.9102,28.836],[73.9116,28.7999],[73.9963,28.7303],[73.9363,28.6924],[74.071,28.6513],[74.1198,28.716],[74.1171,28.7881],[74.1574,28.8073],[74.1554,28.8614],[74.2659,28.9277],[74.3921,28.841],[74.4635,28.8519],[74.4411,28.9055],[74.4797,28.9787],[74.4567,29.0503],[74.5171,29.088],[74.4729,29.177],[74.5327,29.2328],[74.4055,29.3376],[74.403,29.4098],[74.2554,29.4959],[74.2641,29.5412],[74.2242,29.504],[74.2115,29.5668],[74.0949,29.6446],[73.9496,29.6583],[73.9068,29.6931]],[[74.0601,33.5411],[73.9525,33.5378],[73.8896,33.4998],[73.8242,33.5159],[73.6557,33.4383],[73.5034,33.4694],[73.4604,33.4679],[73.4408,33.4311],[73.2044,33.4229],[73.138,33.4566],[73.0672,33.3728],[73.0508,33.2819],[72.8772,33.122],[72.7711,33.0998],[72.7224,33.0167],[72.6694,33.0056],[72.6298,32.9498],[72.4983,32.9986],[72.4027,32.9856],[72.4071,32.9136],[72.3453,32.8749],[72.3307,32.766],[72.2341,32.7709],[72.205,32.7245],[72.2084,32.6705],[72.278,32.5833],[72.2869,32.4393],[72.2567,32.4109],[72.2019,32.4356],[72.2074,32.517],[72.1034,32.4764],[71.9941,32.3542],[72.0208,31.9403],[71.9924,31.7224],[72.0568,31.7073],[72.0368,31.6883],[72.0801,31.6722],[72.129,31.5661],[72.0448,31.5624],[72.0936,31.4563],[72.0328,31.4175],[72.0361,31.3635],[72.0693,31.3379],[72.1313,31.3587],[72.1556,31.3056],[72.2606,31.3102],[72.2894,31.3566],[72.2441,31.4087],[72.2254,31.5433],[72.3949,31.5325],[72.4401,31.4803],[72.5794,31.4409],[72.5525,31.3586],[72.4475,31.3542],[72.3246,31.2949],[72.256,31.2107],[72.3055,31.0866],[72.3385,31.0609],[72.3992,31.0996],[72.4573,31.0028],[72.4515,30.9213],[72.4165,30.983],[72.3406,31.0249],[72.292,30.9596],[72.2983,30.8516],[72.444,30.6864],[72.4857,30.6881],[72.5046,30.725],[72.5791,30.701],[72.6248,30.6307],[72.5266,30.5184],[72.5931,30.4489],[72.6069,30.3863],[72.7436,30.3648],[72.7356,30.3193],[72.6317,30.3152],[72.5663,30.3666],[72.3375,30.357],[72.2621,30.3989],[72.2964,30.5267],[72.176,30.6207],[72.0037,30.5318],[71.9939,30.3509],[72.0595,30.2997],[71.9994,30.2609],[72.0014,29.882],[72.0352,29.8384],[72.0972,29.8412],[72.1831,29.7909],[72.272,29.6865],[72.395,29.7098],[72.5228,29.643],[72.6271,29.6292],[72.8533,29.6562],[72.9421,29.7409],[72.9385,29.8129],[72.8728,29.8826],[72.8672,29.9906],[72.896,30.0369],[73.0375,30.1144],[73.1205,30.1175],[73.2169,30.0579],[73.2079,30.0305],[73.0952,29.9993],[73.223,29.9318],[73.2355,29.8871],[73.3588,29.9096],[73.3862,29.9917],[73.3621,30.0631],[73.4218,30.1193],[73.4118,30.3355],[73.4842,30.347],[73.549,30.295],[73.7161,30.2825],[73.7846,30.384],[73.6366,30.4333],[73.6526,30.5421],[73.6827,30.5701],[73.7876,30.5555],[73.8386,30.5841],[73.8116,30.7276],[73.9462,30.7589],[74.0542,30.6719],[74.1046,30.7185],[73.9099,30.8751],[73.9069,30.9471],[73.841,31.0173],[73.9023,31.0553],[73.8573,31.126],[73.9606,31.1653],[73.956,31.2734],[74.0558,31.4027],[74.0491,31.5649],[74.0054,31.5997],[74.0016,31.6898],[74.1158,31.7383],[74.3057,31.7437],[74.371,31.6914],[74.4438,31.7204],[74.435,31.9547],[74.3052,32.0234],[74.279,32.1489],[74.4992,32.2181],[74.53,32.2459],[74.5067,32.2994],[74.5671,32.3912],[74.5554,32.418],[74.4917,32.4163],[74.4506,32.3791],[74.3957,32.4228],[74.4099,32.6036],[74.3666,32.6205],[74.341,32.728],[74.0797,32.8469],[74.0972,32.9376],[74.1899,33.0215],[74.2962,33.0426],[74.3574,33.1164],[74.4106,33.1269],[74.4506,33.2001],[74.4227,33.3618],[74.465,33.3809],[74.4635,33.417],[74.4302,33.4432],[74.3228,33.4403],[74.2553,33.5106],[74.1047,33.5063],[74.0601,33.5411]],[[74.0392,30.5271],[73.935,30.524],[73.8046,30.4026],[73.8894,30.3692],[73.9139,30.2797],[73.9784,30.2276],[73.9599,30.1729],[74.0773,30.0952],[74.1395,30.0971],[74.0601,30.2661],[74.0178,30.2829],[74.0572,30.3382],[74.0392,30.5271]],[[72.7484,30.2747],[72.7928,30.2223],[72.7758,30.1495],[72.8607,30.1167],[72.8527,30.0713],[72.7579,30.0946],[72.7532,30.1847],[72.6672,30.2354],[72.7167,30.2825],[72.7484,30.2747]],[[72.2251,31.2004],[72.1732,31.1891],[72.2359,31.0204],[72.2251,31.2004]],[[72.0142,31.2091],[72.0045,31.0282],[72.0342,31.0566],[72.0142,31.2091]],[[82.2535,31.9616],[82.1689,31.9642],[82.1446,31.8928],[81.9997,31.9694],[81.9676,31.9614],[81.9653,31.9073],[82.0068,31.888],[81.9999,31.7258],[82.0913,31.6419],[82.2709,31.6452],[82.2539,31.736],[82.1499,31.7754],[82.2774,31.7894],[82.3018,31.8608],[82.2535,31.9616]],[[73.0156,31.9633],[73.0809,31.9296],[73.0506,31.9014],[73.0055,31.9538],[72.9651,31.9162],[72.9118,31.9232],[72.9209,31.9506],[73.0156,31.9633]],[[82.1988,34.0024],[82.121,33.9597],[82.1159,33.8516],[82.0246,33.7461],[82.0181,33.6019],[82.0595,33.5646],[82.0562,33.4925],[81.9773,33.4136],[81.8787,33.3714],[81.8652,33.3087],[81.7897,33.3018],[81.7645,33.2123],[81.6536,33.1251],[81.6478,32.9809],[81.6987,32.9164],[81.793,32.8686],[81.7877,32.7425],[81.8391,32.6959],[81.9031,32.694],[81.9331,32.6481],[81.9205,32.6033],[81.8361,32.6238],[81.8228,32.561],[81.6915,32.4745],[81.6886,32.4024],[81.7421,32.41],[81.7912,32.3093],[81.8753,32.2889],[81.8314,32.2541],[81.7831,32.1111],[81.8524,31.9918],[81.9487,32.0161],[81.9087,32.0714],[81.9147,32.2155],[81.9477,32.2416],[82.1198,32.2906],[82.1802,32.2165],[82.265,32.2138],[82.3226,32.3112],[82.3073,32.438],[82.3515,32.4727],[82.3005,32.5194],[82.1704,32.4694],[82.1475,32.434],[82.1168,32.4621],[82.1601,32.4788],[82.1642,32.5689],[82.3038,32.5915],[82.3388,32.6535],[82.326,32.8344],[82.3704,32.869],[82.3748,32.9591],[82.3355,33.0326],[82.3415,33.1587],[82.3852,33.1753],[82.3879,33.2294],[82.6508,33.1212],[82.688,33.0116],[82.7745,33.0266],[82.7837,32.9992],[82.6963,32.9662],[82.726,32.9201],[82.7688,32.9185],[82.8153,32.989],[82.9436,32.9844],[82.9486,33.0744],[82.9894,33.0368],[83.075,33.0336],[83.1147,32.9779],[83.1983,33.1281],[83.1596,33.2018],[83.1065,33.2128],[83.0362,33.1072],[82.9291,33.1112],[82.7981,33.2694],[82.8225,33.3227],[82.7731,33.4056],[82.7068,33.3719],[82.6667,33.4274],[82.6013,33.4117],[82.4796,33.5602],[82.3505,33.5644],[82.3195,33.5925],[82.3274,33.7547],[82.2066,33.939],[82.1988,34.0024]],[[83.086,32.0767],[83.0325,32.0697],[83.0387,31.9883],[83.1143,32.0125],[83.086,32.0767]],[[73.0281,32.1261],[73.0401,32.0995],[72.9131,32.0947],[72.8939,32.0579],[72.8616,32.0657],[72.9111,32.1307],[73.0281,32.1261]],[[83.212,32.4327],[83.1149,32.4094],[83.1129,32.3734],[83.1756,32.353],[83.1494,32.2637],[83.1877,32.1901],[83.3886,32.1731],[83.3493,32.2288],[83.2554,32.2596],[83.2797,32.3128],[83.2191,32.3693],[83.2424,32.4045],[83.212,32.4327]],[[84.0006,32.4356],[83.9858,32.3731],[83.9198,32.34],[83.9353,32.2491],[83.9865,32.2197],[84.0006,32.4356]],[[83.0207,32.4401],[82.9652,32.3971],[82.9705,32.2976],[83.0665,32.303],[83.0714,32.3931],[83.0207,32.4401]],[[83.9981,34.0061],[83.8659,33.9759],[83.5211,34.0086],[83.3356,33.989],[83.429,33.9221],[83.5155,33.9186],[83.6064,33.8155],[83.5315,33.6562],[83.4646,33.6228],[83.415,33.5165],[83.301,33.4128],[83.2647,33.1616],[83.2197,33.1272],[83.2605,33.0896],[83.2531,32.9635],[83.1228,32.9325],[83.1371,32.8056],[83.1777,32.7679],[83.1025,32.7618],[83.0894,32.7172],[83.0234,32.6836],[83.0712,32.5825],[83.1888,32.587],[83.1949,32.6951],[83.2284,32.7208],[83.2487,32.702],[83.2833,32.7458],[83.2458,32.8375],[83.3557,32.8872],[83.4071,33.0296],[83.4825,33.0355],[83.6705,32.784],[83.6649,32.694],[83.6952,32.6656],[83.7703,32.6714],[83.7636,32.7349],[83.9419,32.6819],[83.9101,32.5209],[83.9515,32.501],[83.948,32.447],[83.9905,32.4451],[84.0097,33.3828],[83.9728,33.4747],[84.0102,33.7077],[83.9981,34.0061]],[[72.5577,32.9018],[72.5487,32.8743],[72.4734,32.8803],[72.5038,32.9086],[72.5577,32.9018]],[[73.4424,33.1876],[73.6209,33.0492],[73.644,33.0138],[73.6159,32.9317],[73.5295,32.9469],[73.3967,33.0326],[73.3334,33.0124],[73.2553,33.0728],[73.2505,33.1628],[73.2812,33.191],[73.4424,33.1876]],[[83.9774,32.8969],[83.9649,32.8704],[83.9335,32.8808],[83.9459,32.9074],[83.9774,32.8969]],[[81.4602,33.3919],[81.4276,33.3837],[81.4034,33.3122],[81.3162,33.2783],[81.3668,33.1958],[81.4422,33.2029],[81.4678,33.3105],[81.5114,33.3274],[81.4602,33.3919]],[[73.7597,33.2883],[73.782,33.2709],[73.709,33.2235],[73.6104,33.2654],[73.6198,33.2928],[73.7597,33.2883]],[[72.6684,33.3845],[72.6072,33.3279],[72.5429,33.3253],[72.5134,33.279],[72.6995,33.2233],[72.7677,33.3433],[72.6684,33.3845]],[[73.1804,33.2686],[73.1712,33.2412],[73.1385,33.2491],[73.1478,33.2765],[73.1804,33.2686]],[[73.5173,33.4067],[73.5854,33.3367],[73.5545,33.3087],[73.4248,33.3223],[73.4052,33.2856],[73.3297,33.292],[73.3268,33.346],[73.381,33.3389],[73.4202,33.4124],[73.5173,33.4067]],[[82.7125,33.48],[82.6891,33.4447],[82.7218,33.4526],[82.7125,33.48]],[[81.4499,33.6809],[81.3957,33.6733],[81.4026,33.5739],[81.4783,33.5809],[81.4499,33.6809]],[[77.8703,33.9599],[77.7405,33.9597],[77.7082,33.9325],[77.7085,33.8423],[77.6438,33.8061],[77.6225,33.7519],[77.655,33.7069],[77.9138,33.6893],[77.9568,33.7795],[78.054,33.7885],[78.0756,33.8967],[78.0216,33.9238],[77.9136,33.9058],[77.8703,33.9599]],[[81.9304,33.812],[81.876,33.8046],[81.8841,33.7412],[81.9168,33.7493],[81.9304,33.812]],[[82.7307,33.8222],[82.6744,33.7791],[82.7053,33.7509],[82.7607,33.7761],[82.7307,33.8222]],[[78.5838,33.9586],[78.5079,33.9138],[78.5183,33.8507],[78.6161,33.9314],[78.5838,33.9586]],[[82.0474,34.0071],[81.8736,33.9942],[81.8352,33.8599],[81.9976,33.8642],[82.0561,33.9617],[82.0474,34.0071]]]}}]}