{"type":"FeatureCollection","features":[{"type":"Feature","properties":{},"geometry":{"type":"MultiLineString","coordinates":[[[73.5209,26.1241],[73.3411,26.1179],[73.273,26.0703],[73.2553,26.0154],[73.3662,25.9923],[73.4239,26.0485],[73.466,25.9958],[73.7751,26.0151],[73.7435,26.0593],[73.6636,26.0567],[73.5209,26.1241]],[[74.6842,28.0365],[74.5418,28.0328],[74.4216,27.9754],[74.3963,27.8213],[74.2593,27.6731],[74.263,27.5649],[74.3041,27.548],[74.287,27.4572],[74.3911,27.3698],[74.3923,27.3338],[74.2344,27.221],[74.2815,27.0237],[74.1936,26.94],[74.0936,26.919],[74.0851,26.8736],[74.1675,26.8218],[74.1797,26.759],[74.321,26.745],[74.3624,26.71],[74.3922,26.7198],[74.4284,26.8472],[74.5267,26.9221],[74.5624,27.0675],[74.5918,27.0953],[74.8131,27.1189],[74.8389,27.273],[74.8985,27.3106],[74.8969,27.3647],[75.0063,27.4304],[75.0872,27.4322],[75.1559,27.515],[75.1337,27.5867],[75.0503,27.6751],[75.0903,27.6941],[75.0676,27.7838],[75.2073,27.8771],[75.2059,27.9312],[75.1335,27.9748],[74.91,27.9697],[74.8271,28.0219],[74.7672,27.9844],[74.6842,28.0365]],[[74.4202,27.0998],[74.4317,27.055],[74.3804,27.0807],[74.4202,27.0998]],[[75.4393,27.945],[75.3783,27.9438],[75.3688,27.9165],[75.4402,27.9089],[75.4393,27.945]],[[72.844,28.1939],[72.7218,28.1891],[72.6935,28.1428],[72.7988,28.0748],[72.8024,28.0027],[72.9586,27.9275],[72.9878,27.9557],[72.9616,28.0811],[72.9192,28.1156],[72.9166,28.1696],[72.844,28.1939]],[[76.2261,28.3009],[76.1649,28.3],[76.1154,28.2181],[76.1674,28.1557],[76.2586,28.184],[76.2261,28.3009]],[[75.0646,28.2621],[74.9737,28.233],[74.9862,28.152],[75.1083,28.1548],[75.1381,28.1825],[75.0646,28.2621]],[[72.7083,28.4593],[72.64,28.3933],[72.6437,28.3213],[72.5853,28.2647],[72.6404,28.1858],[72.7014,28.1882],[72.8086,28.2918],[72.782,28.4171],[72.7305,28.4241],[72.7083,28.4593]],[[72.4851,28.8111],[72.4461,28.7734],[72.3739,28.7794],[72.3593,28.6704],[72.3194,28.6507],[72.3671,28.5264],[72.3117,28.4157],[72.3884,28.3197],[72.4787,28.3506],[72.5139,28.4604],[72.5732,28.4989],[72.5704,28.553],[72.6885,28.648],[72.6457,28.6824],[72.6652,28.7012],[72.6127,28.7262],[72.5932,28.7073],[72.4851,28.8111]],[[76.0127,28.8032],[75.9102,28.8016],[75.7703,28.6369],[75.5675,28.5611],[75.5579,28.5338],[75.61,28.4897],[75.65,28.5265],[75.6913,28.5092],[75.9332,28.6756],[76.0553,28.7136],[76.1167,28.7145],[76.1378,28.6787],[76.1888,28.6884],[76.157,28.7511],[76.1164,28.7325],[76.0127,28.8032]],[[76.5074,28.5931],[76.4461,28.5924],[76.4366,28.5472],[76.5082,28.539],[76.5074,28.5931]],[[76.7713,28.7583],[76.6793,28.7484],[76.6914,28.5951],[76.7732,28.5959],[76.8036,28.6232],[76.7713,28.7583]],[[75.8351,29.45],[75.7135,29.3577],[75.6509,29.3927],[75.3217,29.3684],[75.0296,29.1366],[74.9917,29.0275],[75.0363,28.9022],[75.0184,28.8115],[75.0724,28.7135],[75.1338,28.7148],[75.1723,28.8059],[75.2552,28.7715],[75.3781,28.774],[75.4997,28.8305],[75.5611,28.8317],[75.603,28.7964],[75.8074,28.818],[75.889,28.8373],[75.9289,28.8921],[76.0509,28.9481],[76.215,28.9504],[76.2659,28.9782],[76.2429,29.1222],[76.0977,29.1924],[76.0957,29.3006],[75.9816,29.3441],[75.8974,29.433],[75.8351,29.45]],[[76.6666,28.9377],[76.523,28.9362],[76.5137,28.8729],[76.5655,28.8284],[76.627,28.829],[76.6779,28.8566],[76.6666,28.9377]],[[73.9024,29.8012],[73.7622,29.6885],[73.6581,29.7032],[73.6283,29.6751],[73.717,29.5337],[73.7033,29.3708],[73.7467,29.3181],[73.7624,28.9396],[73.7942,28.9135],[73.9583,28.9187],[74.0007,28.8838],[74.2044,28.926],[74.2281,28.8364],[74.3287,28.8934],[74.4076,28.9858],[74.4486,28.9869],[74.4704,28.9514],[74.5524,28.9536],[74.5905,29.0448],[74.7125,29.084],[74.7624,29.1303],[74.7567,29.3106],[74.858,29.3672],[74.8257,29.4116],[74.7327,29.4183],[74.7521,29.4549],[74.6879,29.5255],[74.6401,29.7228],[74.5869,29.7665],[74.424,29.69],[74.3601,29.7424],[74.214,29.7744],[74.1734,29.7552],[73.9659,29.7671],[73.9024,29.8012]],[[74.6966,28.9392],[74.6251,28.9284],[74.6784,28.8666],[74.7294,28.8769],[74.6966,28.9392]],[[73.9441,29.0175],[73.9455,28.9814],[73.9151,28.9715],[73.9031,29.0162],[73.9441,29.0175]],[[72.8542,29.6382],[72.804,29.6092],[72.8157,29.5826],[72.8659,29.6116],[72.8542,29.6382]],[[72.1902,30.0258],[72.1073,30.0221],[72.0778,29.9937],[72.0821,29.9217],[72.1723,29.7994],[72.3113,29.7243],[72.3309,29.7432],[72.5228,29.643],[72.6064,29.6283],[72.629,29.5932],[72.6909,29.5957],[72.6988,29.6411],[72.8576,29.7737],[72.8323,29.863],[72.7368,29.9043],[72.4904,29.8582],[72.3601,29.961],[72.2555,29.9745],[72.1902,30.0258]],[[72.3094,30.1212],[72.2373,30.1091],[72.2317,30.0276],[72.2939,30.0303],[72.3431,30.0776],[72.3094,30.1212]],[[73.3922,33.5378],[73.18,33.4761],[73.0765,33.4002],[73.0121,33.3978],[72.8383,33.2378],[72.8006,33.1461],[72.8079,33.02],[72.8741,32.9865],[72.7479,32.9455],[72.8416,32.8048],[72.801,32.7671],[72.8041,32.7131],[72.6835,32.582],[72.6765,32.5186],[72.4605,32.5639],[72.3765,32.5423],[72.3598,32.6409],[72.2409,32.6629],[72.1704,32.5966],[72.1761,32.5067],[72.0945,32.4489],[72.1226,32.3419],[72.0925,32.3135],[71.9964,32.3182],[72.0058,32.1742],[72.0516,32.1222],[71.9927,32.0473],[71.9985,31.9573],[72.0876,31.8891],[72.0345,31.7243],[72.1433,31.675],[72.2032,31.5604],[72.3927,31.5685],[72.6436,31.4255],[72.6466,31.3714],[72.5856,31.3329],[72.5577,31.2686],[72.4328,31.2454],[72.3997,31.271],[72.4071,31.145],[72.4511,31.1108],[72.4457,30.8399],[72.5125,30.7704],[72.4946,30.7156],[72.5424,30.6093],[72.6278,30.5767],[72.6317,30.5046],[72.7455,30.3287],[72.9084,30.1998],[73.1775,30.2279],[73.3585,30.3607],[73.549,30.295],[73.7145,30.3185],[73.7422,30.4006],[73.699,30.4353],[73.7367,30.5268],[73.7985,30.5468],[73.8139,30.6736],[73.8642,30.7203],[74.0118,30.6887],[74.0766,30.6365],[74.1809,30.6396],[74.2563,30.5786],[74.259,30.5065],[74.3753,30.4646],[74.4439,30.5837],[74.3666,30.6989],[74.1658,30.7564],[74.1839,30.8291],[74.1399,30.882],[74.1327,31.0622],[74.1833,31.1088],[74.27,31.039],[74.3429,31.0501],[74.2549,31.1559],[74.2181,31.2902],[74.3007,31.3286],[74.3977,31.2681],[74.4099,31.2233],[74.462,31.2338],[74.46,31.2878],[74.3739,31.3396],[74.3902,31.4664],[74.3372,31.4739],[74.3039,31.5181],[74.2997,31.6263],[74.3717,31.6734],[74.5628,31.6424],[74.6343,31.7073],[74.5909,31.7423],[74.6305,31.8155],[74.581,32.0127],[74.536,32.0837],[74.4274,32.153],[74.4034,32.2245],[74.4835,32.353],[74.6069,32.4644],[74.6255,32.5371],[74.7313,32.5577],[74.7494,32.6484],[74.6622,32.7004],[74.6492,32.7632],[74.5639,32.761],[74.4861,32.8402],[74.4577,33.0199],[74.4024,33.0635],[74.2733,33.078],[74.1957,33.139],[74.2053,33.1663],[74.4078,33.199],[74.382,33.3066],[74.2717,33.3757],[74.3124,33.431],[74.1938,33.4367],[74.1205,33.3894],[74.0807,33.3161],[74.1467,33.2819],[74.1498,33.2098],[74.0767,33.1626],[74.0529,33.216],[73.8352,33.2816],[73.8,33.3437],[73.7459,33.351],[73.7227,33.3863],[73.5509,33.3807],[73.5361,33.4614],[73.3922,33.5378]],[[72.1099,30.3291],[72.0595,30.2997],[72.0617,30.2637],[72.1579,30.2229],[72.1645,30.2864],[72.1099,30.3291]],[[81.9034,33.1993],[81.8169,33.1837],[81.76,33.1041],[81.8204,33.0122],[81.8158,32.9041],[81.9108,32.8743],[81.9386,32.7742],[82.0215,32.7176],[82.0191,32.6635],[81.9757,32.6468],[82.0113,32.4833],[81.9876,32.4299],[82.0711,32.3913],[82.0679,32.3192],[82.188,32.1531],[82.1651,32.1177],[82.2441,31.9889],[82.3087,31.7794],[82.3441,31.8594],[82.3068,31.9689],[82.3346,32.1123],[82.3787,32.147],[82.3855,32.2911],[82.3362,32.3739],[82.2615,32.3673],[82.2537,32.4307],[82.1569,32.4067],[82.201,32.4414],[82.1716,32.731],[82.3038,32.817],[82.3132,33.0152],[82.2618,33.062],[82.1762,33.0647],[82.1565,33.1014],[81.9202,33.0905],[81.9034,33.1993]],[[83.3271,32.2116],[83.2513,32.1876],[83.3018,32.1405],[83.3573,32.1834],[83.3271,32.2116]],[[83.3488,32.9507],[83.2847,32.9532],[83.1056,32.8158],[82.9867,32.7933],[82.9982,32.6124],[82.8898,32.5803],[82.898,32.5349],[83.0266,32.5481],[83.0672,32.5105],[83.1736,32.5064],[83.1969,32.5416],[83.2232,32.4413],[83.1908,32.4336],[83.1503,32.4712],[83.0917,32.3742],[83.1867,32.3615],[83.2241,32.2699],[83.2999,32.2939],[83.2849,32.4028],[83.3953,32.4706],[83.3873,32.516],[83.2931,32.5468],[83.2952,32.5829],[83.3601,32.5983],[83.3633,32.6523],[83.2893,32.6643],[83.262,32.7466],[83.2204,32.7663],[83.2336,32.8109],[83.3536,32.8512],[83.3488,32.9507]],[[82.8814,33.0227],[82.7531,33.0274],[82.6973,32.9842],[82.7372,32.9287],[82.7325,32.8386],[82.765,32.8465],[82.7845,32.8097],[82.8485,32.8074],[82.8717,32.8426],[82.9256,32.8497],[82.8858,32.9053],[82.9101,32.9585],[82.8814,33.0227]],[[82.5828,33.0514],[82.4647,33.0463],[82.4883,32.8741],[82.5867,32.9159],[82.5828,33.0514]],[[83.079,33.1056],[83.025,33.0986],[83.0719,32.9795],[83.1279,33.0225],[83.079,33.1056]],[[83.9981,34.0061],[83.8227,33.9778],[83.6395,33.9946],[83.5371,33.7462],[83.5326,33.6742],[83.5734,33.6364],[83.2668,33.1976],[83.237,33.0544],[83.3081,32.9884],[83.3408,32.9961],[83.3429,33.0321],[83.3012,33.0518],[83.3033,33.0879],[83.3493,33.1402],[83.3086,33.1779],[83.375,33.2113],[83.3541,33.0407],[83.4103,33.0836],[83.4157,33.1736],[83.4822,33.207],[83.4651,33.2799],[83.5237,33.3587],[83.6537,33.3713],[83.639,33.3087],[83.6898,33.2615],[83.7327,33.2596],[83.8255,33.3639],[83.8684,33.362],[83.9292,33.3052],[84.0061,33.3288],[83.9981,34.0061]],[[83.9994,33.0674],[83.871,33.0731],[83.8585,33.0466],[83.9079,32.9812],[83.9934,32.9774],[83.9994,33.0674]],[[83.6875,33.2255],[83.604,33.0936],[83.6784,33.0815],[83.738,33.0067],[83.8216,33.1385],[83.79,33.1489],[83.7212,33.0796],[83.7382,33.1782],[83.6875,33.2255]],[[82.4455,33.3087],[82.3056,33.3042],[82.2867,33.1334],[82.3295,33.132],[82.4513,33.2092],[82.4455,33.3087]],[[83.7732,33.2218],[83.7405,33.2142],[83.7495,33.1867],[83.7822,33.1943],[83.7732,33.2218]],[[82.1947,33.4611],[82.1621,33.4531],[82.1707,33.4077],[82.2248,33.4151],[82.1947,33.4611]],[[82.9135,33.9961],[82.6756,34.0047],[82.6379,33.9067],[82.5815,33.8635],[82.5326,33.9645],[82.48,33.9933],[82.1772,34.0031],[82.1539,33.9677],[81.9385,33.9923],[81.9048,33.9662],[81.9016,33.8941],[81.7897,33.8071],[81.7866,33.735],[81.8274,33.6797],[81.7397,33.6461],[81.7566,33.5373],[81.8531,33.5255],[81.873,33.4889],[82.0236,33.4844],[82.1104,33.4998],[82.1241,33.5626],[82.18,33.606],[82.267,33.6213],[82.3531,33.6185],[82.4348,33.5256],[82.5423,33.522],[82.5647,33.7468],[82.6303,33.7626],[82.6322,33.7986],[82.6988,33.8324],[82.713,33.8951],[82.7778,33.8928],[82.7685,33.9202],[82.8898,33.9609],[82.9135,33.9961]],[[73.0349,33.7596],[72.9918,33.758],[72.962,33.7118],[73.0645,33.6163],[73.0923,33.6986],[73.0349,33.7596]],[[77.7193,33.8153],[77.687,33.8062],[77.6872,33.7521],[77.7413,33.7071],[77.8166,33.7884],[77.7193,33.8153]],[[77.9567,33.996],[77.7729,33.9868],[77.8596,33.8606],[77.8165,33.8245],[77.8489,33.7794],[77.9137,33.7975],[77.9244,33.8607],[77.9676,33.8787],[77.9244,33.9148],[77.9567,33.996]],[[78.1731,33.9959],[78.0216,33.996],[77.9676,33.9509],[77.9676,33.8607],[78.0216,33.8336],[78.1296,33.8516],[78.1621,33.9147],[78.1406,33.9689],[78.1731,33.9959]],[[81.6573,34.0002],[81.5708,34.0026],[81.5783,33.9212],[81.5343,33.9043],[81.5307,33.8141],[81.6052,33.7851],[81.7272,33.863],[81.7295,33.917],[81.6573,34.0002]]]}}]}