{"type":"FeatureCollection","features":[{"type":"Feature","properties":{},"geometry":{"type":"MultiLineString","coordinates":[[[74.0437,26.0506],[73.9046,26.0283],[73.7641,26.0419],[73.7551,26.0145],[74.0855,25.9977],[74.0437,26.0506]],[[75.3194,27.04],[75.1381,27.0361],[75.1301,26.9547],[75.1807,26.9468],[75.2397,27.0022],[75.3006,26.9854],[75.3503,27.0135],[75.3194,27.04]],[[75.1029,28.3532],[74.9408,28.3134],[74.9214,28.2769],[74.6768,28.2709],[74.4964,28.176],[74.4285,28.0749],[74.4919,28.0044],[74.4943,27.9323],[74.4148,27.876],[74.4172,27.8038],[74.3201,27.6748],[74.4655,27.5704],[74.45,27.4256],[74.5539,27.3381],[74.5764,27.2665],[74.457,27.2091],[74.4997,27.1381],[74.4605,27.1009],[74.5538,27.0221],[74.6142,27.0237],[74.6333,27.0603],[74.6736,27.0613],[74.7155,27.0082],[74.7754,27.0277],[74.8643,27.0931],[74.8622,27.1653],[74.9305,27.2481],[74.9916,27.2315],[75.0334,27.1783],[75.1348,27.1625],[75.154,27.199],[75.2948,27.22],[75.3936,27.3123],[75.5243,27.3419],[75.5429,27.4144],[75.5008,27.4859],[75.5607,27.5231],[75.5388,27.5949],[75.6186,27.6505],[75.6361,27.7772],[75.6759,27.814],[75.6736,27.9223],[75.5911,27.9749],[75.5687,28.0648],[75.4852,28.1535],[75.5047,28.1899],[75.4527,28.2341],[75.3087,28.2853],[75.2888,28.2669],[75.2272,28.2837],[75.1029,28.3532]],[[72.4627,28.8463],[72.3749,28.7614],[72.5015,28.6945],[72.5258,28.6233],[72.4654,28.6027],[72.4673,28.5667],[72.583,28.5083],[72.7312,28.6136],[72.7639,28.7774],[72.7114,28.8024],[72.6304,28.781],[72.5661,28.8326],[72.4627,28.8463]],[[74.9885,28.7838],[74.9375,28.7736],[74.9418,28.6293],[74.9942,28.5854],[75.0241,28.6131],[74.9885,28.7838]],[[75.9794,29.4523],[75.8764,29.4507],[75.8157,29.3956],[75.5062,29.4081],[75.3542,29.3059],[75.2561,29.1235],[75.2786,29.0517],[75.2385,29.0148],[75.2414,28.9066],[75.3043,28.8538],[75.3057,28.7996],[75.409,28.7656],[75.3904,28.6931],[75.4217,28.6666],[75.5453,28.6329],[75.6885,28.6355],[75.8689,28.819],[75.9918,28.8209],[76.0959,28.7322],[76.1567,28.7692],[76.2796,28.7708],[76.4016,28.8265],[76.4519,28.8903],[76.4511,28.9444],[76.3991,28.9889],[76.3375,28.9881],[76.1952,28.9141],[76.1229,28.9401],[76.2647,29.0503],[76.2227,29.1039],[76.2211,29.1941],[76.3439,29.2318],[76.3421,29.3401],[76.2281,29.3837],[76.146,29.3645],[76.1248,29.4003],[75.9794,29.4523]],[[74.1893,29.882],[74.0858,29.8789],[74.0051,29.8224],[73.9009,29.8372],[73.8511,29.7906],[73.916,29.7204],[73.9327,29.3059],[73.9746,29.2891],[73.9561,29.2344],[74.0206,29.1642],[74.0454,29.0566],[74.0772,29.0305],[74.2362,29.1795],[74.4243,29.0945],[74.8952,29.1606],[74.9147,29.1971],[74.9558,29.1981],[75.0043,29.2984],[75.0006,29.4247],[74.9678,29.4871],[74.9271,29.4681],[74.8747,29.4939],[74.8736,29.53],[74.767,29.6357],[74.721,29.7789],[74.6465,29.8402],[74.6064,29.8031],[74.3976,29.8517],[74.2334,29.811],[74.1893,29.882]],[[74.1976,29.386],[74.203,29.2417],[74.1526,29.2132],[74.1385,29.3121],[74.1976,29.386]],[[75.2555,29.5295],[75.2248,29.5198],[75.2062,29.4472],[75.2479,29.4301],[75.281,29.3495],[75.3432,29.3328],[75.3936,29.3789],[75.4123,29.4514],[75.3198,29.4406],[75.2555,29.5295]],[[73.3857,33.6639],[73.322,33.6436],[73.2509,33.5599],[73.2548,33.4878],[73.2137,33.4503],[73.325,33.382],[73.2224,33.2882],[73.2243,33.2521],[73.3129,33.2011],[73.3595,33.1306],[73.2841,33.137],[73.2441,33.0814],[73.2013,33.0799],[72.9555,32.8723],[72.8924,32.8519],[72.8741,32.797],[72.6618,32.7706],[72.6426,32.7338],[72.4955,32.6917],[72.3956,32.5792],[72.3228,32.5491],[72.2757,32.4478],[72.2321,32.464],[72.1594,32.4337],[72.1897,32.2907],[72.153,32.1988],[72.0905,32.178],[72.0974,32.07],[72.2745,31.9515],[72.3244,31.8273],[72.4685,31.716],[72.5218,31.7092],[72.5491,31.6021],[72.6385,31.5155],[72.5574,31.458],[72.5687,31.26],[72.5167,31.2488],[72.4307,31.2814],[72.4008,31.253],[72.3861,31.1441],[72.4312,31.0919],[72.3924,31.0361],[72.5532,30.7902],[72.5572,30.7182],[72.7092,30.616],[72.7121,30.562],[72.7558,30.5277],[72.7644,30.3656],[72.8296,30.314],[72.8173,30.1511],[72.9573,30.0573],[73.0835,30.0259],[73.2079,30.0305],[73.3098,30.0702],[73.5082,30.2756],[73.5498,30.277],[73.6089,30.3512],[73.6605,30.3619],[73.7267,30.5174],[73.8648,30.4587],[73.7854,30.3659],[73.8831,30.2698],[73.9247,30.2711],[73.954,30.3171],[73.9481,30.4612],[74.134,30.5029],[74.1319,30.5569],[74.0888,30.5918],[74.1068,30.6645],[74.1867,30.757],[74.2177,30.7669],[74.24,30.7315],[74.3652,30.735],[74.4252,30.8088],[74.4677,30.7919],[74.5189,30.8203],[74.5157,30.9104],[74.6159,31.0393],[74.6127,31.1294],[74.6941,31.2037],[74.6929,31.2397],[74.6394,31.2654],[74.4085,31.2594],[74.3543,31.303],[74.3291,31.4106],[74.3902,31.4664],[74.3779,31.5111],[74.4343,31.4134],[74.4987,31.3791],[74.5,31.343],[74.5949,31.3365],[74.829,31.5678],[74.8869,31.7315],[74.7994,31.8197],[74.8169,31.9283],[74.858,31.9654],[74.7852,32.2343],[74.8251,32.3074],[74.7964,32.5232],[74.8158,32.5778],[74.8785,32.6154],[74.9174,32.7246],[74.8742,32.7416],[74.8491,32.8493],[74.7721,32.9106],[74.6873,32.8904],[74.6957,32.9538],[74.6302,32.9883],[74.7099,33.1526],[74.6533,33.2324],[74.602,33.168],[74.5945,33.3663],[74.5391,33.41],[74.4567,33.3176],[74.285,33.3129],[74.2651,33.2763],[74.1881,33.3192],[74.1531,33.3814],[74.0903,33.3434],[73.9161,33.3924],[73.6798,33.3849],[73.576,33.3094],[73.4753,33.3872],[73.5361,33.4614],[73.5298,33.5876],[73.4325,33.5933],[73.3857,33.6639]],[[83.3039,32.9164],[83.2073,32.9112],[83.2417,32.7654],[83.1239,32.761],[83.1076,32.6624],[83.29,32.4928],[83.3071,32.42],[83.3597,32.4088],[83.398,32.3351],[83.4405,32.3334],[83.4739,32.3591],[83.4655,32.576],[83.424,32.5957],[83.4272,32.6497],[83.3867,32.6875],[83.4304,32.7037],[83.4785,32.792],[83.4278,32.8392],[83.3638,32.8418],[83.3039,32.9164]],[[82.1976,33.064],[82.1635,33.02],[82.2037,32.9646],[82.2176,32.8018],[82.2594,32.7824],[82.2945,32.6189],[82.3643,32.5173],[82.4214,32.5967],[82.4362,32.9029],[82.1976,33.064]],[[83.3249,32.7261],[83.3127,32.6995],[83.2812,32.7097],[83.2934,32.7363],[83.3249,32.7261]],[[83.4654,33.1084],[83.4226,33.1101],[83.399,33.075],[83.2563,33.0175],[83.306,32.9524],[83.3488,32.9507],[83.4097,32.8941],[83.4636,32.9009],[83.468,32.9729],[83.5557,33.0054],[83.4654,33.1084]],[[83.2629,33.3151],[83.0902,33.3037],[83.0565,33.2779],[83.0749,33.2231],[82.9832,33.1182],[83.0404,32.9898],[83.1116,32.9239],[83.1279,33.0225],[83.1942,33.0561],[83.2208,33.1453],[83.3311,33.195],[83.3364,33.2851],[83.2629,33.3151]],[[82.2687,33.2061],[82.1932,33.1995],[82.201,33.1361],[82.255,33.1434],[82.2687,33.2061]],[[83.9567,33.3942],[83.8278,33.3999],[83.804,33.3648],[83.717,33.3505],[83.6966,33.3695],[83.6277,33.3002],[83.5848,33.302],[83.5045,33.3956],[83.4401,33.3982],[83.3837,33.3554],[83.3782,33.2653],[83.4291,33.2182],[83.5396,33.2678],[83.5701,33.2394],[83.5634,33.1314],[83.6356,33.0833],[83.7426,33.0787],[83.9536,33.1868],[83.9572,33.2408],[84.0025,33.2748],[83.962,33.3128],[83.9567,33.3942]],[[82.3623,33.3655],[82.2755,33.3503],[82.2395,33.2702],[82.3098,33.1687],[82.3955,33.1659],[82.4308,33.2279],[82.3623,33.3655]],[[83.7022,33.288],[83.6852,33.1895],[83.6582,33.2718],[83.7022,33.288]],[[82.3611,33.7806],[82.2101,33.7855],[82.1204,33.7161],[82.0781,33.7354],[81.8713,33.6965],[81.8889,33.6057],[81.9726,33.5491],[81.9702,33.4951],[82.0211,33.4304],[82.0984,33.4731],[82.3032,33.7013],[82.3688,33.7172],[82.3611,33.7806]],[[82.5208,33.5227],[82.4348,33.5256],[82.4209,33.4629],[82.5181,33.4686],[82.5517,33.4946],[82.5208,33.5227]],[[77.8057,33.7974],[77.7734,33.7883],[77.8059,33.7433],[77.8057,33.7974]],[[78.1079,33.8155],[78.0324,33.7885],[78.0863,33.7434],[78.1402,33.7524],[78.1079,33.8155]],[[82.5449,33.9911],[82.4367,33.9947],[82.4434,33.9133],[82.4097,33.8873],[82.2801,33.8915],[82.2662,33.8288],[82.3413,33.8174],[82.3318,33.8448],[82.3647,33.8527],[82.4672,33.7411],[82.5759,33.7554],[82.59,33.8181],[82.6341,33.8346],[82.6388,33.9247],[82.5449,33.9911]],[[78.1514,33.9959],[78.0865,33.996],[78.0108,33.9329],[78.0432,33.8877],[78.1296,33.8696],[78.1621,33.8967],[78.1514,33.9959]],[[83.9981,34.0061],[83.7157,34.0004],[83.6997,33.9199],[83.6302,33.8506],[83.6495,33.8137],[83.6041,33.7795],[83.6563,33.7502],[83.8072,33.7438],[83.9438,33.8461],[83.9858,33.8262],[83.9981,34.0061]],[[81.8519,33.9948],[81.8087,33.996],[81.7967,33.9693],[81.8504,33.9587],[81.8519,33.9948]],[[82.9351,33.9954],[82.8918,33.9969],[82.8795,33.9703],[82.9114,33.9601],[82.9351,33.9954]]]}}]}