{"type":"FeatureCollection","features":[{"type":"Feature","properties":{},"geometry":{"type":"MultiLineString","coordinates":[[[75.2809,28.5735],[74.9952,28.5493],[74.6332,28.3601],[74.5312,28.3574],[74.4224,28.2552],[74.532,28.0235],[74.5175,27.8426],[74.5801,27.7901],[74.5824,27.718],[74.668,27.5757],[74.7391,27.5685],[74.7911,27.5246],[74.7211,27.4958],[74.6581,27.5665],[74.628,27.5567],[74.5517,27.4103],[74.5741,27.3386],[74.5147,27.301],[74.5158,27.2649],[74.7738,27.0819],[74.8751,27.0663],[74.9046,27.094],[74.7794,27.2355],[74.827,27.3359],[74.9527,27.1764],[75.0005,27.2768],[74.9187,27.311],[75.0699,27.3235],[75.2231,27.2637],[75.1845,27.1906],[75.2164,27.1281],[75.5185,27.1522],[75.577,27.2436],[75.7668,27.3462],[75.7653,27.4184],[75.7951,27.446],[76.0783,27.4504],[76.1446,27.7131],[76.2645,27.8231],[76.263,27.9133],[76.1505,27.9569],[76.1192,28.0016],[76.1377,28.1102],[76.1778,28.1468],[76.1759,28.2551],[76.0824,28.353],[76.0627,28.3166],[76.0219,28.316],[76.0008,28.3518],[75.9808,28.3335],[75.6713,28.4908],[75.4874,28.4874],[75.4662,28.5231],[75.3844,28.5215],[75.2809,28.5735]],[[74.739,27.2345],[74.7504,27.1896],[74.7199,27.1979],[74.739,27.2345]],[[74.6735,27.3953],[74.6954,27.3417],[74.6255,27.3129],[74.614,27.3577],[74.6735,27.3953]],[[74.4243,28.499],[74.3353,28.4153],[74.4694,28.3738],[74.4979,28.4378],[74.4243,28.499]],[[76.4539,29.4407],[76.2075,29.3834],[76.0427,29.3811],[75.7737,29.4309],[75.5895,29.3736],[75.5614,29.2558],[75.6143,29.1936],[75.6558,29.1763],[75.7159,29.2495],[75.7675,29.2414],[75.7485,29.1689],[75.6877,29.1317],[75.6998,29.0507],[75.7815,29.0702],[75.7908,29.1154],[75.8723,29.1529],[75.8536,29.0623],[75.6712,28.951],[75.6536,28.8243],[75.768,28.7451],[75.9932,28.7487],[76.0436,28.7946],[76.0318,28.8756],[76.0728,28.8762],[76.0926,28.9126],[76.1955,28.896],[76.3075,28.9426],[76.3057,29.0509],[76.2227,29.1039],[76.2325,29.1311],[76.3352,29.1325],[76.3563,29.0966],[76.5202,29.1347],[76.5316,29.0536],[76.6246,29.0095],[76.6754,29.0551],[76.5509,29.144],[76.5915,29.1805],[76.6108,29.271],[76.5692,29.3066],[76.5682,29.3788],[76.4539,29.4407]],[[72.7505,28.84],[72.6792,28.8281],[72.6341,28.709],[72.7987,28.6975],[72.8476,28.7446],[72.8458,28.7806],[72.7505,28.84]],[[74.8489,29.9895],[74.4137,29.9785],[74.3736,29.9413],[74.3115,29.9396],[74.2434,29.8204],[74.2461,29.7482],[74.1647,29.7098],[74.1289,29.5644],[74.0891,29.5272],[74.199,29.3499],[74.2255,29.1882],[74.2574,29.1621],[74.339,29.1824],[74.4785,29.3125],[74.602,29.3158],[74.7336,29.0664],[74.8568,29.0694],[74.9201,29.0168],[75.0633,29.0381],[75.0948,29.0117],[75.0768,28.9211],[75.1923,28.8244],[75.2948,28.8265],[75.3444,28.8907],[75.3425,28.9628],[75.259,29.0152],[75.3355,29.2334],[75.3327,29.3416],[75.0794,29.5528],[75.0985,29.6073],[75.0561,29.6425],[75.0747,29.715],[75.0302,29.8223],[74.8613,29.9267],[74.8809,29.9632],[74.8489,29.9895]],[[76.097,29.2285],[76.0977,29.1924],[76.067,29.1829],[76.0559,29.2279],[76.097,29.2285]],[[73.8929,33.4278],[73.764,33.4237],[73.5957,33.3461],[73.5442,33.2993],[73.5469,33.2452],[73.4639,33.1883],[73.4657,33.1523],[73.3511,33.0852],[73.2645,33.1002],[73.1186,33.0227],[72.9474,33.0164],[72.8853,32.9779],[72.8172,32.858],[72.8203,32.804],[72.7786,32.7843],[72.7838,32.6943],[72.666,32.6986],[72.5983,32.5786],[72.4962,32.5022],[72.4177,32.3907],[72.4498,32.2115],[72.5468,32.1885],[72.5871,32.2262],[72.6215,32.1825],[72.6246,32.1285],[72.5833,32.1088],[72.6197,32.029],[72.7124,32.0779],[72.7194,32.1413],[72.7426,32.1061],[72.8173,32.1],[72.7769,32.0624],[72.8031,31.9732],[72.7649,31.8995],[72.8735,31.8496],[72.8764,31.7956],[72.7156,31.6449],[72.7237,31.5008],[72.6666,31.3903],[72.6256,31.3706],[72.7416,31.1767],[72.6497,31.128],[72.4999,31.176],[72.516,31.0774],[72.4762,31.0396],[72.4813,30.9496],[72.7114,30.7695],[72.8148,30.7916],[72.9529,30.7519],[72.9766,30.6986],[72.9168,30.6422],[72.9187,30.6062],[72.8173,30.5481],[72.8003,30.4753],[72.8665,30.4057],[72.8703,30.3336],[72.9146,30.2812],[72.8948,30.2624],[72.9273,30.2366],[72.9888,30.257],[73.024,30.1771],[72.9942,30.1489],[72.9211,30.1551],[72.9474,30.0479],[72.8502,29.9178],[72.853,29.8638],[72.9079,29.8027],[73.0994,29.7017],[73.2828,29.7625],[73.3605,29.8735],[73.464,29.8771],[73.5535,29.9614],[73.5619,30.0068],[73.7078,29.9935],[73.7354,30.0756],[73.6716,30.1096],[73.67,30.1457],[73.7423,30.157],[73.8015,30.2311],[73.8838,30.2517],[74.2052,30.55],[74.3094,30.553],[74.3397,30.5809],[74.4569,30.8006],[74.3727,30.8164],[74.3693,30.9065],[74.3052,30.9408],[74.2591,31.0478],[74.3611,31.1228],[74.3902,31.1867],[74.464,31.1797],[74.4349,31.1158],[74.56,31.1371],[74.614,31.0934],[74.6279,30.9945],[74.7536,30.9976],[74.8391,30.9456],[74.8673,31.0455],[74.802,31.1161],[74.8002,31.1702],[74.7577,31.1872],[74.7558,31.2413],[74.6821,31.2485],[74.6051,31.3457],[74.635,31.3916],[74.8032,31.3958],[74.9515,31.3632],[75.0231,31.4279],[74.9793,31.4811],[74.9537,31.6248],[75.0374,31.6448],[75.0334,31.771],[75.0751,31.7899],[75.0729,31.862],[75.1324,31.9896],[75.0415,32.1861],[74.9755,32.2568],[74.9696,32.4371],[75.011,32.4741],[74.9873,32.5457],[75.0293,32.5647],[75.0684,32.6738],[75.152,32.7298],[75.1711,32.8023],[75.0615,32.8902],[74.959,33.0773],[74.874,33.0573],[74.7871,33.0914],[74.6386,33.0516],[74.6302,32.9883],[74.5357,32.9407],[74.4777,33.0565],[74.4949,33.1652],[74.4085,33.181],[74.3723,33.2792],[74.0919,33.3074],[74.0307,33.2334],[73.9449,33.2308],[73.9107,33.2749],[73.8929,33.4278]],[[73.107,30.1802],[73.098,30.1528],[73.0664,30.1606],[73.0754,30.188],[73.107,30.1802]],[[72.8808,30.9296],[72.8718,30.9021],[72.8399,30.9099],[72.8489,30.9373],[72.8808,30.9296]],[[72.7548,31.8901],[72.6633,31.8233],[72.6764,31.7787],[72.7699,31.8095],[72.7548,31.8901]],[[74.559,32.6075],[74.5494,32.5802],[74.4745,32.5873],[74.5054,32.6152],[74.559,32.6075]],[[74.8559,32.6509],[74.8687,32.5881],[74.7726,32.5948],[74.781,32.6582],[74.8559,32.6509]],[[74.4923,32.678],[74.4827,32.6506],[74.4504,32.6588],[74.46,32.6861],[74.4923,32.678]],[[73.9362,33.1855],[73.8991,33.058],[73.9958,33.0519],[74.0204,32.9805],[74.083,33.0184],[74.1914,32.9855],[74.2143,32.95],[74.2984,32.9885],[74.2601,32.8792],[74.196,32.8773],[74.1548,32.8401],[74.0053,32.8357],[73.9824,32.8711],[73.9286,32.8785],[73.9492,32.8971],[73.8937,32.9406],[73.7963,32.9646],[73.7938,33.0187],[73.8477,33.0113],[73.8769,33.0754],[73.7656,33.1621],[73.8839,33.1568],[73.9037,33.1935],[73.9362,33.1855]],[[83.4819,33.3784],[83.4164,33.3631],[83.3815,33.3194],[83.4211,33.2636],[83.391,33.1204],[83.4487,33.0098],[83.5466,33.0328],[83.6075,32.9762],[83.6547,33.0464],[83.7155,32.9896],[83.8449,33.0021],[83.8496,33.0741],[83.7663,33.1138],[83.7212,33.0796],[83.6682,33.0909],[83.6739,33.1809],[83.8083,33.2654],[83.7903,33.3203],[83.6706,33.2984],[83.4819,33.3784]],[[74.2622,33.0867],[74.2526,33.0594],[74.2201,33.0675],[74.2297,33.0948],[74.2622,33.0867]],[[73.6533,33.2668],[73.6576,33.1767],[73.5831,33.1652],[73.5692,33.2279],[73.6206,33.2747],[73.6533,33.2668]],[[82.4848,33.2352],[82.4299,33.2099],[82.4598,33.1638],[82.4924,33.1717],[82.4848,33.2352]],[[74.5169,33.4274],[74.4524,33.4257],[74.4442,33.3624],[74.402,33.3432],[74.4056,33.2531],[74.461,33.2094],[74.5039,33.2106],[74.5765,33.2756],[74.5537,33.3111],[74.6167,33.3488],[74.6153,33.3848],[74.5169,33.4274]],[[74.9265,33.4014],[74.8314,33.354],[74.8469,33.2191],[74.9413,33.2844],[74.9265,33.4014]],[[82.3286,33.9983],[82.1556,34.0038],[82.1418,33.941],[82.1807,33.8496],[82.2645,33.7928],[82.2808,33.684],[82.3773,33.6718],[82.4168,33.5983],[82.4814,33.5962],[82.4954,33.6589],[82.4101,33.6798],[82.455,33.7144],[82.4577,33.7684],[82.3318,33.8448],[82.3286,33.9983]],[[78.1727,33.8155],[78.1295,33.8155],[78.1187,33.7704],[78.0755,33.7524],[78.1294,33.7253],[78.1941,33.7433],[78.205,33.7884],[78.1727,33.8155]],[[83.9981,34.0061],[83.6941,34.0013],[83.6462,33.9312],[83.5598,33.9348],[83.5143,33.9006],[83.4108,33.977],[83.3053,33.8458],[83.2999,33.7558],[83.2557,33.7395],[83.2525,33.6855],[83.3704,33.6718],[83.5723,33.7899],[83.8527,33.7779],[83.921,33.829],[83.9528,33.8186],[83.9467,33.7286],[83.9784,33.7182],[83.9981,34.0061]],[[78.1946,33.9417],[78.1728,33.8516],[78.2268,33.8785],[78.1946,33.9417]],[[78.822,33.9935],[78.7679,33.9848],[78.8214,33.9213],[78.822,33.9935]]]}}]}