{"type":"FeatureCollection","features":[{"type":"Feature","properties":{},"geometry":{"type":"MultiLineString","coordinates":[[[75.3966,27.186],[75.367,27.1583],[75.3979,27.1318],[75.3966,27.186]],[[75.7778,27.3013],[75.6475,27.2539],[75.6597,27.1548],[75.7404,27.1562],[75.7701,27.1838],[75.7778,27.3013]],[[75.5193,28.867],[75.2147,28.7526],[75.1328,28.7509],[75.1134,28.7144],[75.0315,28.7125],[74.9318,28.62],[74.7472,28.6337],[74.7251,28.6872],[74.6637,28.6857],[74.5737,28.6202],[74.6385,28.5136],[74.7423,28.4621],[74.7677,28.3003],[74.5878,28.1874],[74.6308,28.1163],[74.6342,28.0081],[74.5749,27.9524],[74.5761,27.9164],[74.6683,27.8917],[74.7485,27.9298],[74.7798,27.9034],[74.8049,27.7416],[74.766,27.6865],[74.8279,27.6519],[74.8295,27.5978],[74.8918,27.5451],[74.8731,27.4905],[74.9778,27.3666],[74.9581,27.3481],[75.1737,27.2175],[75.294,27.2561],[75.4971,27.206],[75.5572,27.2251],[75.6055,27.3253],[75.5437,27.3784],[75.6131,27.4428],[75.7337,27.4811],[75.936,27.4844],[75.948,27.3853],[76.0196,27.3412],[76.0802,27.3421],[76.0997,27.3785],[76.1903,27.4069],[76.1284,27.4782],[76.1477,27.5327],[76.0863,27.5679],[76.0831,27.7484],[76.1131,27.7759],[76.1942,27.777],[76.3171,27.7064],[76.4187,27.6896],[76.4587,27.7262],[76.5806,27.7095],[76.6301,27.8093],[76.6062,28.0798],[76.5241,28.1331],[76.5128,28.2142],[76.4001,28.258],[76.4604,28.3129],[76.4594,28.385],[76.3766,28.4562],[76.3962,28.5106],[76.3045,28.5004],[76.1174,28.6784],[76.056,28.6775],[76.0144,28.713],[75.8715,28.6927],[75.8089,28.7458],[75.5193,28.867]],[[74.9694,30.1187],[74.8657,30.1162],[74.743,30.0591],[74.6831,29.9855],[74.459,29.8714],[74.3695,29.7697],[74.3534,29.643],[74.314,29.5878],[74.3573,29.5348],[74.3611,29.4267],[74.3219,29.3714],[74.3663,29.2824],[74.4399,29.2393],[74.4798,29.2765],[74.5415,29.2781],[74.6667,29.2272],[74.8062,29.375],[74.8474,29.376],[74.8908,29.3048],[75.0054,29.2624],[75.0085,29.1542],[75.0401,29.1278],[75.2226,29.222],[75.3456,29.2426],[75.4402,29.1632],[75.431,29.118],[75.5132,29.1195],[75.6239,29.2208],[75.6614,29.3839],[75.5895,29.3736],[75.5676,29.4273],[75.5058,29.4262],[75.4114,29.4875],[75.3688,29.5408],[75.3659,29.649],[75.3021,29.7199],[75.2982,29.8642],[75.2134,29.9346],[75.2114,30.0067],[74.9694,30.1187]],[[76.164,29.5091],[76.1228,29.5085],[75.991,29.3893],[75.9928,29.2991],[75.9318,29.2621],[75.9022,29.1985],[75.9848,29.1817],[76.0144,29.2453],[76.1058,29.3098],[76.1882,29.311],[76.3543,29.2229],[76.6212,29.2621],[76.7133,29.3081],[76.6818,29.3529],[76.4753,29.3868],[76.3921,29.4399],[76.2268,29.4558],[76.164,29.5091]],[[73.7511,33.2429],[73.6764,33.2314],[73.7133,33.1334],[73.6508,33.0953],[73.5121,33.0817],[73.579,33.0298],[73.5825,32.9577],[73.3148,32.7501],[73.2861,32.6859],[73.2129,32.6562],[73.1769,32.5286],[73.2454,32.4408],[73.251,32.3328],[73.1477,32.2749],[73.11,32.1833],[73.1359,32.094],[73.0945,32.0745],[73.0771,32.0016],[73.1425,31.9679],[73.1443,31.9319],[73.0938,31.885],[73.0093,31.8818],[72.8754,31.8136],[72.8891,31.5615],[72.8719,31.4886],[72.7927,31.3953],[72.8396,31.3069],[72.9484,31.2389],[72.9522,31.1669],[72.9961,31.1324],[73.0289,31.1066],[73.1328,31.1285],[73.1656,31.1026],[73.1364,31.0565],[73.0845,31.0455],[73.09,30.9375],[73.2382,30.9068],[73.23,30.8614],[73.1464,30.8583],[72.9377,30.643],[72.9822,30.5906],[72.9914,30.4105],[73.0466,30.3494],[73.1415,30.3258],[73.1766,30.2459],[73.3545,30.2252],[73.2277,30.0493],[73.0619,30.0432],[73.0114,30.0142],[73.0132,29.9782],[72.933,29.921],[72.9574,29.8497],[72.9187,29.7941],[73.0886,29.7103],[73.0921,29.6383],[73.1889,29.5606],[73.3358,29.5117],[73.5611,29.5556],[73.6505,29.6398],[73.717,29.7773],[73.8396,29.8173],[73.8788,29.8726],[73.9808,29.9119],[74.0708,29.9958],[74.0472,30.0673],[74.0859,30.1406],[74.1575,30.1698],[74.3068,30.3454],[74.2826,30.435],[74.3222,30.4902],[74.5267,30.604],[74.5443,30.6946],[74.5848,30.7318],[74.5823,30.8039],[74.6228,30.841],[74.6203,30.9131],[74.4699,31.0175],[74.4686,31.0535],[74.5816,31.1196],[74.7912,31.1248],[74.8422,31.1712],[74.8194,31.2248],[74.9924,31.4002],[75.0657,31.4108],[75.1045,31.5199],[75.0557,31.7354],[75.0745,31.808],[74.9335,31.9221],[74.8489,31.9201],[74.8356,32.0009],[74.9087,32.0297],[75.0575,32.0151],[75.1931,32.0811],[75.1377,32.1611],[75.0856,32.1329],[75.1263,32.188],[75.0403,32.2222],[75.124,32.2601],[74.9817,32.3922],[74.8967,32.3903],[74.8658,32.3625],[74.9743,32.2928],[74.9767,32.2207],[75.0203,32.1856],[74.9905,32.1218],[74.9058,32.1199],[74.8416,32.1364],[74.7858,32.2163],[74.8694,32.2543],[74.8258,32.2894],[74.8227,32.3795],[74.7055,32.3857],[74.6617,32.4207],[74.5156,32.3448],[74.4718,32.3797],[74.4314,32.3245],[74.3582,32.2955],[74.3617,32.2053],[74.3105,32.1588],[74.2367,32.1477],[74.2352,32.1838],[74.3178,32.2402],[74.293,32.3298],[74.3539,32.4036],[74.2037,32.4355],[74.2733,32.5547],[74.3482,32.5478],[74.2998,32.6908],[74.3836,32.7292],[74.2844,32.8077],[74.2306,32.8152],[74.2269,32.9053],[74.1613,32.9395],[74.1995,33.0489],[74.1559,33.0657],[74.1322,33.1191],[74.0569,33.1259],[73.9465,33.1948],[73.7742,33.2075],[73.7511,33.2429]],[[73.4484,30.445],[73.4534,30.3369],[73.5182,30.285],[73.4883,30.2569],[73.4243,30.2908],[73.342,30.2699],[73.287,30.3311],[73.3959,30.4522],[73.4484,30.445]],[[73.9882,31.509],[74.031,31.4922],[74.0224,31.4468],[73.9258,31.489],[73.9882,31.509]],[[74.3059,32.0053],[74.3285,31.9699],[74.2979,31.942],[74.2016,31.9663],[74.2315,32.0123],[74.3059,32.0053]],[[73.46,33.0528],[73.3958,33.0506],[73.3669,32.9865],[73.4208,32.9793],[73.472,33.0262],[73.46,33.0528]],[[73.517,33.1991],[73.4639,33.1883],[73.4777,33.1256],[73.5308,33.1364],[73.517,33.1991]],[[83.9981,34.0061],[83.8875,33.9749],[83.5211,34.0086],[83.3789,33.9873],[83.503,33.892],[83.5098,33.8285],[83.5746,33.8259],[83.5825,33.7804],[83.6971,33.7124],[83.7425,33.7466],[83.7617,33.7096],[83.8264,33.7068],[83.9269,33.5941],[83.9455,33.7106],[83.9935,33.7807],[83.9981,34.0061]],[[78.324,33.8693],[78.2376,33.8695],[78.2267,33.8244],[78.2807,33.8153],[78.324,33.8693]]]}}]}