{"type":"FeatureCollection","features":[{"type":"Feature","properties":{},"geometry":{"type":"MultiLineString","coordinates":[[[75.9653,29.1273],[75.7397,29.1056],[75.5176,28.9392],[75.394,28.9548],[75.3234,28.9083],[75.3248,28.8542],[75.2343,28.7891],[75.0189,28.7935],[75.0635,28.6681],[75.0445,28.6136],[75.192,28.4544],[75.174,28.3637],[75.3178,28.3307],[75.2077,28.2471],[75.0865,28.2084],[74.8776,28.0322],[74.9199,27.979],[74.8798,27.96],[74.8668,27.707],[74.9905,27.6377],[74.9925,27.5655],[75.0986,27.3873],[75.1286,27.397],[75.1705,27.3438],[75.2212,27.3358],[75.2325,27.2909],[75.3141,27.2565],[75.3945,27.2762],[75.5774,27.2255],[75.6083,27.199],[75.5687,27.1622],[75.6114,27.0546],[75.7228,27.0295],[75.8034,27.0309],[75.8331,27.0585],[75.831,27.1668],[75.7694,27.2199],[75.7675,27.3101],[75.8281,27.3111],[75.8398,27.2301],[75.9206,27.2314],[75.9089,27.3125],[76.0577,27.4682],[76.0982,27.4688],[76.1495,27.4244],[76.1507,27.3522],[76.2117,27.335],[76.1725,27.2622],[76.2041,27.1814],[76.4059,27.184],[76.4255,27.2204],[76.5162,27.2304],[76.404,27.3104],[76.3033,27.291],[76.2319,27.3352],[76.2706,27.4441],[76.2298,27.4616],[76.2187,27.5246],[76.0966,27.559],[76.0571,27.5043],[75.9164,27.448],[75.9051,27.511],[75.8341,27.5189],[75.8334,27.5549],[76.0358,27.5581],[76.1352,27.6679],[76.2574,27.6335],[76.3873,27.7524],[76.4063,27.8429],[76.4867,27.898],[76.496,27.9613],[76.557,27.962],[76.5981,27.9263],[76.6791,27.9452],[76.699,27.9815],[76.7604,27.946],[76.862,27.9469],[77.0041,27.9661],[77.0343,27.9934],[76.9525,28.047],[76.9111,28.1188],[76.9307,28.1912],[76.8075,28.2804],[76.8071,28.3164],[76.6744,28.3242],[76.6435,28.351],[76.6397,28.6397],[76.5155,28.7466],[76.515,28.7827],[76.5557,28.8012],[76.5246,28.8279],[76.3808,28.8443],[76.3696,28.9073],[76.2968,28.9696],[76.1528,28.9857],[76.0893,29.093],[75.9653,29.1273]],[[76.9887,27.4425],[76.7988,27.2333],[76.8094,27.1883],[77.0199,27.3435],[76.9887,27.4425]],[[76.4808,27.6001],[76.3187,27.5981],[76.3304,27.499],[76.5025,27.4921],[76.5115,27.5734],[76.4808,27.6001]],[[74.7595,28.2369],[74.7187,28.2359],[74.7099,28.1905],[74.6698,28.1715],[74.6633,28.054],[74.7754,28.0477],[74.7595,28.2369]],[[77.0777,28.851],[76.9862,28.7691],[77.0174,28.7242],[77.1297,28.7521],[77.1293,28.8062],[77.0777,28.851]],[[73.2222,29.2911],[73.0924,29.2051],[73.1862,29.1815],[73.2222,29.2911]],[[76.575,29.6224],[76.5139,29.5676],[76.4726,29.5672],[76.463,29.522],[76.3204,29.412],[76.352,29.3672],[76.4967,29.3329],[76.5682,29.3788],[76.5671,29.4509],[76.6894,29.5605],[76.575,29.6224]],[[75.253,30.3774],[75.0993,30.293],[75.1419,30.2578],[75.0918,30.1936],[75.0306,30.1561],[74.9886,30.1732],[74.9487,30.1182],[74.8663,30.0982],[74.7157,29.9412],[74.7175,29.8871],[74.6566,29.8495],[74.5982,29.7397],[74.6018,29.6316],[74.5423,29.5578],[74.5984,29.424],[74.7203,29.4812],[74.7398,29.5177],[74.8842,29.5212],[74.8714,29.6021],[74.9121,29.6211],[74.911,29.6572],[74.9412,29.685],[75.0037,29.6683],[75.1054,29.7247],[75.1886,29.7085],[75.4766,29.7684],[75.5712,29.7071],[75.5444,29.5351],[75.626,29.5727],[75.6884,29.5558],[75.7596,29.6021],[75.758,29.6743],[75.6952,29.7093],[75.6931,29.7995],[75.6298,29.8525],[75.6911,29.8896],[75.6674,30.0155],[75.6039,30.0685],[75.6026,30.1226],[75.4851,30.2558],[75.4015,30.2722],[75.253,30.3774]],[[73.2077,32.1417],[73.1046,32.0838],[73.0449,32.0095],[72.9925,31.9985],[72.9983,31.8904],[73.1077,31.8223],[73.1344,31.715],[73.0941,31.6775],[73.1812,31.6265],[73.2104,31.4652],[73.2753,31.4314],[73.2881,31.3867],[73.3511,31.389],[73.4059,31.3458],[73.2851,31.2333],[73.3498,31.1995],[73.2904,31.1252],[73.4288,31.0849],[73.5537,31.1072],[73.6183,31.0733],[73.796,31.088],[73.727,30.9866],[73.5604,30.9631],[73.501,30.8889],[73.4792,30.9062],[73.3972,30.8673],[73.3271,30.8017],[73.3932,30.7318],[73.3532,30.6943],[73.4183,30.6425],[73.4059,30.4616],[73.4509,30.391],[73.4135,30.2994],[73.4459,30.2735],[73.4974,30.2843],[73.4575,30.2468],[73.4625,30.1387],[73.528,30.0688],[73.4989,30.0227],[73.3745,30.0184],[73.2891,30.0695],[73.0844,30.0079],[73.078,29.9265],[73.1212,29.892],[73.0815,29.8544],[73.0851,29.7824],[73.1695,29.7494],[73.2525,29.5268],[73.4373,29.5514],[73.5627,29.5195],[73.5849,29.4842],[73.7292,29.4889],[73.7896,29.527],[73.8935,29.5122],[74.035,29.5887],[74.0536,29.6434],[74.1355,29.6639],[74.2461,29.7482],[74.222,29.8378],[74.4031,29.9872],[74.5179,30.2609],[74.68,30.3914],[74.718,30.5006],[74.6953,30.5542],[74.8282,30.6386],[74.8473,30.6932],[74.9816,30.7414],[74.9567,30.8671],[74.8289,30.9363],[74.8242,31.0805],[75.0928,31.213],[75.0884,31.3572],[75.1283,31.4303],[74.9913,31.4362],[74.9788,31.4991],[75.1644,31.6295],[75.2456,31.7394],[75.2213,31.8472],[75.134,31.9355],[75.2154,32.0455],[75.1823,32.0899],[75.1399,32.089],[75.1199,32.0525],[75.0352,32.0506],[74.9905,32.1218],[74.9058,32.1199],[74.8404,32.1725],[74.7768,32.1709],[74.631,32.0952],[74.4199,32.0716],[74.3776,32.0705],[74.3652,32.1152],[74.3119,32.1228],[74.3031,32.0774],[74.3469,32.0426],[74.2841,32.0228],[74.214,31.9216],[74.1484,31.9738],[73.9157,31.9669],[73.8546,31.9108],[73.6433,31.9041],[73.6238,31.8674],[73.5393,31.8646],[73.4953,31.8992],[73.3566,31.9215],[73.3963,31.977],[73.3486,32.0836],[73.2934,32.1267],[73.2077,32.1417]],[[73.435,29.831],[73.478,29.7964],[73.4689,29.769],[73.2621,29.7618],[73.2298,29.7877],[73.3225,29.8],[73.3622,29.8375],[73.435,29.831]],[[74.0986,31.386],[74.2066,31.3169],[74.1971,31.2896],[74.124,31.2784],[74.1674,31.2436],[74.158,31.2163],[74.0734,31.2318],[74.0175,31.3114],[74.0986,31.386]],[[73.7647,31.3216],[73.7873,31.2862],[73.757,31.2582],[73.6831,31.2648],[73.7118,31.3289],[73.7647,31.3216]],[[74.2829,31.5175],[74.3481,31.4652],[74.3386,31.4379],[74.2429,31.4623],[74.2408,31.5164],[74.2829,31.5175]],[[73.4401,31.5093],[73.4309,31.4819],[73.3779,31.4891],[73.4401,31.5093]],[[74.3736,31.8989],[74.3996,31.7734],[74.3064,31.7257],[74.222,31.7233],[74.1885,31.7675],[74.249,31.8414],[74.3204,31.9065],[74.3736,31.8989]],[[74.2282,33.1309],[74.1639,33.129],[74.0703,33.0632],[74.0101,32.9712],[74.0766,32.919],[74.0132,32.8991],[74.0053,32.8357],[73.9413,32.8338],[73.9216,32.7971],[73.8362,32.7944],[73.8165,32.7577],[73.7738,32.7564],[73.674,32.6088],[73.497,32.5218],[73.4793,32.449],[73.4376,32.4295],[73.4412,32.3575],[73.4014,32.3019],[73.4244,32.2667],[73.3829,32.2472],[73.4399,32.1679],[73.7578,32.1785],[73.819,32.2345],[73.8826,32.2365],[74.0153,32.1142],[74.0789,32.1161],[74.1299,32.1627],[74.1679,32.2721],[74.1399,32.4337],[74.2542,32.5001],[74.2733,32.5547],[74.3482,32.5478],[74.3453,32.6199],[74.302,32.6367],[74.2998,32.6908],[74.2329,32.7611],[74.2291,32.8512],[74.2711,32.8704],[74.3072,33.0338],[74.305,33.0879],[74.2511,33.0954],[74.2282,33.1309]],[[74.1566,32.5424],[74.1471,32.5151],[74.1148,32.5232],[74.1243,32.5505],[74.1566,32.5424]],[[73.9696,33.1594],[73.8419,33.1375],[73.6868,33.0152],[73.7663,32.9185],[73.851,32.9392],[73.9024,32.9859],[73.8983,33.076],[73.9815,33.1327],[73.9696,33.1594]],[[83.2389,34.0019],[83.1307,34.0061],[83.1173,33.9614],[83.1481,33.9332],[83.2346,33.9298],[83.2389,34.0019]]]}}]}