{"type":"FeatureCollection","features":[{"type":"Feature","properties":{},"geometry":{"type":"MultiLineString","coordinates":[[[73.8301,26.4233],[73.77,26.4214],[73.7416,26.3753],[73.8328,26.3511],[73.8301,26.4233]],[[76.4764,29.3146],[76.394,29.3136],[76.2923,29.2402],[76.1894,29.2388],[76.1493,29.1841],[76.0873,29.2013],[75.9851,29.1637],[75.9451,29.1089],[75.8215,29.125],[75.701,28.9966],[75.2443,28.7984],[75.2452,28.7623],[75.3281,28.7279],[75.3085,28.6914],[75.4126,28.6213],[75.467,28.487],[75.5491,28.4705],[75.6116,28.4175],[75.6933,28.419],[75.7045,28.374],[75.7761,28.3663],[75.7972,28.3305],[75.9088,28.3594],[75.8999,28.2961],[75.788,28.2852],[75.7895,28.2131],[75.6996,28.1303],[75.5355,28.1815],[75.3332,28.1234],[75.2134,28.0307],[75.151,28.0835],[75.0899,28.0821],[75.0413,27.9998],[75.0636,27.9281],[75.1048,27.911],[75.1067,27.8388],[75.2101,27.7689],[75.2751,27.6078],[75.3893,27.4927],[75.5318,27.4594],[75.594,27.3883],[75.6448,27.3802],[75.6764,27.3176],[75.7683,27.274],[75.8101,27.2025],[75.8123,27.0942],[75.8635,27.0499],[75.9137,27.0598],[75.9421,27.1595],[76.0228,27.1608],[76.1128,27.2072],[76.1119,27.2614],[76.1719,27.2983],[76.1501,27.3883],[76.2196,27.4705],[76.27,27.4802],[76.2283,27.5518],[76.3085,27.607],[76.2979,27.634],[76.2269,27.6421],[76.2662,27.7148],[76.2145,27.7773],[76.0931,27.7575],[76.0332,27.7025],[75.9109,27.7367],[75.8995,27.7997],[75.8586,27.8171],[75.876,27.9618],[75.9266,27.9716],[75.9886,27.9184],[76.1105,27.9202],[76.1933,27.8311],[76.2748,27.8142],[76.3357,27.815],[76.3554,27.8513],[76.5787,27.8539],[76.6282,27.9537],[76.6264,28.0981],[76.7075,28.117],[76.6865,28.1709],[76.625,28.2064],[76.7369,28.2165],[76.7772,28.253],[76.8486,28.2446],[76.7962,28.3795],[76.6224,28.4049],[76.6627,28.4414],[76.6616,28.5316],[76.6104,28.5401],[76.5993,28.6032],[76.5582,28.6208],[76.5986,28.6573],[76.5564,28.7471],[76.6689,28.7573],[76.7806,28.8396],[76.6362,28.9103],[76.635,29.0006],[76.5412,29.0988],[76.5002,29.0983],[76.45,29.0166],[76.3381,28.952],[76.2245,28.9957],[76.3465,29.0694],[76.3448,29.1777],[76.4876,29.2516],[76.4764,29.3146]],[[75.8028,27.5635],[75.7249,27.4177],[75.6745,27.4078],[75.6432,27.4524],[75.6821,27.5253],[75.7318,27.5713],[75.8028,27.5635]],[[76.1047,27.6765],[76.1458,27.641],[76.1362,27.6137],[76.0641,27.6759],[76.1047,27.6765]],[[76.0369,28.0545],[76.0279,27.9912],[75.9762,28.0356],[76.0369,28.0545]],[[76.0878,28.6148],[76.1294,28.5793],[76.1196,28.5521],[76.0175,28.5506],[75.9174,28.4408],[75.8454,28.4667],[75.9551,28.6038],[76.0878,28.6148]],[[77.1387,28.9056],[77.0977,28.9053],[77.0265,28.8416],[77.0991,28.7429],[77.1601,28.7974],[77.1809,28.7615],[77.2218,28.7617],[77.3342,28.8074],[77.3235,28.8705],[77.18,28.8697],[77.1387,28.9056]],[[74.8924,31.885],[74.829,31.8835],[74.8091,31.847],[74.7451,31.8634],[74.7162,31.7815],[74.6331,31.7434],[74.6574,31.6538],[74.7658,31.5663],[74.6956,31.4653],[74.5483,31.4616],[74.5394,31.4162],[74.4872,31.4058],[74.3766,31.5472],[74.1254,31.504],[73.9429,31.3362],[73.711,31.3469],[73.5874,31.2888],[73.579,31.2434],[73.3978,31.0748],[73.4683,30.9148],[73.511,30.8982],[73.4934,30.8255],[73.4324,30.7873],[73.5193,30.7181],[73.53,30.4839],[73.659,30.3979],[73.6645,30.2718],[73.7168,30.2645],[73.783,30.1764],[73.9198,30.1356],[73.9243,30.0274],[73.8351,29.9254],[73.7101,29.9395],[73.5476,29.8619],[73.4855,29.8598],[73.3763,29.7568],[73.3928,29.622],[73.4523,29.6782],[73.5556,29.6817],[73.6207,29.6117],[73.7873,29.581],[73.8515,29.5289],[73.9745,29.5508],[74.0798,29.4998],[74.2242,29.504],[74.3672,29.5441],[74.4072,29.5813],[74.5104,29.5841],[74.5805,29.6491],[74.5775,29.7392],[74.7275,29.8964],[74.8104,29.8984],[74.896,29.8102],[75.1447,29.7978],[75.4293,30.0021],[75.7182,30.0615],[75.6441,30.1234],[75.6844,30.1782],[75.6827,30.2503],[75.7336,30.2963],[75.9616,30.3361],[76.0126,30.382],[75.9805,30.4266],[75.9392,30.4079],[75.7486,30.5492],[75.5633,30.4557],[75.3556,30.4337],[75.3043,30.4056],[75.326,30.3699],[75.2956,30.3422],[75.1713,30.3216],[75.0071,30.2458],[74.9566,30.1996],[74.9582,30.1455],[74.8864,30.1167],[74.8775,30.0714],[74.7465,29.951],[74.6737,29.9582],[74.7323,30.0679],[74.7299,30.14],[74.791,30.1776],[74.8291,30.2868],[74.9105,30.3428],[74.9089,30.3969],[75.1127,30.5459],[75.1293,30.6906],[75.0967,30.735],[75.0126,30.7511],[75.0008,30.796],[75.0527,30.8062],[75.1133,30.8797],[75.3214,30.9201],[75.391,31.0568],[75.2412,31.162],[75.2765,31.3973],[75.1687,31.4852],[75.3145,31.5424],[75.313,31.5965],[75.3963,31.6342],[75.4149,31.7248],[75.3182,31.786],[75.1493,31.7825],[75.1081,31.7455],[75.0637,31.8167],[74.8924,31.885]],[[74.8356,29.7547],[74.7736,29.7532],[74.744,29.7073],[74.7966,29.6815],[74.8356,29.7547]],[[75.0652,30.0396],[75.1072,30.0225],[75.0976,29.9952],[75.0041,30.0022],[75.0338,30.0479],[75.0652,30.0396]],[[73.8043,32.0897],[73.6383,32.0122],[73.5096,32.044],[73.5012,31.9986],[73.5452,31.964],[73.4835,31.9258],[73.5917,31.8753],[73.6398,31.7506],[73.6314,31.7052],[73.4939,31.7097],[73.5192,31.6203],[73.6178,31.5424],[73.7425,31.5825],[73.7263,31.4737],[73.8946,31.479],[74.0709,31.5475],[74.0592,31.5742],[73.9118,31.5698],[73.847,31.6039],[73.8657,31.6586],[74.0133,31.6631],[74.0781,31.6289],[74.1594,31.7035],[74.2838,31.7611],[74.452,31.7838],[74.5031,31.8302],[74.48,31.8838],[74.5394,31.9936],[74.4848,32.0372],[74.381,31.9803],[74.3162,32.0146],[74.1265,31.9912],[74.1016,32.0807],[74.0168,32.0782],[73.9659,32.0315],[73.9494,31.9228],[73.9924,31.906],[73.9838,31.8607],[73.94,31.8954],[73.8148,31.8555],[73.7567,31.9709],[73.86,32.0283],[73.8584,32.0643],[73.8043,32.0897]],[[73.7843,31.8274],[73.775,31.8001],[73.7429,31.8081],[73.7522,31.8354],[73.7843,31.8274]],[[73.6095,31.9481],[73.6002,31.9207],[73.568,31.9287],[73.5773,31.956],[73.6095,31.9481]],[[74.074,31.9807],[74.0653,31.9353],[74.0113,31.9607],[74.074,31.9807]],[[74.6336,32.0231],[74.6144,31.9684],[74.6458,31.9783],[74.6336,32.0231]],[[74.1833,32.1552],[74.1519,32.1453],[74.1541,32.0913],[74.2505,32.0669],[74.2593,32.1123],[74.1833,32.1552]],[[74.1167,32.7307],[73.8989,32.5889],[73.932,32.5628],[73.973,32.6001],[74.0164,32.5834],[74.0984,32.658],[74.1411,32.6592],[74.1498,32.7046],[74.1167,32.7307]],[[73.8592,32.759],[73.7866,32.7117],[73.8001,32.6489],[73.8735,32.6783],[73.8592,32.759]]]}}]}