{"type":"FeatureCollection","features":[{"type":"Feature","properties":{},"geometry":{"type":"MultiLineString","coordinates":[[[74.0943,26.323],[73.9865,26.2566],[74.0181,26.2124],[74.0865,26.2596],[74.0943,26.323]],[[76.6957,28.2522],[76.6151,28.1792],[76.4522,28.1774],[76.4324,28.1411],[76.1684,28.1016],[76.1396,28.0019],[76.2309,28.0122],[76.2822,27.9858],[76.3034,27.9319],[76.2733,27.9044],[76.0499,27.9013],[75.8397,27.7446],[75.8408,27.6905],[75.801,27.6537],[75.8054,27.4371],[75.8873,27.3843],[75.9196,27.2855],[76.0215,27.2329],[76.1019,27.2522],[76.241,27.3985],[76.2914,27.4082],[76.3301,27.5171],[76.3809,27.5087],[76.4308,27.5544],[76.4092,27.6444],[76.3684,27.662],[76.4084,27.6985],[76.3668,27.7702],[76.4168,27.816],[76.5188,27.7811],[76.5283,27.8263],[76.5888,27.8631],[76.5883,27.8992],[76.506,27.9704],[76.505,28.0426],[76.5962,28.0707],[76.6767,28.1437],[76.7478,28.1535],[76.7472,28.2076],[76.6957,28.2522]],[[75.7414,28.0769],[75.6397,28.0751],[75.6102,28.0294],[75.7426,28.0227],[75.7414,28.0769]],[[75.9035,28.1157],[75.8424,28.1147],[75.8332,28.0694],[75.9045,28.0615],[75.9035,28.1157]],[[77.1011,28.5083],[77.03,28.4627],[77.0611,28.4178],[77.1321,28.4634],[77.1011,28.5083]],[[76.1986,28.7156],[76.0872,28.6509],[76.1995,28.6615],[76.1986,28.7156]],[[77.2423,28.7618],[77.1711,28.6982],[77.2022,28.6533],[77.2732,28.7349],[77.2423,28.7618]],[[76.4355,29.2961],[76.312,29.2946],[76.2303,29.2574],[76.161,29.1031],[76.0489,29.0564],[76.0297,28.9839],[76.0078,29.0557],[75.9051,29.0541],[75.6603,28.9779],[75.6302,28.9502],[75.6728,28.8788],[75.6532,28.8424],[76.014,28.731],[76.1652,28.8685],[76.1844,28.941],[76.337,29.0242],[76.4887,29.1794],[76.4355,29.2961]],[[76.5623,29.0629],[76.5017,28.9901],[76.4506,28.9805],[76.4615,28.9355],[76.5025,28.936],[76.5225,28.9723],[76.564,28.9366],[76.6768,28.9468],[76.6756,29.0371],[76.5623,29.0629]],[[74.5543,31.8767],[74.4711,31.8384],[74.3655,31.8356],[74.222,31.7233],[74.1361,31.7569],[74.0095,31.7532],[73.9688,31.7159],[73.8423,31.712],[73.8228,31.6753],[73.7494,31.6639],[73.6911,31.5538],[73.7777,31.5024],[73.7801,31.4484],[73.8464,31.3783],[73.7732,31.367],[73.7647,31.3216],[73.7126,31.3109],[73.6428,31.2274],[73.6365,30.9024],[73.5586,30.7735],[73.5876,30.5941],[73.6958,30.5074],[73.7198,30.436],[73.7946,30.3933],[73.9841,30.345],[74.1089,30.3488],[74.149,30.386],[74.3168,30.3547],[74.3558,30.428],[74.4504,30.4035],[74.453,30.3314],[74.3712,30.2931],[74.3028,30.1739],[74.0945,30.186],[74.0644,30.158],[74.1502,30.0883],[74.1008,30.0237],[73.995,30.0747],[73.912,30.0722],[73.6655,30.0102],[73.5352,29.9066],[73.5468,29.8799],[73.6909,29.9028],[73.7239,29.8587],[73.6634,29.8206],[73.7813,29.7252],[73.8433,29.7272],[73.8655,29.6918],[73.9916,29.6415],[74.1169,29.6092],[74.2821,29.6139],[74.3247,29.579],[74.5311,29.5846],[74.7753,29.6991],[74.8379,29.6825],[74.9194,29.7205],[74.9989,29.8306],[75.1427,29.8699],[75.1507,29.9513],[75.2412,30.0524],[75.3242,30.0541],[75.4052,30.1279],[75.5695,30.2032],[75.5788,30.2485],[75.6403,30.2857],[75.675,30.575],[75.7261,30.621],[75.8717,30.6414],[75.998,30.5893],[76.0196,30.5535],[76.0613,30.5541],[76.1122,30.618],[75.9965,30.6614],[75.9749,30.6972],[75.7453,30.6935],[75.6423,30.6375],[75.4967,30.6168],[75.3531,30.5238],[75.2906,30.5226],[75.3192,30.6224],[75.4614,30.7695],[75.4591,30.8597],[75.5,30.8965],[75.4986,30.9506],[75.4558,30.9859],[75.5167,31.0592],[75.7776,31.1089],[75.8697,31.2097],[75.817,31.2179],[75.7138,31.1439],[75.5041,31.1402],[75.472,31.1666],[75.4667,31.365],[75.4345,31.3914],[75.2894,31.3164],[75.256,31.3788],[75.1488,31.4487],[75.1466,31.5209],[75.0197,31.5361],[74.9947,31.6618],[74.8887,31.6774],[74.8857,31.7676],[74.8091,31.847],[74.6618,31.8253],[74.5543,31.8767]],[[75.0615,30.1658],[75.0115,30.1016],[74.9998,30.1464],[75.0615,30.1658]],[[74.5362,30.3336],[74.5583,30.2981],[74.4865,30.2691],[74.4745,30.3139],[74.5362,30.3336]],[[75.1596,30.3665],[75.1814,30.3308],[75.11,30.2842],[75.0972,30.3651],[75.1596,30.3665]],[[75.0272,30.6161],[74.9973,30.5704],[74.9556,30.5694],[74.9229,30.6138],[75.0272,30.6161]],[[75.3661,31.2006],[75.3778,31.1558],[75.3246,31.1818],[75.3344,31.209],[75.3661,31.2006]],[[74.3733,32.1786],[74.1621,32.1546],[74.1549,32.0732],[74.314,32.0687],[74.3797,32.0164],[74.4821,32.1093],[74.5347,32.1197],[74.439,32.1262],[74.3733,32.1786]],[[73.9274,32.1837],[73.896,32.1738],[73.9196,32.1204],[73.9964,32.0595],[74.0388,32.0608],[73.9274,32.1837]],[[74.6444,32.312],[74.5505,32.2645],[74.5525,32.2104],[74.6258,32.2394],[74.7132,32.1694],[74.7209,32.2508],[74.6444,32.312]]]}}]}