{"type":"FeatureCollection","features":[{"type":"Feature","properties":{},"geometry":{"type":"MultiLineString","coordinates":[[[76.4014,27.4909],[76.0882,27.4596],[76.0892,27.4055],[76.1501,27.3883],[76.1523,27.2619],[76.183,27.2353],[76.3038,27.2549],[76.3736,27.319],[76.4129,27.3917],[76.4014,27.4909]],[[76.332,28.0496],[76.21,28.048],[76.1089,28.0105],[75.9594,27.8548],[76.0519,27.793],[76.1127,27.7939],[76.1951,27.7229],[76.4058,27.879],[76.405,27.9332],[76.332,28.0496]],[[76.5453,28.8101],[76.4538,28.764],[76.4647,28.719],[76.5562,28.7651],[76.5453,28.8101]],[[76.869,29.1922],[76.7662,29.1913],[76.7264,29.0827],[76.4801,29.062],[76.369,28.9434],[76.4002,28.9167],[76.5435,28.9364],[76.6056,28.901],[76.7687,28.9748],[76.8924,28.9218],[76.9538,28.9403],[76.9222,29.0213],[77.0036,29.0941],[76.9314,29.1206],[76.869,29.1922]],[[76.2705,29.3121],[76.1882,29.311],[76.0761,29.2462],[76.1281,29.2199],[76.2512,29.2396],[76.2816,29.2671],[76.2705,29.3121]],[[75.2949,29.6024],[75.2641,29.5928],[75.2958,29.5664],[75.2949,29.6024]],[[75.4587,29.6598],[75.4279,29.6502],[75.4389,29.6234],[75.4697,29.633],[75.4587,29.6598]],[[74.9893,32.1579],[74.7575,32.1163],[74.5503,31.9848],[74.4438,32.0001],[74.2701,31.842],[74.2722,31.7879],[74.1805,31.7041],[74.0962,31.7016],[74.0766,31.665],[74.0126,31.6811],[73.9032,31.5244],[73.9274,31.453],[73.8495,31.3062],[73.9024,31.2989],[73.9576,31.2374],[73.8992,31.1273],[73.9007,31.0913],[73.9659,31.0392],[73.9681,30.9851],[73.872,31.0273],[73.7403,30.9239],[73.7635,30.8705],[73.7233,30.8331],[73.7312,30.6529],[73.9961,30.5619],[74.1398,30.6203],[74.1593,30.657],[74.411,30.628],[74.4514,30.6651],[74.722,30.6901],[74.7555,30.6278],[74.8829,30.5587],[74.8858,30.4686],[74.8453,30.4315],[74.8892,30.3604],[74.7982,30.277],[74.7151,30.275],[74.6824,30.3193],[74.6996,30.428],[74.6252,30.4712],[74.5444,30.3969],[74.0493,30.2748],[73.9257,29.9914],[73.9401,29.8926],[74.2694,29.9564],[74.5857,29.8026],[74.8193,29.9437],[74.8176,29.9978],[74.7335,30.0318],[74.7827,30.1143],[74.8354,30.0885],[74.817,30.0158],[74.8512,29.9174],[74.9548,29.9198],[75.0147,29.9934],[75.0769,29.9948],[75.0987,29.9592],[75.2716,30.0801],[75.1866,30.1505],[75.3082,30.2613],[75.2854,30.333],[75.3357,30.3972],[75.4823,30.364],[75.7111,30.3681],[75.7201,30.4314],[75.8234,30.4692],[75.7911,30.5138],[75.6147,30.4837],[75.6325,30.6103],[75.7142,30.6839],[75.6895,30.8458],[75.7296,30.9187],[75.7916,30.9558],[75.7899,31.028],[75.8314,31.0467],[75.8306,31.0828],[76.0568,31.3028],[76.004,31.311],[75.9418,31.274],[75.92,31.3097],[75.7507,31.3611],[75.52,31.3389],[75.4999,31.3025],[75.3934,31.3545],[75.2058,31.2966],[75.152,31.3406],[75.1709,31.4131],[75.2329,31.4505],[75.1855,31.6299],[75.2018,31.7927],[75.2847,31.8485],[75.2836,31.8846],[75.2305,31.8925],[75.2105,31.856],[75.094,31.8625],[75.1037,31.8898],[75.1774,31.9004],[75.1953,32.009],[75.1399,32.089],[75.0976,32.0881],[75.0753,32.1237],[75.034,32.0867],[74.9893,32.1579]],[[75.0838,30.8159],[75.1052,30.7983],[75.064,30.7793],[75.0656,30.7253],[75.1502,30.691],[75.109,30.6721],[75.0908,30.5815],[75.039,30.5713],[74.9956,30.6245],[74.9218,30.6498],[74.8992,30.7034],[74.99,30.8048],[75.0838,30.8159]],[[75.9925,30.8598],[75.9506,30.8592],[75.8788,30.7949],[75.9324,30.7326],[76.0042,30.7968],[75.9925,30.8598]],[[75.0139,31.0489],[75.0591,30.9416],[74.9867,30.9129],[74.9516,31.0294],[75.0139,31.0489]],[[76.1297,31.3309],[76.0778,31.3031],[76.0888,31.2762],[76.1411,31.2859],[76.1297,31.3309]],[[75.5743,31.6827],[75.4688,31.6807],[75.3983,31.5621],[75.4306,31.5357],[75.4937,31.5369],[75.5139,31.5733],[75.6196,31.5572],[75.6286,31.6205],[75.5743,31.6827]],[[72.9417,32.3484],[72.9103,32.3382],[72.9224,32.3116],[72.9538,32.3218],[72.9417,32.3484]]]}}]}