{"type":"FeatureCollection","features":[{"type":"Feature","properties":{},"geometry":{"type":"MultiLineString","coordinates":[[[77.1334,29.5371],[77.0098,29.5182],[76.9382,29.4545],[76.9592,29.4185],[76.8062,29.2819],[76.7038,29.2449],[76.6941,29.1996],[76.8684,29.2464],[76.9714,29.2292],[76.982,29.2022],[76.9207,29.1656],[76.9218,29.0573],[77.0045,29.0039],[77.0358,28.9409],[77.0974,28.9414],[77.1287,28.8784],[77.1802,28.8517],[77.313,28.9156],[77.2913,29.0779],[77.3725,29.2407],[77.2183,29.2309],[77.1863,29.366],[77.1142,29.3746],[77.0623,29.4193],[77.1444,29.4559],[77.1334,29.5371]],[[74.7465,30.5825],[74.6239,30.5072],[74.4156,30.5018],[74.3974,30.4291],[74.3135,30.4448],[74.19,30.4053],[74.1397,30.3587],[74.1733,30.2965],[74.2565,30.2989],[74.3309,30.2559],[74.2948,30.1105],[74.3703,30.0314],[74.5582,30.0003],[74.6191,30.038],[74.8881,30.0626],[75.1419,30.2578],[75.0577,30.2921],[75.0764,30.3646],[75.0028,30.3901],[74.9589,30.4612],[74.8965,30.4598],[74.7465,30.5825]],[[75.1713,30.3216],[75.1622,30.2763],[75.1936,30.2679],[75.1713,30.3216]],[[75.4809,30.4181],[75.4185,30.4169],[75.4088,30.3896],[75.4818,30.382],[75.4809,30.4181]],[[75.3914,30.6509],[75.3289,30.6496],[75.3192,30.6224],[75.372,30.5964],[75.3914,30.6509]],[[76.2736,31.5132],[76.1266,31.4932],[76.0855,31.4385],[75.8962,31.4356],[75.8129,31.3982],[75.8689,31.2458],[75.6697,31.2334],[75.5675,31.1233],[75.431,31.1298],[75.43,31.1658],[75.4925,31.1851],[75.4896,31.2932],[75.3944,31.3185],[75.3651,31.2367],[75.392,31.0207],[75.4655,31.0131],[75.4776,30.9502],[75.3745,30.8941],[75.3754,30.858],[75.6401,30.7277],[75.7862,30.7302],[75.8272,30.767],[75.8702,30.7136],[75.8773,30.867],[76.0321,30.9686],[76.0416,31.0139],[75.6963,30.9993],[75.7262,31.063],[75.704,31.1167],[76.4239,31.3347],[76.4535,31.4523],[76.2736,31.5132]],[[74.994,32.0136],[74.9781,31.8509],[74.925,31.8587],[74.9226,31.9308],[74.89,31.9571],[74.7849,31.9366],[74.7028,31.8624],[74.6394,31.8608],[74.5167,31.7494],[74.4112,31.7466],[74.2386,31.5704],[74.2625,31.4989],[74.2335,31.435],[74.0971,31.422],[74.0986,31.386],[74.1848,31.3343],[74.166,31.2797],[74.2318,31.2094],[74.2368,31.0832],[74.1573,30.9727],[74.1709,30.8919],[74.2532,30.9303],[74.484,30.9186],[74.5239,30.9738],[74.5671,30.9388],[74.6507,30.941],[74.7218,31.0059],[74.7105,31.0327],[74.5429,31.0284],[74.4686,31.0535],[74.6852,31.1583],[74.8128,31.1073],[74.9068,31.1186],[74.8769,31.0728],[74.8248,31.0625],[74.817,30.9811],[75.0054,30.9855],[75.036,31.0133],[75.0122,31.1029],[75.0746,31.1224],[74.989,31.1746],[75.0928,31.213],[75.1294,31.3942],[75.0345,31.4011],[74.9936,31.3641],[75.0009,31.4635],[74.9577,31.4986],[75.2266,31.6669],[75.2878,31.7403],[75.3259,31.8854],[75.2717,31.9294],[75.1449,31.9268],[75.1248,31.8902],[75.0826,31.8893],[75.07,31.9522],[75.0169,31.96],[74.994,32.0136]],[[75.2903,32.02],[75.2056,32.0183],[75.1964,31.973],[75.2918,31.9659],[75.2903,32.02]],[[82.7837,34.0008],[82.5561,33.9998],[82.6078,33.9529],[82.7817,33.9648],[82.7837,34.0008]]]}}]}