{"type":"FeatureCollection","features":[{"type":"Feature","properties":{},"geometry":{"type":"MultiLineString","coordinates":[[[77.67,29.5034],[77.4844,29.4848],[77.4332,29.4214],[77.4334,29.3853],[77.5884,29.2686],[77.7835,29.4585],[77.67,29.5034]],[[77.176,29.375],[77.1041,29.3474],[77.1352,29.3206],[77.1865,29.348],[77.176,29.375]],[[77.2364,29.5558],[77.1539,29.5552],[77.1235,29.4919],[77.1957,29.4833],[77.2469,29.5287],[77.2364,29.5558]],[[77.4425,29.6109],[77.3909,29.6017],[77.4015,29.5566],[77.4737,29.5659],[77.4425,29.6109]],[[75.1941,30.2499],[75.0498,30.2107],[74.9386,30.1089],[74.9403,30.0548],[74.9929,30.029],[75.053,30.1025],[75.1759,30.1593],[75.2063,30.187],[75.1941,30.2499]],[[75.7964,30.2794],[75.7658,30.2518],[75.7976,30.2252],[75.8282,30.2528],[75.7964,30.2794]],[[75.2946,30.3783],[75.2636,30.3686],[75.2748,30.3418],[75.3057,30.3515],[75.2946,30.3783]],[[75.3924,30.6148],[75.3202,30.5863],[75.3938,30.5607],[75.4244,30.5884],[75.3924,30.6148]],[[75.4754,30.6345],[75.4443,30.6248],[75.4554,30.598],[75.4754,30.6345]],[[75.4075,30.8316],[75.2821,30.8291],[75.2525,30.7653],[75.2846,30.7389],[75.389,30.741],[75.4405,30.7691],[75.4075,30.8316]],[[76.1133,31.0961],[75.8832,31.0746],[75.8741,31.0113],[75.9898,30.986],[76.01,31.0224],[76.053,30.9689],[76.1158,30.9699],[76.1133,31.0961]],[[74.755,31.575],[74.6707,31.5729],[74.5828,31.3813],[74.4376,31.3233],[74.439,31.2873],[74.378,31.2315],[74.4125,31.1512],[74.4315,31.2059],[74.5568,31.2272],[74.5962,31.3004],[74.8038,31.3777],[74.9515,31.3632],[75.0345,31.4011],[75.0436,31.4464],[75.1056,31.4839],[75.0937,31.5287],[74.9457,31.5435],[74.8411,31.523],[74.7389,31.4303],[74.7064,31.4566],[74.755,31.575]],[[76.9677,31.5745],[76.8413,31.5735],[76.8207,31.5372],[76.7152,31.5543],[76.705,31.5271],[76.7793,31.4827],[76.9677,31.5745]]]}}]}