{"type":"FeatureCollection","features":[{"type":"Feature","properties":{},"geometry":{"type":"MultiLineString","coordinates":[[[74.2805,26.1478],[74.2005,26.1455],[74.1327,26.0803],[74.1152,26.0076],[74.3251,26.0046],[74.3325,26.0861],[74.2805,26.1478]],[[74.0181,26.2124],[73.8794,26.172],[73.8524,26.0899],[73.9432,26.0656],[74.0412,26.1228],[74.0181,26.2124]],[[73.6132,26.3259],[73.6049,26.2805],[73.6353,26.2725],[73.6132,26.3259]],[[76.2791,32.3612],[76.2269,32.3154],[76.2599,32.2527],[76.3118,32.3165],[76.2791,32.3612]]]}}]}