{"type":"FeatureCollection","features":[{"type":"Feature","properties":{},"geometry":{"type":"MultiLineString","coordinates":[[[74.2181,26.2183],[74.0297,26.1676],[74.0309,26.1315],[73.9916,26.1122],[74.0057,25.9953],[74.5949,26.0028],[74.5928,26.075],[74.562,26.1013],[74.4821,26.0992],[74.4204,26.1517],[74.4016,26.1151],[74.2411,26.1287],[74.2102,26.1549],[74.2181,26.2183]],[[73.8361,26.2609],[73.7961,26.2597],[73.7677,26.2136],[73.8207,26.134],[73.929,26.1826],[73.9071,26.2361],[73.8361,26.2609]],[[76.8565,32.0607],[76.7294,32.0596],[76.6774,31.9959],[76.7307,31.9694],[76.8574,31.9886],[76.8565,32.0607]],[[76.6999,32.6546],[76.4238,32.5975],[76.2569,32.415],[76.1502,32.4316],[76.0991,32.3317],[76.1315,32.3051],[76.2377,32.3065],[76.2808,32.271],[76.4718,32.2733],[76.4817,32.3186],[76.6389,32.4556],[76.7453,32.4566],[76.7768,32.484],[76.7971,32.5563],[76.6999,32.6546]]]}}]}