{"type":"FeatureCollection","features":[{"type":"Feature","properties":{},"geometry":{"type":"MultiLineString","coordinates":[[[74.4216,26.1156],[74.3816,26.1145],[74.2749,26.0122],[74.5949,26.0028],[74.5831,26.0657],[74.5032,26.0636],[74.4216,26.1156]],[[74.1618,26.1083],[74.0032,26.0674],[73.9754,26.0034],[74.2253,26.0018],[74.2344,26.0291],[74.1733,26.0635],[74.1618,26.1083]],[[76.8335,32.2048],[76.707,32.1495],[76.6759,32.1041],[76.708,32.0774],[76.8349,32.0966],[76.8873,32.1422],[76.8869,32.1782],[76.8335,32.2048]],[[76.9329,32.783],[76.7411,32.7632],[76.6139,32.7079],[76.4006,32.7055],[76.359,32.6509],[76.1683,32.5942],[76.0756,32.4396],[76.3422,32.3981],[76.3536,32.3531],[76.4072,32.3267],[76.5544,32.4186],[76.5661,32.3556],[76.4927,32.2916],[76.4291,32.2909],[76.3986,32.2093],[76.473,32.2012],[76.5148,32.2377],[76.6419,32.2571],[76.821,32.3581],[76.8408,32.4665],[76.9883,32.594],[76.881,32.6653],[76.9232,32.7017],[76.9329,32.783]]]}}]}