{"type":"FeatureCollection","features":[{"type":"Feature","properties":{},"geometry":{"type":"MultiLineString","coordinates":[[[76.5349,32.3101],[76.45,32.3092],[76.3771,32.2271],[76.4094,32.2004],[76.4939,32.2195],[76.5459,32.2832],[76.5349,32.3101]],[[76.5556,32.3464],[76.5454,32.3193],[76.5774,32.3106],[76.5556,32.3464]],[[76.6828,32.3658],[76.63,32.3382],[76.6411,32.3113],[76.694,32.3208],[76.6828,32.3658]],[[76.8098,32.4031],[76.746,32.4025],[76.736,32.3573],[76.7892,32.3488],[76.8098,32.4031]],[[76.915,32.4942],[76.8408,32.4665],[76.8733,32.4217],[76.9261,32.4492],[76.915,32.4942]],[[76.1036,32.6294],[76.03,32.5833],[76.0412,32.5564],[76.1264,32.5576],[76.1578,32.5851],[76.1036,32.6294]],[[76.7391,32.9076],[76.6547,32.8346],[76.5265,32.8332],[76.4424,32.7601],[76.3997,32.7596],[76.3898,32.7144],[76.4334,32.6608],[76.6363,32.6359],[76.7631,32.7093],[76.8698,32.7103],[76.9439,32.756],[76.8677,32.8726],[76.7609,32.8717],[76.7391,32.9076]]]}}]}